,TRIFD,FACILITY NAME,PRIMARY NAICS,NAICS 2,NAICS 3,NAICS 4,NAICS 5,NAICS 6,PARENT CO NAME,FRS ID,FRS_ID,FacilityName,Address,City,State,Zip,Latitude,Longitude,County,NAICS,SIC,FacilityID,Source,_merge
0,68801PLTTG1035W,PLATTE GENERATING STATION,221112,issues,issues,issues,issues,issues,CITY OF GRAND ISLAND,110000448249,issues,issues,issues,issues,issues,issues,issues,issues,issues,issues,issues,issues,issues,left_only
5,59323MNTNPWILLO,COLSTRIP STEAM ELECTRIC STATION,221112,issues,issues,issues,issues,issues,issues,110041982520,issues,issues,issues,issues,issues,issues,issues,issues,issues,issues,issues,issues,issues,left_only
32,34428FLRDP15760,DUKE ENERGY FLORIDA LLC-CRYSTAL RIVER POWER PLANT,221112,221113.0,issues,issues,issues,issues,DUKE ENERGY CORP,110017431215,issues,issues,issues,issues,issues,issues,issues,issues,issues,issues,issues,issues,issues,left_only
53,82637PCFCR1591T,PACIFICORP DAVE JOHNSTON PLANT,221112,issues,issues,issues,issues,issues,BERKSHIRE HATHAWAY INC,110013320245,issues,issues,issues,issues,issues,issues,issues,issues,issues,issues,issues,issues,issues,left_only
67,47670PSNRGHWY64,DUKE ENERGY INDIANA INC. - GIBSON GENERATING STATION,221112,issues,issues,issues,issues,issues,DUKE ENERGY CORP,110000592813,issues,issues,issues,issues,issues,issues,issues,issues,issues,issues,issues,issues,issues,left_only
91,62959STHRN11543,SOUTHERN ILLINOIS POWER COOPERATIVE,221112,issues,issues,issues,issues,issues,issues,110017420049,issues,issues,issues,issues,issues,issues,issues,issues,issues,issues,issues,issues,issues,left_only
107,48161DTRTD3500E,DTE ELECTRIC CO - MONROE POWER PLANT,221112,issues,issues,issues,issues,issues,DTE ENERGY CO,110000405927,issues,issues,issues,issues,issues,issues,issues,issues,issues,issues,issues,issues,issues,left_only
125,23692YRKTW1600W,YORKTOWN POWER STATION,221112,issues,issues,issues,issues,issues,DOMINION ENERGY INC,110000342371,issues,issues,issues,issues,issues,issues,issues,issues,issues,issues,issues,issues,issues,left_only
135,76629TXSNWHWY6X,TWIN OAKS,221112,issues,issues,issues,issues,issues,MAJOR OAK POWER LLC,110015666144,issues,issues,issues,issues,issues,issues,issues,issues,issues,issues,issues,issues,issues,left_only
147,54806NRTHR122N1,XCEL ENERGY BAY FRONT PLANT,221112,issues,issues,issues,issues,issues,XCEL ENERGY,110000422846,issues,issues,issues,issues,issues,issues,issues,issues,issues,issues,issues,issues,issues,left_only
156,28682DKNRG8320E,DUKE ENERGY CAROLINAS LLC - MARSHALL STEAM STATION,221112,issues,issues,issues,issues,issues,DUKE ENERGY CORP,110000351397,issues,issues,issues,issues,issues,issues,issues,issues,issues,issues,issues,issues,issues,left_only
177,26134PLSNTNO1PO,PLEASANTS/WILLOW ISLAND POWER STATIONS,221112,issues,issues,issues,issues,issues,ENERGY HARBOR LLC,110038775536,issues,issues,issues,issues,issues,issues,issues,issues,issues,issues,issues,issues,issues,left_only
194,15944CNMGHRTE20,CONEMAUGH GENERATING STATION,221112,issues,issues,issues,issues,issues,KEYSTONE-CONEMAUGH PROJECTS LLC,110000538801,issues,issues,issues,issues,issues,issues,issues,issues,issues,issues,issues,issues,issues,left_only
212,36548CHRLSCARSO,CHARLES R LOWMAN POWER PLANT,221112,issues,issues,issues,issues,issues,POWERSOUTH ENERGY COOPERATIVE,110056968278,issues,issues,issues,issues,issues,issues,issues,issues,issues,issues,issues,issues,issues,left_only
227,48054DTRTD4505K,DTE ELECTRIC CO-BELLE RIVER POWER PLANT,221112,issues,issues,issues,issues,issues,DTE ENERGY CO,110017414038,issues,issues,issues,issues,issues,issues,issues,issues,issues,issues,issues,issues,issues,left_only
255,80723PBLCS14940,PUBLIC SERVICE CO OF COLORADO PAWNEE STATION,221112,issues,issues,issues,issues,issues,XCEL ENERGY,110000600234,issues,issues,issues,issues,issues,issues,issues,issues,issues,issues,issues,issues,issues,left_only
269,61607DDWRD7800S,EDWARDS POWER STATION,221112,issues,issues,issues,issues,issues,VISTRA CORP.,110000438125,issues,issues,issues,issues,issues,issues,issues,issues,issues,issues,issues,issues,issues,left_only
284,72734FLNTC21797,AMERICAN ELECTRIC POWER FLINT CREEK PLANT,221112,issues,issues,issues,issues,issues,AMERICAN ELECTRIC POWER,110000452910,issues,issues,issues,issues,issues,issues,issues,issues,issues,issues,issues,issues,issues,left_only
329,5579WVRGNP6182N,VIRGINIA PUBLIC UTILITIES,221112,issues,issues,issues,issues,issues,issues,110001442341,issues,issues,issues,issues,issues,issues,issues,issues,issues,issues,issues,issues,issues,left_only
333,47250CLFTY1335C,CLIFTY CREEK STATION,221112,issues,issues,issues,issues,issues,OHIO VALLEY ELECTRIC CORP,110000402314,issues,issues,issues,issues,issues,issues,issues,issues,issues,issues,issues,issues,issues,left_only
349,8982WNWMNT91DUN,NEVADA GOLD ENERGY LLC,221112,issues,issues,issues,issues,issues,NEVADA GOLD MINES LLC,110039075675,issues,issues,issues,issues,issues,issues,issues,issues,issues,issues,issues,issues,issues,left_only
378,47928PSCYG3300N,DUKE ENERGY INDIANA INC. - CAYUGA GENERATING STATION,221112,issues,issues,issues,issues,issues,DUKE ENERGY CORP,110000404349,issues,issues,issues,issues,issues,issues,issues,issues,issues,issues,issues,issues,issues,left_only
407,63386SXPWR8501N,AMEREN MISSOURI SIOUX ENERGY CENTER,221112,issues,issues,issues,issues,issues,AMEREN CORP,110064610292,issues,issues,issues,issues,issues,issues,issues,issues,issues,issues,issues,issues,issues,left_only
421,70791GRNTCHWY61,BASF CORP,325199,issues,issues,issues,issues,issues,BASF CORP,110000449934,issues,issues,issues,issues,issues,issues,issues,issues,issues,issues,issues,issues,issues,left_only
435,74602JPTRC14MIS,JUPITER SULPHUR LLC,325311,issues,issues,issues,issues,issues,TESSENDERLO KERLEY INC,110000455757,issues,issues,issues,issues,issues,issues,issues,issues,issues,issues,issues,issues,issues,left_only
442,37050STVCM815CU,U.S. TVA CUMBERLAND FOSSIL PLANT,221112,issues,issues,issues,issues,issues,US TENNESSEE VALLEY AUTHORITY,110000493127,issues,issues,issues,issues,issues,issues,issues,issues,issues,issues,issues,issues,issues,left_only
464,70760BGCJN9951C,BIG CAJUN 2,221112,issues,issues,issues,issues,issues,CLECO CORPORATE HOLDINGS LLC,110000449792,issues,issues,issues,issues,issues,issues,issues,issues,issues,issues,issues,issues,issues,left_only
518,41091CGGSTRT338,DUKE ENERGY KENTUCKY INC. - EAST BEND GENERATING STATION,221112,issues,issues,issues,issues,issues,DUKE ENERGY CORP,110006497585,issues,issues,issues,issues,issues,issues,issues,issues,issues,issues,issues,issues,issues,left_only
537,77501THYLC1000N,ETHYL CORP,325199,325998.0,issues,issues,issues,issues,ETHYL CORP,110070135413,issues,issues,issues,issues,issues,issues,issues,issues,issues,issues,issues,issues,issues,left_only
563,07036XXNCH1400P,INFINEUM USA LP-BAYWAY CHEMICAL PLANT,325199,issues,issues,issues,issues,issues,INFINEUM USA LP,110067001871,issues,issues,issues,issues,issues,issues,issues,issues,issues,issues,issues,issues,issues,left_only
581,64120HWTHR8700H,HAWTHORN GENERATING STATION,221112,issues,issues,issues,issues,issues,EVERGY INC,110017410942,issues,issues,issues,issues,issues,issues,issues,issues,issues,issues,issues,issues,issues,left_only
593,47620SGCBB8511W,SIGECO A B BROWN GENERATING STATION,221112,issues,issues,issues,issues,issues,CENTERPOINT ENERGY INC,110044891150,issues,issues,issues,issues,issues,issues,issues,issues,issues,issues,issues,issues,issues,left_only
608,63869NWMDRSTJUD,ASSOCIATED ELECTRIC COOPERATIVE INC NEW MADRID POWER PLANT,221112,issues,issues,issues,issues,issues,ASSOCIATED ELECTRIC COOPERATIVE INC,110000606336,issues,issues,issues,issues,issues,issues,issues,issues,issues,issues,issues,issues,issues,left_only
620,17976STNCHHWY54,SAINT NICHOLAS COGENERATION PROJECT,221112,issues,issues,issues,issues,issues,issues,110006812716,issues,issues,issues,issues,issues,issues,issues,issues,issues,issues,issues,issues,issues,left_only
638,17931GLBRT50ELE,GILBERTON POWER CO,221112,issues,issues,issues,issues,issues,issues,110020578891,issues,issues,issues,issues,issues,issues,issues,issues,issues,issues,issues,issues,issues,left_only
685,70734VLCNMASHLA,OCCIDENTAL CHEMICAL HOLDING CORP - GEISMAR PLANT,325199,issues,issues,issues,issues,issues,OCCIDENTAL CHEMICAL HOLDING CORP,110000449774,issues,issues,issues,issues,issues,issues,issues,issues,issues,issues,issues,issues,issues,left_only
707,15931CMBRC243RU,CAMBRIA COGEN CO,221112,issues,issues,issues,issues,issues,NORTHERN STAR GENERATION LLC,110000330641,issues,issues,issues,issues,issues,issues,issues,issues,issues,issues,issues,issues,issues,left_only
718,77720BMNTMHWY34,OCI BEAUMONT LLC,325199,325311.0,issues,issues,issues,issues,OCI BEAUMONT LLC,110000743900,issues,issues,issues,issues,issues,issues,issues,issues,issues,issues,issues,issues,issues,left_only
722,74434MSKGG5501T,MUSKOGEE GENERATING STATION,221112,issues,issues,issues,issues,issues,OGE ENERGY CORP,110000860854,issues,issues,issues,issues,issues,issues,issues,issues,issues,issues,issues,issues,issues,left_only
735,31326SVNNHHWY27,MCINTOSH ELECTRIC GENERATING PLANT,221112,issues,issues,issues,issues,issues,SOUTHERN CO,110000516273,issues,issues,issues,issues,issues,issues,issues,issues,issues,issues,issues,issues,issues,left_only
738,29673RTCNC465LD,ORTEC INC PIEDMONT,325199,325411.0,issues,issues,issues,issues,ORTEC INC,110002371068,issues,issues,issues,issues,issues,issues,issues,issues,issues,issues,issues,issues,issues,left_only
741,78359CCDNTHWY36,OCCIDENTAL CHEMICAL CORP,325199,issues,issues,issues,issues,issues,OCCIDENTAL CHEMICAL HOLDING CORP,110000599807,issues,issues,issues,issues,issues,issues,issues,issues,issues,issues,issues,issues,issues,left_only
783,9024WSTBND1722W,STABOND CORP,325199,issues,issues,issues,issues,issues,issues,110066597542,issues,issues,issues,issues,issues,issues,issues,issues,issues,issues,issues,issues,issues,left_only
785,75691MRTNL8850F,MARTIN LAKE STEAM ELECTRIC STATION & LIGNITE MINE,221112,212111.0,issues,issues,issues,issues,VISTRA CORP,110043787220,issues,issues,issues,issues,issues,issues,issues,issues,issues,issues,issues,issues,issues,left_only
804,26050DTCNV2567C,CAMPBELL TRANSPORTATION CO INC,325199,488390.0,488310.0,483211.0,488330.0,issues,BLUE DANUBE INC,110007886109,issues,issues,issues,issues,issues,issues,issues,issues,issues,issues,issues,issues,issues,left_only
808,53527HYDRT150WD,HYDRITE CHEMICAL CO.,325199,issues,issues,issues,issues,issues,HYDRITE CHEMICAL CO,110000419609,issues,issues,issues,issues,issues,issues,issues,issues,issues,issues,issues,issues,issues,left_only
836,26041KMMRPRTE2X,AMERICAN ELECTRIC POWER KAMMER/MITCHELL PLANT,221112,issues,issues,issues,issues,issues,AMERICAN ELECTRIC POWER,110013725077,issues,issues,issues,issues,issues,issues,issues,issues,issues,issues,issues,issues,issues,left_only
857,77511SLTNCFM291,ASCEND PERFORMANCE MATERIALS-CHOCOLATE BAYOU PLANT,325199,issues,issues,issues,issues,issues,ASCEND PERFORMANCE MATERIALS HOLDINGS INC,110000503722,issues,issues,issues,issues,issues,issues,issues,issues,issues,issues,issues,issues,issues,left_only
859,77511SLTNCFM291,ASCEND PERFORMANCE MATERIALS-CHOCOLATE BAYOU PLANT,325199,325180.0,issues,issues,issues,issues,ASCEND PERFORMANCE MATERIALS HOLDINGS INC,110000503722,issues,issues,issues,issues,issues,issues,issues,issues,issues,issues,issues,issues,issues,left_only
905,75607TXSSTOFFHI,EASTMAN CHEMICAL CO TEXAS OPERATIONS,325199,issues,issues,issues,issues,issues,EASTMAN CHEMICAL CO,110000743704,issues,issues,issues,issues,issues,issues,issues,issues,issues,issues,issues,issues,issues,left_only
946,70094KMRWT18RIV,KEMIRA CHEMICALS INC,325199,issues,issues,issues,issues,issues,KEMIRA CHEMICALS INC,110049249076,issues,issues,issues,issues,issues,issues,issues,issues,issues,issues,issues,issues,issues,left_only
949,77520DVNCD5501B,MONUMENT CHEMICAL BAYTOWN LLC,325199,issues,issues,issues,issues,issues,MONUMENT CHEMICAL LLC,110000463070,issues,issues,issues,issues,issues,issues,issues,issues,issues,issues,issues,issues,issues,left_only
959,84513PCFCR3MILE,PACIFICORP HUNTER PLANT,221112,issues,issues,issues,issues,issues,BERKSHIRE HATHAWAY INC,110000600608,issues,issues,issues,issues,issues,issues,issues,issues,issues,issues,issues,issues,issues,left_only
973,47630SGCFB3711D,SIGECO F B CULLEY GENERATING STATION,221112,issues,issues,issues,issues,issues,CENTERPOINT ENERGY INC,110000403723,issues,issues,issues,issues,issues,issues,issues,issues,issues,issues,issues,issues,issues,left_only
988,68025CTYFF2701E,CITY OF FREMONT DEPARTMENT OF UTILITIES LON D WRIGHT POWER,221112,issues,issues,issues,issues,issues,CITY OF FREMONT DEPARTMENT OF UTILITIES,110040983308,issues,issues,issues,issues,issues,issues,issues,issues,issues,issues,issues,issues,issues,left_only
997,07304DNLPR400CL,ELEMENTIS SPECIALTIES,325199,issues,issues,issues,issues,issues,ELEMENTIS,110000319806,issues,issues,issues,issues,issues,issues,issues,issues,issues,issues,issues,issues,issues,left_only
1000,77511MCCHM2MISO,INEOS USA LLC - CHOCOLATE BAYOU PLANT,325199,issues,issues,issues,issues,issues,INEOS USA LLC,110000606933,issues,issues,issues,issues,issues,issues,issues,issues,issues,issues,issues,issues,issues,left_only
1018,44146FRRCR7050K,POLYMER ADDITIVES INC DBA VALTRIS SPECIALTY CHEMICALS,325199,issues,issues,issues,issues,issues,POLYMER ADDITIVES INC,110000701483,issues,issues,issues,issues,issues,issues,issues,issues,issues,issues,issues,issues,issues,left_only
1027,77545CHMPN3130H,NALCO FRESNO FACILITY,325199,issues,issues,issues,issues,issues,ECOLAB INC,110000463454,issues,issues,issues,issues,issues,issues,issues,issues,issues,issues,issues,issues,issues,left_only
1048,70776RPRDCHIGHW,TAMINCO US LLC,325199,issues,issues,issues,issues,issues,EASTMAN CHEMICAL CO,110056972432,issues,issues,issues,issues,issues,issues,issues,issues,issues,issues,issues,issues,issues,left_only
1057,25303NNCRB437MA,UNION CARBIDE CORP SOUTH CHARLESTON FACILITY,325199,issues,issues,issues,issues,issues,DOW INC.,110000745114,issues,issues,issues,issues,issues,issues,issues,issues,issues,issues,issues,issues,issues,left_only
1069,40310KNTCKCURDS,KENTUCKY UTILITIES CO. - E. W. BROWN STATION,221112,issues,issues,issues,issues,issues,PPL CORP,110000872397,issues,issues,issues,issues,issues,issues,issues,issues,issues,issues,issues,issues,issues,left_only
1083,77536LBRZL41TID,LUBRIZOL CORP DEER PARK FACILITY,325199,issues,issues,issues,issues,issues,BERKSHIRE HATHAWAY INC,110056537804,issues,issues,issues,issues,issues,issues,issues,issues,issues,issues,issues,issues,issues,left_only
1102,77503MCCHM1500N,PURITY ISOBUTYLENE PLANT,325199,issues,issues,issues,issues,issues,ENTERPRISE PRODUCTS OPERATING LLC,110000462678,issues,issues,issues,issues,issues,issues,issues,issues,issues,issues,issues,issues,issues,left_only
1104,20842DCKRS21200,GENON MID ATLANTIC LLC DICKERSON GENERATING STATION,221112,issues,issues,issues,issues,issues,GENON ENERGY HOLDINGS INC.,110000339303,issues,issues,issues,issues,issues,issues,issues,issues,issues,issues,issues,issues,issues,left_only
1109,29044STHCR142WA,DOMINION ENERGY SOUTH CAROLINA - WATEREE STATION,221112,issues,issues,issues,issues,issues,DOMINION ENERGY INC,110015337198,issues,issues,issues,issues,issues,issues,issues,issues,issues,issues,issues,issues,issues,left_only
1124,72503RKNSSSTATE,FUTUREFUEL CHEMICAL CO,325199,325320.0,issues,issues,issues,issues,FUTUREFUEL CORP,110017432937,issues,issues,issues,issues,issues,issues,issues,issues,issues,issues,issues,issues,issues,left_only
1161,58523TTRTL62401,OTTER TAIL POWER CO COYOTE STATION,221112,issues,issues,issues,issues,issues,OTTER TAIL CORP,110000428378,issues,issues,issues,issues,issues,issues,issues,issues,issues,issues,issues,issues,issues,left_only
1174,74951SSHDY3MILE,OGE ENERGY CORP RIVER VALLEY GENERATING STATION,221112,325120.0,issues,issues,issues,issues,OGE ENERGY CORP,110056955460,issues,issues,issues,issues,issues,issues,issues,issues,issues,issues,issues,issues,issues,left_only
1186,90704PBBLY1PEBB,CATALINA UTILITIES CENTER,221112,issues,issues,issues,issues,issues,EDISON INTERNATIONAL,110002420425,issues,issues,issues,issues,issues,issues,issues,issues,issues,issues,issues,issues,issues,left_only
1191,85936CRNDG7MINE,CORONADO GENERATING STATION,221112,issues,issues,issues,issues,issues,SALT RIVER PROJECT AGRICULTURAL IMPROVEMENT & POWER DIST,110017431242,issues,issues,issues,issues,issues,issues,issues,issues,issues,issues,issues,issues,issues,left_only
1207,29445WLLMS2242B,DOMINION ENERGY OF SOUTH CAROLINA - WILLIAMS STATION GENCO,221112,issues,issues,issues,issues,issues,GENCO,110000353509,issues,issues,issues,issues,issues,issues,issues,issues,issues,issues,issues,issues,issues,left_only
1221,42029WSTLK2468I,WESTLAKE VINYLS INC,325199,325180.0,issues,issues,issues,issues,WESTLAKE CHEMICAL CORP,110027373072,issues,issues,issues,issues,issues,issues,issues,issues,issues,issues,issues,issues,issues,left_only
1266,08611MRCRGLAMBE,MERCER GENERATING STATION,221112,issues,issues,issues,issues,issues,PUBLIC SERVICE ENTERPRISE GROUP,110000582236,issues,issues,issues,issues,issues,issues,issues,issues,issues,issues,issues,issues,issues,left_only
1271,77507LBRZL12801,LUBRIZOL CORP BAYPORT FACILITY,325199,issues,issues,issues,issues,issues,BERKSHIRE HATHAWAY INC,110000462936,issues,issues,issues,issues,issues,issues,issues,issues,issues,issues,issues,issues,issues,left_only
1289,20664MRGNT12620,MORGANTOWN GENERATING STATION,221112,issues,issues,issues,issues,issues,GENON HOLDINGS INC,110000339143,issues,issues,issues,issues,issues,issues,issues,issues,issues,issues,issues,issues,issues,left_only
1305,27573CGNTR331AL,CPI USA NORTH CAROLINA LLC,221112,221117.0,issues,issues,issues,issues,issues,110000347045,issues,issues,issues,issues,issues,issues,issues,issues,issues,issues,issues,issues,issues,left_only
1314,70669NTRGY3500H,ROY S. NELSON PLANT,221112,issues,issues,issues,issues,issues,ENTERGY CORP,110003271049,issues,issues,issues,issues,issues,issues,issues,issues,issues,issues,issues,issues,issues,left_only
1327,38108WTCCR1231P,PMC BIOGENIX INC,325199,issues,issues,issues,issues,issues,PMC GROUP INC,110000373998,issues,issues,issues,issues,issues,issues,issues,issues,issues,issues,issues,issues,issues,left_only
1333,32514GLFPW11999,GULF CLEAN ENERGY CENTER,221112,issues,issues,issues,issues,issues,NEXTERA ENERGY INC,110002526847,issues,issues,issues,issues,issues,issues,issues,issues,issues,issues,issues,issues,issues,left_only
1347,46392NRTHR2723E,NIPSCO R.M.SCHAHFER GENERATING STATION,221112,issues,issues,issues,issues,issues,NISOURCE INC,110000493706,issues,issues,issues,issues,issues,issues,issues,issues,issues,issues,issues,issues,issues,left_only
1363,74053NRTHSJCTHW,AMERICAN ELECTRIC POWER NORTHEASTERN PLANT,221112,issues,issues,issues,issues,issues,AMERICAN ELECTRIC POWER,110000750740,issues,issues,issues,issues,issues,issues,issues,issues,issues,issues,issues,issues,issues,left_only
1377,85606RZNLCHWY19,ARIZONA ELECTRIC POWER COOPERATIVE INC,221112,issues,issues,issues,issues,issues,issues,110043804390,issues,issues,issues,issues,issues,issues,issues,issues,issues,issues,issues,issues,issues,left_only
1391,23860LLDSGPOBOX,ADVANSIX INC HOPEWELL PLANT,325199,325998.0,325180.0,325311.0,221330.0,325120.0,ADVANSIX INC,110000620221,issues,issues,issues,issues,issues,issues,issues,issues,issues,issues,issues,issues,issues,left_only
1401,3537WDYCHM97IND,HERAEUS EPURIO LLC,325199,issues,issues,issues,issues,issues,issues,110004656961,issues,issues,issues,issues,issues,issues,issues,issues,issues,issues,issues,issues,issues,left_only
1404,77641KMCNC2450S,MONUMENT CHEMICAL PORT ARTHUR LLC,325199,issues,issues,issues,issues,issues,issues,110000464042,issues,issues,issues,issues,issues,issues,issues,issues,issues,issues,issues,issues,issues,left_only
1425,77651TXCCHHWY36,HUNTSMAN PETROCHEMICAL LLC PORT NECHES FACILITY,325199,issues,issues,issues,issues,issues,HUNTSMAN INTERNATIONAL LLC,110000599567,issues,issues,issues,issues,issues,issues,issues,issues,issues,issues,issues,issues,issues,left_only
1460,47882MRMGNHWY54,MEROM GENERATING STATION,221112,issues,issues,issues,issues,issues,HOOSIER ENERGY REC INC,110000592831,issues,issues,issues,issues,issues,issues,issues,issues,issues,issues,issues,issues,issues,left_only
1477,79108STHWSNLAKE,SOUTHWESTERN PUBLIC SERVICE CO HARRINGTON STATION,221112,issues,issues,issues,issues,issues,XCEL ENERGY,110042010999,issues,issues,issues,issues,issues,issues,issues,issues,issues,issues,issues,issues,issues,left_only
1492,48732DKRNJNWEAD,DE KARN JC WEADOCK GENERATING PLANT,221112,issues,issues,issues,issues,issues,CMS ENERGY,110000593171,issues,issues,issues,issues,issues,issues,issues,issues,issues,issues,issues,issues,issues,left_only
1504,44012FRSTN33570,AVON LAKE POWER PLANT,221112,issues,issues,issues,issues,issues,GENON HOLDINGS INC.,110000385173,issues,issues,issues,issues,issues,issues,issues,issues,issues,issues,issues,issues,issues,left_only
1528,03801NWNGT165GO,NEWINGTON STATION,221112,issues,issues,issues,issues,issues,GSP NEWINGTON LLC,110045448262,issues,issues,issues,issues,issues,issues,issues,issues,issues,issues,issues,issues,issues,left_only
1533,44077LBRZL155FR,LUBRIZOL CORP PAINESVIL LE PLANT,325199,issues,issues,issues,issues,issues,BERKSHIRE HATHAWAY INC,110000385896,issues,issues,issues,issues,issues,issues,issues,issues,issues,issues,issues,issues,issues,left_only
1560,75840BGBRW11MIE,BIG BROWN STEAM ELECTRIC STATION & LIGNITE MINE,221112,212111.0,issues,issues,issues,issues,VISTRA ENERGY CORP,110000598988,issues,issues,issues,issues,issues,issues,issues,issues,issues,issues,issues,issues,issues,left_only
1576,96705KLCTR4392W,PORT ALLEN GENERATING STATION,221112,issues,issues,issues,issues,issues,KAUAI ISLAND UTILITY COOPERATIVE,110064110652,issues,issues,issues,issues,issues,issues,issues,issues,issues,issues,issues,issues,issues,left_only
1579,53154KCRKP4801E,OAK CREEK SITE,221112,issues,issues,issues,issues,issues,WEC ENERGY GROUP,110000417709,issues,issues,issues,issues,issues,issues,issues,issues,issues,issues,issues,issues,issues,left_only
1599,24534CLVRPRTE92,CLOVER POWER STATION,221112,issues,issues,issues,issues,issues,DOMINION ENERGY INC,110007008175,issues,issues,issues,issues,issues,issues,issues,issues,issues,issues,issues,issues,issues,left_only
1616,31046SCHRR10986,SCHERER STEAM ELECTRIC GENERATING PLANT,221112,issues,issues,issues,issues,issues,SOUTHERN CO CO-OWNED,110007356066,issues,issues,issues,issues,issues,issues,issues,issues,issues,issues,issues,issues,issues,left_only
1637,38109STVLL2574P,U.S. TVA ALLEN COMBINED CYCLE PLANT,221112,issues,issues,issues,issues,issues,US TENNESSEE VALLEY AUTHORITY,110070828169,issues,issues,issues,issues,issues,issues,issues,issues,issues,issues,issues,issues,issues,left_only
1652,63353RCNCRHIGHW,DYNO NOBEL INC.--LOMO PLANT,325311,issues,issues,issues,issues,issues,DYNO NOBEL INC,110000595954,issues,issues,issues,issues,issues,issues,issues,issues,issues,issues,issues,issues,issues,left_only
1655,46304NRTHR246BA,NIPSCO BAILLY GENERATING STATION,221112,issues,issues,issues,issues,issues,NISOURCE INC,110000397730,issues,issues,issues,issues,issues,issues,issues,issues,issues,issues,issues,issues,issues,left_only
1668,32571RPRDC4575E,TAMINCO US LLC,325199,issues,issues,issues,issues,issues,issues,110041158136,issues,issues,issues,issues,issues,issues,issues,issues,issues,issues,issues,issues,issues,left_only
1679,08876FSHRS755RT,FISHER SCIENTIFIC CO. L.L.C.,325199,issues,issues,issues,issues,issues,THERMO FISHER SCIENTIFIC INC,110030750364,issues,issues,issues,issues,issues,issues,issues,issues,issues,issues,issues,issues,issues,left_only
1693,30060NRTHC1525C,KEMIRA CHEMICALS INC,325199,issues,issues,issues,issues,issues,KEMIRA CHEMICALS INC,110000355838,issues,issues,issues,issues,issues,issues,issues,issues,issues,issues,issues,issues,issues,left_only
1726,45153CNCNN1781U,DYNEGY ZIMMER LLC,221112,issues,issues,issues,issues,issues,VISTRA CORP,110000392860,issues,issues,issues,issues,issues,issues,issues,issues,issues,issues,issues,issues,issues,left_only
1748,51101GRGNL2761P,MIDAMERICAN ENERGY-GEORGE NEAL SOUTH,221112,issues,issues,issues,issues,issues,BERKSHIRE HATHAWAY INC,110000414114,issues,issues,issues,issues,issues,issues,issues,issues,issues,issues,issues,issues,issues,left_only
1756,70069DPNTPHIGHW,DUPONT PONTCHARTRAIN WORKS,325199,325220.0,325110.0,issues,issues,issues,DUPONT DE NEMOURS INC,110000597131,issues,issues,issues,issues,issues,issues,issues,issues,issues,issues,issues,issues,issues,left_only
1779,32905FRRSR2210W,"FAR RESEARCH INC. (DBA FAR CHEMICAL, INC.)",325199,issues,issues,issues,issues,issues,issues,110000363357,issues,issues,issues,issues,issues,issues,issues,issues,issues,issues,issues,issues,issues,left_only
1785,17931WHLBRMOREA,WHEELABRATOR FRACKVILLE ENERGY CO INC,221112,issues,issues,issues,issues,issues,WHEELABRATOR ENVIRONMENTAL SYSTEMS INC,110014012157,issues,issues,issues,issues,issues,issues,issues,issues,issues,issues,issues,issues,issues,left_only
1798,77571QNTMC1515M,EQUISTAR CHEMICALS LP,325199,issues,issues,issues,issues,issues,LYONDELLBASELL INDUSTRIES,110034641635,issues,issues,issues,issues,issues,issues,issues,issues,issues,issues,issues,issues,issues,left_only
1820,33860MCFRTHIGHW,MOSAIC FERTILIZER LLC-NEW WALES PLANT,325312,issues,issues,issues,issues,issues,THE MOSAIC CO,110056968866,issues,issues,issues,issues,issues,issues,issues,issues,issues,issues,issues,issues,issues,left_only
1829,70734RCDNCHIGHW,PCS NITROGEN FERTILIZER LP,325311,325312.0,issues,issues,issues,issues,POTASH HOLDING CO INC,110000748059,issues,issues,issues,issues,issues,issues,issues,issues,issues,issues,issues,issues,issues,left_only
1845,62448MRNCR6725N,NEWTON ENERGY CENTER,221112,issues,issues,issues,issues,issues,DYNEGY INC,110000439393,issues,issues,issues,issues,issues,issues,issues,issues,issues,issues,issues,issues,issues,left_only
1861,11777PRTJFBEECH,NATIONAL GRID  PORT JEFFERSON POWER STATION,221112,issues,issues,issues,issues,issues,NATIONAL GRID USA,110008025528,issues,issues,issues,issues,issues,issues,issues,issues,issues,issues,issues,issues,issues,left_only
1872,29045HRDWC2114L,WEYLCHEM US INC.,325199,issues,issues,issues,issues,issues,WEYLCHEM US INC,110000351930,issues,issues,issues,issues,issues,issues,issues,issues,issues,issues,issues,issues,issues,left_only
1892,35601MNSNTCOURT,ASCEND PERFORMANCE MATERIALS OPERATIONS LLC-DECATUR PLANT,325199,issues,issues,issues,issues,issues,ASCEND PERFORMANCE MATERIALS HOLDINGS INC,110007235269,issues,issues,issues,issues,issues,issues,issues,issues,issues,issues,issues,issues,issues,left_only
1906,61537BFGDRRR1BO,EMERALD PERFORMANCE MATERIALS LLC,325199,issues,issues,issues,issues,issues,EMERALD PERFORMANCE MATERIALS LLC,110016660451,issues,issues,issues,issues,issues,issues,issues,issues,issues,issues,issues,issues,issues,left_only
1915,58576GRTRV28753,COAL CREEK STATION,221112,issues,issues,issues,issues,issues,GREAT RIVER ENERGY,110000494563,issues,issues,issues,issues,issues,issues,issues,issues,issues,issues,issues,issues,issues,left_only
1993,80216PBLCS6198F,PUBLIC SERVICE CO OF COLORADO CHEROKEE STATION,221112,issues,issues,issues,issues,issues,XCEL ENERGY,110000859679,issues,issues,issues,issues,issues,issues,issues,issues,issues,issues,issues,issues,issues,left_only
2001,26739MTSTRHC76B,MOUNT STORM POWER STATION,221112,issues,issues,issues,issues,issues,DOMINION ENERGY INC,110007876637,issues,issues,issues,issues,issues,issues,issues,issues,issues,issues,issues,issues,issues,left_only
2023,36590DGSSCDEGUS,EVONIK CORP,325199,325180.0,issues,issues,issues,issues,EVONIK CORP,110017408296,issues,issues,issues,issues,issues,issues,issues,issues,issues,issues,issues,issues,issues,left_only
2058,83101NGHTN5MISO,PACIFICORP NAUGHTON PLANT,221112,issues,issues,issues,issues,issues,BERKSHIRE HATHAWAY INC,110042054013,issues,issues,issues,issues,issues,issues,issues,issues,issues,issues,issues,issues,issues,left_only
2069,33619TRDMR1216O,TRADEMARK NITROGEN CORP,325311,issues,issues,issues,issues,issues,issues,110000364551,issues,issues,issues,issues,issues,issues,issues,issues,issues,issues,issues,issues,issues,left_only
2074,96782WGNRT475KA,HAWAIIAN ELECTRIC CO INC WAIAU GENERATING STATION,221112,221121.0,issues,issues,issues,issues,HAWAIIAN ELECTRIC INDUSTRIES INC,110000486420,issues,issues,issues,issues,issues,issues,issues,issues,issues,issues,issues,issues,issues,left_only
2080,34956NDNTW19140,INDIANTOWN COGENERATION LP,221112,issues,issues,issues,issues,issues,NEXTERA ENERGY INC,110002394793,issues,issues,issues,issues,issues,issues,issues,issues,issues,issues,issues,issues,issues,left_only
2085,08014PGCRPRTE13,LOGAN GENERATING CO LP,221112,issues,issues,issues,issues,issues,EXCALIBUR POWER LLC,110000575182,issues,issues,issues,issues,issues,issues,issues,issues,issues,issues,issues,issues,issues,left_only
2094,40006LSVLL487CO,LOUISVILLE GAS & ELECTRIC CO. - TRIMBLE COUNTY STATION,221112,issues,issues,issues,issues,issues,PPL CORP,110000377814,issues,issues,issues,issues,issues,issues,issues,issues,issues,issues,issues,issues,issues,left_only
2113,54221MNTWC1303S,MANITOWOC PUBLIC UTILITIES,221112,221310.0,issues,issues,issues,issues,CITY OF MANITOWOC,110000421384,issues,issues,issues,issues,issues,issues,issues,issues,issues,issues,issues,issues,issues,left_only
2124,77592STRLN201BA,EASTMAN CHEMICAL TEXAS CITY INC,325199,424710.0,issues,issues,issues,issues,EASTMAN CHEMICAL CO,110000463864,issues,issues,issues,issues,issues,issues,issues,issues,issues,issues,issues,issues,issues,left_only
2127,77536CCDNTTIDAL,OXY VINYLS LP DEER PARK-VCM PLANT,325199,issues,issues,issues,issues,issues,OCCIDENTAL CHEMICAL HOLDING CORP,110070827819,issues,issues,issues,issues,issues,issues,issues,issues,issues,issues,issues,issues,issues,left_only
2153,41056SPRLCRTE8X,SPURLOCK POWER STATION,221112,issues,issues,issues,issues,issues,EAST KENTUCKY POWER COOPERATIVE INC,110012142127,issues,issues,issues,issues,issues,issues,issues,issues,issues,issues,issues,issues,issues,left_only
2173,13165WRGRC228EA,EVANS CHEMETICS LP,325199,issues,issues,issues,issues,issues,issues,110019173375,issues,issues,issues,issues,issues,issues,issues,issues,issues,issues,issues,issues,issues,left_only
2181,37066STVGL1499S,U.S. TVA GALLATIN FOSSIL PLANT,221112,issues,issues,issues,issues,issues,US TENNESSEE VALLEY AUTHORITY,110000493136,issues,issues,issues,issues,issues,issues,issues,issues,issues,issues,issues,issues,issues,left_only
2196,63110NLCHM5548M,ELEMENTIS SPECIALTIES INC.,325199,issues,issues,issues,issues,issues,ELEMENTIS,110000441004,issues,issues,issues,issues,issues,issues,issues,issues,issues,issues,issues,issues,issues,left_only
2203,43811MRCNL47201,AMERICAN ELECTRIC POWER CONESVILLE PLANT,221112,issues,issues,issues,issues,issues,AMERICAN ELECTRIC POWER,110000605417,issues,issues,issues,issues,issues,issues,issues,issues,issues,issues,issues,issues,issues,left_only
2221,27406CHMLC2410R,CHEMOL CO INC,325199,issues,issues,issues,issues,issues,THE SEYDEL COS,110000346563,issues,issues,issues,issues,issues,issues,issues,issues,issues,issues,issues,issues,issues,left_only
2233,18240PNTHRRTE54,PANTHER CREEK POWER OPERATING LLC,221112,issues,issues,issues,issues,issues,issues,110030471610,issues,issues,issues,issues,issues,issues,issues,issues,issues,issues,issues,issues,issues,left_only
2240,23836CHSTR500CO,CHESTERFIELD POWER STATION,221112,issues,issues,issues,issues,issues,DOMINION ENERGY INC,110000342530,issues,issues,issues,issues,issues,issues,issues,issues,issues,issues,issues,issues,issues,left_only
2259,27806TXSGLHIGHW,PCS PHOSPHATE CO INC,325312,325180.0,212392.0,issues,issues,issues,POTASH HOLDING CO INC,110000586376,issues,issues,issues,issues,issues,issues,issues,issues,issues,issues,issues,issues,issues,left_only
2285,30170WNSLYGEORG,WANSLEY STEAM ELECTRIC GENERATING PLANT,221112,issues,issues,issues,issues,issues,SOUTHERN CO CO-OWNED,110046233919,issues,issues,issues,issues,issues,issues,issues,issues,issues,issues,issues,issues,issues,left_only
2301,45232BRLCH5890H,BAERLOCHER PRODUCTION USA LLC,325199,issues,issues,issues,issues,issues,BAERLOCHER USA,110012705796,issues,issues,issues,issues,issues,issues,issues,issues,issues,issues,issues,issues,issues,left_only
2303,43913CRDNL306CO,CARDINAL PLANT,221112,issues,issues,issues,issues,issues,BUCKEYE POWER INC,110000605426,issues,issues,issues,issues,issues,issues,issues,issues,issues,issues,issues,issues,issues,left_only
2322,39552MSSSSHWY63,MISSISSIPPI POWER CO - PLANT DANIEL,221112,issues,issues,issues,issues,issues,SOUTHERN CO,110040875666,issues,issues,issues,issues,issues,issues,issues,issues,issues,issues,issues,issues,issues,left_only
2333,72562NRGYN555PO,INDEPENDENCE STEAM ELECTRIC STATION,221112,issues,issues,issues,issues,issues,ENTERGY CORP,110000452705,issues,issues,issues,issues,issues,issues,issues,issues,issues,issues,issues,issues,issues,left_only
2347,17981WSTWDUSRTE,RAUSCH CREEK GENERATION LLC,221112,issues,issues,issues,issues,issues,RAUSCH CREEK LAND LP,110010970235,issues,issues,issues,issues,issues,issues,issues,issues,issues,issues,issues,issues,issues,left_only
2352,21502SWRRR11600,AES WARRIOR RUN INC,221112,issues,issues,issues,issues,issues,AES CORP,110000551055,issues,issues,issues,issues,issues,issues,issues,issues,issues,issues,issues,issues,issues,left_only
2368,90023PCFCN3305E,EVONIK CORP,325199,issues,issues,issues,issues,issues,EVONIK CORP,110057930253,issues,issues,issues,issues,issues,issues,issues,issues,issues,issues,issues,issues,issues,left_only
2396,77086PLTND11623,PILOT INDUSTRIES OF TEXAS INC,325199,325194.0,issues,issues,issues,issues,PILOT CHEMICAL CORP,110000462053,issues,issues,issues,issues,issues,issues,issues,issues,issues,issues,issues,issues,issues,left_only
2400,29436CRSSG553CR,CROSS GENERATING STATION,221112,issues,issues,issues,issues,issues,SOUTH CAROLINA PUBLIC SERVICE AUTHORITY,110000499764,issues,issues,issues,issues,issues,issues,issues,issues,issues,issues,issues,issues,issues,left_only
2417,27403MRFLX2110H,VERTELLUS GREENSBORO LLC,325199,issues,issues,issues,issues,issues,V GLOBAL HOLDINGS LLC,110000346527,issues,issues,issues,issues,issues,issues,issues,issues,issues,issues,issues,issues,issues,left_only
2424,59323RSBDPPOBOX,COLSTRIP ENERGY LP ROSEBUD POWER PLANT,221112,issues,issues,issues,issues,issues,COLSTRIP ENERGY LP,110041886144,issues,issues,issues,issues,issues,issues,issues,issues,issues,issues,issues,issues,issues,left_only
2434,77651TXSPT212SP,TPC GROUP,325199,issues,issues,issues,issues,issues,TPC GROUP,110000504801,issues,issues,issues,issues,issues,issues,issues,issues,issues,issues,issues,issues,issues,left_only
2448,52151LNSNG2320P,LANSING POWER STATION,221112,issues,issues,issues,issues,issues,ALLIANT ENERGY CORP,110015649592,issues,issues,issues,issues,issues,issues,issues,issues,issues,issues,issues,issues,issues,left_only
2459,33830WRGRCHIGHW,MOSAIC FERTILIZER LLC-BARTOW,325312,issues,issues,issues,issues,issues,THE MOSAIC CO,110008318588,issues,issues,issues,issues,issues,issues,issues,issues,issues,issues,issues,issues,issues,left_only
2467,28144NTNLSCEDAR,HENKEL US OPERATIONS CORP,325199,issues,issues,issues,issues,issues,HENKEL US OPERATIONS CORP,110056525835,issues,issues,issues,issues,issues,issues,issues,issues,issues,issues,issues,issues,issues,left_only
2484,30721PLYST26BRK,CARGILL INC,325199,325510.0,issues,issues,issues,issues,CARGILL INC,110015326734,issues,issues,issues,issues,issues,issues,issues,issues,issues,issues,issues,issues,issues,left_only
2491,25112NNCRBRTE25,UNION CARBIDE CORP INSTITUTE FACILITY,325199,issues,issues,issues,issues,issues,DOW INC.,110070828292,issues,issues,issues,issues,issues,issues,issues,issues,issues,issues,issues,issues,issues,left_only
2500,63129MRMCP8200F,AMEREN MISSOURI MERAMEC ENERGY CENTER,221112,issues,issues,issues,issues,issues,AMEREN CORP,110001958515,issues,issues,issues,issues,issues,issues,issues,issues,issues,issues,issues,issues,issues,left_only
2510,17701LNZNC3500T,ARXADA LLC,325199,issues,issues,issues,issues,issues,ARXADA LLC,110000334291,issues,issues,issues,issues,issues,issues,issues,issues,issues,issues,issues,issues,issues,left_only
2518,59034HRDNGSUGAR,HARDIN GENERATING STATION,221112,issues,issues,issues,issues,issues,ROCKY MOUNTAIN POWER LLC,110038363623,issues,issues,issues,issues,issues,issues,issues,issues,issues,issues,issues,issues,issues,left_only
2528,45202CGMMF10800,MIAMI FORT POWER CO LLC,221112,issues,issues,issues,issues,issues,VISTRA CORP,110000823379,issues,issues,issues,issues,issues,issues,issues,issues,issues,issues,issues,issues,issues,left_only
2547,42029RPRDCHIGHW,EVONIK CORP,325199,issues,issues,issues,issues,issues,EVONIK CORP,110039498674,issues,issues,issues,issues,issues,issues,issues,issues,issues,issues,issues,issues,issues,left_only
2555,77301TXCCHJEFFE,HUNTSMAN PETROCHEMICAL LLC,325199,issues,issues,issues,issues,issues,HUNTSMAN INC,110000748095,issues,issues,issues,issues,issues,issues,issues,issues,issues,issues,issues,issues,issues,left_only
2570,43812WLYRG1245S,WILEY COS,325199,issues,issues,issues,issues,issues,issues,110000384744,issues,issues,issues,issues,issues,issues,issues,issues,issues,issues,issues,issues,issues,left_only
2575,68112MHPBL7475P,OMAHA PUBLIC POWER DISTRICT NORTH OMAHA STATION,221112,issues,issues,issues,issues,issues,OMAHA PUBLIC POWER DISTRICT,110041061374,issues,issues,issues,issues,issues,issues,issues,issues,issues,issues,issues,issues,issues,left_only
2583,67460NTNLC2000M,CHS MCPHERSON REFINERY - SRU,325311,issues,issues,issues,issues,issues,CHS INC,110015862440,issues,issues,issues,issues,issues,issues,issues,issues,issues,issues,issues,issues,issues,left_only
2587,87416FRCRNCOUNT,FOUR CORNERS STEAM ELECTRIC STATION,221112,issues,issues,issues,issues,issues,PINNACLE WEST CAPITAL CORP,110042068473,issues,issues,issues,issues,issues,issues,issues,issues,issues,issues,issues,issues,issues,left_only
2603,28012DKNRG253PL,DUKE ENERGY CAROLINAS LLC - ALLEN STEAM STATION,221112,issues,issues,issues,issues,issues,DUKE ENERGY CORP,110000348008,issues,issues,issues,issues,issues,issues,issues,issues,issues,issues,issues,issues,issues,left_only
2617,15077FRSTNOFFRT,BRUCE MANSFIELD POWER PLANT,221112,221122.0,221111.0,221113.0,221121.0,issues,ENERGY HARBOR LLC,110056969721,issues,issues,issues,issues,issues,issues,issues,issues,issues,issues,issues,issues,issues,left_only
2637,75455MNTCLOFFFM,MONTICELLO STEAM ELECTRIC STATION & LIGNITE MINE,221112,212111.0,issues,issues,issues,issues,LUMINANT GENERATION,110000598835,issues,issues,issues,issues,issues,issues,issues,issues,issues,issues,issues,issues,issues,left_only
2659,77507TFNCH4923B,ARKEMA INC,325199,issues,issues,issues,issues,issues,ARKEMA DELAWARE INC,110005186510,issues,issues,issues,issues,issues,issues,issues,issues,issues,issues,issues,issues,issues,left_only
2660,51101NTRFL514SO,THE ANDERSONS INC - SIOUX CITY,325312,issues,issues,issues,issues,issues,THE ANDERSONS INC,110000414123,issues,issues,issues,issues,issues,issues,issues,issues,issues,issues,issues,issues,issues,left_only
2664,53511NZYMB2600K,GENENCOR INTERNATIONAL WISCONSIN INC.,325199,issues,issues,issues,issues,issues,INTERNATIONAL FLAVORS & FRAGRANCES INC,110000419529,issues,issues,issues,issues,issues,issues,issues,issues,issues,issues,issues,issues,issues,left_only
2665,29038STHCR405TE,DOMINION ENERGY SOUTH CAROLINA INC - COPE STATION,221112,issues,issues,issues,issues,issues,DOMINION ENERGY INC,110002232209,issues,issues,issues,issues,issues,issues,issues,issues,issues,issues,issues,issues,issues,left_only
2679,54303PLLMP1530N,PULLIAM POWER PLANT,221112,issues,issues,issues,issues,issues,WEC ENERGY GROUP,110000421534,issues,issues,issues,issues,issues,issues,issues,issues,issues,issues,issues,issues,issues,left_only
2686,41045KNTCKUS42P,KENTUCKY UTILITIES CO GHENT STATION,221112,issues,issues,issues,issues,issues,PPL CORP,110000874224,issues,issues,issues,issues,issues,issues,issues,issues,issues,issues,issues,issues,issues,left_only
2707,21220CPCRN1001C,CP CRANE GENERATING STATION,221112,issues,issues,issues,issues,issues,AVENUE CAPITAL,110000339713,issues,issues,issues,issues,issues,issues,issues,issues,issues,issues,issues,issues,issues,left_only
2711,59270LWSCLSOFSI,LEWIS & CLARK STATION,221112,issues,issues,issues,issues,issues,MDU RESOURCES GROUP INC,110020377019,issues,issues,issues,issues,issues,issues,issues,issues,issues,issues,issues,issues,issues,left_only
2715,96707SHWNC91086,AES HAWAII LLC,221112,issues,issues,issues,issues,issues,AES CORP,110027164164,issues,issues,issues,issues,issues,issues,issues,issues,issues,issues,issues,issues,issues,left_only
2723,29385SYBRN10150,STARCHEM LLC,325199,issues,issues,issues,issues,issues,STAR HOLDINGS INC,110000353251,issues,issues,issues,issues,issues,issues,issues,issues,issues,issues,issues,issues,issues,left_only
2732,47274CRGLL401AG,ANDERSONS INC,325311,issues,issues,issues,issues,issues,THE ANDERSONS INC,110000402430,issues,issues,issues,issues,issues,issues,issues,issues,issues,issues,issues,issues,issues,left_only
2734,44622NNCMP875HA,KRATON CHEMICAL CO LLC,325199,issues,issues,issues,issues,issues,KRATON CHEMICAL CO LLC,110000496981,issues,issues,issues,issues,issues,issues,issues,issues,issues,issues,issues,issues,issues,left_only
2738,87045PLNSSCOUNT,TRI-STATE GENERATION & TRANSMISSION - ESCALANTE STATION,221112,issues,issues,issues,issues,issues,issues,110000758797,issues,issues,issues,issues,issues,issues,issues,issues,issues,issues,issues,issues,issues,left_only
2745,49460JHCMP17000,J H CAMPBELL GENERATING PLANT,221112,issues,issues,issues,issues,issues,CMS ENERGY,110000411108,issues,issues,issues,issues,issues,issues,issues,issues,issues,issues,issues,issues,issues,left_only
2770,52404GNNCR10004,DANISCO US INC,325199,issues,issues,issues,issues,issues,INTERNATIONAL FLAVORS & FRAGRANCES INC,110000415042,issues,issues,issues,issues,issues,issues,issues,issues,issues,issues,issues,issues,issues,left_only
2789,77571NVSTS12455,THE LYCRA CO LA PORTE PLANT (PREVIOUSLY INVISTA SARL,325199,issues,issues,issues,issues,issues,THE LYCRA CO LLC,110017874736,issues,issues,issues,issues,issues,issues,issues,issues,issues,issues,issues,issues,issues,left_only
2796,8271WBSNLC1246N,BASIN ELECTRIC  DRY FORK STATION,221112,issues,issues,issues,issues,issues,BASIN ELECTRIC POWER COOPERATIVE,110039589585,issues,issues,issues,issues,issues,issues,issues,issues,issues,issues,issues,issues,issues,left_only
2809,24540DNRVRSTATE,DANCHEM TECHNOLOGIES INC,325199,325520.0,325211.0,issues,issues,issues,SYNALLOY CORP,110002432779,issues,issues,issues,issues,issues,issues,issues,issues,issues,issues,issues,issues,issues,left_only
2822,70805LBMRLGULFS,ALBEMARLE CORP,325199,325180.0,issues,issues,issues,issues,ALBEMARLE CORP,110000606602,issues,issues,issues,issues,issues,issues,issues,issues,issues,issues,issues,issues,issues,left_only
2829,44667FRRCR1560N,FERRO CORP,325199,issues,issues,issues,issues,issues,FERRO CORP,110000390693,issues,issues,issues,issues,issues,issues,issues,issues,issues,issues,issues,issues,issues,left_only
2837,62953LCTRC2100P,ELECTRIC ENERGY INC,221112,issues,issues,issues,issues,issues,VISTRA ENERGY CORP,110043786249,issues,issues,issues,issues,issues,issues,issues,issues,issues,issues,issues,issues,issues,left_only
2850,98625KLMCH1296N,EMERALD KALAMA CHEMICAL LLC,325199,issues,issues,issues,issues,issues,EMERALD PERFORMANCE MATERIALS LLC,110000490816,issues,issues,issues,issues,issues,issues,issues,issues,issues,issues,issues,issues,issues,left_only
2858,85938SPRNG12MIL,SPRINGERVILLE GENERATING STATION,221112,issues,issues,issues,issues,issues,UNS ENERGY CORP,110000600788,issues,issues,issues,issues,issues,issues,issues,issues,issues,issues,issues,issues,issues,left_only
2874,33873VNDLH2394V,IPS VANDOLAH POWER,221112,issues,issues,issues,issues,issues,NORTHERN STAR GENERATION LLC,110017411718,issues,issues,issues,issues,issues,issues,issues,issues,issues,issues,issues,issues,issues,left_only
2875,49442BXTRH1953S,HONEYWELL BURDICK & JACKSON,325199,issues,issues,issues,issues,issues,HONEYWELL INTERNATIONAL INC,110000410831,issues,issues,issues,issues,issues,issues,issues,issues,issues,issues,issues,issues,issues,left_only
2886,77507NVMLC10200,MONUMENT CHEMICAL BAYPORT LLC,325199,issues,issues,issues,issues,issues,MONUMENT CHEMICAL LLC,110005125587,issues,issues,issues,issues,issues,issues,issues,issues,issues,issues,issues,issues,issues,left_only
2896,27052DKNRGPINEH,DUKE ENERGY CAROLINAS LLC - BELEWS CREEK STEAM STATION,221112,issues,issues,issues,issues,issues,DUKE ENERGY CORP,110000604141,issues,issues,issues,issues,issues,issues,issues,issues,issues,issues,issues,issues,issues,left_only
2924,66536JFFRY25905,JEFFREY ENERGY CENTER,221112,issues,issues,issues,issues,issues,EVERGY INC,110006011680,issues,issues,issues,issues,issues,issues,issues,issues,issues,issues,issues,issues,issues,left_only
2942,99743HLYPW25MIL,GOLDEN VALLEY ELECTRIC ASSOC HEALY POWER PLANT,221112,issues,issues,issues,issues,issues,GOLDEN VALLEY ELECTRIC ASSOC,110000602250,issues,issues,issues,issues,issues,issues,issues,issues,issues,issues,issues,issues,issues,left_only
2950,72342SYRGS334PH,UNITED INITIATORS INC,325199,issues,issues,issues,issues,issues,issues,110032633942,issues,issues,issues,issues,issues,issues,issues,issues,issues,issues,issues,issues,issues,left_only
2958,43228RSYNX1979A,ISP CHEMICALS LLC,325199,325412.0,issues,issues,issues,issues,ASHLAND LLC,110000382693,issues,issues,issues,issues,issues,issues,issues,issues,issues,issues,issues,issues,issues,left_only
2963,29304BLCKMPOBOX,SANTOLUBES MANUFACTURING LLC  DBA BLACKMAN UHLER SPECIALTIES,325199,issues,issues,issues,issues,issues,SANTOLUBES LLC,110000352797,issues,issues,issues,issues,issues,issues,issues,issues,issues,issues,issues,issues,issues,left_only
2973,14094VNDMR1NORT,VANDEMARK CHEMICAL INC,325199,issues,issues,issues,issues,issues,issues,110000326594,issues,issues,issues,issues,issues,issues,issues,issues,issues,issues,issues,issues,issues,left_only
2983,86032CHLLPOLDUS,CHOLLA POWER PLANT,221112,issues,issues,issues,issues,issues,PINNACLE WEST CAPITAL CORP,110017206192,issues,issues,issues,issues,issues,issues,issues,issues,issues,issues,issues,issues,issues,left_only
2999,82718WYDKP48WYO,PACIFICORP WYODAK PLANT,221112,issues,issues,issues,issues,issues,BERKSHIRE HATHAWAY INC,110007334982,issues,issues,issues,issues,issues,issues,issues,issues,issues,issues,issues,issues,issues,left_only
3019,77535BKRPRUSHWY,INDORAMA VENTURES OXIDES LLC,325199,issues,issues,issues,issues,issues,INDORAMA VENTURES HOLDINGS LP,110000607576,issues,issues,issues,issues,issues,issues,issues,issues,issues,issues,issues,issues,issues,left_only
3026,53142PLSNT80009,PLEASANT PRAIRIE POWER PLANT,221112,issues,issues,issues,issues,issues,WEC ENERGY GROUP,110000417433,issues,issues,issues,issues,issues,issues,issues,issues,issues,issues,issues,issues,issues,left_only
3044,57216BGSTN48450,OTTER TAIL POWER CO BIG STONE PLANT,221112,issues,issues,issues,issues,issues,OTTER TAIL CORP,110011493437,issues,issues,issues,issues,issues,issues,issues,issues,issues,issues,issues,issues,issues,left_only
3057,66739LLCCH22MIS,JAYHAWK FINE CHEMICALS CORP,325199,issues,issues,issues,issues,issues,KANSAS HOLDCO1,110017542499,issues,issues,issues,issues,issues,issues,issues,issues,issues,issues,issues,issues,issues,left_only
3080,98108STTLB6333F,GENERAL BIODIESEL SEATTLE LLC,325199,562119.0,424720.0,issues,issues,issues,GENERAL BIODIESEL INC,110022932399,issues,issues,issues,issues,issues,issues,issues,issues,issues,issues,issues,issues,issues,left_only
3094,08903KZCHM500JE,AKCROS CHEMICALS INC,325199,325510.0,issues,issues,issues,issues,issues,110000322614,issues,issues,issues,issues,issues,issues,issues,issues,issues,issues,issues,issues,issues,left_only
3102,33860TMPLC9995S,TAMPA ELECTRIC CO POLK POWER STATION,221112,issues,issues,issues,issues,issues,TECO ENERGY INC,110000365113,issues,issues,issues,issues,issues,issues,issues,issues,issues,issues,issues,issues,issues,left_only
3114,7057WFLWCH289CU,FLOWCHEM TECHNOLOGIES LLC,325199,issues,issues,issues,issues,issues,DORF KETAL CHEMICALS LLC,110039073962,issues,issues,issues,issues,issues,issues,issues,issues,issues,issues,issues,issues,issues,left_only
3123,42519CPRPW1247S,JOHN S COOPER POWER STATION,221112,issues,issues,issues,issues,issues,EAST KENTUCKY POWER COOPERATIVE INC,110041007166,issues,issues,issues,issues,issues,issues,issues,issues,issues,issues,issues,issues,issues,left_only
3130,96793MLGNRNKIHE,MAUI ELECTRIC CO LTD MAALAEA GENERATING STATION,221112,221121.0,issues,issues,issues,issues,HAWAIIAN ELECTRIC INDUSTRIES INC,110010385528,issues,issues,issues,issues,issues,issues,issues,issues,issues,issues,issues,issues,issues,left_only
3136,84624NTRMN850BR,INTERMOUNTAIN POWER GENERATING STATION,221112,issues,issues,issues,issues,issues,INTERMOUNTAIN POWER AGENCY,110000470053,issues,issues,issues,issues,issues,issues,issues,issues,issues,issues,issues,issues,issues,left_only
3156,54474WSTNP2501M,WESTON POWER PLANT,221112,issues,issues,issues,issues,issues,WEC ENERGY GROUP,110043779783,issues,issues,issues,issues,issues,issues,issues,issues,issues,issues,issues,issues,issues,left_only
3170,18104PTMNMNORTH,GEO SPECIALTY CHEMICALS TRIMET PRODUCTS GROUP,325199,issues,issues,issues,issues,issues,GEO SPECIALTY CHEMICALS INC,110000335174,issues,issues,issues,issues,issues,issues,issues,issues,issues,issues,issues,issues,issues,left_only
3175,48183DTRTD4695W,DTE ELECTRIC CO - TRENTON CHANNEL POWER PLANT,221112,issues,issues,issues,issues,issues,DTE ENERGY CO,110000406267,issues,issues,issues,issues,issues,issues,issues,issues,issues,issues,issues,issues,issues,left_only
3184,15927CLVRP141IN,COLVER GREEN ENERGY,221112,issues,issues,issues,issues,issues,GENERATION HOLDINGS LP,110001147786,issues,issues,issues,issues,issues,issues,issues,issues,issues,issues,issues,issues,issues,left_only
3196,63055LBDPWNO10L,AMEREN MISSOURI LABADIE ENERGY CENTER,221112,issues,issues,issues,issues,issues,AMEREN CORP,110000440470,issues,issues,issues,issues,issues,issues,issues,issues,issues,issues,issues,issues,issues,left_only
3210,95330FRSMP16777,J R SIMPLOT CO LATHROP,325311,issues,issues,issues,issues,issues,J R SIMPLOT CO,110000485109,issues,issues,issues,issues,issues,issues,issues,issues,issues,issues,issues,issues,issues,left_only
3211,95330FRSMP16777,J R SIMPLOT CO LATHROP,325312,325311.0,issues,issues,issues,issues,J R SIMPLOT CO,110000485109,issues,issues,issues,issues,issues,issues,issues,issues,issues,issues,issues,issues,issues,left_only
3212,95330FRSMP16777,J R SIMPLOT CO LATHROP,325312,issues,issues,issues,issues,issues,J R SIMPLOT CO,110000485109,issues,issues,issues,issues,issues,issues,issues,issues,issues,issues,issues,issues,issues,left_only
3217,07410FSHRS1REAG,FISHER SCIENTIFIC CO L.L. C.,325199,issues,issues,issues,issues,issues,THERMO FISHER SCIENTIFIC INC,110000319904,issues,issues,issues,issues,issues,issues,issues,issues,issues,issues,issues,issues,issues,left_only
3228,18237NRTHSRTE30,NORTHEASTERN POWER CO,221112,issues,issues,issues,issues,issues,VISTRA ENERGY CORP,110000584421,issues,issues,issues,issues,issues,issues,issues,issues,issues,issues,issues,issues,issues,left_only
3235,33566CNTRL10MIL,MOSAIC FERTILIZER LLC-PLANT CITY,325312,issues,issues,issues,issues,issues,THE MOSAIC CO,110064790267,issues,issues,issues,issues,issues,issues,issues,issues,issues,issues,issues,issues,issues,left_only
3248,77598GFCHMPOBOX,ISP TECHNOLOGIES INC,325199,issues,issues,issues,issues,issues,ASHLAND INC,110000619466,issues,issues,issues,issues,issues,issues,issues,issues,issues,issues,issues,issues,issues,left_only
3262,74651SNRGNHWY15,OGE ENERGY CORP SOONER GENERATING STATION,221112,issues,issues,issues,issues,issues,OGE ENERGY CORP,110000598611,issues,issues,issues,issues,issues,issues,issues,issues,issues,issues,issues,issues,issues,left_only
3275,97818BRDMN73334,BOARDMAN PLANT,221112,issues,issues,issues,issues,issues,PORTLAND GENERAL ELECTRIC,110000488838,issues,issues,issues,issues,issues,issues,issues,issues,issues,issues,issues,issues,issues,left_only
3283,13126NGRMH261WA,OSWEGO HARBOR POWER,221112,issues,issues,issues,issues,issues,GENERATION BRIDGE LLC,110000325416,issues,issues,issues,issues,issues,issues,issues,issues,issues,issues,issues,issues,issues,left_only
3285,42029PNNWLALTON,ARKEMA INC,325199,325211.0,issues,issues,issues,issues,ARKEMA DELAWARE INC,110000380061,issues,issues,issues,issues,issues,issues,issues,issues,issues,issues,issues,issues,issues,left_only
3299,23234CGNTR5001C,SPRUANCE GENCO LLC,221112,issues,issues,issues,issues,issues,DUPONT DE NEMOURS INC,110000868865,issues,issues,issues,issues,issues,issues,issues,issues,issues,issues,issues,issues,issues,left_only
3307,77541NLCCHPODRA,CHAMPIONX FREEPORT,325199,issues,issues,issues,issues,issues,CHAMPIONX CORP,110000754167,issues,issues,issues,issues,issues,issues,issues,issues,issues,issues,issues,issues,issues,left_only
3322,43961FRSTNSTATE,W H SAMMIS PLANT,221112,221111.0,221121.0,221122.0,221113.0,issues,ENERGY HARBOR LLC,110000591609,issues,issues,issues,issues,issues,issues,issues,issues,issues,issues,issues,issues,issues,left_only
3325,43961FRSTNSTATE,W H SAMMIS PLANT,221112,221111.0,221121.0,221113.0,221122.0,issues,ENERGY HARBOR LLC,110000591609,issues,issues,issues,issues,issues,issues,issues,issues,issues,issues,issues,issues,issues,left_only
3342,73701FRMLN1MILE,KOCH FERTILIZER ENID LLC,325311,issues,issues,issues,issues,issues,KOCH INDUSTRIES INC,110000536714,issues,issues,issues,issues,issues,issues,issues,issues,issues,issues,issues,issues,issues,left_only
3348,3950WCHNNL14373,CHANNEL CHEMICAL CORP,325199,issues,issues,issues,issues,issues,issues,110000537893,issues,issues,issues,issues,issues,issues,issues,issues,issues,issues,issues,issues,issues,left_only
3358,82942JMBRD9MILE,PACIFICORP JIM BRIDGER PLANT & BRIDGER COAL CO,221112,212111.0,issues,issues,issues,issues,BERKSHIRE HATHAWAY INC,110007899970,issues,issues,issues,issues,issues,issues,issues,issues,issues,issues,issues,issues,issues,left_only
3376,21620HLSMRMDRTE,EASTMAN SPECIALTIES CORP,325199,issues,issues,issues,issues,issues,EASTMAN CHEMICAL CO,110000340275,issues,issues,issues,issues,issues,issues,issues,issues,issues,issues,issues,issues,issues,left_only
3382,77520CHMCL12321,CHEMICALS INC,325199,issues,issues,issues,issues,issues,CHEMICALS INC,110009115545,issues,issues,issues,issues,issues,issues,issues,issues,issues,issues,issues,issues,issues,left_only
3388,7656WSNDWG378CH,SANDOW 5 GENERATING PLANT & LIGNITE MINE,221112,issues,issues,issues,issues,issues,VISTRA ENERGY CORP,110069446576,issues,issues,issues,issues,issues,issues,issues,issues,issues,issues,issues,issues,issues,left_only
3406,71280NGSCHLAHWY,ANGUS CHEMICAL CO,325199,issues,issues,issues,issues,issues,issues,110000450477,issues,issues,issues,issues,issues,issues,issues,issues,issues,issues,issues,issues,issues,left_only
3419,42452RDGRN9000H,BIG RIVERS ELECTRIC CORP REID/GREEN/HMP&L STATION II,221112,issues,issues,issues,issues,issues,BIG RIVERS ELECTRIC CORP,110000591422,issues,issues,issues,issues,issues,issues,issues,issues,issues,issues,issues,issues,issues,left_only
3436,08223BLNGL900NS,BL ENGLAND GENERATING STATION,221112,issues,issues,issues,issues,issues,ROCKLAND CAPITAL INVESTMENTS,110000321526,issues,issues,issues,issues,issues,issues,issues,issues,issues,issues,issues,issues,issues,left_only
3440,29550HBRBN3512L,DUKE ENERGY PROGRESS LLC - H B ROBINSON/DARLINGTON,221112,221113.0,issues,issues,issues,issues,DUKE ENERGY CORP,110043805326,issues,issues,issues,issues,issues,issues,issues,issues,issues,issues,issues,issues,issues,left_only
3450,41017HSCHM125MA,IOFINA CHEMICAL INC.,325199,issues,issues,issues,issues,issues,IOFINA PLC,110003255888,issues,issues,issues,issues,issues,issues,issues,issues,issues,issues,issues,issues,issues,left_only
3453,15024CHSWCPITTS,CHESWICK POWER PLANT,221112,issues,issues,issues,issues,issues,GENON HOLDINGS INC.,110056969641,issues,issues,issues,issues,issues,issues,issues,issues,issues,issues,issues,issues,issues,left_only
3466,79765NLCXX12205,CHAMPIONX-ODESSA EAST 528,325199,issues,issues,issues,issues,issues,CHAMPIONX CORP,110000600136,issues,issues,issues,issues,issues,issues,issues,issues,issues,issues,issues,issues,issues,left_only
3473,37763STVKNSWANP,U.S. TVA KINGSTON FOSSIL PLANT,221112,issues,issues,issues,issues,issues,US TENNESSEE VALLEY AUTHORITY,110000372631,issues,issues,issues,issues,issues,issues,issues,issues,issues,issues,issues,issues,issues,left_only
3492,44108FLWPL12819,FLOW POLYMERS LLC,325199,325998.0,325211.0,issues,issues,issues,POLYMER SOLUTIONS GROUP,110004625870,issues,issues,issues,issues,issues,issues,issues,issues,issues,issues,issues,issues,issues,left_only
3494,14304NCTCR40047,NIACET CORP,325199,issues,issues,issues,issues,issues,issues,110000327450,issues,issues,issues,issues,issues,issues,issues,issues,issues,issues,issues,issues,issues,left_only
3503,80549RWHDN2700E,RAWHIDE ENERGY STATION,221112,issues,issues,issues,issues,issues,PLATTE RIVER POWER AUTHORITY,110000607148,issues,issues,issues,issues,issues,issues,issues,issues,issues,issues,issues,issues,issues,left_only
3512,98531CNTRL913BI,TRANSALTA CENTRALIA GENERATION / MINING,221112,issues,issues,issues,issues,issues,TRANSALTA USA INC,110000490665,issues,issues,issues,issues,issues,issues,issues,issues,issues,issues,issues,issues,issues,left_only
3527,25015DPNTB901WE,CHEMOURS BELLE PLANT,325199,325211.0,issues,issues,issues,issues,THE CHEMOURS CO,110000344182,issues,issues,issues,issues,issues,issues,issues,issues,issues,issues,issues,issues,issues,left_only
3555,67851HLCMB2440H,HOLCOMB UNIT 1,221112,issues,issues,issues,issues,issues,SUNFLOWER ELECTRIC POWER CORP,110009570259,issues,issues,issues,issues,issues,issues,issues,issues,issues,issues,issues,issues,issues,left_only
3560,36512LBMPWUSHWY,BARRY STEAM PLANT,221112,issues,issues,issues,issues,issues,SOUTHERN CO,110000741270,issues,issues,issues,issues,issues,issues,issues,issues,issues,issues,issues,issues,issues,left_only
3573,71052CLCCR963PO,DOLET HILLS POWER STATION,221112,issues,issues,issues,issues,issues,CLECO CORPORATE HOLDINGS LLC,110000450155,issues,issues,issues,issues,issues,issues,issues,issues,issues,issues,issues,issues,issues,left_only
3591,53202PHRMC2202N,THERMO FISHER SCIENTIFIC MILWAUKEE LLC,325199,issues,issues,issues,issues,issues,THERMO FISHER SCIENTIFIC INC,110000418236,issues,issues,issues,issues,issues,issues,issues,issues,issues,issues,issues,issues,issues,left_only
3595,26541FRTMRRTE53,FORT MARTIN POWER STATION,221112,issues,issues,issues,issues,issues,FIRSTENERGY CORP,110043799501,issues,issues,issues,issues,issues,issues,issues,issues,issues,issues,issues,issues,issues,left_only
3610,40299RSSTC11208,RUSSTECH ADMIXTURES INC,325199,issues,issues,issues,issues,issues,issues,110000378788,issues,issues,issues,issues,issues,issues,issues,issues,issues,issues,issues,issues,issues,left_only
3613,62217LLNSP1901B,BALDWIN ENERGY COMPLEX,221112,issues,issues,issues,issues,issues,DYNEGY INC,110011697075,issues,issues,issues,issues,issues,issues,issues,issues,issues,issues,issues,issues,issues,left_only
3630,19022DDYSTNO1IN,EDDYSTONE GENERATING STATION,221112,issues,issues,issues,issues,issues,CONSTELLATION ENERGY GENERATION LLC,110000817493,issues,issues,issues,issues,issues,issues,issues,issues,issues,issues,issues,issues,issues,left_only
3635,2312WBRGRD268CG,BEAR GARDEN GENERATING STATION,221112,issues,issues,issues,issues,issues,DOMINION ENERGY INC,110040579424,issues,issues,issues,issues,issues,issues,issues,issues,issues,issues,issues,issues,issues,left_only
3639,16374SCRBGRR1LI,SCRUBGRASS GENERATING PLANT,221112,issues,issues,issues,issues,issues,Q POWER LLC,110005981296,issues,issues,issues,issues,issues,issues,issues,issues,issues,issues,issues,issues,issues,left_only
3653,30161PCHST180BU,POLYVENTIVE - ROME,325199,issues,issues,issues,issues,issues,POLYVENTIVE LLC,110000356695,issues,issues,issues,issues,issues,issues,issues,issues,issues,issues,issues,issues,issues,left_only
3658,61537HNRYFRICHA,UNITY ENVIROTECH OF ILLINOIS,325312,issues,issues,issues,issues,issues,issues,110007051448,issues,issues,issues,issues,issues,issues,issues,issues,issues,issues,issues,issues,issues,left_only
3662,85602PCHPWAPACH,APACHE NITROGEN PRODUCTS INC,325311,issues,issues,issues,issues,issues,issues,110017427033,issues,issues,issues,issues,issues,issues,issues,issues,issues,issues,issues,issues,issues,left_only
3667,07036CGNTCRAILR,COGEN TECHNOLOGIES LINDEN VENTURE L.P.,221112,issues,issues,issues,issues,issues,EAST COAST POWER LLC,110002047286,issues,issues,issues,issues,issues,issues,issues,issues,issues,issues,issues,issues,issues,left_only
3668,17832FSTRWMARIO,MOUNT CARMEL COGEN FACILITY,221112,issues,issues,issues,issues,issues,issues,110007026306,issues,issues,issues,issues,issues,issues,issues,issues,issues,issues,issues,issues,issues,left_only
3678,02726SGNNWBRAYT,BRAYTON POINT ENERGY LLC,221112,issues,issues,issues,issues,issues,DYNEGY INC,110028092597,issues,issues,issues,issues,issues,issues,issues,issues,issues,issues,issues,issues,issues,left_only
3685,99336CHVRNBOWLE,AGRIUM US INC KENNEWICK FERTILIZER OPERATION,325311,424690.0,424910.0,issues,issues,issues,AGRIUM US INC,110007030186,issues,issues,issues,issues,issues,issues,issues,issues,issues,issues,issues,issues,issues,left_only
3688,70057WTCCRRIVER,GALATA CHEMICALS LLC - GALATA TAFT FACILITY,325199,325180.0,issues,issues,issues,issues,issues,110000602465,issues,issues,issues,issues,issues,issues,issues,issues,issues,issues,issues,issues,issues,left_only
3701,36614MRCNCCYANA,KEMIRA CHEMICALS INC,325199,issues,issues,issues,issues,issues,KEMIRA CHEMICALS INC,110041965460,issues,issues,issues,issues,issues,issues,issues,issues,issues,issues,issues,issues,issues,left_only
3704,08536FRMNCPRINC,FIRMENICH INC,325199,325620.0,311930.0,issues,issues,issues,issues,110000321651,issues,issues,issues,issues,issues,issues,issues,issues,issues,issues,issues,issues,issues,left_only
3706,28345PRGRSNCSR1,DUKE ENERGY PROGRESS LLC - SMITH ENERGY COMPLEX,221112,issues,issues,issues,issues,issues,DUKE ENERGY CORP,110004060417,issues,issues,issues,issues,issues,issues,issues,issues,issues,issues,issues,issues,issues,left_only
3710,37134CYPRSLONGS,ALBEMARLE U.S. INC.,325199,issues,issues,issues,issues,issues,ALBEMARLE CORP,110000741314,issues,issues,issues,issues,issues,issues,issues,issues,issues,issues,issues,issues,issues,left_only
3717,5971WDVGTS241UN,DAVE GATES GENERATING STATION,221112,issues,issues,issues,issues,issues,NORTHWESTERN ENERGY CORP,110043693964,issues,issues,issues,issues,issues,issues,issues,issues,issues,issues,issues,issues,issues,left_only
3722,31323BFLCRCHEMI,FLOCRYL LLC - ACRYLAMIDE PLANT,325199,issues,issues,issues,issues,issues,SNF HOLDING CO,110027375775,issues,issues,issues,issues,issues,issues,issues,issues,issues,issues,issues,issues,issues,left_only
3725,77541HNTSM307CO,HUNTSMAN ETHYLENEAMINES PLANT,325199,issues,issues,issues,issues,issues,HUNTSMAN INC,110012256076,issues,issues,issues,issues,issues,issues,issues,issues,issues,issues,issues,issues,issues,left_only
3730,38474CMRCSMTJOY,CYTEC INDUSTRIES INC,325199,325211.0,issues,issues,issues,issues,SOLVAY HOLDING INC,110000375184,issues,issues,issues,issues,issues,issues,issues,issues,issues,issues,issues,issues,issues,left_only
3740,34219FPLMN19050,FLORIDA POWER & LIGHT CO FPL MANATEE POWER PLANT,221112,issues,issues,issues,issues,issues,NEXTERA ENERGY INC,110000496776,issues,issues,issues,issues,issues,issues,issues,issues,issues,issues,issues,issues,issues,left_only
3744,07105LNCHM268DO,ELAN CHEMICAL CO INC,325199,issues,issues,issues,issues,issues,issues,110000319423,issues,issues,issues,issues,issues,issues,issues,issues,issues,issues,issues,issues,issues,left_only
3748,11768NRTHPWATER,NATIONAL GRID  NORTHPORT POWER STATION,221112,issues,issues,issues,issues,issues,NATIONAL GRID USA,110000582398,issues,issues,issues,issues,issues,issues,issues,issues,issues,issues,issues,issues,issues,left_only
3751,7752WMMNTV845WE,HEXION INC - BAYTOWN PLANT,325199,issues,issues,issues,issues,issues,HEXION HOLDINGS CORP,110000756361,issues,issues,issues,issues,issues,issues,issues,issues,issues,issues,issues,issues,issues,left_only
3753,06497HMPFR292LO,HAMPFORD RESEARCH INC,325199,issues,issues,issues,issues,issues,issues,110000316701,issues,issues,issues,issues,issues,issues,issues,issues,issues,issues,issues,issues,issues,left_only
3757,70734RPRDS36637,BASF NORTH GEISMAR SITE,325199,325211.0,issues,issues,issues,issues,BASF CORP,110000746783,issues,issues,issues,issues,issues,issues,issues,issues,issues,issues,issues,issues,issues,left_only
3763,70821STFFRAIRLI,SOLVAY USA INC,325199,issues,issues,issues,issues,issues,SOLVAY HOLDING INC,110000450100,issues,issues,issues,issues,issues,issues,issues,issues,issues,issues,issues,issues,issues,left_only
3771,64833SBRYG21133,EMPIRE DISTRICT ELECTRIC CO ASBURY GENERATING STATION,221112,issues,issues,issues,issues,issues,THE EMPIRE DISTRICT ELECTRIC CO,110056960418,issues,issues,issues,issues,issues,issues,issues,issues,issues,issues,issues,issues,issues,left_only
3781,06604BRDGP1ATLA,PSEG POWER CONNECTICUT LLC BRIDGEPORT HARBOR STATION,221112,issues,issues,issues,issues,issues,PUBLIC SERVICE ENTERPRISE GROUP,110000316989,issues,issues,issues,issues,issues,issues,issues,issues,issues,issues,issues,issues,issues,left_only
3788,08862WTCCR1000C,LANXESS CORP,325199,issues,issues,issues,issues,issues,LANXESS CORP,110000322286,issues,issues,issues,issues,issues,issues,issues,issues,issues,issues,issues,issues,issues,left_only
3793,27525NVBCHSTATE,NOVOZYMES NA INC,325199,issues,issues,issues,issues,issues,NOVOZYMES US INC,110000346849,issues,issues,issues,issues,issues,issues,issues,issues,issues,issues,issues,issues,issues,left_only
3797,95012LTRPR11225,FUJIFILM ULTRA PURE SOLUTIONS INC.,325199,issues,issues,issues,issues,issues,FUJIFILM ELECTRONIC MATERIALS USA INC.,110025317707,issues,issues,issues,issues,issues,issues,issues,issues,issues,issues,issues,issues,issues,left_only
3801,06810RSCRP36OLD,RSA CORP,325199,issues,issues,issues,issues,issues,issues,110011370097,issues,issues,issues,issues,issues,issues,issues,issues,issues,issues,issues,issues,issues,left_only
3810,7237WPLMPN2732A,PLUM POINT ENERGY STATION,221112,issues,issues,issues,issues,issues,PLUM POINT ENERGY ASSOCIATES LLC,110033168391,issues,issues,issues,issues,issues,issues,issues,issues,issues,issues,issues,issues,issues,left_only
3826,53901CLMBNW8385,COLUMBIA ENERGY CENTER,221112,issues,issues,issues,issues,issues,ALLIANT ENERGY CORP,110000420385,issues,issues,issues,issues,issues,issues,issues,issues,issues,issues,issues,issues,issues,left_only
3846,11105NWYRK31032,CHARLES POLETTI POWER PROJECT & 500 MW PLANT,221112,issues,issues,issues,issues,issues,NEW YORK POWER AUTHORITY,110000323230,issues,issues,issues,issues,issues,issues,issues,issues,issues,issues,issues,issues,issues,left_only
3850,08014MNSNTROUTE,VALTRIS SPECIALTY CHEMICALS-DELAWARE RIVER PLANT,325199,issues,issues,issues,issues,issues,POLYMER ADDITIVES INC,110000582003,issues,issues,issues,issues,issues,issues,issues,issues,issues,issues,issues,issues,issues,left_only
3864,10009CNSLD801E1,CONSOLIDATED EDISON CO OF NEW YORK - EAST RIVER FACILITY,221112,issues,issues,issues,issues,issues,CONSOLIDATED EDISON INC,110000322623,issues,issues,issues,issues,issues,issues,issues,issues,issues,issues,issues,issues,issues,left_only
3867,82716NLSMP13151,BLACK HILLS CORP - NEIL SIMPSON COMPLEX,221112,issues,issues,issues,issues,issues,BLACK HILLS CORP,110000600341,issues,issues,issues,issues,issues,issues,issues,issues,issues,issues,issues,issues,issues,left_only
3878,27809CGNTRRTE2S,EDGECOMBE GENCO LLC,221112,issues,issues,issues,issues,issues,CALYPSO ENERGY HOLDINGS LLC,110022568531,issues,issues,issues,issues,issues,issues,issues,issues,issues,issues,issues,issues,issues,left_only
3881,77507QSTRC5761U,EQUISTAR CHEMICALS BAYPORT CHEMICALS PLANT,325199,issues,issues,issues,issues,issues,LYONDELLBASELL INDUSTRIES,110000506079,issues,issues,issues,issues,issues,issues,issues,issues,issues,issues,issues,issues,issues,left_only
3891,65804JMSRV5701K,JAMES RIVER POWER STATION,221112,issues,issues,issues,issues,issues,CITY UTILITIES OF SPRINGFIELD MO,110000445037,issues,issues,issues,issues,issues,issues,issues,issues,issues,issues,issues,issues,issues,left_only
3895,70807HCHST11911,DELTECH MONOMERS OPCO LLC,325199,issues,issues,issues,issues,issues,issues,110000450002,issues,issues,issues,issues,issues,issues,issues,issues,issues,issues,issues,issues,issues,left_only
3910,61327LLNVCRR1XX,HENNEPIN POWER STATION,221112,issues,issues,issues,issues,issues,DYNEGY INC,110006166139,issues,issues,issues,issues,issues,issues,issues,issues,issues,issues,issues,issues,issues,left_only
3925,25265MNTNRRTE33,MOUNTAINEER PLANT,221112,issues,issues,issues,issues,issues,AMERICAN ELECTRIC POWER,110067041837,issues,issues,issues,issues,issues,issues,issues,issues,issues,issues,issues,issues,issues,left_only
3942,42071VNDRBPENNY,VANDERBILT CHEMICALS LLC-MURRAY DIV,325199,issues,issues,issues,issues,issues,RT VANDERBILT HOLDING CO INC,110000498701,issues,issues,issues,issues,issues,issues,issues,issues,issues,issues,issues,issues,issues,left_only
3955,40272LSVLL14660,LOUISVILLE GAS & ELECTRIC CO. - MILL CREEK STATION,221112,issues,issues,issues,issues,issues,PPL CORP,110000378733,issues,issues,issues,issues,issues,issues,issues,issues,issues,issues,issues,issues,issues,left_only
3975,61520CLCDC17751,DUCK CREEK POWER STATION,221112,issues,issues,issues,issues,issues,VISTRA ENERGY CORP.,110000437947,issues,issues,issues,issues,issues,issues,issues,issues,issues,issues,issues,issues,issues,left_only
3994,25143CSNCXWEST1,AC&S INC,325199,issues,issues,issues,issues,issues,issues,110013694038,issues,issues,issues,issues,issues,issues,issues,issues,issues,issues,issues,issues,issues,left_only
4003,68840NTRFL6090O,THE ANDERSONS INC. - GIBBON,325312,issues,issues,issues,issues,issues,THE ANDERSONS INC,110000448347,issues,issues,issues,issues,issues,issues,issues,issues,issues,issues,issues,issues,issues,left_only
4006,42240MFNCH6805J,AMFINE CHEMICAL CORP,325199,issues,issues,issues,issues,issues,issues,110002052894,issues,issues,issues,issues,issues,issues,issues,issues,issues,issues,issues,issues,issues,left_only
4012,51101GRGNL11512,MIDAMERICAN ENERGY CO GEORGE NEAL NORTH,221112,issues,issues,issues,issues,issues,BERKSHIRE HATHAWAY INC,110001323318,issues,issues,issues,issues,issues,issues,issues,issues,issues,issues,issues,issues,issues,left_only
4027,14304THGDY5408B,GOODYEAR TIRE & RUBBER CO,325199,issues,issues,issues,issues,issues,THE GOODYEAR TIRE & RUBBER CO,110019133837,issues,issues,issues,issues,issues,issues,issues,issues,issues,issues,issues,issues,issues,left_only
4076,77507CNTRT52UND,CENTAURI TECHNOLOGIES,325199,issues,issues,issues,issues,issues,CENTAURI TECHNOLOGIES LP,110012183216,issues,issues,issues,issues,issues,issues,issues,issues,issues,issues,issues,issues,issues,left_only
4090,77536DSPSL2525B,TM DEER PARK SERVICES LP,325199,562211.0,325998.0,issues,issues,issues,TEXAS MOLECULAR LP,110017743281,issues,issues,issues,issues,issues,issues,issues,issues,issues,issues,issues,issues,issues,left_only
4138,87421SNJNGCOUNT,SAN JUAN GENERATING STATION,221112,issues,issues,issues,issues,issues,PUBLIC SERVICE CO OF NEW MEXICO,110000600868,issues,issues,issues,issues,issues,issues,issues,issues,issues,issues,issues,issues,issues,left_only
4161,31520SCMGLRTE6B,SYMRISE COLONELS ISLAND FACILITY,325199,issues,issues,issues,issues,issues,SYMRISE AG,110007487059,issues,issues,issues,issues,issues,issues,issues,issues,issues,issues,issues,issues,issues,left_only
4163,29445LNXSS153BU,LANXESS CORP  BUSHY PARK PLANT,325199,issues,issues,issues,issues,issues,LANXESS CORP,110038266051,issues,issues,issues,issues,issues,issues,issues,issues,issues,issues,issues,issues,issues,left_only
4167,77979NNCRBPOBOX,UNION CARBIDE CORP SEADRIFT PLANT,325199,issues,issues,issues,issues,issues,DOW INC.,110007175154,issues,issues,issues,issues,issues,issues,issues,issues,issues,issues,issues,issues,issues,left_only
4185,77830GBBNS25MIL,GIBBONS CREEK STEAM ELECTRIC STATION,221112,issues,issues,issues,issues,issues,issues,110008138078,issues,issues,issues,issues,issues,issues,issues,issues,issues,issues,issues,issues,issues,left_only
4196,77571PPGND1901A,ALTIVIA SPECIALTY CHEMICALS LLC,325199,issues,issues,issues,issues,issues,ALTIVIA SPECIALTY CHEMICALS LLC,110000501341,issues,issues,issues,issues,issues,issues,issues,issues,issues,issues,issues,issues,issues,left_only
4205,77507LNZBY9700B,SOLENIS LLC,325199,issues,issues,issues,issues,issues,PLATINUM EQUITY ADVISORS LLC,110000462945,issues,issues,issues,issues,issues,issues,issues,issues,issues,issues,issues,issues,issues,left_only
4217,42029CYMTC2468I,CYMETECH CORP.,325199,issues,issues,issues,issues,issues,SOJITZ CORP OF AMERICA,110008057128,issues,issues,issues,issues,issues,issues,issues,issues,issues,issues,issues,issues,issues,left_only
4226,55003SKNGG1103K,XCEL ENERGY   A. S. KING GENERATING PLANT,221112,issues,issues,issues,issues,issues,XCEL ENERGY,110000423612,issues,issues,issues,issues,issues,issues,issues,issues,issues,issues,issues,issues,issues,left_only
4240,77507QSTSP12500,TRECORA CHEMICAL INC,325199,issues,issues,issues,issues,issues,TRECORA RESOURCES INC,110000462990,issues,issues,issues,issues,issues,issues,issues,issues,issues,issues,issues,issues,issues,left_only
4252,78611TMNCX706HO,ENTEGRIS INC,325199,issues,issues,issues,issues,issues,ENTEGRIS INC,110012564536,issues,issues,issues,issues,issues,issues,issues,issues,issues,issues,issues,issues,issues,left_only
4257,71282CMPLXPOBOX,COMPLEX CHEMICALS CO INC,325199,issues,issues,issues,issues,issues,issues,110011416510,issues,issues,issues,issues,issues,issues,issues,issues,issues,issues,issues,issues,issues,left_only
4264,42086STVSH7900M,U.S. TVA SHAWNEE FOSSIL PLANT,221112,issues,issues,issues,issues,issues,US TENNESSEE VALLEY AUTHORITY,110000493305,issues,issues,issues,issues,issues,issues,issues,issues,issues,issues,issues,issues,issues,left_only
4289,77507MRCNC4923B,AMERICAN ACRYL LP,325199,issues,issues,issues,issues,issues,AMERICAN ACRYL LLC,110064212276,issues,issues,issues,issues,issues,issues,issues,issues,issues,issues,issues,issues,issues,left_only
4299,55749HBBNG1832S,HIBBING PUBLIC UTILITIES COMMISSION,221112,issues,issues,issues,issues,issues,issues,110001442332,issues,issues,issues,issues,issues,issues,issues,issues,issues,issues,issues,issues,issues,left_only
4303,61554NCRNC13082,POWERTON GENERATING STATION,221112,issues,issues,issues,issues,issues,NRG ENERGY INC,110000438027,issues,issues,issues,issues,issues,issues,issues,issues,issues,issues,issues,issues,issues,left_only
4314,47150PSNRG30JAC,DUKE ENERGY INDIANA INC-GALLAGHER GENERATING STATION,221112,issues,issues,issues,issues,issues,DUKE ENERGY CORP,110007565214,issues,issues,issues,issues,issues,issues,issues,issues,issues,issues,issues,issues,issues,left_only
4321,96707KLLCG91111,KALAELOA COGENERATION PLANT,221112,issues,issues,issues,issues,issues,KALAELOA PARTNERS LP,110070870566,issues,issues,issues,issues,issues,issues,issues,issues,issues,issues,issues,issues,issues,left_only
4330,31907CLLWY6603C,KEMIRA CHEMICALS INC,325199,issues,issues,issues,issues,issues,KEMIRA CHEMICALS INC,110000525879,issues,issues,issues,issues,issues,issues,issues,issues,issues,issues,issues,issues,issues,left_only
4336,52761MSCTN1700I,MUSCATINE POWER & WATER GENERATION,221112,issues,issues,issues,issues,issues,issues,110000415827,issues,issues,issues,issues,issues,issues,issues,issues,issues,issues,issues,issues,issues,left_only
4346,27343RXBRS1700D,DUKE ENERGY PROGRESS LLC - ROXBORO STEAM ELECTRIC PLANT,221112,issues,issues,issues,issues,issues,DUKE ENERGY CORP,110000346386,issues,issues,issues,issues,issues,issues,issues,issues,issues,issues,issues,issues,issues,left_only
4366,42303LMRSM4301U,OWENSBORO MUNICIPAL UTILITIES ELMER SMITH STATION,221112,issues,issues,issues,issues,issues,OWENSBORO MUNICIPAL UTILITIES,110056956940,issues,issues,issues,issues,issues,issues,issues,issues,issues,issues,issues,issues,issues,left_only
4379,77905NVSTS2695L,INV NYLON CHEMICALS AMERICAS VICTORIA SITE,325199,issues,issues,issues,issues,issues,KOCH INDUSTRIES INC,110000464391,issues,issues,issues,issues,issues,issues,issues,issues,issues,issues,issues,issues,issues,left_only
4406,55721BSWLL1200N,BOSWELL ENERGY CENTER,221112,issues,issues,issues,issues,issues,ALLETE INC,110041028492,issues,issues,issues,issues,issues,issues,issues,issues,issues,issues,issues,issues,issues,left_only
4421,76106SYNTH510EC,VALTRIS SPECIALTY CHEMICALS,325199,issues,issues,issues,issues,issues,POLYMER ADDITIVES INC.,110000459441,issues,issues,issues,issues,issues,issues,issues,issues,issues,issues,issues,issues,issues,left_only
4424,45144DYTNP14869,KILLEN STATION,221112,issues,issues,issues,issues,issues,AES CORP,110000591841,issues,issues,issues,issues,issues,issues,issues,issues,issues,issues,issues,issues,issues,left_only
4443,2814WKZNBL485CE,NOURYON SURFACE CHEMISTRY LLC,325199,issues,issues,issues,issues,issues,NOURYON CHEMICALS LLC,110000348936,issues,issues,issues,issues,issues,issues,issues,issues,issues,issues,issues,issues,issues,left_only
4458,75686WLSHPFM173,AMERICAN ELECTRIC POWER WELSH PLANT,221112,issues,issues,issues,issues,issues,AMERICAN ELECTRIC POWER,110013349947,issues,issues,issues,issues,issues,issues,issues,issues,issues,issues,issues,issues,issues,left_only
4470,36653CBGGYGEIGY,BASF CORP,325199,issues,issues,issues,issues,issues,BASF CORP,110000605051,issues,issues,issues,issues,issues,issues,issues,issues,issues,issues,issues,issues,issues,left_only
4490,70066NTRGY17705,WATERFORD 1-3 COMPLEX,221112,issues,issues,issues,issues,issues,ENTERGY CORP,110000732388,issues,issues,issues,issues,issues,issues,issues,issues,issues,issues,issues,issues,issues,left_only
4503,42029GFCHMHIGHW,ISP CHEMICALS LLC,325199,issues,issues,issues,issues,issues,ASHLAND LLC,110000741608,issues,issues,issues,issues,issues,issues,issues,issues,issues,issues,issues,issues,issues,left_only
4520,28451MRCND1690N,AMERICAN DISTILLATION INC,325199,issues,issues,issues,issues,issues,issues,110000350316,issues,issues,issues,issues,issues,issues,issues,issues,issues,issues,issues,issues,issues,left_only
4524,29605THXCHPERIM,ETHOX CHEMICALS LLC,325199,issues,issues,issues,issues,issues,PIEDMONT CHEMICAL INDUSTRIES INC,110000354134,issues,issues,issues,issues,issues,issues,issues,issues,issues,issues,issues,issues,issues,left_only
4532,9970WGLDNV119HH,GOLDEN VALLEY ELECTRIC ASSOC NORTH POLE POWER PLANT,221112,issues,issues,issues,issues,issues,GOLDEN VALLEY ELECTRIC ASSOC,110064086509,issues,issues,issues,issues,issues,issues,issues,issues,issues,issues,issues,issues,issues,left_only
4540,66040LCYGNRR1BO,LA CYGNE GENERATING STATION,221112,issues,issues,issues,issues,issues,EVERGY INC,110000747988,issues,issues,issues,issues,issues,issues,issues,issues,issues,issues,issues,issues,issues,left_only
4558,79371STHWS8MISW,SOUTHWESTERN PUBLIC SERVICE CO TOLK STATION,221112,issues,issues,issues,issues,issues,XCEL ENERGY,110000600056,issues,issues,issues,issues,issues,issues,issues,issues,issues,issues,issues,issues,issues,left_only
4571,62707CTYWT3100S,CITY WATER LIGHT & POWER CITY OF SPRINGFIELD,221112,issues,issues,issues,issues,issues,issues,110056956281,issues,issues,issues,issues,issues,issues,issues,issues,issues,issues,issues,issues,issues,left_only
4586,26505WSTMRMORGA,SI GROUP USA (USAA) LLC-NORTH PLANT,325199,issues,issues,issues,issues,issues,SI GROUP USA LLC,110000572782,issues,issues,issues,issues,issues,issues,issues,issues,issues,issues,issues,issues,issues,left_only
4591,32208SCMGL601CR,SYMRISE AG JACKSONVILLE,325199,issues,issues,issues,issues,issues,SYMRISE AG,110000361965,issues,issues,issues,issues,issues,issues,issues,issues,issues,issues,issues,issues,issues,left_only
4601,52501TTMWG20775,OTTUMWA GENERATING STATION,221112,issues,issues,issues,issues,issues,ALLIANT ENERGY CORP,110000415202,issues,issues,issues,issues,issues,issues,issues,issues,issues,issues,issues,issues,issues,left_only
4615,83276NWSTN3010C,ITAFOS CONDA LLC,325312,issues,issues,issues,issues,issues,ITAFOS CONDA HOLDINGS,110000468351,issues,issues,issues,issues,issues,issues,issues,issues,issues,issues,issues,issues,issues,left_only
4651,70346GRCCHLAHIG,MOSAIC PHOSPHATES CO FAUSTINA PLANT,325311,issues,issues,issues,issues,issues,THE MOSAIC CO,110022324037,issues,issues,issues,issues,issues,issues,issues,issues,issues,issues,issues,issues,issues,left_only
4656,35186LBMPWHWY25,E. C. GASTON ELECTRIC GENERATING PLANT,221112,issues,issues,issues,issues,issues,SOUTHERN CO,110000589097,issues,issues,issues,issues,issues,issues,issues,issues,issues,issues,issues,issues,issues,left_only
4670,70792GRCCHEASTB,MOSAIC FERTILIZER LLC UNCLE SAM PLANT,325312,issues,issues,issues,issues,issues,THE MOSAIC CO,110006020215,issues,issues,issues,issues,issues,issues,issues,issues,issues,issues,issues,issues,issues,left_only
4677,23860JMSRV912ER,CITY POINT ENERGY CENTER,221112,issues,issues,issues,issues,issues,ADVANSIX INC,110000740422,issues,issues,issues,issues,issues,issues,issues,issues,issues,issues,issues,issues,issues,left_only
4679,18013MRTNS6605F,MARTINS CREEK STEAM ELECTRIC STATION,221112,issues,issues,issues,issues,issues,TALEN ENERGY CORP,110000334656,issues,issues,issues,issues,issues,issues,issues,issues,issues,issues,issues,issues,issues,left_only
4683,03801PBLCSGOSLI,SCHILLER STATION,221112,issues,issues,issues,issues,issues,GSP SCHILLER LLC,110000602991,issues,issues,issues,issues,issues,issues,issues,issues,issues,issues,issues,issues,issues,left_only
4695,80903MRTND700SC,COLORADO SPRINGS UTILITIES MARTIN DRAKE POWER PLANT,221112,issues,issues,issues,issues,issues,COLORADO SPRINGS UTILITIES,110009559637,issues,issues,issues,issues,issues,issues,issues,issues,issues,issues,issues,issues,issues,left_only
4700,63028RSHSL100BI,AMEREN MISSOURI RUSH ISLAND ENERGY CENTER,221112,issues,issues,issues,issues,issues,AMEREN CORP,110000440210,issues,issues,issues,issues,issues,issues,issues,issues,issues,issues,issues,issues,issues,left_only
4712,77630NVSTS355AF,INV NYLON CHEMICALS AMERICAS ORANGE SITE,325199,issues,issues,issues,issues,issues,KOCH INDUSTRIES INC,110022523982,issues,issues,issues,issues,issues,issues,issues,issues,issues,issues,issues,issues,issues,left_only
4732,06852KNGNDSCIEN,KING INDUSTRIES INC,325199,issues,issues,issues,issues,issues,issues,110064856204,issues,issues,issues,issues,issues,issues,issues,issues,issues,issues,issues,issues,issues,left_only
4742,72132NTRGY1100W,WHITE BLUFF GENERATING PLANT,221112,issues,issues,issues,issues,issues,ENTERGY CORP,110000451788,issues,issues,issues,issues,issues,issues,issues,issues,issues,issues,issues,issues,issues,left_only
4756,76384KLNNP12567,AMERICAN ELECTRIC POWER OKLAUNION PLANT,221112,issues,issues,issues,issues,issues,AMERICAN ELECTRIC POWER,110000460153,issues,issues,issues,issues,issues,issues,issues,issues,issues,issues,issues,issues,issues,left_only
4766,94565DWCHMFOOTO,CORTEVA AGRISCIENCE LLC,325199,325180.0,325320.0,issues,issues,issues,CORTEVA INC,110000602544,issues,issues,issues,issues,issues,issues,issues,issues,issues,issues,issues,issues,issues,left_only
4791,3540WGYLRD188FA,GAYLORD CHEMICAL CO LLC,325199,issues,issues,issues,issues,issues,issues,110039626170,issues,issues,issues,issues,issues,issues,issues,issues,issues,issues,issues,issues,issues,left_only
4794,49289KZCHM9901S,SILBOND CORP,325199,issues,issues,issues,issues,issues,EVONIK CORP,110056966500,issues,issues,issues,issues,issues,issues,issues,issues,issues,issues,issues,issues,issues,left_only
4796,28345TRNTY11EVH,TRINITY MANUFACTURING INC,325199,325180.0,issues,issues,issues,issues,TRICAL INC,110000349935,issues,issues,issues,issues,issues,issues,issues,issues,issues,issues,issues,issues,issues,left_only
4800,90745NLCCH2111E,NALCO CO - CARSON,325199,issues,issues,issues,issues,issues,ECOLAB INC,110000476137,issues,issues,issues,issues,issues,issues,issues,issues,issues,issues,issues,issues,issues,left_only
4811,77520LDRDN8490W,EL DORADO NITROGEN LLC,325311,issues,issues,issues,issues,issues,LSB INDUSTRIES INC,110000503937,issues,issues,issues,issues,issues,issues,issues,issues,issues,issues,issues,issues,issues,left_only
4815,20608CHLKP25100,CHALK POINT GENERATING STATION,221112,issues,issues,issues,issues,issues,GENON HOLDINGS INC,110005974286,issues,issues,issues,issues,issues,issues,issues,issues,issues,issues,issues,issues,issues,left_only
4825,33572TMPLC13031,TAMPA ELECTRIC CO BIG BEND POWER STATION,221112,issues,issues,issues,issues,issues,TECO ENERGY INC,110008319505,issues,issues,issues,issues,issues,issues,issues,issues,issues,issues,issues,issues,issues,left_only
4839,80542BLDRS5983R,BOULDER SCIENTIFIC CO LLC - MEAD FACILITY,325199,issues,issues,issues,issues,issues,issues,110000467469,issues,issues,issues,issues,issues,issues,issues,issues,issues,issues,issues,issues,issues,left_only
4851,51501CNCLB2115N,MIDAMERICAN ENERGY CO WALTER SCOTT JR ENERGY CENTER,221112,issues,issues,issues,issues,issues,BERKSHIRE HATHAWAY INC,110056965280,issues,issues,issues,issues,issues,issues,issues,issues,issues,issues,issues,issues,issues,left_only
4869,62644HVNPWSTRTE,HAVANA POWER STATION,221112,issues,issues,issues,issues,issues,DYNEGY INC,110000595794,issues,issues,issues,issues,issues,issues,issues,issues,issues,issues,issues,issues,issues,left_only
4883,25213JHNMS1530W,AMERICAN ELECTRIC POWER AMOS PLANT,221112,issues,issues,issues,issues,issues,AMERICAN ELECTRIC POWER,110042086505,issues,issues,issues,issues,issues,issues,issues,issues,issues,issues,issues,issues,issues,left_only
4903,27530HFLST1677O,DUKE ENERGY PROGRESS LLC - H F LEE ENERGY COMPLEX,221112,issues,issues,issues,issues,issues,DUKE ENERGY CORP,110000496552,issues,issues,issues,issues,issues,issues,issues,issues,issues,issues,issues,issues,issues,left_only
4906,77541THDWCBUILD,DOW CHEMICAL CO FREEPORT FACILITY,325199,issues,issues,issues,issues,issues,THE DOW CHEMICAL CO,110008170237,issues,issues,issues,issues,issues,issues,issues,issues,issues,issues,issues,issues,issues,left_only
5002,28704SHVLL200CP,DUKE ENERGY PROGRESS LLC-ASHEVILLE STEAM ELECTRIC PLANT,221112,issues,issues,issues,issues,issues,DUKE ENERGY CORP,110000587071,issues,issues,issues,issues,issues,issues,issues,issues,issues,issues,issues,issues,issues,left_only
5016,32177SMNLGUSHWY,SEMINOLE GENERATING STATION,221112,issues,issues,issues,issues,issues,SEMINOLE ELECTRIC COOPERATIVE,110041142304,issues,issues,issues,issues,issues,issues,issues,issues,issues,issues,issues,issues,issues,left_only
5038,76567SNDWS7MISW,SANDOW STEAM ELECTRIC STATION,221112,issues,issues,issues,issues,issues,VISTRA ENERGY CORP,110007197853,issues,issues,issues,issues,issues,issues,issues,issues,issues,issues,issues,issues,issues,left_only
5054,64098TNGNR20250,IATAN GENERATING STATION,221112,issues,issues,issues,issues,issues,EVERGY INC,110042630542,issues,issues,issues,issues,issues,issues,issues,issues,issues,issues,issues,issues,issues,left_only
5069,48901LNSNG601IS,LANSING BOARD OF WATER & LIGHT-ECKERT,221112,issues,issues,issues,issues,issues,LANSING BOARD OF WATER & LIGHT,110000408531,issues,issues,issues,issues,issues,issues,issues,issues,issues,issues,issues,issues,issues,left_only
5077,11742RCHRD607UN,RICHARD M FLYNN POWER PLANT,221112,issues,issues,issues,issues,issues,NEW YORK POWER AUTHORITY,110000323953,issues,issues,issues,issues,issues,issues,issues,issues,issues,issues,issues,issues,issues,left_only
5081,06506NWHVN1WATE,PSEG NEW HAVEN HARBOR STATION,221112,issues,issues,issues,issues,issues,PUBLIC SERVICE ENTERPRISE GROUP,110000610651,issues,issues,issues,issues,issues,issues,issues,issues,issues,issues,issues,issues,issues,left_only
5084,08859HRCLSSOUTH,ASHLAND SPECIALTY INGREDIENTS (PARLIN PLANT),325199,issues,issues,issues,issues,issues,ASHLAND LLC,110067426716,issues,issues,issues,issues,issues,issues,issues,issues,issues,issues,issues,issues,issues,left_only
5090,28024DKNRGDUKEP,DUKE ENERGY CAROLINAS LLC - ROGERS ENERGY COMPLEX,221112,issues,issues,issues,issues,issues,DUKE ENERGY CORP,110006424404,issues,issues,issues,issues,issues,issues,issues,issues,issues,issues,issues,issues,issues,left_only
5109,53085LDRCH6100H,ALDRICH CHEMICAL CO LLC,325199,issues,issues,issues,issues,issues,EMD HOLDING CORP.,110000605872,issues,issues,issues,issues,issues,issues,issues,issues,issues,issues,issues,issues,issues,left_only
5121,69165GRLDGSHWY2,GERALD GENTLEMAN STATION,221112,issues,issues,issues,issues,issues,NEBRASKA PUBLIC POWER DISTRICT,110000606522,issues,issues,issues,issues,issues,issues,issues,issues,issues,issues,issues,issues,issues,left_only
5133,33805CDMCN3030E,CD MCINTOSH JR POWER PLANT,221112,issues,issues,issues,issues,issues,CITY OF LAKELAND LAKELAND ELECTRIC,110000364882,issues,issues,issues,issues,issues,issues,issues,issues,issues,issues,issues,issues,issues,left_only
5145,6788WLYSSS795SU,KUGLER OIL CO - UDF,325311,issues,issues,issues,issues,issues,KUGLER OIL CO,110064275500,issues,issues,issues,issues,issues,issues,issues,issues,issues,issues,issues,issues,issues,left_only
5146,77532PNNWL18000,ARKEMA INC,325199,issues,issues,issues,issues,issues,ARKEMA DELAWARE INC,110000463258,issues,issues,issues,issues,issues,issues,issues,issues,issues,issues,issues,issues,issues,left_only
5150,23851HRCLSROUTE,SOLENIS LLC,325199,issues,issues,issues,issues,issues,PLATINUM EQUITY LLC,110070828262,issues,issues,issues,issues,issues,issues,issues,issues,issues,issues,issues,issues,issues,left_only
5153,22026PSSMP19000,POSSUM POINT POWER STATION,221112,issues,issues,issues,issues,issues,DOMINION ENERGY INC,110000340774,issues,issues,issues,issues,issues,issues,issues,issues,issues,issues,issues,issues,issues,left_only
5159,83201JRSMPDONSI,J R SIMPLOT CO DON SID ING,325312,325311.0,issues,issues,issues,issues,J R SIMPLOT CO,110000600421,issues,issues,issues,issues,issues,issues,issues,issues,issues,issues,issues,issues,issues,left_only
5178,26366HRRSNRTE20,HARRISON POWER STATION,221112,issues,issues,issues,issues,issues,FIRSTENERGY CORP,110000586125,issues,issues,issues,issues,issues,issues,issues,issues,issues,issues,issues,issues,issues,left_only
5196,19148NLXCHJACKS,INOLEX CHEMICAL CO,325199,issues,issues,issues,issues,issues,INOLEX CHEMICAL CO,110000584797,issues,issues,issues,issues,issues,issues,issues,issues,issues,issues,issues,issues,issues,left_only
5198,29606CRWNMECHEL,TIARCO CHEMICAL,325199,issues,issues,issues,issues,issues,TEXTILE RUBBER & CHEMICAL CO,110042025411,issues,issues,issues,issues,issues,issues,issues,issues,issues,issues,issues,issues,issues,left_only
5205,47567NDNPLRRTE1,IPL PETERSBURG,221112,issues,issues,issues,issues,issues,AES CORP,110037247912,issues,issues,issues,issues,issues,issues,issues,issues,issues,issues,issues,issues,issues,left_only
5224,15748MHMRC1750P,HOMER CITY GENERATION LP,221112,issues,issues,issues,issues,issues,NRG ENERGY INC,110000330339,issues,issues,issues,issues,issues,issues,issues,issues,issues,issues,issues,issues,issues,left_only
5242,84078BNNZP12500,BONANZA POWER PLANT,221112,issues,issues,issues,issues,issues,DESERET POWER,110015757670,issues,issues,issues,issues,issues,issues,issues,issues,issues,issues,issues,issues,issues,left_only
5255,42337STVPR13246,US TVA PARADISE FOSSIL PLANT,221112,issues,issues,issues,issues,issues,US TENNESSEE VALLEY AUTHORITY,110000380882,issues,issues,issues,issues,issues,issues,issues,issues,issues,issues,issues,issues,issues,left_only
5273,29415LBRGH2151K,LANXESS CORP,325199,issues,issues,issues,issues,issues,issues,110017326963,issues,issues,issues,issues,issues,issues,issues,issues,issues,issues,issues,issues,issues,left_only
5286,77520MBYCR8500W,COVESTRO LLC,325199,issues,issues,issues,issues,issues,COVESTRO LLC,110000463098,issues,issues,issues,issues,issues,issues,issues,issues,issues,issues,issues,issues,issues,left_only
5324,68901WHLNNEHWY6,WHELAN ENERGY CENTER (WEC 1 HU WEC 2 PPGA),221112,issues,issues,issues,issues,issues,HASTINGS UTILITIES / PUBLIC POWER GENERATION AGENCY,110001505602,issues,issues,issues,issues,issues,issues,issues,issues,issues,issues,issues,issues,issues,left_only
5330,18043TWRCHPOBOX,TOWER PRODUCTS INC,325199,issues,issues,issues,issues,issues,issues,110000334852,issues,issues,issues,issues,issues,issues,issues,issues,issues,issues,issues,issues,issues,left_only
5333,68368NBRSK4500W,NEBRASKA PUBLIC POWER DISTRICT SHELDON STATION,221112,issues,issues,issues,issues,issues,NEBRASKA PUBLIC POWER DISTRICT,110000447785,issues,issues,issues,issues,issues,issues,issues,issues,issues,issues,issues,issues,issues,left_only
5339,77507KZCHM13000,NOURYON FUNCTIONAL CHEMICALS LLC,325199,issues,issues,issues,issues,issues,NOURYON CHEMICALS LLC,110044232773,issues,issues,issues,issues,issues,issues,issues,issues,issues,issues,issues,issues,issues,left_only
5345,82201LRMRV347GR,BASIN ELECTRIC LARAMIE RIVER STATION,221112,issues,issues,issues,issues,issues,BASIN ELECTRIC POWER COOPERATIVE,110000468075,issues,issues,issues,issues,issues,issues,issues,issues,issues,issues,issues,issues,issues,left_only
5367,77507WLCHM11200,MULTI-CHEM GROUP BAYPORT TX FACILITY,325199,issues,issues,issues,issues,issues,HALLIBURTON ENERGY SERVICES INC,110000463034,issues,issues,issues,issues,issues,issues,issues,issues,issues,issues,issues,issues,issues,left_only
5384,32096CCDNTSTATE,PCS PHOSPHATE WHITE SPRINGS,325312,212392.0,325311.0,issues,issues,issues,POTASHCORP HOLDINGS CO INC.,110000588640,issues,issues,issues,issues,issues,issues,issues,issues,issues,issues,issues,issues,issues,left_only
5401,45804SPLML122SM,ISP LIMA LLC,325199,issues,issues,issues,issues,issues,ASHLAND GLOBAL HOLDINGS INC,110021016229,issues,issues,issues,issues,issues,issues,issues,issues,issues,issues,issues,issues,issues,left_only
5406,80817RYNXN14020,COLORADO SPRINGS UTILITIES RAY NIXON POWER PLANT,221112,221320.0,issues,issues,issues,issues,COLORADO SPRINGS UTILITIES,110000467646,issues,issues,issues,issues,issues,issues,issues,issues,issues,issues,issues,issues,issues,left_only
5417,2654WLNGVW1375F,LONGVIEW POWER,221112,issues,issues,issues,issues,issues,MOUNTAIN STATE ENERGY HOLDINGS LLC,110040576267,issues,issues,issues,issues,issues,issues,issues,issues,issues,issues,issues,issues,issues,left_only
5432,81006PBLCS2005L,PUBLIC SERVICE CO OF COLORADO COMANCHE STATION,221112,issues,issues,issues,issues,issues,XCEL ENERGY,110000467851,issues,issues,issues,issues,issues,issues,issues,issues,issues,issues,issues,issues,issues,left_only
5448,58554RMHSKHWY18,RM HESKETT STATION,221112,issues,issues,issues,issues,issues,MDU RESOURCES GROUP INC,110022356591,issues,issues,issues,issues,issues,issues,issues,issues,issues,issues,issues,issues,issues,left_only
5458,30903CLMBN23COL,PCS NITROGEN FERTILIZER LP,325311,issues,issues,issues,issues,issues,POTASH HOLDING CO INC,110000516120,issues,issues,issues,issues,issues,issues,issues,issues,issues,issues,issues,issues,issues,left_only
5469,46360NRTHRWABAS,NIPSCO MICHIGAN CITY GENERATING STATION,221112,issues,issues,issues,issues,issues,NISOURCE INC,110000592154,issues,issues,issues,issues,issues,issues,issues,issues,issues,issues,issues,issues,issues,left_only
5481,77532KMCNC16503,KMCO CROSBY PLANT,325199,issues,issues,issues,issues,issues,KMCO LLC,110000463249,issues,issues,issues,issues,issues,issues,issues,issues,issues,issues,issues,issues,issues,left_only
5500,21226BRNDN1000B,BRANDON SHORES & WAGNER COMPLEX,221112,issues,issues,issues,issues,issues,TALEN ENERGY,110038162902,issues,issues,issues,issues,issues,issues,issues,issues,issues,issues,issues,issues,issues,left_only
5519,27406NTXCH520BR,LANXESS CORP,325199,issues,issues,issues,issues,issues,LANXESS CORP,110000346581,issues,issues,issues,issues,issues,issues,issues,issues,issues,issues,issues,issues,issues,left_only
5525,62739MRNCR134CI,COFFEEN POWER STATION,221112,issues,issues,issues,issues,issues,VISTRA ENERGY CORP.,110000500501,issues,issues,issues,issues,issues,issues,issues,issues,issues,issues,issues,issues,issues,left_only
5543,52761LSGNR86021,MIDAMERICAN ENERGY-LOUISA GENERATING STATION,221112,issues,issues,issues,issues,issues,BERKSHIRE HATHAWAY INC,110000415783,issues,issues,issues,issues,issues,issues,issues,issues,issues,issues,issues,issues,issues,left_only
5554,77571LPRTC2400M,OXY VINYLS LP LA PORTE VCM PLANT,325199,issues,issues,issues,issues,issues,OCCIDENTAL CHEMICAL HOLDING CORP,110017769734,issues,issues,issues,issues,issues,issues,issues,issues,issues,issues,issues,issues,issues,left_only
5596,29201LNDCH750GR,LINDAU CHEMICALS INC.,325199,issues,issues,issues,issues,issues,issues,110000352467,issues,issues,issues,issues,issues,issues,issues,issues,issues,issues,issues,issues,issues,left_only
5605,49855PRSQS2701L,PRESQUE ISLE POWER PLANT,221112,issues,issues,issues,issues,issues,WEC ENERGY GROUP,110056964030,issues,issues,issues,issues,issues,issues,issues,issues,issues,issues,issues,issues,issues,left_only
5615,75110JTCCHEASTH,TREMCO CPG MANUFACTURING CORP. CORSICANA FACILITY,325199,issues,issues,issues,issues,issues,TREMCO CPG MANUFACTURING CORP.,110000606835,issues,issues,issues,issues,issues,issues,issues,issues,issues,issues,issues,issues,issues,left_only
5630,70346CFNDSHWY30,CF INDUSTRIES NITROGEN LLC,325311,issues,issues,issues,issues,issues,CF INDUSTRIES HOLDINGS INC,110014466372,issues,issues,issues,issues,issues,issues,issues,issues,issues,issues,issues,issues,issues,left_only
5639,58523NTLPV294CO,BASIN ELECTRIC ANTELOPE VALLEY STATION,221112,issues,issues,issues,issues,issues,BASIN ELECTRIC,110000428369,issues,issues,issues,issues,issues,issues,issues,issues,issues,issues,issues,issues,issues,left_only
5640,58523NTLPV294CO,BASIN ELECTRIC ANTELOPE VALLEY STATION,325311,issues,issues,issues,issues,issues,BASIN ELECTRIC,110000428369,issues,issues,issues,issues,issues,issues,issues,issues,issues,issues,issues,issues,issues,left_only
5723,33916HFSCN3052M,FORT MYERS POWER PLANT,221112,issues,issues,issues,issues,issues,NEXTERA ENERGY INC,110000365248,issues,issues,issues,issues,issues,issues,issues,issues,issues,issues,issues,issues,issues,left_only
5726,44110SYNTH1000W,POLYMER ADDITIVES-CLEVELAND PLANT,325199,issues,issues,issues,issues,issues,HIG CAPITAL LLC,110000386895,issues,issues,issues,issues,issues,issues,issues,issues,issues,issues,issues,issues,issues,left_only
5729,60087WKGNG10GRE,WAUKEGAN GENERATING STATION,221112,issues,issues,issues,issues,issues,NRG ENERGY INC,110000430178,issues,issues,issues,issues,issues,issues,issues,issues,issues,issues,issues,issues,issues,left_only
5735,30082MYCHM5544O,COMPASS CHEMICAL INTERNATIONAL LLC,325199,325180.0,issues,issues,issues,issues,ITALMATCH USA CORP,110015326869,issues,issues,issues,issues,issues,issues,issues,issues,issues,issues,issues,issues,issues,left_only
5741,55308NRTHR13999,XCEL ENERGY SHERBURNE COUNTY GENERATING PLANT,221112,issues,issues,issues,issues,issues,XCEL ENERGY,110000424700,issues,issues,issues,issues,issues,issues,issues,issues,issues,issues,issues,issues,issues,left_only
5758,90723PRMNT14700,ALTAIR PARAMOUNT LLC,325199,324110.0,issues,issues,issues,issues,WORLD ENERGY LLC,110000475940,issues,issues,issues,issues,issues,issues,issues,issues,issues,issues,issues,issues,issues,left_only
5770,03304PBLCS97RIV,MERRIMACK STATION,221112,issues,issues,issues,issues,issues,GSP MERRIMACK LLC,110000313802,issues,issues,issues,issues,issues,issues,issues,issues,issues,issues,issues,issues,issues,left_only
5777,61547LNZNCUSROU,ARXADA LLC,325199,issues,issues,issues,issues,issues,ARXADA LLC,110035813117,issues,issues,issues,issues,issues,issues,issues,issues,issues,issues,issues,issues,issues,left_only
5785,78945LCRFY6549P,LCRA FAYETTE POWER PROJECT,221112,issues,issues,issues,issues,issues,LOWER COLORADO RIVER AUTHORITY / CITY OF AUSTIN,110000465620,issues,issues,issues,issues,issues,issues,issues,issues,issues,issues,issues,issues,issues,left_only
5801,77507HCHST9502B,CELANESE LTD CLEAR LAKE PLANT,325199,issues,issues,issues,issues,issues,CELANESE CORP,110067040703,issues,issues,issues,issues,issues,issues,issues,issues,issues,issues,issues,issues,issues,left_only
5818,32653GNSVL10001,GAINESVILLE REGIONAL UTILITIES DEERHAVEN GENERATING STATION,221112,issues,issues,issues,issues,issues,CITY OF GAINESVILLE,110000362615,issues,issues,issues,issues,issues,issues,issues,issues,issues,issues,issues,issues,issues,left_only
5835,63118SGMCH3500D,SIGMA-ALDRICH MANUFACTURING LLC,325199,issues,issues,issues,issues,issues,SIGMA-ALDRICH CORP,110000441308,issues,issues,issues,issues,issues,issues,issues,issues,issues,issues,issues,issues,issues,left_only
5843,42350WLSNSHWY85,BIG RIVERS ELECTRIC CORP. WILSON STATION,221112,issues,issues,issues,issues,issues,BIG RIVERS ELECTRIC CORP,110000717877,issues,issues,issues,issues,issues,issues,issues,issues,issues,issues,issues,issues,issues,left_only
5859,77704PNNWL2052G,ARKEMA INC,325199,issues,issues,issues,issues,issues,ARKEMA DELAWARE INC,110000464168,issues,issues,issues,issues,issues,issues,issues,issues,issues,issues,issues,issues,issues,left_only
5870,14012SSMRS7725L,SOMERSET OPERATING CO LLC,221112,issues,issues,issues,issues,issues,RIESLING POWER LLC,110000326371,issues,issues,issues,issues,issues,issues,issues,issues,issues,issues,issues,issues,issues,left_only
5898,77627CCRYL6350N,MITSUBISHI CHEMICAL AMERICA INC.,325199,issues,issues,issues,issues,issues,issues,110000463917,issues,issues,issues,issues,issues,issues,issues,issues,issues,issues,issues,issues,issues,left_only
5919,33702FLRDPWEEDO,DUKE ENERGY FLORIDA LLC-PL BARTOW POWER PLANT,221112,issues,issues,issues,issues,issues,DUKE ENERGY CORP,110000588846,issues,issues,issues,issues,issues,issues,issues,issues,issues,issues,issues,issues,issues,left_only
5921,14533PNNWLROUTE,ARKEMA INC.,325199,issues,issues,issues,issues,issues,ARKEMA DELAWARE INC,110019470419,issues,issues,issues,issues,issues,issues,issues,issues,issues,issues,issues,issues,issues,left_only
5927,33004FLRDPGRIFF,FPL-LAUDERDALE POWER PLANT,221112,issues,issues,issues,issues,issues,NEXTERA ENERGY INC,110002044065,issues,issues,issues,issues,issues,issues,issues,issues,issues,issues,issues,issues,issues,left_only
5930,40361MLLNCHIGHW,AVANTOR PERFORMANCE MATERIALS,325199,issues,issues,issues,issues,issues,AVANTOR PERFORMANCE MATERIALS INC,110056954112,issues,issues,issues,issues,issues,issues,issues,issues,issues,issues,issues,issues,issues,left_only
5971,58571LLNDL3901H,BASIN ELECTRIC  LELAND OLDS STATION,221112,issues,issues,issues,issues,issues,BASIN ELECTRIC POWER COOPERATIVE,110000595099,issues,issues,issues,issues,issues,issues,issues,issues,issues,issues,issues,issues,issues,left_only
5991,45232HNKLC4900E,EMERY OLEOCHEMICALS LLC CINCINNATI PLANT,325199,issues,issues,issues,issues,issues,EMERY OLEOCHEMICALS UK LTD,110066942321,issues,issues,issues,issues,issues,issues,issues,issues,issues,issues,issues,issues,issues,left_only
6002,49634TSFLR700ME,T.E.S. FILER CITY STATION,221112,issues,issues,issues,issues,issues,TES FILER CITY STATION LP,110056958225,issues,issues,issues,issues,issues,issues,issues,issues,issues,issues,issues,issues,issues,left_only
6008,77640CHVRN2001S,CHEVRON PHILLIPS CHEMICAL CO,325199,issues,issues,issues,issues,issues,CHEVRON CORP & PHILLIPS 66 CO,110020148008,issues,issues,issues,issues,issues,issues,issues,issues,issues,issues,issues,issues,issues,left_only
6013,78343XBSHPUSHWY,OQ CHEMICALS BISHOP LLC,325199,325211.0,325412.0,issues,issues,issues,OQ CHEMICALS CORP,110031352649,issues,issues,issues,issues,issues,issues,issues,issues,issues,issues,issues,issues,issues,left_only
6017,26505MRGNT555BE,MORGANTOWN ENERGY ASSOCIATES,221112,issues,issues,issues,issues,issues,VICINITY ENERGY,110000344903,issues,issues,issues,issues,issues,issues,issues,issues,issues,issues,issues,issues,issues,left_only
6025,19067GLSTN11EST,GELEST INC,325199,issues,issues,issues,issues,issues,MITSUBISHI CHEMICAL AMERICA INC,110012565697,issues,issues,issues,issues,issues,issues,issues,issues,issues,issues,issues,issues,issues,left_only
6028,96740HWNLC73424,HAWAII ELECTRIC LIGHT CO INC   KEAHOLE GENERATING STATION,221112,221121.0,issues,issues,issues,issues,HAWAIIAN ELECTRIC INDUSTRIES INC,110028014093,issues,issues,issues,issues,issues,issues,issues,issues,issues,issues,issues,issues,issues,left_only
6032,86040NVJGN5MIOF,SALT RIVER PROJECT NAVAJO GENERATING STATION,221112,issues,issues,issues,issues,issues,SALT RIVER PROJECT,110028287725,issues,issues,issues,issues,issues,issues,issues,issues,issues,issues,issues,issues,issues,left_only
6052,75650HWPRK2400F,AMERICAN ELECTRIC POWER HW PIRKEY POWER PLANT,221112,issues,issues,issues,issues,issues,AMERICAN ELECTRIC POWER,110000458282,issues,issues,issues,issues,issues,issues,issues,issues,issues,issues,issues,issues,issues,left_only
6073,15774KYSTNRTE21,KEYSTONE POWER PLANT,221112,issues,issues,issues,issues,issues,KEYSTONE-CONEMAUGH PROJECTS LLC,110000538525,issues,issues,issues,issues,issues,issues,issues,issues,issues,issues,issues,issues,issues,left_only
6094,70057NNCRBHWY31,ST CHARLES OPERATIONS (TAFT/STAR) UNION CARBIDE CORP,325199,325211.0,issues,issues,issues,issues,DOW INC,110000597104,issues,issues,issues,issues,issues,issues,issues,issues,issues,issues,issues,issues,issues,left_only
6146,45805BPCHMFORTA,INEOS NITRILES USA LLC,325199,325211.0,325180.0,issues,issues,issues,INEOS NITRILES USA LLC,110057376398,issues,issues,issues,issues,issues,issues,issues,issues,issues,issues,issues,issues,issues,left_only
6173,77015JHNNH16717,MONUMENT CHEMICAL HOUSTON LLC,325199,issues,issues,issues,issues,issues,MONUMENT CHEMICAL LLC,110000460983,issues,issues,issues,issues,issues,issues,issues,issues,issues,issues,issues,issues,issues,left_only
6183,58530MLTNR34012,MINNKOTA POWER COOPERATIVE INC. MILTON R. YOUNG STATION,221112,issues,issues,issues,issues,issues,MINNKOTA POWER COOPERATIVE INC,110000428387,issues,issues,issues,issues,issues,issues,issues,issues,issues,issues,issues,issues,issues,left_only
6200,30722STNDR1010V,TIARCO-RST,325199,issues,issues,issues,issues,issues,TEXTILE RUBBER & CHEMICAL CO. INC.,110000359255,issues,issues,issues,issues,issues,issues,issues,issues,issues,issues,issues,issues,issues,left_only
6208,07306HDSNGDUFFI,PSEG POWER LLC HUDSON GENERATING STATION,221112,issues,issues,issues,issues,issues,PUBLIC SERVICE ENTERPRISE GROUP,110040954296,issues,issues,issues,issues,issues,issues,issues,issues,issues,issues,issues,issues,issues,left_only
6213,78343CLNSNONEMI,TICONA POLYMERS INC,325199,325412.0,325211.0,issues,issues,issues,CELANESE CORP,110000599790,issues,issues,issues,issues,issues,issues,issues,issues,issues,issues,issues,issues,issues,left_only
6225,76033SMTHF312WI,DELEK RENEWABLES LLC,325199,issues,issues,issues,issues,issues,DELEK US HOLDINGS INC,110031000556,issues,issues,issues,issues,issues,issues,issues,issues,issues,issues,issues,issues,issues,left_only
6226,77414HCHSTPOBOX,CELANESE LTD BAY CITY PLANT,325199,issues,issues,issues,issues,issues,CELANESE CORP,110031389192,issues,issues,issues,issues,issues,issues,issues,issues,issues,issues,issues,issues,issues,left_only
6239,79008CMNCMFMROA,AGRIUM US INC,325311,issues,issues,issues,issues,issues,AGRIUM US INC,110056955576,issues,issues,issues,issues,issues,issues,issues,issues,issues,issues,issues,issues,issues,left_only
6249,27820GRGPCAMPAC,GEORGIA-PACIFIC CHEMICALS LLC,325199,325211.0,issues,issues,issues,issues,KOCH INDUSTRIES INC,110000347544,issues,issues,issues,issues,issues,issues,issues,issues,issues,issues,issues,issues,issues,left_only
6255,84539SNNYSONEPO,SUNNYSIDE COGENERATION ASSOCIATES,221112,issues,issues,issues,issues,issues,issues,110000470008,issues,issues,issues,issues,issues,issues,issues,issues,issues,issues,issues,issues,issues,left_only
6259,71447CLCCR275RO,BRAME ENERGY CENTER,221112,issues,issues,issues,issues,issues,CLECO CORPORATE HOLDINGS LLC,110000450627,issues,issues,issues,issues,issues,issues,issues,issues,issues,issues,issues,issues,issues,left_only
6275,73801TRRNT1000T,TERRA INTERNATIONAL (OKLAHOMA) LLC.,325311,issues,issues,issues,issues,issues,CF INDUSTRIES HOLDINGS INC,110000454320,issues,issues,issues,issues,issues,issues,issues,issues,issues,issues,issues,issues,issues,left_only
6282,18015CNCTV2254A,BETHLEHEM ENERGY CENTER,221112,issues,issues,issues,issues,issues,CALPINE CORP,110012565884,issues,issues,issues,issues,issues,issues,issues,issues,issues,issues,issues,issues,issues,left_only
6286,65244THMSHRTE1B,THOMAS HILL ENERGY CENTER,221112,issues,issues,issues,issues,issues,ASSOCIATED ELECTRIC COOPERATIVE INC,110000444243,issues,issues,issues,issues,issues,issues,issues,issues,issues,issues,issues,issues,issues,left_only
6308,54632DRYLNS4651,DAIRYLAND POWER COOPERATIVE - GENOA SITE,221112,issues,issues,issues,issues,issues,DAIRYLAND POWER COOPERATIVE,110000422597,issues,issues,issues,issues,issues,issues,issues,issues,issues,issues,issues,issues,issues,left_only
6315,4501WTDCMP1TEDI,TEDIA CO INC (1409030683),325199,issues,issues,issues,issues,issues,issues,110054208549,issues,issues,issues,issues,issues,issues,issues,issues,issues,issues,issues,issues,issues,left_only
6332,70734BSFCRRIVER,BASF CORP,325199,325194.0,325320.0,325611.0,issues,issues,BASF CORP,110000597364,issues,issues,issues,issues,issues,issues,issues,issues,issues,issues,issues,issues,issues,left_only
6376,81626TRSTT2201R,TRI-STATE GENERATION & TRANSMISSION-CRAIG STATION,221112,issues,issues,issues,issues,issues,issues,110041086393,issues,issues,issues,issues,issues,issues,issues,issues,issues,issues,issues,issues,issues,left_only
6391,64504STJSP1413L,LAKE ROAD STATION,221112,issues,issues,issues,issues,issues,EVERGY INC,110014466069,issues,issues,issues,issues,issues,issues,issues,issues,issues,issues,issues,issues,issues,left_only
6396,49855MRQTTEHAMP,MARQUETTE BOARD OF LIGHT & POWER,221112,issues,issues,issues,issues,issues,issues,110017426962,issues,issues,issues,issues,issues,issues,issues,issues,issues,issues,issues,issues,issues,left_only
6402,77536TXSLK730BA,NOURYON FUNCTIONAL CHEMICALS LLC,325199,issues,issues,issues,issues,issues,NOURYON CHEMICALS LLC,110000463374,issues,issues,issues,issues,issues,issues,issues,issues,issues,issues,issues,issues,issues,left_only
6411,29440WNYHG661ST,WINYAH GENERATING STATION,221112,issues,issues,issues,issues,issues,SOUTH CAROLINA PUBLIC SERVICE AUTHORITY,110000353457,issues,issues,issues,issues,issues,issues,issues,issues,issues,issues,issues,issues,issues,left_only
6426,08023DPNTCRT130,DUPONT SPECIALTY PRODUCTS USA LLC -  CHAMBERS WORKS,325199,issues,issues,issues,issues,issues,DUPONT DE NEMOURS INC,110007970142,issues,issues,issues,issues,issues,issues,issues,issues,issues,issues,issues,issues,issues,left_only
6434,77536WRGRC739BA,GEO SPECIALTY CHEMICALS,325199,issues,issues,issues,issues,issues,GEO SPECIALTY CHEMICALS INC,110000499050,issues,issues,issues,issues,issues,issues,issues,issues,issues,issues,issues,issues,issues,left_only
6440,23927MCKLN204CO,MECKLENBURG POWER STATION,221112,issues,issues,issues,issues,issues,DOMINION ENERGY INC,110000342772,issues,issues,issues,issues,issues,issues,issues,issues,issues,issues,issues,issues,issues,left_only
6443,45217PMCSP501MU,PMC SPECIALTIES GROUP INC,325199,issues,issues,issues,issues,issues,PMC GLOBAL INC,110000393324,issues,issues,issues,issues,issues,issues,issues,issues,issues,issues,issues,issues,issues,left_only
6446,64088SBLYG3200E,SIBLEY GENERATING STATION,221112,issues,issues,issues,issues,issues,EVERGY INC.,110017982593,issues,issues,issues,issues,issues,issues,issues,issues,issues,issues,issues,issues,issues,left_only
6455,35130LBMPW4250P,MILLER STEAM PLANT,221112,issues,issues,issues,issues,issues,SOUTHERN CO,110043792651,issues,issues,issues,issues,issues,issues,issues,issues,issues,issues,issues,issues,issues,left_only
6471,70669VSTCHOLDSP,SASOL CHEMICALS (USA) LLC-LAKE CHARLES CHEMICAL COMPLEX,325199,325120.0,325110.0,325180.0,issues,issues,SASOL (USA) CORP,110017418061,issues,issues,issues,issues,issues,issues,issues,issues,issues,issues,issues,issues,issues,left_only
6504,37716STVBL1265E,U.S. TVA BULL RUN FOSSIL PLANT,221112,issues,issues,issues,issues,issues,US TENNESSEE VALLEY AUTHORITY,110043798487,issues,issues,issues,issues,issues,issues,issues,issues,issues,issues,issues,issues,issues,left_only
6528,45804HMPSH1747F,FORT AMANDA SPECIALTIES LLC,325199,issues,issues,issues,issues,issues,NOURYON CHEMICALS LLC,110000395420,issues,issues,issues,issues,issues,issues,issues,issues,issues,issues,issues,issues,issues,left_only
6534,17370BRNNRWAGOR,BRUNNER ISLAND STEAM ELECTRIC STATION,221112,issues,issues,issues,issues,issues,TALEN ENERGY CORP,110000601778,issues,issues,issues,issues,issues,issues,issues,issues,issues,issues,issues,issues,issues,left_only
6543,77501MBLMN2001J,PCI NITROGEN LLC,325311,325180.0,issues,issues,issues,issues,PASADENA COMMODITIES INTERNATIONAL LLC,110056955521,issues,issues,issues,issues,issues,issues,issues,issues,issues,issues,issues,issues,issues,left_only
6548,77960CLTCRFMRD2,COLETO CREEK POWER STATION,221112,issues,issues,issues,issues,issues,VISTRA CORP,110032992153,issues,issues,issues,issues,issues,issues,issues,issues,issues,issues,issues,issues,issues,left_only
6567,19428SMTHK900RI,JOHNSON MATTHEY INC,325199,issues,issues,issues,issues,issues,JOHNSON MATTHEY INC,110000337653,issues,issues,issues,issues,issues,issues,issues,issues,issues,issues,issues,issues,issues,left_only
6575,96727HMKNR45300,HAMAKUA ENERGY PLANT,221112,issues,issues,issues,issues,issues,HAMAKUA ENERGY PARTNERS LP,110008062265,issues,issues,issues,issues,issues,issues,issues,issues,issues,issues,issues,issues,issues,left_only
6582,40108LNCRPHIGHW,MONUMENT CHEMICAL KENTUCKY LLC,325199,issues,issues,issues,issues,issues,MONUMENT CHEMICAL INC,110000377976,issues,issues,issues,issues,issues,issues,issues,issues,issues,issues,issues,issues,issues,left_only
6600,45631HVLLY5758O,KYGER CREEK STATION,221112,issues,issues,issues,issues,issues,OHIO VALLEY ELECTRIC CORP,110000395162,issues,issues,issues,issues,issues,issues,issues,issues,issues,issues,issues,issues,issues,left_only
6616,70094MRCNC10800,CORNERSTONE CHEMICAL CO,325199,325180.0,325211.0,325311.0,issues,issues,CSTN HOLDINGS INC,110055572232,issues,issues,issues,issues,issues,issues,issues,issues,issues,issues,issues,issues,issues,left_only
6636,97051CHVRN63149,DYNO NOBEL- ST.HELENS PLANT,325311,issues,issues,issues,issues,issues,DYNO NOBEL INC,110041415885,issues,issues,issues,issues,issues,issues,issues,issues,issues,issues,issues,issues,issues,left_only
6640,44301BFGDR240WE,HUNTSMAN ADVANCED MATERIALS AMERICAS LLC,325199,325211.0,325212.0,issues,issues,issues,issues,110000389213,issues,issues,issues,issues,issues,issues,issues,issues,issues,issues,issues,issues,issues,left_only
6649,02129MYSTC173AL,MYSTIC STATION,221112,issues,issues,issues,issues,issues,CONSTELLATION ENERGY GENERATION LLC,110000310841,issues,issues,issues,issues,issues,issues,issues,issues,issues,issues,issues,issues,issues,left_only
6654,52601LLNTN4282S,BURLINGTON GENERATING STATION,221112,issues,issues,issues,issues,issues,ALLIANT ENERGY CORP,110000415355,issues,issues,issues,issues,issues,issues,issues,issues,issues,issues,issues,issues,issues,left_only
6662,7785WKGRVS13MIL,OAK GROVE STEAM ELECTRIC STATION,221112,issues,issues,issues,issues,issues,VISTRA CORP,110034504757,issues,issues,issues,issues,issues,issues,issues,issues,issues,issues,issues,issues,issues,left_only
6682,81639PBLCS12795,PUBLIC SERVICE CO OF COLORADO HAYDEN STATION,221112,issues,issues,issues,issues,issues,XCEL ENERGY,110012355281,issues,issues,issues,issues,issues,issues,issues,issues,issues,issues,issues,issues,issues,left_only
6694,65619STHWSWALNU,JOHN TWITTY ENERGY CENTER,221112,issues,issues,issues,issues,issues,CITY UTILITIES OF SPRINGFIELD MO,110055026396,issues,issues,issues,issues,issues,issues,issues,issues,issues,issues,issues,issues,issues,left_only
6704,29640RTCNC201PI,ORTEC INC,325199,325510.0,325520.0,issues,issues,issues,ORTEC INC,110000354456,issues,issues,issues,issues,issues,issues,issues,issues,issues,issues,issues,issues,issues,left_only
6721,52732QNTMCUSHWY,EQUISTAR CHEMICALS CLINTON PLANT,325199,325211.0,issues,issues,issues,issues,LYONDELLBASELL INDUSTRIES,110012169517,issues,issues,issues,issues,issues,issues,issues,issues,issues,issues,issues,issues,issues,left_only
6726,52732QNTMCUSHWY,EQUISTAR CHEMICALS CLINTON PLANT,325199,issues,issues,issues,issues,issues,LYONDELLBASELL INDUSTRIES,110012169517,issues,issues,issues,issues,issues,issues,issues,issues,issues,issues,issues,issues,issues,left_only
6732,27573MYLCT10660,DUKE ENERGY PROGRESS LLC-MAYO ELECTRIC GENERATING PLANT,221112,issues,issues,issues,issues,issues,DUKE ENERGY CORP,110057382666,issues,issues,issues,issues,issues,issues,issues,issues,issues,issues,issues,issues,issues,left_only
6747,46320KLDVS3000S,DOVER CHEMICAL HAMMOND WORKS,325199,issues,issues,issues,issues,issues,ICC INDUSTRIES INC,110000397945,issues,issues,issues,issues,issues,issues,issues,issues,issues,issues,issues,issues,issues,left_only
6754,26574MRCNBRTE17,AMERICAN BITUMINOUS POWER PARTNERS LP,221112,issues,issues,issues,issues,issues,issues,110007881998,issues,issues,issues,issues,issues,issues,issues,issues,issues,issues,issues,issues,issues,left_only
6769,15944SWRDS595PL,SEWARD POWER PLANT,221112,issues,issues,issues,issues,issues,GENERATION HOLDINGS LP,110006623519,issues,issues,issues,issues,issues,issues,issues,issues,issues,issues,issues,issues,issues,left_only
6789,29927JSPRG1719P,DOMINION ENERGY SOUTH CAROLINA - JASPER GENERATING STATION,221112,issues,issues,issues,issues,issues,DOMINION ENERGY INC,110020013590,issues,issues,issues,issues,issues,issues,issues,issues,issues,issues,issues,issues,issues,left_only
6792,77414XCRPB21FM3,OQ CHEMICALS CORP BAY CITY PLANT,325199,issues,issues,issues,issues,issues,issues,110031389192,issues,issues,issues,issues,issues,issues,issues,issues,issues,issues,issues,issues,issues,left_only
6808,34956MRTNPSR710,FPL-MARTIN PLANT,221112,issues,issues,issues,issues,issues,NEXTERA ENERGY INC,110008320566,issues,issues,issues,issues,issues,issues,issues,issues,issues,issues,issues,issues,issues,left_only
6813,37311MNFCT4325O,MANUFACTURER'S CHEMICAL LP,325199,issues,issues,issues,issues,issues,SYNALLOY CORP,110009492361,issues,issues,issues,issues,issues,issues,issues,issues,issues,issues,issues,issues,issues,left_only
6828,70037CHVRNHIGHW,CHEVRON ORONITE CO LLC,325199,issues,issues,issues,issues,issues,CHEVRON CORP,110000575244,issues,issues,issues,issues,issues,issues,issues,issues,issues,issues,issues,issues,issues,left_only
6846,23703CLNSC3230E,U.S. AMINES (PORTSMOUTH) LLC,325199,issues,issues,issues,issues,issues,US AMINES LTD,110000342399,issues,issues,issues,issues,issues,issues,issues,issues,issues,issues,issues,issues,issues,left_only
6850,80302PBLCS1800N,PUBLIC SERVICE CO OF COLORADO VALMONT STATION,221112,issues,issues,issues,issues,issues,XCEL ENERGY,110000467290,issues,issues,issues,issues,issues,issues,issues,issues,issues,issues,issues,issues,issues,left_only
6855,41008DWCRNUSHIG,DOW SILICONES CORP,325199,issues,issues,issues,issues,issues,DOW INC,110056956511,issues,issues,issues,issues,issues,issues,issues,issues,issues,issues,issues,issues,issues,left_only
6866,68410MHPBLRR3XX,OMAHA PUBLIC POWER DISTRICT NEBRASKA CITY STATION,221112,issues,issues,issues,issues,issues,OMAHA PUBLIC POWER DISTRICT,110000606489,issues,issues,issues,issues,issues,issues,issues,issues,issues,issues,issues,issues,issues,left_only
6880,33534GRDNRHIGHW,MOSAIC FERTILIZER LLC-RIVERVIEW,325312,issues,issues,issues,issues,issues,THE MOSAIC CO,110056968875,issues,issues,issues,issues,issues,issues,issues,issues,issues,issues,issues,issues,issues,left_only
6889,89025RDGRD1WALL,REID GARDNER GENERATING STATION,221112,issues,issues,issues,issues,issues,BERKSHIRE HATHAWAY INC,110000497882,issues,issues,issues,issues,issues,issues,issues,issues,issues,issues,issues,issues,issues,left_only
6893,18067NRTHM1HORW,NORTHAMPTON GENERATING PLANT,221112,issues,issues,issues,issues,issues,OLYMPUS POWER LLC,110006623396,issues,issues,issues,issues,issues,issues,issues,issues,issues,issues,issues,issues,issues,left_only
6902,39475RDMRR304OL,R D MORROW SR GENERATING PLANT,221112,issues,issues,issues,issues,issues,COOPERATIVE ENERGY,110000377271,issues,issues,issues,issues,issues,issues,issues,issues,issues,issues,issues,issues,issues,left_only
6909,14882SCYGL228MI,CAYUGA OPERATING CO L.L.C.,221112,issues,issues,issues,issues,issues,RIESLING POWER LLC,110000328547,issues,issues,issues,issues,issues,issues,issues,issues,issues,issues,issues,issues,issues,left_only
6921,99701RRNRG1204F,AURORA ENERGY LLC,221112,issues,issues,issues,issues,issues,issues,110041255012,issues,issues,issues,issues,issues,issues,issues,issues,issues,issues,issues,issues,issues,left_only
6935,62540KNCDG4MILE,KINCAID POWER STATION,221112,issues,issues,issues,issues,issues,issues,110000602125,issues,issues,issues,issues,issues,issues,issues,issues,issues,issues,issues,issues,issues,left_only
6951,37406SYNRC4001N,LAMBERTI SYNTHESIS USA INC,325199,issues,issues,issues,issues,issues,issues,110015583448,issues,issues,issues,issues,issues,issues,issues,issues,issues,issues,issues,issues,issues,left_only
6961,77541BSFCR602CO,BASF CORP - FREEPORT SITE,325199,issues,issues,issues,issues,issues,BASF CORP,110000463392,issues,issues,issues,issues,issues,issues,issues,issues,issues,issues,issues,issues,issues,left_only
7003,39180BNGCR1833H,ERGON BIOFUELS LLC,325199,issues,issues,issues,issues,issues,issues,110000376502,issues,issues,issues,issues,issues,issues,issues,issues,issues,issues,issues,issues,issues,left_only
7010,70583SCTTB812RE,CHAMPIONX-SCOTT,325199,issues,issues,issues,issues,issues,CHAMPIONX CORP,110000449444,issues,issues,issues,issues,issues,issues,issues,issues,issues,issues,issues,issues,issues,left_only
7020,2273WDMNNR1225L,REMINGTON POWER STATION,221112,issues,issues,issues,issues,issues,DOMINION ENERGY INC,110006363960,issues,issues,issues,issues,issues,issues,issues,issues,issues,issues,issues,issues,issues,left_only
7058,11101CNSLD3854V,RAVENSWOOD GENERATING STATION,221112,issues,issues,issues,issues,issues,HELIX RAVENSWOOD LLC,110033146165,issues,issues,issues,issues,issues,issues,issues,issues,issues,issues,issues,issues,issues,left_only
7061,70765THDWCHIGHW,THE DOW CHEMICAL CO - LOUISIANA OPERATIONS,325199,325998.0,325211.0,issues,issues,issues,DOW INC,110001244724,issues,issues,issues,issues,issues,issues,issues,issues,issues,issues,issues,issues,issues,left_only
7071,70765THDWCHIGHW,THE DOW CHEMICAL CO - LOUISIANA OPERATIONS,325199,issues,issues,issues,issues,issues,DOW INC,110001244724,issues,issues,issues,issues,issues,issues,issues,issues,issues,issues,issues,issues,issues,left_only
7091,70765THDWCHIGHW,THE DOW CHEMICAL CO - LOUISIANA OPERATIONS,325199,325211.0,325998.0,issues,issues,issues,DOW INC,110001244724,issues,issues,issues,issues,issues,issues,issues,issues,issues,issues,issues,issues,issues,left_only
7200,47635RCKPR2791N,ROCKPORT PLANT,221112,issues,issues,issues,issues,issues,AMERICAN ELECTRIC POWER,110000747924,issues,issues,issues,issues,issues,issues,issues,issues,issues,issues,issues,issues,issues,left_only
7226,96792KHGNR89900,HAWAIIAN ELECTRIC CO INC KAHE GENERATING STATION,221112,221121.0,issues,issues,issues,issues,HAWAIIAN ELECTRIC INDUSTRIES INC,110000486439,issues,issues,issues,issues,issues,issues,issues,issues,issues,issues,issues,issues,issues,left_only
7234,70805LLDSGCORNE,HONEYWELL INTERNATIONAL INC-BATON ROUGE PLANT,325199,325180.0,325120.0,issues,issues,issues,HONEYWELL INTERNATIONAL INC,110003266849,issues,issues,issues,issues,issues,issues,issues,issues,issues,issues,issues,issues,issues,left_only
7257,77507DXCHM10701,DIXIE CHEMICAL CO INC,325199,issues,issues,issues,issues,issues,DIXIE HOLDINGS INC,110031409973,issues,issues,issues,issues,issues,issues,issues,issues,issues,issues,issues,issues,issues,left_only
7270,77503LBMRL2500N,ALBEMARLE CORP PASADENA PLANT,325199,issues,issues,issues,issues,issues,ALBEMARLE CORP,110056955987,issues,issues,issues,issues,issues,issues,issues,issues,issues,issues,issues,issues,issues,left_only
7285,77017TXSPT8600P,TPC GROUP LLC,325199,issues,issues,issues,issues,issues,TPC GROUP LLC,110000461134,issues,issues,issues,issues,issues,issues,issues,issues,issues,issues,issues,issues,issues,left_only
7298,23860QLNCM1111H,ASHLAND SPECIALTY INGREDIENTS GP,325199,issues,issues,issues,issues,issues,ASHLAND LLC,110000342665,issues,issues,issues,issues,issues,issues,issues,issues,issues,issues,issues,issues,issues,left_only
7309,53082DGWTR3739L,EDGEWATER GENERATING STATION,221112,issues,issues,issues,issues,issues,ALLIANT ENERGY CORP,110000416871,issues,issues,issues,issues,issues,issues,issues,issues,issues,issues,issues,issues,issues,left_only
7325,45620MRCNL7397N,GAVIN POWER LLC,221112,issues,issues,issues,issues,issues,LIGHTSTONE GENERATION LLC,110043788327,issues,issues,issues,issues,issues,issues,issues,issues,issues,issues,issues,issues,issues,left_only
7346,06810BDKNRFINAN,BEDOUKIAN RESEARCH INC.,325199,issues,issues,issues,issues,issues,issues,110001103118,issues,issues,issues,issues,issues,issues,issues,issues,issues,issues,issues,issues,issues,left_only
7350,77507CRPNT11002,E R CARPENTER LP,325199,325998.0,issues,issues,issues,issues,CARPENTER URETHANES 1 LLC,110000462794,issues,issues,issues,issues,issues,issues,issues,issues,issues,issues,issues,issues,issues,left_only
7363,36582PHNLC7770R,INEOS PHENOL,325199,issues,issues,issues,issues,issues,INEOS USA LLC,110003390143,issues,issues,issues,issues,issues,issues,issues,issues,issues,issues,issues,issues,issues,left_only
7376,26190MRCNCSTRT2,CYTEC INDUSTRIES INC,325199,issues,issues,issues,issues,issues,SOLVAY HOLDING INC,110000344850,issues,issues,issues,issues,issues,issues,issues,issues,issues,issues,issues,issues,issues,left_only
7390,70765NSXDX21255,INEOS OXIDE A DIV OF INEOS AMERICAS LLC,325199,325211.0,issues,issues,issues,issues,INEOS USA LLC,110041092876,issues,issues,issues,issues,issues,issues,issues,issues,issues,issues,issues,issues,issues,left_only
7414,84528PCFCR10MIL,PACIFICORP ENERGY-HUNTINGTON PLANT,221112,issues,issues,issues,issues,issues,BERKSHIRE HATHAWAY INC,110020101922,issues,issues,issues,issues,issues,issues,issues,issues,issues,issues,issues,issues,issues,left_only
7427,79008PHLLP2MILE,CHEVRON PHILLIPS CHEMICAL CO LP BORGER PLANT,325199,issues,issues,issues,issues,issues,CHEVRON PHILLIPS CHEMICAL CO LLC,110041990646,issues,issues,issues,issues,issues,issues,issues,issues,issues,issues,issues,issues,issues,left_only
7439,46319MRCNC420SC,ACS TECHNICAL PRODUCTS INC.,325199,issues,issues,issues,issues,issues,issues,110000397909,issues,issues,issues,issues,issues,issues,issues,issues,issues,issues,issues,issues,issues,left_only
7446,30129HMMND5963A,HAMMOND STEAM ELECTRIC GENERATING PLANT,221112,issues,issues,issues,issues,issues,SOUTHERN CO,110056960515,issues,issues,issues,issues,issues,issues,issues,issues,issues,issues,issues,issues,issues,left_only
7454,77571QNTMC11603,LYONDELLBASELL ACETYLS LLC,325199,issues,issues,issues,issues,issues,LYONDELLBASELL INDUSTRIES,110000463597,issues,issues,issues,issues,issues,issues,issues,issues,issues,issues,issues,issues,issues,left_only
7464,78263WSMMR9599G,CALAVERAS POWER STATION,221112,issues,issues,issues,issues,issues,issues,110000464916,issues,issues,issues,issues,issues,issues,issues,issues,issues,issues,issues,issues,issues,left_only
7478,32226STJHN11201,NORTHSIDE GENERATING STATION,221112,issues,issues,issues,issues,issues,JEA,110070266418,issues,issues,issues,issues,issues,issues,issues,issues,issues,issues,issues,issues,issues,left_only
7495,60439NTCTM15550,CCI MANUFACTURING IL CORP,325199,issues,issues,issues,issues,issues,CCI CORP,110000432871,issues,issues,issues,issues,issues,issues,issues,issues,issues,issues,issues,issues,issues,left_only
7499,30120BWNST317CO,BOWEN STEAM ELECTRIC GENERATING PLANT,221112,issues,issues,issues,issues,issues,SOUTHERN CO,110000356356,issues,issues,issues,issues,issues,issues,issues,issues,issues,issues,issues,issues,issues,left_only
7519,66044LWRNC1250N,LAWRENCE ENERGY CENTER,221112,issues,issues,issues,issues,issues,EVERGY INC,110000445180,issues,issues,issues,issues,issues,issues,issues,issues,issues,issues,issues,issues,issues,left_only
7531,45144DYTNP745US,JM STUART STATION,221112,issues,issues,issues,issues,issues,AES CORP,110070135391,issues,issues,issues,issues,issues,issues,issues,issues,issues,issues,issues,issues,issues,left_only
7553,67231RPRDC6601S,EVONIK CORP,325199,issues,issues,issues,issues,issues,EVONIK CORP,110000446679,issues,issues,issues,issues,issues,issues,issues,issues,issues,issues,issues,issues,issues,left_only
7564,28461CGNTR1281C,CPI USA NORTH CAROLINA LLC,221112,221117.0,issues,issues,issues,issues,issues,110043787783,issues,issues,issues,issues,issues,issues,issues,issues,issues,issues,issues,issues,issues,left_only
7575,38108QCHMC3324C,PENNAKEM LLC,325199,issues,issues,issues,issues,issues,MINAFIN SARL,110009446643,issues,issues,issues,issues,issues,issues,issues,issues,issues,issues,issues,issues,issues,left_only
7588,48218DTRTD1BELA,DTE ELECTRIC COMPANY- RIVER ROUGE POWER PLANT,221112,issues,issues,issues,issues,issues,DTE ENERGY CO,110000406917,issues,issues,issues,issues,issues,issues,issues,issues,issues,issues,issues,issues,issues,left_only
7595,77507GDYRB13441,THE GOODYEAR TIRE & RUBBER CO BAYPORT CHEMICAL PLANT,325199,issues,issues,issues,issues,issues,THE GOODYEAR TIRE & RUBBER CO,110000462856,issues,issues,issues,issues,issues,issues,issues,issues,issues,issues,issues,issues,issues,left_only
7602,56537TTRTL1012W,OTTER TAIL POWER CO HOOT LAKE PLANT,221112,221111.0,issues,issues,issues,issues,OTTER TAIL CORP,110000427422,issues,issues,issues,issues,issues,issues,issues,issues,issues,issues,issues,issues,issues,left_only
7605,08069CRNYS500SH,CHAMBERS COGENERATION LP,221112,issues,issues,issues,issues,issues,EXCALIBUR POWER LLC,110017403264,issues,issues,issues,issues,issues,issues,issues,issues,issues,issues,issues,issues,issues,left_only
7620,11232GWNSG29THS,GOWANUS GENERATING STATION,221112,issues,issues,issues,issues,issues,EASTERN GENERATION LLC,110010433977,issues,issues,issues,issues,issues,issues,issues,issues,issues,issues,issues,issues,issues,left_only
7624,91331MCPRD12306,MOC PRODUCTS CO. INC,325199,325180.0,issues,issues,issues,issues,issues,110000476869,issues,issues,issues,issues,issues,issues,issues,issues,issues,issues,issues,issues,issues,left_only
7630,77571LPRTM11603,LA PORTE METHANOL PLANT,325199,issues,issues,issues,issues,issues,LYONDELLBASELL INDUSTRIES,110043788719,issues,issues,issues,issues,issues,issues,issues,issues,issues,issues,issues,issues,issues,left_only
7633,5656WGVLNF21228,GAVILON FERTILIZER LLC,325312,issues,issues,issues,issues,issues,GAVILON FERTILIZER LLC,110000539347,issues,issues,issues,issues,issues,issues,issues,issues,issues,issues,issues,issues,issues,left_only
7642,7754WGRNRT55CLI,WORLD ENERGY BIOX BIOFUELS,325199,issues,issues,issues,issues,issues,WORLD ENERGY LLC,110032636002,issues,issues,issues,issues,issues,issues,issues,issues,issues,issues,issues,issues,issues,left_only
7645,7668WSNDYC2161R,SANDY CREEK ENERGY STATION,221112,issues,issues,issues,issues,issues,LS POWER DEVELOPMENT LLC,110035106113,issues,issues,issues,issues,issues,issues,issues,issues,issues,issues,issues,issues,issues,left_only
7658,15931BNSBR2840N,EBENSBURG POWER CO,221112,issues,issues,issues,issues,issues,issues,110000330632,issues,issues,issues,issues,issues,issues,issues,issues,issues,issues,issues,issues,issues,left_only
7665,29841HLCRBNORTH,HPC HOLDINGS INC,325199,issues,issues,issues,issues,issues,issues,110006847582,issues,issues,issues,issues,issues,issues,issues,issues,issues,issues,issues,issues,issues,left_only
7674,28456HXNCM333NE,BAKELITE SYNTHETICS,325199,issues,issues,issues,issues,issues,BAKELITE LLC,110000350352,issues,issues,issues,issues,issues,issues,issues,issues,issues,issues,issues,issues,issues,left_only
7678,60441WLLCN529ER,WILL COUNTY GENERATING STATION,221112,issues,issues,issues,issues,issues,NRG ENERGY INC,110000432933,issues,issues,issues,issues,issues,issues,issues,issues,issues,issues,issues,issues,issues,left_only
7682,37134STVJH535ST,U.S. TVA JOHNSONVILLE FOSSIL PLANT,221112,issues,issues,issues,issues,issues,US TENNESSEE VALLEY AUTHORITY,110000370535,issues,issues,issues,issues,issues,issues,issues,issues,issues,issues,issues,issues,issues,left_only
7695,02780TNTNM1314S,TAUNTON MUNICIPAL LIGHTING PLANT - CLEARY FLOOD STATION,221112,issues,issues,issues,issues,issues,issues,110000312064,issues,issues,issues,issues,issues,issues,issues,issues,issues,issues,issues,issues,issues,left_only
7702,22547BRCHW10900,BIRCHWOOD POWER FACILITY,221112,issues,issues,issues,issues,issues,issues,110000542743,issues,issues,issues,issues,issues,issues,issues,issues,issues,issues,issues,issues,issues,left_only
7721,54610DRYLN500OL,DAIRYLAND POWER COOPERATIVE - ALMA SITE,221112,issues,issues,issues,issues,issues,DAIRYLAND POWER COOPERATIVE,110000422560,issues,issues,issues,issues,issues,issues,issues,issues,issues,issues,issues,issues,issues,left_only
7729,16323MNYCHTWOMI,BORCHERS AMERICAS INC.,325199,325180.0,issues,issues,issues,issues,BORCHERS HOLDINGS LLC,110000583663,issues,issues,issues,issues,issues,issues,issues,issues,issues,issues,issues,issues,issues,left_only
7738,42087WSTVCHIGHA,INGEVITY VIRGINIA CORP-WICKLIFFE CARBON PLANT,325199,issues,issues,issues,issues,issues,INGEVITY CORP,110000380212,issues,issues,issues,issues,issues,issues,issues,issues,issues,issues,issues,issues,issues,left_only
7743,21869VNNPWCHAPE,VIENNA GENERATING STATION,221112,issues,issues,issues,issues,issues,NRG ENERGY INC,110000585260,issues,issues,issues,issues,issues,issues,issues,issues,issues,issues,issues,issues,issues,left_only
7746,96732KHLGN200HO,MAUI ELECTRIC CO LTD KAHULUI GENERATING STATION,221112,221121.0,issues,issues,issues,issues,HAWAIIAN ELECTRIC INDUSTRIES INC,110000486395,issues,issues,issues,issues,issues,issues,issues,issues,issues,issues,issues,issues,issues,left_only
7766,77541RHNPL6213H,VENCOREX US INC,325199,325180.0,issues,issues,issues,issues,VENCOREX HOLDING,110000599451,issues,issues,issues,issues,issues,issues,issues,issues,issues,issues,issues,issues,issues,left_only
7778,29445HRMNNPOBOX,SYMRISE INC,325199,issues,issues,issues,issues,issues,issues,110000353475,issues,issues,issues,issues,issues,issues,issues,issues,issues,issues,issues,issues,issues,left_only
7783,6136WNVBFL614SH,REG SENECA LLC,325199,issues,issues,issues,issues,issues,RENEWABLE ENERGY GROUP INC,110025400046,issues,issues,issues,issues,issues,issues,issues,issues,issues,issues,issues,issues,issues,left_only
7791,71701RKNSS1625B,JOHN L MCCLELLAN GENERATING STATION,221112,issues,issues,issues,issues,issues,ARKANSAS ELECTRIC COOPERATIVE CORP,110000450985,issues,issues,issues,issues,issues,issues,issues,issues,issues,issues,issues,issues,issues,left_only
7792,45052KSRST10743,TRAMMO NITROGEN PRODUCTS INC. C/O LEMM CORP - OPERAT,325311,issues,issues,issues,issues,issues,issues,110000392628,issues,issues,issues,issues,issues,issues,issues,issues,issues,issues,issues,issues,issues,left_only
7795,39194MSSSSHIGHW,CF INDUSTRIES NITROGEN LLC - YAZOO CITY MISSISSIPPI PLANT,325311,issues,issues,issues,issues,issues,CF INDUSTRIES HOLDINGS INC,110000741485,issues,issues,issues,issues,issues,issues,issues,issues,issues,issues,issues,issues,issues,left_only
7801,06457MDDLT1866R,MIDDLETOWN POWER LLC,221112,issues,issues,issues,issues,issues,MIDDLETOWN POWER HOLDINGS LLC,110000316266,issues,issues,issues,issues,issues,issues,issues,issues,issues,issues,issues,issues,issues,left_only
7813,76063TXSLT100US,HONEYWELL ELECTRONIC CHEMICALS LLC,325199,issues,issues,issues,issues,issues,HONEYWELL INTERNATIONAL INC,110000599139,issues,issues,issues,issues,issues,issues,issues,issues,issues,issues,issues,issues,issues,left_only
7818,49417GRNDH1231N,GRAND HAVEN BOARD OF LIGHT &POWER JB SIMS GENERATING STATI,221112,issues,issues,issues,issues,issues,GRAND HAVEN BOARD OF LIGHT & POWER,110000410396,issues,issues,issues,issues,issues,issues,issues,issues,issues,issues,issues,issues,issues,left_only
7825,37821GRTLKROUTE,"SI GROUP, INC. - NEWPORT TN",325199,issues,issues,issues,issues,issues,SI GROUP INC,110035828129,issues,issues,issues,issues,issues,issues,issues,issues,issues,issues,issues,issues,issues,left_only
7828,33860GRCCHSTATE,MOSAIC FERTILIZER LLC-SOUTH PIERCE PLANT,325312,issues,issues,issues,issues,issues,THE MOSAIC CO,110056968884,issues,issues,issues,issues,issues,issues,issues,issues,issues,issues,issues,issues,issues,left_only
7829,74337GRNDR3MIEO,GRAND RIVER DAM AUTHORITY COAL FIRED COMPLEX,221112,issues,issues,issues,issues,issues,issues,110000598489,issues,issues,issues,issues,issues,issues,issues,issues,issues,issues,issues,issues,issues,left_only
7834,44035CTLYS555GA,UNITED INITIATORS INC,325199,issues,issues,issues,issues,issues,UNITED INITIATORS INC,110000385404,issues,issues,issues,issues,issues,issues,issues,issues,issues,issues,issues,issues,issues,left_only
7836,35580LBMPW460GO,GORGAS STEAM PLANT,221112,issues,issues,issues,issues,issues,SOUTHERN CO,110000367380,issues,issues,issues,issues,issues,issues,issues,issues,issues,issues,issues,issues,issues,left_only
7855,43616FRSTN4701B,WALLEYE POWER LLC - BAY SHORE PLANT,221112,221121.0,221111.0,221122.0,221113.0,issues,OLYMPUS POWER LLC,110000384325,issues,issues,issues,issues,issues,issues,issues,issues,issues,issues,issues,issues,issues,left_only
7864,26175NNCRBSTATE,MPM SILICONES LLC,325199,issues,issues,issues,issues,issues,MOMENTIVE PERFORMANCE MATERIALS INC,110000344814,issues,issues,issues,issues,issues,issues,issues,issues,issues,issues,issues,issues,issues,left_only
7880,2845WSLRLB333NE,ENTEGRIS INC.,325199,issues,issues,issues,issues,issues,ENTEGRIS INC,110000350352,issues,issues,issues,issues,issues,issues,issues,issues,issues,issues,issues,issues,issues,left_only
7883,44092THLBR29400,LUBRIZOL CORP,325199,issues,issues,issues,issues,issues,BERKSHIRE HATHAWAY,110000386225,issues,issues,issues,issues,issues,issues,issues,issues,issues,issues,issues,issues,issues,left_only
7886,71730LDRDC4500N,EL DORADO CHEMICAL CO,325311,issues,issues,issues,issues,issues,LSB INDUSTRIES INC,110000746373,issues,issues,issues,issues,issues,issues,issues,issues,issues,issues,issues,issues,issues,left_only
7895,63801SKSTN1551W,SIKESTON POWER STATION,221112,issues,issues,issues,issues,issues,CITY OF SIKESTON,110000442548,issues,issues,issues,issues,issues,issues,issues,issues,issues,issues,issues,issues,issues,left_only
7901,26505WSTMR1000D,SI GROUP USA (USAA) LLC - SOUTH PLANT,325199,issues,issues,issues,issues,issues,SI GROUP USA LLC,110000572782,issues,issues,issues,issues,issues,issues,issues,issues,issues,issues,issues,issues,issues,left_only
7910,93627JRSMP12688,J R SIMPLOT CO,325311,issues,issues,issues,issues,issues,J R SIMPLOT CO,110000481979,issues,issues,issues,issues,issues,issues,issues,issues,issues,issues,issues,issues,issues,left_only
7913,49464HXCLC215CE,VERTELLUS ZEELAND LLC,325199,issues,issues,issues,issues,issues,V GLOBAL HOLDINGS LLC,110000411206,issues,issues,issues,issues,issues,issues,issues,issues,issues,issues,issues,issues,issues,left_only
7921,96720HLLGN54HAL,HAWAII ELECTRIC LIGHT CO INC HILL GENERATING STATION,221112,221121.0,issues,issues,issues,issues,HAWAIIAN ELECTRIC INDUSTRIES INC,110000486377,issues,issues,issues,issues,issues,issues,issues,issues,issues,issues,issues,issues,issues,left_only
7925,11232NRRWS53RDS,NARROWS GENERATING STATION,221112,issues,issues,issues,issues,issues,EASTERN GENERATION LLC,110008054265,issues,issues,issues,issues,issues,issues,issues,issues,issues,issues,issues,issues,issues,left_only
7931,02702PLRDC238SO,ISP FREETOWN FINE CHEMICALS INC,325199,issues,issues,issues,issues,issues,ASHLAND LLC,110001939779,issues,issues,issues,issues,issues,issues,issues,issues,issues,issues,issues,issues,issues,left_only
7941,11105STRGN18012,ASTORIA GENERATING STATION,221112,issues,issues,issues,issues,issues,EASTERN GENERATION LLC,110002093109,issues,issues,issues,issues,issues,issues,issues,issues,issues,issues,issues,issues,issues,left_only
7945,19966NDNRVRTE33,INDIAN RIVER GENERATING STATION,221112,issues,issues,issues,issues,issues,NRG ENERGY INC,110000603936,issues,issues,issues,issues,issues,issues,issues,issues,issues,issues,issues,issues,issues,left_only
7952,32409GLFPW4300H,GULF POWER CO PLANT LANSING SMITH,221112,issues,issues,issues,issues,issues,NEXTERA ENERGY INC,110000588677,issues,issues,issues,issues,issues,issues,issues,issues,issues,issues,issues,issues,issues,left_only
7957,19809DGMRH200HA,EDGE MOOR/HAY ROAD ENERGY CENTERS,221112,issues,issues,issues,issues,issues,CALPINE CORP,110000338821,issues,issues,issues,issues,issues,issues,issues,issues,issues,issues,issues,issues,issues,left_only
7961,9722WGLYXT794SW,AGILYX,325199,issues,issues,issues,issues,issues,issues,110045561441,issues,issues,issues,issues,issues,issues,issues,issues,issues,issues,issues,issues,issues,left_only
7967,66542TCMSH2NDDU,TECUMSEH ENERGY CENTER,221112,issues,issues,issues,issues,issues,WESTAR ENERGY INC,110000596524,issues,issues,issues,issues,issues,issues,issues,issues,issues,issues,issues,issues,issues,left_only
7975,70734BRDNC9288H,HEXION INC,325199,issues,issues,issues,issues,issues,HEXION HOLDINGS CORP,110002056024,issues,issues,issues,issues,issues,issues,issues,issues,issues,issues,issues,issues,issues,left_only
7981,95503PGHMB1000K,PG&E HUMBOLDT BAY POWER PLANT,221112,issues,issues,issues,issues,issues,PACIFIC GAS & ELECTRIC CO,110000610278,issues,issues,issues,issues,issues,issues,issues,issues,issues,issues,issues,issues,issues,left_only
7984,43612PRSTR600MA,PERSTORP POLYOLS INC,325199,issues,issues,issues,issues,issues,PERSTORP HOLDING AB,110000384192,issues,issues,issues,issues,issues,issues,issues,issues,issues,issues,issues,issues,issues,left_only
7989,64735MNTRS400SA,MONTROSE GENERATING STATION,221112,issues,issues,issues,issues,issues,GREAT PLAINS ENERGY INC,110002127680,issues,issues,issues,issues,issues,issues,issues,issues,issues,issues,issues,issues,issues,left_only
7995,48917LNSNG3725S,LANSING BOARD OF WATER & LIGHT-ERICKSON,221112,issues,issues,issues,issues,issues,LANSING BOARD OF WATER & LIGHT,110040958425,issues,issues,issues,issues,issues,issues,issues,issues,issues,issues,issues,issues,issues,left_only
8003,5770WKGLRX165CU,KUGLER OIL CO - RDF,325311,325312.0,issues,issues,issues,issues,KUGLER OIL CO,110069332074,issues,issues,issues,issues,issues,issues,issues,issues,issues,issues,issues,issues,issues,left_only
8006,53532SNMXN65BAS,REG MADISON LLC,325199,issues,issues,issues,issues,issues,RENEWABLE ENERGY GROUP INC,110027215671,issues,issues,issues,issues,issues,issues,issues,issues,issues,issues,issues,issues,issues,left_only
8010,45802RCDNH1900F,PCS NITROGEN OHIO L.P.,325311,issues,issues,issues,issues,issues,POTASH HOLDING CO INC,110000547052,issues,issues,issues,issues,issues,issues,issues,issues,issues,issues,issues,issues,issues,left_only
8032,12550RSTNG992RA,ROSETON GENERATING LLC,221112,issues,issues,issues,issues,issues,RIVERVIEW POWER LLC,110000324747,issues,issues,issues,issues,issues,issues,issues,issues,issues,issues,issues,issues,issues,left_only
8042,11558FBRRTMCCAR,NATIONAL GRID E.F. BARRETT POWER STATION,221112,issues,issues,issues,issues,issues,NATIONAL GRID USA,110000582389,issues,issues,issues,issues,issues,issues,issues,issues,issues,issues,issues,issues,issues,left_only
8044,60638THCPH5851W,HALLSTAR CO ESTER SOLUTIONS FACILITY,325199,issues,issues,issues,issues,issues,HALLSTAR CO,110000435413,issues,issues,issues,issues,issues,issues,issues,issues,issues,issues,issues,issues,issues,left_only
8050,96748MLCTR32AUL,MAUI ELECTRIC CO LTD PALAAU GENERATING STATION,221112,221121.0,issues,issues,issues,issues,HAWAIIAN ELECTRIC INDUSTRIES INC,110008062283,issues,issues,issues,issues,issues,issues,issues,issues,issues,issues,issues,issues,issues,left_only
8053,93268TFTCR19815,TAFT MANUFACTURING LLC,325199,issues,issues,issues,issues,issues,BAKER HUGHES HOLDINGS LLC,110000519699,issues,issues,issues,issues,issues,issues,issues,issues,issues,issues,issues,issues,issues,left_only
8059,79072MRTNRHWY19,MARTIN OPERATING PTNR-PLAINVIEW,325311,issues,issues,issues,issues,issues,MARTIN MIDSTREAM PTNRS LP,110000722638,issues,issues,issues,issues,issues,issues,issues,issues,issues,issues,issues,issues,issues,left_only
8061,38113THCPH2500C,HALLSTAR CO MEMPHIS SOLUTIONS FACILITY,325199,issues,issues,issues,issues,issues,HALLSTAR CO,110022905025,issues,issues,issues,issues,issues,issues,issues,issues,issues,issues,issues,issues,issues,left_only
8062,60609NCHMC4650S,VANTAGE OLEOCHEMICALS,325199,issues,issues,issues,issues,issues,VANTAGE SPECIALTY CHEMICALS,110000434174,issues,issues,issues,issues,issues,issues,issues,issues,issues,issues,issues,issues,issues,left_only
8066,50511STFRK21814,AG PROCESSING INC.-ALGONA METHYL ESTER,325199,issues,issues,issues,issues,issues,AG PROCESSING INC,110032943563,issues,issues,issues,issues,issues,issues,issues,issues,issues,issues,issues,issues,issues,left_only
8067,61547SHRXCROUTE,LANXESS CORP,325199,issues,issues,issues,issues,issues,LANXESS CORP,110000755521,issues,issues,issues,issues,issues,issues,issues,issues,issues,issues,issues,issues,issues,left_only
8073,76031TNSKV831SP,BRAZOS ELECTRIC JOHNSON COUNTY GENERATION FACILITY,221112,issues,issues,issues,issues,issues,BRAZOS ELECTRIC POWER COOPERATIVE INC,110000459012,issues,issues,issues,issues,issues,issues,issues,issues,issues,issues,issues,issues,issues,left_only
8074,14611LNCRP100MC,ARCH CHEMICALS INC,325199,issues,issues,issues,issues,issues,LONZA AMERICA INC,110000327931,issues,issues,issues,issues,issues,issues,issues,issues,issues,issues,issues,issues,issues,left_only
8081,81424TRSTT30739,TRI-STATE GENERATION & TRANSMISSION-NUCLA STATION,221112,issues,issues,issues,issues,issues,issues,110000467931,issues,issues,issues,issues,issues,issues,issues,issues,issues,issues,issues,issues,issues,left_only
8082,9670WHCCMP91196,HAWAIIAN ELECTRIC CAMPBELL INDUSTRIAL PARK GENERATING STA.,221112,221121.0,issues,issues,issues,issues,HAWAIIAN ELECTRIC INDUSTRIES INC,110045950315,issues,issues,issues,issues,issues,issues,issues,issues,issues,issues,issues,issues,issues,left_only
8084,29841RQHRT100UR,SOUTH CAROLINA GAS & ELECTRIC URQUHART GENERATION STATION,221112,issues,issues,issues,issues,issues,SCANA CORP,110000355534,issues,issues,issues,issues,issues,issues,issues,issues,issues,issues,issues,issues,issues,left_only
8085,6314WKCHGR39BRE,KOCH AGRONOMIC SERVICES LLC,325311,issues,issues,issues,issues,issues,KOCH INDUSTRIES INC,110045502201,issues,issues,issues,issues,issues,issues,issues,issues,issues,issues,issues,issues,issues,left_only
8087,50401FRDMF41721,REG MASON CITY LLC,325199,issues,issues,issues,issues,issues,RENEWABLE ENERGY GROUP INC,110031261863,issues,issues,issues,issues,issues,issues,issues,issues,issues,issues,issues,issues,issues,left_only
8088,52404PRRCR3300C,PRAIRIE CREEK GENERATING STATION,221112,issues,issues,issues,issues,issues,ALLIANT ENERGY CORP,110017344337,issues,issues,issues,issues,issues,issues,issues,issues,issues,issues,issues,issues,issues,left_only
8096,52046WSTRN94JAM,WESTERN DUBUQUE BIODIESEL LLC,325199,issues,issues,issues,issues,issues,issues,110032650058,issues,issues,issues,issues,issues,issues,issues,issues,issues,issues,issues,issues,issues,left_only
8100,75670WTCCROFFHW,PERGAN MARSHALL LLC,325199,issues,issues,issues,issues,issues,issues,110000458424,issues,issues,issues,issues,issues,issues,issues,issues,issues,issues,issues,issues,issues,left_only
8103,67801FRMLN3MILE,KOCH FERTILIZER DODGE CITY LLC,325311,issues,issues,issues,issues,issues,KOCH INDUSTRIES INC,110021074317,issues,issues,issues,issues,issues,issues,issues,issues,issues,issues,issues,issues,issues,left_only
8107,30161SBFLS555WH,WORLD ENERGY ROME,325199,issues,issues,issues,issues,issues,WORLD ENERGY LLC,110000356677,issues,issues,issues,issues,issues,issues,issues,issues,issues,issues,issues,issues,issues,left_only
8113,56201WLLMR71BEN,WILLMAR MUNICIPAL UTILITIES,221112,issues,issues,issues,issues,issues,issues,110001850015,issues,issues,issues,issues,issues,issues,issues,issues,issues,issues,issues,issues,issues,left_only
8119,36582SKWQB421BD,SKW QUAB CHEMICALS,325199,issues,issues,issues,issues,issues,issues,110067041070,issues,issues,issues,issues,issues,issues,issues,issues,issues,issues,issues,issues,issues,left_only
8121,06382MNTVL74LAT,MONTVILLE POWER LLC,221112,issues,issues,issues,issues,issues,MONTVILLE POWER HOLDINGS LLC,110000316006,issues,issues,issues,issues,issues,issues,issues,issues,issues,issues,issues,issues,issues,left_only
8123,95023PCFCP2340B,CMC MATERIALS INC.,325199,issues,issues,issues,issues,issues,KMG CHEMICALS INC,110009553036,issues,issues,issues,issues,issues,issues,issues,issues,issues,issues,issues,issues,issues,left_only
8126,14701SMLCR136ST,SAMUEL A CARLSON GENERATING STATION,221112,issues,issues,issues,issues,issues,JAMESTOWN BOARD OF PUBLIC UTILITIES,110000328235,issues,issues,issues,issues,issues,issues,issues,issues,issues,issues,issues,issues,issues,left_only
8129,50208CNTRL3426E,REG NEWTON LLC,325199,issues,issues,issues,issues,issues,RENEWABLE ENERGY GROUP INC,110024523684,issues,issues,issues,issues,issues,issues,issues,issues,issues,issues,issues,issues,issues,left_only
8130,7797WPTCKCPBX7X,PET COKE/COAL ENERGY GENERATING FACILITY,221112,issues,issues,issues,issues,issues,FORMOSA PLASTICS CORP USA,110046122940,issues,issues,issues,issues,issues,issues,issues,issues,issues,issues,issues,issues,issues,left_only
8132,0377WWHTMN35BUS,RENEWABLE FUELS BY PETERSON LLC,325199,issues,issues,issues,issues,issues,PETERSON'S OIL SERVICE INC.,110056255109,issues,issues,issues,issues,issues,issues,issues,issues,issues,issues,issues,issues,issues,left_only
8133,77536RHMXS1700T,EVONIK OIL ADDITIVES USA INC,325199,issues,issues,issues,issues,issues,EVONIK CORP,110035362318,issues,issues,issues,issues,issues,issues,issues,issues,issues,issues,issues,issues,issues,left_only
8140,04096WFWYMCOUSI,FPL ENERGY WYMAN LLC WF WYMAN STEAM STATION,221112,issues,issues,issues,issues,issues,NEXTERA ENERGY INC,110000581406,issues,issues,issues,issues,issues,issues,issues,issues,issues,issues,issues,issues,issues,left_only
8143,02563CNLLC9FREE,CANAL GENERATING LLC,221112,issues,issues,issues,issues,issues,STONEPEAK INFRASTRUCTURE FUND II (AIV) LP,110000311485,issues,issues,issues,issues,issues,issues,issues,issues,issues,issues,issues,issues,issues,left_only
8149,77572THDWCBATTL,LA PORTE_THE DOW CHEMICAL CO,325199,issues,issues,issues,issues,issues,DOW INC,110000463686,issues,issues,issues,issues,issues,issues,issues,issues,issues,issues,issues,issues,issues,left_only
8162,01089CMWST15AGA,ESSENTIAL POWER MASSACHUSETTS LLC WEST SPRINGFIELD STATION,221112,issues,issues,issues,issues,issues,NAUTILUS POWER LLC,110045630956,issues,issues,issues,issues,issues,issues,issues,issues,issues,issues,issues,issues,issues,left_only
8165,5224WNTGRT171CM,INTEGRATED DNA TECHNOLOGIES,325199,issues,issues,issues,issues,issues,DANAHER CORP,110000789692,issues,issues,issues,issues,issues,issues,issues,issues,issues,issues,issues,issues,issues,left_only
8173,75849PCHMN100OL,AQUAPHARM PCHEM LLC.,325199,issues,issues,issues,issues,issues,issues,110041993581,issues,issues,issues,issues,issues,issues,issues,issues,issues,issues,issues,issues,issues,left_only
8177,33860WSTVCPOBOX,ARRMAZ PRODUCTS INC.,325199,issues,issues,issues,issues,issues,issues,110000365122,issues,issues,issues,issues,issues,issues,issues,issues,issues,issues,issues,issues,issues,left_only
8180,98550MPRMG3122P,REG GRAYS HARBOR LLC,325199,issues,issues,issues,issues,issues,RENEWABLE ENERGY GROUP INC,110030452506,issues,issues,issues,issues,issues,issues,issues,issues,issues,issues,issues,issues,issues,left_only
8182,72301CPSCHBRIDG,BASF CORP,325199,issues,issues,issues,issues,issues,BASF CORP,110000452082,issues,issues,issues,issues,issues,issues,issues,issues,issues,issues,issues,issues,issues,left_only
8187,36512HCHSTHIGHW,U.S. AMINES (BUCKS) LLC,325199,issues,issues,issues,issues,issues,US AMINES LTD,110000747817,issues,issues,issues,issues,issues,issues,issues,issues,issues,issues,issues,issues,issues,left_only
8190,77536QNTMC1515M,INEOS OLIGOMERS USA LLC,325199,issues,issues,issues,issues,issues,INEOS OLIGOMERS USA LLC,110008160337,issues,issues,issues,issues,issues,issues,issues,issues,issues,issues,issues,issues,issues,left_only
8192,72006RKNSSHWY33,CARL E BAILEY GENERATING STAT ION,221112,issues,issues,issues,issues,issues,issues,110043797077,issues,issues,issues,issues,issues,issues,issues,issues,issues,issues,issues,issues,issues,left_only
8196,77578KSHNB22102,HC MANVEL INC.,325199,issues,issues,issues,issues,issues,issues,110000599479,issues,issues,issues,issues,issues,issues,issues,issues,issues,issues,issues,issues,issues,left_only
8198,06497SRTMR125ON,TOTALENERGIES PETROCHEMICALS & REFINING USA INC,325199,issues,issues,issues,issues,issues,TOTAL HOLDINGS USA INC,110001405257,issues,issues,issues,issues,issues,issues,issues,issues,issues,issues,issues,issues,issues,left_only
8201,7073WDYNMC36187,REG GEISMAR LLC,325199,issues,issues,issues,issues,issues,RENEWABLE ENERGY GROUP INC,110040089043,issues,issues,issues,issues,issues,issues,issues,issues,issues,issues,issues,issues,issues,left_only
8203,21130PRRYM900CH,PERRYMAN GENERATING STATION,221112,issues,issues,issues,issues,issues,CONSTELLATION ENERGY GENERATION LLC,110000499559,issues,issues,issues,issues,issues,issues,issues,issues,issues,issues,issues,issues,issues,left_only
8206,77590SLNCH5700J,MPM SILICONES LLC,325199,issues,issues,issues,issues,issues,MOMENTIVE PERFORMANCE MATERIALS INC,110000463800,issues,issues,issues,issues,issues,issues,issues,issues,issues,issues,issues,issues,issues,left_only
8207,55917VKNGC157WE,CARGILL INC,325199,issues,issues,issues,issues,issues,issues,110000426502,issues,issues,issues,issues,issues,issues,issues,issues,issues,issues,issues,issues,issues,left_only
8211,33035TRKYP9700S,FLORIDA POWER & LIGHT CO TURKEY POINT POWER PLANT,221112,issues,issues,issues,issues,issues,NEXTERA ENERGY INC,110000914832,issues,issues,issues,issues,issues,issues,issues,issues,issues,issues,issues,issues,issues,left_only
8216,29302SPCLT195BR,LUBRIZOL ADVANCED MATERIALS,325199,issues,issues,issues,issues,issues,BERKSHIRE HATHAWAY,110000542985,issues,issues,issues,issues,issues,issues,issues,issues,issues,issues,issues,issues,issues,left_only
8222,32713FLRDP176WH,DUKE ENERGY FLORIDA LLC-DEBARY POWER PLANT,221112,issues,issues,issues,issues,issues,DUKE ENERGY CORP,110012446317,issues,issues,issues,issues,issues,issues,issues,issues,issues,issues,issues,issues,issues,left_only
8224,51466WSTRN122SC,WESTERN IOWA ENERGY LLC,325199,issues,issues,issues,issues,issues,issues,110031001314,issues,issues,issues,issues,issues,issues,issues,issues,issues,issues,issues,issues,issues,left_only
8226,36507CRMPT43300,SI GROUP USA (USAA) LLC,325199,issues,issues,issues,issues,issues,SI GROUP USA LLC,110001168691,issues,issues,issues,issues,issues,issues,issues,issues,issues,issues,issues,issues,issues,left_only
8232,28461PFZRNEASTM,ADM SOUTHPORT,325199,issues,issues,issues,issues,issues,ARCHER DANIELS MIDLAND CO,110000350370,issues,issues,issues,issues,issues,issues,issues,issues,issues,issues,issues,issues,issues,left_only
8234,2383WRKMNC2747S,ARKEMA INC FRANKLIN PLANT,325199,issues,issues,issues,issues,issues,ARKEMA DELAWARE INC,110012148461,issues,issues,issues,issues,issues,issues,issues,issues,issues,issues,issues,issues,issues,left_only
8236,58571GRTRV4001H,GREAT RIVER ENERGY STANTON STATION,221112,issues,issues,issues,issues,issues,GREAT RIVER ENERGY,110000595080,issues,issues,issues,issues,issues,issues,issues,issues,issues,issues,issues,issues,issues,left_only
8239,30080MCDNG5551S,MCDONOUGH/ATKINSON STEAM ELECTRIC GENERATING PLANT,221112,issues,issues,issues,issues,issues,SOUTHERN CO,110000355972,issues,issues,issues,issues,issues,issues,issues,issues,issues,issues,issues,issues,issues,left_only
8240,77586RGHST11815,REG HOUSTON LLC,325199,issues,issues,issues,issues,issues,RENEWABLE ENERGY GROUP INC,110037445235,issues,issues,issues,issues,issues,issues,issues,issues,issues,issues,issues,issues,issues,left_only
8242,30903DSMCHNO1CO,FIBRANT LLC,325199,issues,issues,issues,issues,issues,CVC CAPITAL PARTNERS,110000359521,issues,issues,issues,issues,issues,issues,issues,issues,issues,issues,issues,issues,issues,left_only
8244,33316FPLPR8100E,FPL PORT EVERGLADES ENERGY CENTER,221112,issues,issues,issues,issues,issues,NEXTERA ENERGY INC,110055206584,issues,issues,issues,issues,issues,issues,issues,issues,issues,issues,issues,issues,issues,left_only
8245,37857STVJHOLDHW,U.S. TVA JOHN SEVIER COMBINED CYCLE PLANT,221112,issues,issues,issues,issues,issues,US TENNESSEE VALLEY AUTHORITY,110000607530,issues,issues,issues,issues,issues,issues,issues,issues,issues,issues,issues,issues,issues,left_only
8249,72390THNRCINDUS,NORAC ADDITIVES LLC,325199,issues,issues,issues,issues,issues,issues,110000598041,issues,issues,issues,issues,issues,issues,issues,issues,issues,issues,issues,issues,issues,left_only
8250,80751KGLRLPOBOX,KUGLER OIL CO - SDF,325311,issues,issues,issues,issues,issues,KUGLER OIL CO,110000507871,issues,issues,issues,issues,issues,issues,issues,issues,issues,issues,issues,issues,issues,left_only
8251,51459WSTCN461ST,REG RALSTON LLC,325199,issues,issues,issues,issues,issues,RENEWABLE ENERGY GROUP INC,110015684730,issues,issues,issues,issues,issues,issues,issues,issues,issues,issues,issues,issues,issues,left_only
8252,16301NVLLSROUTE,SASOL CHEMICALS (USA) LLC OIL CITY PLANT,325199,325194.0,issues,issues,issues,issues,SASOL (USA) CORP,110008476327,issues,issues,issues,issues,issues,issues,issues,issues,issues,issues,issues,issues,issues,left_only
8253,70079RSLTN16122,HEXION INC,325199,325211.0,325180.0,issues,issues,issues,HEXION HOLDINGS LLC,110013662009,issues,issues,issues,issues,issues,issues,issues,issues,issues,issues,issues,issues,issues,left_only
8254,66104QNDRP3601N,KANSAS CITY BPU QUINDARO POWER STATION,221112,issues,issues,issues,issues,issues,KANSAS CITY BOARD OF PUBLIC UTILITIES,110000445368,issues,issues,issues,issues,issues,issues,issues,issues,issues,issues,issues,issues,issues,left_only
8258,44622DVRLG303EB,DOVER LIGHT & POWER,221112,issues,issues,issues,issues,issues,issues,110041120578,issues,issues,issues,issues,issues,issues,issues,issues,issues,issues,issues,issues,issues,left_only
8259,42302WNSBR1145E,OWENSBORO GRAIN BIODIESEL LLC,325199,issues,issues,issues,issues,issues,OWENSBORO GRAIN HOLDING CO INC,110000757501,issues,issues,issues,issues,issues,issues,issues,issues,issues,issues,issues,issues,issues,left_only
8268,77340MTRNC7629S,MATERIA INC,325199,issues,issues,issues,issues,issues,issues,110012555939,issues,issues,issues,issues,issues,issues,issues,issues,issues,issues,issues,issues,issues,left_only
8270,96763MLCTR1001N,MAUI ELECTRIC CO LTD MIKI BASIN GENERATING STATION,221112,221121.0,issues,issues,issues,issues,HAWAIIAN ELECTRIC INDUSTRIES INC,110001764029,issues,issues,issues,issues,issues,issues,issues,issues,issues,issues,issues,issues,issues,left_only
8273,52353WRNWB171E7,IOWA RENEWABLE ENERGY LLC,325199,issues,issues,issues,issues,issues,issues,110037144006,issues,issues,issues,issues,issues,issues,issues,issues,issues,issues,issues,issues,issues,left_only
8274,07036LNDNGWOODA,LINDEN GENERATING STATION,221112,issues,issues,issues,issues,issues,PUBLIC SERVICE ENTERPRISE GROUP,110000869105,issues,issues,issues,issues,issues,issues,issues,issues,issues,issues,issues,issues,issues,left_only
8277,48006DTRTD7000K,DTE ELECTRIC CO - GREENWOOD ENERGY CENTER,221112,issues,issues,issues,issues,issues,DTE ENERGY CO,110000404517,issues,issues,issues,issues,issues,issues,issues,issues,issues,issues,issues,issues,issues,left_only
8279,6902WKGLRC71748,KUGLER OIL CO - CDF,325311,issues,issues,issues,issues,issues,KUGLER OIL CO,110018874262,issues,issues,issues,issues,issues,issues,issues,issues,issues,issues,issues,issues,issues,left_only
8282,4616WNTGRT78IND,INTEGRITY BIOFUELS,325199,issues,issues,issues,issues,issues,issues,110056961685,issues,issues,issues,issues,issues,issues,issues,issues,issues,issues,issues,issues,issues,left_only
8284,56007SYMRX15278,REG ALBERT LEA LLC,325199,issues,issues,issues,issues,issues,RENEWABLE ENERGY GROUP INC,110024870380,issues,issues,issues,issues,issues,issues,issues,issues,issues,issues,issues,issues,issues,left_only
8285,32831GLFPW515SA,PLANT STANTON UNIT A,221112,issues,issues,issues,issues,issues,SOUTHERN CO,110069446086,issues,issues,issues,issues,issues,issues,issues,issues,issues,issues,issues,issues,issues,left_only
8289,77641THYLDSAVAN,AFTON CHEMICAL ADDITIVES CORP,325199,issues,issues,issues,issues,issues,AFTON CHEMICAL ADDITIVES CORP,110000464051,issues,issues,issues,issues,issues,issues,issues,issues,issues,issues,issues,issues,issues,left_only
8290,3347WWSTCN255ST,FLORIDA POWER & LIGHT-WEST COUNTY ENERGY CENTER PLANT,221112,issues,issues,issues,issues,issues,NEXTERA ENERGY INC,110007477391,issues,issues,issues,issues,issues,issues,issues,issues,issues,issues,issues,issues,issues,left_only
8291,16511LKRBF167EL,LAKE ERIE BIOFUELS,325199,issues,issues,issues,issues,issues,issues,110027155780,issues,issues,issues,issues,issues,issues,issues,issues,issues,issues,issues,issues,issues,left_only
8292,06460DVNSTNAUGA,DEVON POWER HOLDINGS LLC,221112,issues,issues,issues,issues,issues,GENERATION BRIDGE LLC,110030737610,issues,issues,issues,issues,issues,issues,issues,issues,issues,issues,issues,issues,issues,left_only
8293,36518RCKLNHIGHW,TOTALENERGIES PETROCHEMICALS & REFINING USA INC.,325199,issues,issues,issues,issues,issues,TOTAL HOLDINGS USA INC,110055053926,issues,issues,issues,issues,issues,issues,issues,issues,issues,issues,issues,issues,issues,left_only
8296,96749PNGNRPUNAM,HAWAII ELECTRIC LIGHT CO INC PUNA GENERATING STATION,221112,221121.0,issues,issues,issues,issues,HAWAIIAN ELECTRIC INDUSTRIES INC,110000601377,issues,issues,issues,issues,issues,issues,issues,issues,issues,issues,issues,issues,issues,left_only
8300,62201GNRLC2500K,CHEMTRADE SOLUTIONS LLC-EAST ST LOUIS,325199,issues,issues,issues,issues,issues,issues,110000438866,issues,issues,issues,issues,issues,issues,issues,issues,issues,issues,issues,issues,issues,left_only
8302,6412WPSCRG2111N,PASEO CARGILL ENERGY LLC,325199,issues,issues,issues,issues,issues,PASEO BIOFUELS LLC,110037423302,issues,issues,issues,issues,issues,issues,issues,issues,issues,issues,issues,issues,issues,left_only
8304,7757WDBWST12511,FOREMARK PERFORMANCE CHEMICALS,325199,issues,issues,issues,issues,issues,issues,110009770667,issues,issues,issues,issues,issues,issues,issues,issues,issues,issues,issues,issues,issues,left_only
