FRS_ID,FacilityName,Address,City,State,Zip,Latitude,Longitude,County,NAICS,SIC,FacilityID,Source
110022882585.0,CalPeak Power - Border LLC,2060 SANYO AVE,SAN DIEGO,CA,92154,32.5622,-116.9433,San Diego,221112,,1000065,GHGRP
110022882585.0,CALPEAK POWER BORDER LLC,2060 SANYO AV,SAN DIEGO,CA,92154,32.564,-116.941,San Diego,221118,,10097111,NEI
110001187377.0,Cuyamaca Energy Facility,200 NORTH JOHNSON AVE,EL CAJON,CA,92020,32.7971,-116.972,San Diego,221112,,1000067,GHGRP
110001187377.0,CALPEAK POWER EL CAJON LLC,200 JOHNSON AV N,EL CAJON,CA,92020,32.7963,-116.971,San Diego,221118,,10099011,NEI
110001187377.0,CABRILLO POWER II LLC EL CAJON GT,800 MAIN ST W,EL CAJON,CA,92020,32.795,-116.952,San Diego,221118,,3371411,NEI
110006547870.0,"Wallingford Energy, LLC",115 JOHN ST,WALLINGFORD,CT,6460,41.4486,-72.8358,New Haven,221112,,1000069,GHGRP
110006547870.0,Wallingford Energy LLC,115 JOHN ST,WALLINGFORD,CT,None,41.4475,-72.8356,New Haven,2211,,14624011,NEI
110013729251.0,Sunrise Power Company,12857 SUNRISE ROAD,FELLOWS,CA,93224,35.2097,-119.585,Kern,221112,,1000102,GHGRP
110013729251.0,SUNRISE POWER COMPANY,12857 SUNRISE POWER ROAD,FELLOWS,CA,93224,35.2097,-119.585,Kern,221118,,361111,NEI
110012174627.0,Osprey Energy Center,1651 W DERBY AVE,AUBURNDALE,FL,33823,28.0525,-81.8083,Polk,221112,,1000107,GHGRP
110012174627.0,"CALPINE CONSTRUCTION FINANCE COMPANY, LP",1651 West Derby Avenue,AUBURNDALE,FL,33823,28.0533,-81.81189999999998,Polk,2211,,9740311,NEI
110035803262.0,Midulla Generating Station,6697 COUNTY ROAD 663,BOWLING GREEN,FL,33834,27.6417,-81.9625,Hardee,221112,,1000110,GHGRP
110035803262.0,"SEMINOLE ELECTRIC COOPERATIVE, INC.",6697 COUNTY ROAD 663,BOWLING GREEN,FL,None,27.6419,-81.9629,Hardee,2211,,4390111,NEI
110021090905.0,"West Valley Power, LLC",5935 WEST 4700 SOUTH,WEST VALLEY CITY,UT,84170,40.6663,-112.031,Salt Lake,221112,,1000117,GHGRP
110021090905.0,"CER Generation II, LLC: West Valley Power Plant",5935 West 4700 South,West Valley City,UT,84128,40.6645,-112.03,Salt Lake,221118,,7684911,NEI
110012236507.0,Pastoria Energy Facility,39789 EDMONSTON PUMPING PLANT,LEBEC,CA,93243,34.9556,-118.844,Kern,221112,,1000133,GHGRP
110012236507.0,"PASTORIA ENERGY FACILITY, LLC",39789 EDMONSTON PUMPING PLANT RD,LEBEC,CA,93243,34.9566,-118.844,Kern,221118,,10288711,NEI
110024419244.0,Chuck Lenzie Generating Station,11405 US HIGHWAY 93,APEX,NV,89124,36.3853,-114.9228,Clark,221112,,1000150,GHGRP
110024419244.0,Nevada Power (Chuck Lenzie),11405 U. S. Highway 93,Las Vegas,NV,89124,36.3839,-114.922,Clark,22111,,12768311,NEI
110001187876.0,Redding Power Plant,17120 CLEAR CREEK ROAD,REDDING,CA,96001,40.5083,-122.4253,Shasta,221112,,1000161,GHGRP
110001187876.0,REDDING POWER PLANT,17120 CLEAR CREEK ROAD,REDDING,CA,96001,40.5089,-122.424,Shasta,221118,,1549311,NEI
110007129419.0,DON HENRY POWER CENTER,110 NORTH MARIAN ROAD,HASTINGS,NE,68901,40.583086,-98.420023,ADAMS,221112,,1000199,GHGRP
110007129419.0,Don Henry Power Center,110 N Marian Rd,Hastings,NE,68901,40.5835,-98.4203,Adams,926130,,5099011,NEI
110008694975.0,Lakefield Junction Generating,2159 20TH AVE,TRIMONT,MN,56176,43.7984,-94.8415,Martin,221112,,1000203,GHGRP
110008694975.0,Great River Energy - Lakefield Junction,2159 20th Ave,Trimont,MN,56176,43.7986,-94.8414,Martin,221122,,8482611,NEI
110000422524.0,French Island,200 SOUTH BAINBRIDGE STREET,LA CROSSE,WI,54603,43.8298,-91.26,La Crosse,221112,,1000219,GHGRP
110000422524.0,Xcel Energy-French Island Generating Plant,200 Bainbridge St,La Crosse,WI,54603,43.8291,-91.2597,La Crosse,221112,,4958811,NEI
110000422524.0,FRENCH ISLAND PLANT,200 S BAINBRIDGE ST,LA CROSSE,WI,54603,43.8291,-91.2597,LA CROSSE,221119,,54603NRTHR200SB,TRI
110007353773.0,Alfred L Pierce Generating Station,195 EAST ST,WALLINGFORD,CT,6492,41.4485,-72.834,New Haven,221112,,1000221,GHGRP
110007353773.0,PIERCE GENERATING STATION (Wallingford),"195 EAST ST, PIERCE STATION",WALLINGFORD,CT,None,41.4475,-72.8344,New Haven,2211,,14624411,NEI
110022568531.0,"Edgecombe Genco, LLC",6358 OLD BATTLEBORO RD 27809,BATTLEBORO,NC,27809,36.0378,-77.7542,Edgecombe,221112,,1000231,GHGRP
110022568531.0,"Edgecombe Genco, LLC",6358 Old Battleboro Road,Battleboro,NC,27809,36.0377,-77.75279999999998,Edgecombe,221118,,8124311,NEI
110022568531.0,EDGECOMBE GENCO LLC,6358 OLD BATTLEBORO RD,BATTLEBORO,NC,27809,36.03546,-77.74915,EDGECOMBE,221112,,27809CGNTRRTE2S,TRI
110013372974.0,Sundance Power Plant,2060 SUNDANCE ROAD,CASA GRANDE,AZ,85228,32.9285,-111.5899,Pinal,221112,,1000237,GHGRP
110013372974.0,Sundance Power Plant,2060 W. Sundance Rd.,Casa Grande,AZ,85122,32.9217,-111.588,Pinal,22111,,1032711,NEI
110002400731.0,"Optim Energy Altura Cogen, LLC",2330 SHELDON ROAD,CHANNELVIEW,TX,77530,29.8169,-95.1086,Harris,221112,,1000255,GHGRP
110002400731.0,ALTURA COGEN,2330 SHELDON RD,CHANNELVIEW,TX,77530,29.8163,-95.1077,Harris,221121,,6429411,NEI
110027833441.0,Walter M. Higgins III Generating Station,1275 E PRIMM BLVD,PRIMM,NV,89019,35.6139,-115.3561,Clark,221112,,1000278,GHGRP
110027833441.0,NV Energy-Walter Higgins,1275 East Primm Blvd.,Primm,NV,89019,35.6131,-115.356,Clark,22111,,9398411,NEI
110015980385.0,Feather River Energy Center,202 BURNS DRIVE,YUBA CITY,CA,95993,39.1088,-121.6133,Sutter,221112,,1000279,GHGRP
110015980385.0,GILROY ENERGY CENTER,202 BURNS DRIVE,YUBA CITY,CA,95993,39.1085,-121.611,Sutter,221118,,14137911,NEI
110015375556.0,Henrietta Peaker Plant,16027 25TH AVE,LEMOORE,CA,93245,36.2397,-119.9044,Kings,221112,,1000283,GHGRP
110015375556.0,GWF ENERGY LLC - HENRIETTA,16027 25TH AVE,LEMOORE,CA,93245,36.24,-119.904,Kings,333611,,16711,NEI
110012147747.0,Beatrice,20261 SW 61ST RD,BEATRICE,NE,68310,40.3286,-96.8067,Gage,221112,,1000284,GHGRP
110012147747.0,NPPD Beatrice Power Station,20261 SW 61st Rd,Beatrice,NE,None,40.3291,-96.8085,Gage,221111,,9434711,NEI
110008734085.0,Benson Power Biomass Plant,900 Industry Dr,Benson,MN,56215,45.2996,-95.5604,Swift,221112,,1000285,GHGRP
110008734085.0,Fibrominn Biomass Power Plant,900 Industry Dr,Benson,MN,56215,45.2996,-95.5604,Swift,221122,,13603611,NEI
110024286075.0,Cosumnes Power Plant,14295A Clay East Road,HERALD,CA,95638,38.3383,-121.1239,Sacramento,221112,,1000323,GHGRP
110024286075.0,SMUD COSUMNES POWER PLANT,14295 CLAY EAST ROAD,HERALD,CA,95638,38.3363,-121.122,Sacramento,221118,,13841411,NEI
110000484930.0,AIR PRODUCTS MANUFACTURING CORP STOCKTON COGEN,1010 ZEPHYR ST.,STOCKTON,CA,95206,37.913056,-121.261944,SAN JOAQUIN COUNTY,221112,,1000341,GHGRP
110000484930.0,AIR PRODUCTS MANUFACTURING CORP,1010 ZEPHYR ST,STOCKTON,CA,95206,37.9078,-121.27,San Joaquin,221118,,7124711,NEI
110000484930.0,AIR PRODUCTS MANUFACTURING CORPORATION - STOCKTON COGEN,1010 ZEPHYR ST,STOCKTON,CA,952064208,37.913056,-121.261944,SAN JOAQUIN,221112,,95206STCKT1010Z,TRI
110027827207.0,Silverhawk,15111 APEX POWER PARKWAY,LAS VEGAS,NV,89124,36.4078,-114.9603,Clark,221112,,1000404,GHGRP
110027827207.0,Nevada Power Silverhawk,15111 Apex Power Parkway,North Las Vegas,NV,89124,36.4093,-114.961,Clark,22111,,12770211,NEI
110045402079.0,Palomar Energy Center,2300 Harveson Place,ESCONDIDO,CA,92029,33.1192,-117.118,San Diego,221112,,1000410,GHGRP
110045402079.0,SDG&E,2300 HARVESON PL,ESCONDIDO,CA,92029,33.117,-117.118,San Diego,221118,,13562611,NEI
110038082302.0,Agua Mansa Power,2040 AGUA MANSA ROAD,COLTON,CA,92324,34.0414,-117.3603,San Bernardino,221112,,1000423,GHGRP
110038082302.0,"EI COLTON, LLC",2040 AGUA MANSA RD,COLTON,CA,92324,34.0413,-117.364,San Bernardino,221118,,10108611,NEI
110024436608.0,Ripon Generation Station,1015 S STOCKTON BLVD,RIPON,CA,95366,37.7315,-121.116,Stanislaus,221112,,1000438,GHGRP
110024436608.0,MODESTO IRRIGATION DISTRICT,1015 S STOCKTON AVE,RIPON,CA,95366,37.7312,-121.124,San Joaquin,221118,,14090111,NEI
110023013718.0,Walnut Energy Center,600 S WASHINGTON ROAD,TURLOCK,CA,95380,37.4878,-120.8956,Stanislaus,221112,,1000464,GHGRP
110023013718.0,WALNUT ENERGY CENTER AUTHORITY,600 S WASHINGTON RD,TURLOCK,CA,95381,37.4881,-120.903,Stanislaus,221118,,14025311,NEI
110028042516.0,Paris Energy Center,301 LAKE CROOK ROAD,PARIS,TX,75460,33.6968,-95.5577,Lamar,221112,,1000472,GHGRP
110028042516.0,PARIS GENERATION,301 LAKE CROOK RD,PARIS,TX,75460,33.6972,-95.5575,Lamar,221122,,6431011,NEI
110028042516.0,PARIS GENERATING STATION,RD 137 4.5 KM SW OF PARIS,PARIS,TX,75460,33.6315,-95.591,Lamar,221122,,7910611,NEI
110022447574.0,Hunterstown Combined Cycle,1890 GRANITE STATION ROAD,GETTYSBURG,PA,17325,39.8725,-77.1672,Adams,221112,,1000475,GHGRP
110022447574.0,GENON WHOLESALE GEN LP/HUNTERSTOWN PLT,1731 HUNTERSTOWN RD,GETTYSBURG,PA,None,39.8692,-77.16719999999998,Adams,221118,,4713111,NEI
110037417097.0,Cannon Falls Energy Center,525 N PARK DR,CANNON FALLS,MN,55009,44.5364,-92.9147,Goodhue,221112,,1000488,GHGRP
110037417097.0,Cannon Falls Energy Center,525 N Park Dr,Cannon Falls,MN,55009,44.4857,-92.8689,Goodhue,221121,,13596111,NEI
110000362018.0,Cedar Bay Generating Co. LP,9640 EASTPORT ROAD,JACKSONVILLE,FL,32218,30.4219,-81.6079,Duval,221112,,1000496,GHGRP
110000362018.0,"CEDAR BAY GENERATING COMPANY, L.P.",P.O. Box 26324,JACKSONVILLE,FL,None,30.4224,-81.6075,Duval,2211,,922611,NEI
110000362018.0,CEDAR BAY GENERATING CO LP,9640 EASTPORT RD,JACKSONVILLE,FL,32218,30.4225,-81.606389,DUVAL,221112,,32218CDRBY9640E,TRI
110035420746.0,Clear Lake Cogeneration,9602 BAYPORT,PASADENA,TX,77507,29.6255,-95.067,Harris,221112,,1000503,GHGRP
110035420746.0,CLEAR LAKE COGENERATION,9602 BAYPORT RD,PASADENA,TX,77507,29.6256,-95.067,Harris,221122,,6429511,NEI
110005109710.0,Texas City Cogeneration,3221 5TH AVE SOUTH,TEXAS CITY,TX,77590,29.3787,-94.944,Galveston,221112,,1000504,GHGRP
110005109710.0,TEXAS CITY COGENERATION,3221 5TH AVE; CORNER OF 5TH AVE S AND GRANT AVE,TEXAS CITY,TX,77590,29.377,-94.9417,Galveston,221122,,3930911,NEI
110002394793.0,"Indiantown Cogeneration, LP",13303 SW SILVER FOX LANE,INDIANTOWN,FL,34956,27.0393,-80.5144,Martin,221112,,1000505,GHGRP
110002394793.0,"INDIANTOWN COGENERATION, L.P.",13303 SW SILVER FOX LANE,INDIANTOWN,FL,34956,27.0395,-80.51959999999998,Martin,2211,,717611,NEI
110002394793.0,INDIANTOWN COGENERATION LP,13303 SW SILVER FOX LN,INDIANTOWN,FL,34956,27.039167,-80.514722,MARTIN,221112,,34956NDNTW19140,TRI
110043089537.0,Sargent Canyon Cogeneration Facility,None,San Ardo,CA,93450,35.9359,-120.8405,Monterey,221112,,1000506,GHGRP
110043089537.0,SARGENT CANYON COGENERATION C,SARGENT CANYON ROAD,SAN ARDO,CA,93450,35.9546,-120.862,Monterey,221118,,2096311,NEI
110000377271.0,R D Morrow Senior Generating Plant,304 OLD OKAHOLA SCHOOL ROAD,PURVIS,MS,39475,31.2194,-89.3933,Lamar,221112,,1000535,GHGRP
110000377271.0,"South Mississippi Electric Power Association, R D Morrow Plant",304 Okahola Road,Purvis,MS,39475,31.2178,-89.3938,Lamar,22111,,7154411,NEI
110000377271.0,R D MORROW SR GENERATING PLANT,304 OLD OKAHOLA SCHOOLHO US E RD,PURVIS,MS,39475,31.2178,-89.3938,LAMAR,221112,,39475RDMRR304OL,TRI
110005162457.0,Copper Station,651 HAWKINS BLVD,EL PASO,TX,79915,31.7569,-106.375,El Paso,221112,,1000540,GHGRP
110005162457.0,COPPER STATION POWER PLANT,651 HAWKINS BLVD,EL PASO,TX,79901,31.7577,-106.375,El Paso,221122,,3049111,NEI
110035090843.0,Winchester Power Park,1260 FM 448,WINCHESTER,TX,78945,30.0253,-96.9945,Fayette,221112,,1000542,GHGRP
110035090843.0,WINCHESTER POWER PARK,1260 FM 448,WINCHESTER,TX,78945,30.0253,-96.993,Fayette,221122,,14748911,NEI
110001850104.0,NRG ENERGY CENTER MINNEAPOLIS,816 4TH AVENUE SOUTH,MINNEAPOLIS,MN,55404,44.973474,-93.267695,HENNEPIN,221112,,1000591,GHGRP
110001850104.0,NRG Energy Center Minneapolis LLC,816 4th Ave S,Minneapolis,MN,55404,44.9735,-93.2678,Hennepin,22133,,6393611,NEI
110000462936.0,LUBRIZOL BAYPORT PLANT,12801 BAY AREA BOULEVARD,PASADENA,TX,77507,29.63914,-95.04694,HARRIS COUNTY,325199,,1000619,GHGRP
110000462936.0,BAYPORT PLANT,12801 BAY AREA BLVD,LA PORTE,TX,77571,29.6385,-95.0522,Harris,325110,,4168911,NEI
110000462936.0,LUBRIZOL CORP BAYPORT FACILITY,12801 BAY AREA BLVD,PASADENA,TX,77507,29.638475,-95.052814,HARRIS,325199,,77507LBRZL12801,TRI
110000585260.0,Vienna,CHAPEL OF EASE ROAD,VIENNA,MD,21869,38.4878,-75.8208,Dorchester,221112,,1000647,GHGRP
110000585260.0,"NRG Indian River Operations, Inc.",PO Box 128,Vienna,MD,21869,38.4878,-75.8208,Dorchester,22111,,7945511,NEI
110000585260.0,VIENNA GENERATING STATION,CHAPEL OF EASE RD,VIENNA,MD,21869,38.4878,-75.8208,DORCHESTER,221112,,21869VNNPWCHAPE,TRI
110041067234.0,Chevron Cogenerating Station,200 INDUSTRIAL ROAD GATE 4,PASCAGOULA,MS,39568,30.34,-88.492,Jackson,221112,,1000696,GHGRP
110041067234.0,"Mississippi Power Company, Chevron Cogenerating Plant",200 Industrial Road Gate 4,Pascagoula,MS,39581,30.34,-88.4912,Jackson,22111,,6970611,NEI
110004307027.0,Clark,5640 STEPHANIE ST,LAS VEGAS,NV,89122,36.0875,-115.0507,Clark,221112,,1000726,GHGRP
110004307027.0,Nevada Power Clark Station,5640 Stephanie St,Las Vegas,NV,89122,36.0868,-115.049,Clark,22111,,8211211,NEI
110000321241.0,Deepwater,373 NORTH BROADWAY,PENNSVILLE,NJ,8070,39.6747,-75.5015,Salem,221112,,1000737,GHGRP
110000321241.0,DEEPWATER,Unknown,DEEPWATER,NJ,00000,39.6976,-75.4949,Salem,48811,,11922911,NEI
110000321241.0,Deepwater Energy Center,373 N. Broadway,Pennsville,NJ,08070,39.6773,-75.5019,Salem,221112,,7479811,NEI
110001530898.0,Essex,155 RAYMOND BOULEVARD,NEWARK,NJ,7105,40.7375,-74.1211,Essex,221112,,1000745,GHGRP
110001530898.0,ESSEX GENERATING STATION,Unknown,NEWARK,NJ,00000,40.7378,-74.11889999999998,Essex,48811,,11533911,NEI
110001530898.0,PSEG FOSSIL LLC ESSEX GENERATING STATION,155 RAYMOND BLVD,NEWARK,NJ,07105,40.7382,-74.119,Essex,221112,,7478411,NEI
110022325170.0,Reeves Generating Station,4400 PASEO DEL NORTE NE,ALBUQUERQUE,NM,87113,35.1716,-106.6019,Bernalillo,221112,,1000754,GHGRP
110022325170.0,Public Service Company of New Mexico - Reeves Generating Station,4400 Paseo del Norte BLVD NE,Albuquerque,NM,87113,35.1729,-106.601,Bernalillo,221122,,7532111,NEI
110022938419.0,"Brazos Valley Energy, LP",3440 LOCKWOOD RD,THOMPSONS,TX,77481,29.4731,-95.6244,Fort Bend,221112,,1000798,GHGRP
110022938419.0,BRAZOS VALLEY ENERGY CENTER,3440 LOCKWOOD RD,RICHMOND,TX,77478,29.4722,-95.6242,Fort Bend,221122,,9138811,NEI
110017411718.0,Vandolah Power Project,2394 VANDOLAH ROAD,WAUCHULA,FL,33873,27.5242,-81.9236,Hardee,221112,,1000814,GHGRP
110017411718.0,"VANDOLAH POWER COMPANY, LLC",2394 Vandolah Road,WAUCHULA,FL,33873,27.5228,-81.9333,Hardee,2211,,588511,NEI
110017411718.0,IPS VANDOLAH POWER,2394 VANDOLAH RD,WAUCHULA,FL,33873,27.524208,-81.923849,HARDEE,221112,,33873VNDLH2394V,TRI
110017743254.0,Deer Park Energy Center,5665 HIGHWAY 225,DEER PARK,TX,77536,29.7153,-95.1361,Harris,221112,,1000825,GHGRP
110017743254.0,DEER PARK ENERGY CENTER,DEER PARK ENERGY CTR HWY 225 1500 FT E SHELL DOCK,DEER PARK,TX,77536,29.713,-95.1353,Harris,221121,,6509911,NEI
110000334656.0,"Martins Creek, LLC",6605 FOUL RIFT ROAD,BANGOR,PA,18013,40.796,-75.107,Northampton,221112,,1000892,GHGRP
110000334656.0,PPL MARTINS CREEK LLC/MARTINS CREEK,FOUL RIFT RD,MARTINS CREEK,PA,18063,40.796,-75.1076,Northampton,221112,,3881711,NEI
110000334656.0,MARTINS CREEK STEAM ELECTRIC STATION,6605 FOUL RIFT RD,BANGOR,PA,18013,40.797762,-75.105416,NORTHAMPTON,221112,,18013MRTNS6605F,TRI
110000334656.0,PPL INTERSTATE ENERG/MARTINS CREEK,ROUTE 611,MARTINS CREEK,PA,18063,40.7932,-75.128,Northampton,486910,,12796811,NEI
110000337029.0,Schuylkill,2800 CHRISTIAN STREET,PHILADELPHIA,PA,19146,39.9425,-75.1883,Philadelphia,221112,,1000900,GHGRP
110000337029.0,EXELON GENERATION CO/SCHUYLKILL STA,2800 CHRISTIAN ST,PHILADELPHIA,PA,19137,39.9425,-75.1883,Philadelphia,221118,,6559811,NEI
110000337029.0,EXELON CORP SCHUYLKILL GENERATING STATION,2800 CHRISTIAN ST,PHILADELPHIA,PA,19146,39.94168,-75.187112,PHILADELPHIA,221112,,19146SCHYL2800C,TRI
110000312796.0,Manchester Street,40 POINT ST,PROVIDENCE,RI,2903,41.8167,-71.4042,Providence,221112,,1000905,GHGRP
110000312796.0,"DOMINION ENERGY MANCHESTER STREET, INC.",40 POINT ST,PROVIDENCE,RI,02903,41.8167,-71.4042,Providence,2211,,5486911,NEI
110000501154.0,Victoria Power Station,1205 S BOTTOM ST,VICTORIA,TX,77901,28.7883,-97.01,Victoria,221112,,1000924,GHGRP
110000501154.0,VICTORIA POWER PLANT,1205 CS BOTTOM ST,VICTORIA,TX,77901,28.7882,-97.009,Victoria,221122,,6497211,NEI
110002052260.0,Lewis Creek,11191 LONGSTREET ROAD,WILLIS,TX,77318,30.4364,-95.5215,Montgomery,221112,,1000928,GHGRP
110002052260.0,LEWIS CREEK PLANT,2 MI W OF I45 N ON LONGSTREET RD,WILLIS,TX,77378,30.4355,-95.521,Montgomery,221122,,7910511,NEI
110031507322.0,Knox Lee Power Plant,306 KNOX LEE,LONGVIEW,TX,75603,32.3766,-94.6415,Gregg,221112,,1000934,GHGRP
110031507322.0,AEP KNOX LEE POWER PLANT,KNOX LEE POWER PLANT,LONGVIEW,TX,75601,32.3766,-94.6416,Gregg,221122,,4020611,NEI
110005028647.0,Handley Generating Station,6604 EAST ROSEDALE ST,FORT WORTH,TX,76112,32.7278,-97.2186,Tarrant,221112,,1000942,GHGRP
110005028647.0,HANDLEY STEAM ELECTRIC STATION,6604 E ROSEDALE,FORT WORTH,TX,76002,32.7273,-97.2181,Tarrant,221122,,4916711,NEI
110007199735.0,Trinidad,1320 MCENTIRE,TRINIDAD,TX,75163,32.1264,-96.1014,Henderson,221112,,1000947,GHGRP
110007199735.0,TRINIDAD STEAM ELEC STATION,1 M S FM 764 0.5 M W,TRINIDAD,TX,75163,32.1239,-96.1022,Henderson,221122,,4863311,NEI
110001866623.0,Bryan,601 ATKINS ST,BRYAN,TX,77801,30.6469,-96.3725,Brazos,221112,,1000952,GHGRP
110001866623.0,ATKINS POWER STATION,601 ATKINS ST,BRYAN,TX,77801,30.6475,-96.3725,Brazos,221122,,6598311,NEI
110001878077.0,Leon Creek,7718 QUINTANA RD,SAN ANTONIO,TX,78211,29.3511,-98.5753,Bexar,221112,,1000956,GHGRP
110001878077.0,LEON CREEK PLANT,7718 QUINTANA RD,SAN ANTONIO,TX,78201,29.3528,-98.5748,Bexar,221122,,3000111,NEI
110015743846.0,Phil Sporn,3567 Graham Station Rd,New Haven,WV,25265,38.9669,-81.9231,Mason,221112,,1000969,GHGRP
110015743846.0,PHILIP SPORN PLANT,Unknown,NEW HAVEN,WV,00000,38.9638,-81.924,Mason,48811,,11466511,NEI
110015743846.0,APPALACHIAN POWER CO.-PHILIP SPORN PLANT,STATE ROUTE 62,NEW HAVEN,WV,25265,38.9669,-81.9231,Mason,221112,,6760711,NEI
110015743846.0,AMERICAN ELECTRIC POWER PHILIP SPORN PLANT,STATE RT 33,NEW HAVEN,WV,25265,38.966942,-81.922932,MASON,221112,,25265MRCNLSTATE,TRI
110002034281.0,"DTE Stoneman, LLC",716 JACK OAK ROAD,CASSVILLE,WI,53806,42.7083,-90.9853,Grant,221112,,1000989,GHGRP
110002034281.0,E J Stoneman Station,716 Jack Oak Road,Cassville,WI,53806,42.7083,-90.9853,Grant,221112,,6748311,NEI
110002034281.0,DTE STONEMAN LLC GENERATING STATION,716 JACK OAK RD,CASSVILLE,WI,53806,42.7083,-90.9853,GRANT,221119,,53806JSTNM716JA,TRI
110002043752.0,Barney M. Davis,4301 Waldron Road,Corpus Christi,TX,78418,27.6067,-97.3119,Nueces,221112,,1000997,GHGRP
110002043752.0,BARNEY M DAVIS POWER STATION,4301 WALDRON RD,CORPUS CHRISTI,TX,78412,27.6067,-97.311,Nueces,221122,,5611911,NEI
110008320566.0,Martin,21900 SW WARFIELD BLVD,INDIANTOWN,FL,34956,27.0536,-80.5628,Martin,221112,,1001013,GHGRP
110008320566.0,FLORIDA POWER & LIGHT (PMR),21900 SW Warfield Blvd,INDIANTOWN,FL,None,27.0551,-80.5651,Martin,2211,,751511,NEI
110008320566.0,FPL-MARTIN PLANT,21900 SW WARFIELD BLVD STATE RT 710,INDIANTOWN,FL,34956,27.05558,-80.56459,MARTIN,221112,,34956MRTNPSR710,TRI
110012446317.0,DeBary Power Plant,176 WEST HIGHBANKS RD,DEBARY,FL,32713,28.9047,-81.3319,Volusia,221112,,1001014,GHGRP
110012446317.0,"DUKE ENERGY FLORIDA, INC.",176 WEST HIGHBANKS ROAD,DEBARY,FL,33713,28.9041,-81.33329999999998,Volusia,2211,,2797311,NEI
110012446317.0,DUKE ENERGY FLORIDA LLC-DEBARY POWER PLANT,176 W HIGHBANKS RD,DEBARY,FL,32713,28.904392,-81.332483,VOLUSIA,221112,,32713FLRDP176WH,TRI
110024332079.0,Stony Brook,327 MOODY ST,LUDLOW,MA,1056,42.1977,-72.5103,Hampden,221112,,1001021,GHGRP
110024332079.0,STONY BROOK ENERGY CENTER,MOODY ST,LUDLOW,MA,None,42.1977,-72.51059999999998,Hampden,221210,,5979211,NEI
110000493706.0,R M Schahfer Generating Station,2723 E 1500 N,WHEATFIELD,IN,46392,41.2175,-87.0239,Jasper,221112,,1001023,GHGRP
110000493706.0,NIPSCO R M SCHAHFER GENERATING STATI,2723 E CR 1500 N,Wheatfield,IN,46392,41.2175,-87.0239,Jasper,221112,,7957011,NEI
110000493706.0,NIPSCO R.M.SCHAHFER GENERATING STATION,2723 E 1500 N,WHEATFIELD,IN,46392,41.2175,-87.0239,JASPER,221112,,46392NRTHR2723E,TRI
110000493706.0,"HEADWATERS RESOURCES, INC. AT NIPSCO",2723 E CR 1500 N,Wheatfield,IN,46392,41.23,-87.0244,Jasper,111,,12766211,NEI
110000606489.0,Nebraska City Station,7264 L ROAD,NEBRASKA CITY,NE,68410,40.6215,-95.7765,Otoe,221112,,1001026,GHGRP
110000606489.0,OPPD Nebraska City Station,7264 L Rd,Nebraska City,NE,None,40.6215,-95.7779,Otoe,221118,,7303711,NEI
110000606489.0,OMAHA PUBLIC POWER DISTRICT NEBRASKA CITY STATION,7264 L RD,NEBRASKA CITY,NE,68410,40.6208,-95.7733,OTOE,221112,,68410MHPBLRR3XX,TRI
110008138078.0,Gibbons Creek Steam Electric Station,12824 FM244,ANDERSON,TX,77830,30.6167,-96.0778,Grimes,221112,,1001032,GHGRP
110008138078.0,GIBBONS CREEK,FM 244 2.5 MI N OF HWY 30; NEAR CARLOS,BRYAN,TX,77801,30.6186,-96.0817,Grimes,221122,,6436311,NEI
110008138078.0,GIBBONS CREEK STEAM ELECTRIC STATION,12824 FM 244,ANDERSON,TX,77830,30.619651,-96.081834,GRIMES,221112,,77830GBBNS25MIL,TRI
110000464426.0,San Miguel,6200 FM 3387,CHRISTINE,TX,78012,28.7044,-98.4781,Atascosa,221112,,1001040,GHGRP
110000464426.0,SAN MIGUEL ELECTRIC COOPERATIVE INC,6200 FM 3387,CHRISTINE,TX,78012,28.704455,-98.477218,ATASCOSA,221122,,78012SNMGL6200F,TRI
110000450627.0,Brame Energy Center,275 RODEMACHER RD,LENA,LA,71447,31.395,-92.7167,Rapides,221112,,1001041,GHGRP
110000450627.0,CLECO - Brame Energy Center,275 Rodemacher Rd,Lena,LA,71447,31.396,-92.7173,Rapides,221111,,7446811,NEI
110000450627.0,BRAME ENERGY CENTER,275 RODEMACHER RD,LENA,LA,71447,31.3973,-92.7189,RAPIDES PARISH,221111,,71447CLCCR275RO,TRI
110013931308.0,Cane Island,6075 OLD TAMPA HIGHWAY,INTERCESSION CITY,FL,33848,28.2764,-81.533,Osceola,221112,,1001098,GHGRP
110013931308.0,KISSIMMEE UTILITY AUTHORITY,BOBROFF BLVD & OLD TAMPA HWY,INTERCESSION CITY/OSCEOLA,FL,33848,28.2767,-81.5383,Osceola,2211,,558411,NEI
110000365113.0,Polk,9995 STATE ROAD 37 SOUTH,MULBERRY,FL,33860,27.7286,-81.9897,Polk,221112,,1001100,GHGRP
110000365113.0,TAMPA ELECTRIC COMPANY,9995 STATE ROUTE 37 SOUTH,MULBERRY,FL,None,27.7286,-81.99939999999998,Polk,2211,,751911,NEI
110000365113.0,TAMPA ELECTRIC CO POLK POWER STATION,9995 STATE RD 37 S,MULBERRY,FL,33860,27.727015,-81.989774,POLK,221112,,33860TMPLC9995S,TRI
110008060873.0,V H Braunig,15290 STREICH RD,ELMENDORF,TX,78112,29.2575,-98.3828,Bexar,221112,,1001104,GHGRP
110008060873.0,VH BRAUNIG PLANT,15290 STREICH RD,SAN ANTONIO,TX,78201,29.2566,-98.3821,Bexar,221122,,5616511,NEI
110000753319.0,Hines Energy Complex,7700 COUNTY ROAD 555,BARTOW,FL,33830,27.7886,-81.8694,Polk,221112,,1001112,GHGRP
110000753319.0,"DUKE ENERGY FLORIDA, INC.",7700 COUNTY ROAD 555,BARTOW,FL,33830,27.7888,-81.8694,Polk,2211,,552011,NEI
110001411794.0,Tiger Bay Cogeneration Facility,3219 STATE ROAD 630 WEST,FORT MEADE,FL,33841,27.7447,-81.85,Polk,221112,,1001137,GHGRP
110001411794.0,"DUKE ENERGY FLORIDA, INC.",3219 STATE ROAD 630 WEST,FT. MEADE,FL,33841,27.7473,-81.84919999999998,Polk,2211,,8514711,NEI
110024547310.0,SWEENY COGENERATION FACILITY,"7190 Old FM 524, Gate 13",OLD OCEAN,TX,77463,29.0728,-95.745,BRAZORIA,221112,,1001148,GHGRP
110024547310.0,SWEENY COGENERATION FACILITY,NEAR INTERX OF FM 524 & HWY 35,OLD OCEAN,TX,77463,29.0726,-95.7449,Brazoria,221330,,5632311,NEI
110008733059.0,Pleasant Valley Station,68435 310TH ST,DEXTER,MN,55926,43.7997,-92.6819,Mower,221112,,1001165,GHGRP
110008733059.0,Great River Energy - Pleasant Valley,See location description,Austin,MN,55912,43.7993,-92.6829,Mower,221122,,7003311,NEI
110035428105.0,Minnesota River Station,1040 DAHLEN LANE,CHASKA,MN,55318,44.795,-93.5808,Carver,221112,,1001166,GHGRP
110035428105.0,MMPA - Minnesota River Station,1040 Dahlen Ln,Chaska,MN,55318,44.8063,-93.6229,Carver,221122,,7005011,NEI
110009104021.0,Brandy Branch,15701 W BEAVER ST,BALDWIN,FL,32234,30.3206,-81.9486,Duval,221112,,1001167,GHGRP
110009104021.0,JEA,15701 West Beaver Street,BALDWIN,FL,None,30.3203,-81.9479,Duval,2211,,641211,NEI
110000493056.0,Bayside Power Station,3602 PORT SUTTON ROAD,TAMPA,FL,33619,27.9072,-82.4231,Hillsborough,221112,,1001172,GHGRP
110000493056.0,TAMPA ELECTRIC COMPANY,3602 PORT SUTTON ROAD,TAMPA,FL,33619,27.907,-82.42019999999998,Hillsborough,2211,,901211,NEI
110007899970.0,Jim Bridger,35 MILES EAST OF ROCK SPRINGS,POINT OF ROCKS,WY,82942,41.7378,-108.7875,Sweetwater,221112,,1001192,GHGRP
110007899970.0,Jim Bridger Power Plant,"Section 3, T20N, R101W",Sweetwater County,WY,82935,41.7398,-108.79,Sweetwater,22111,,3962711,NEI
110007899970.0,PACIFICORP JIM BRIDGER PLANT & BRIDGER COAL CO,9 MILES N OF POINT OF ROCKS,POINT OF ROCKS,WY,82942,41.7398,-108.79,SWEETWATER,221112,,82942JMBRD9MILE,TRI
110001950121.0,Lowell Cogeneration Company,282 WESTERN AVE,LOWELL,MA,1851,42.64,-71.323,Middlesex,221112,,1001230,GHGRP
110001950121.0,LOWELL COGENERATION COMPANY LLP,282 WESTERN AVE,LOWELL,MA,None,42.64,-71.3228,Middlesex,221330,,5231011,NEI
110001403749.0,Capitol District Energy Center,490 CAPITOL AVE,HARTFORD,CT,6106,41.7639,-72.6925,Hartford,221112,,1001247,GHGRP
110001403749.0,CAP DIST ENERGY CTR COGEN ASSO,490 CAPITOL AVE,HARTFORD,CT,None,41.7625,-72.69159999999998,Hartford,221330,,844911,NEI
110064648911.0,Hardee Power Station,6695 COUNTY ROAD 663 N,BOWLING GREEN,FL,33834,27.6364,-81.9636,Hardee,221112,,1001254,GHGRP
110064648911.0,HARDEE POWER PARTNERS LIMITED,6695 NORTH COUNTY ROAD 663,BOWLING GREEN,FL,None,27.6364,-81.9636,Hardee,2211,,769811,NEI
110001575787.0,Nassau Energy LLC,185 CHARLES LINDBERGH BLVD,GARDEN CITY,NY,11530,40.7259,-73.5885,Nassau,221112,,1001260,GHGRP
110001575787.0,TRIGEN CENTRL UTILITY PLT - MITCHL FIELD,185 CHARLES LINDBERGH BLVD,GARDEN CITY,NY,11530,40.726,-73.58969999999998,Nassau,22121,,7222111,NEI
110002394597.0,Orange Cogeneration Facility,1901 CLEAR SPRINGS ROAD,BARTOW,FL,33830,27.8708,-81.8253,Polk,221112,,1001272,GHGRP
110002394597.0,ORANGE COGENERATION LIMITED PARTNERSHIP,1901 CLEAR SPRINGS MINE ROAD,BARTOW,FL,33830,27.8708,-81.83419999999998,Polk,2211,,3197811,NEI
110017409393.0,Mulberry Cogeneration Facility,3600 HIGHWAY 555,BARTOW,FL,33830,27.8489,-81.8775,Polk,221112,,1001275,GHGRP
110017409393.0,MULBERRY COGEN FACILITY,3600 COUNTY ROAD 555,BARTOW,FL,None,27.8489,-81.88639999999998,Polk,2211,,2312411,NEI
110017409393.0,MULBERRY COGENERATION FACILITY,3600 HWY 555,BARTOW,FL,33830,27.849794,-81.877032,POLK,221112,,33830MLBRR3600H,TRI
110005626723.0,Orlando CoGen,8275 EXCHANGE DRIVE,ORLANDO,FL,32809,28.4422,-81.4119,Orange,221112,,1001276,GHGRP
110005626723.0,"ORLANDO COGEN LIMITED, L.P.",8275 Exchange Dr,ORLANDO,FL,None,28.4422,-81.4178,Orange,221118,,2694911,NEI
110000423658.0,Cottage Grove Cogeneration,9525 105TH ST COURT S,COTTAGE GROVE,MN,55016,44.7956,-92.9119,Washington,221112,,1001291,GHGRP
110000423658.0,LSP Cottage Grove Cogeneration Facility,9525 105th St Court S,Cottage Grove,MN,55016,44.7954,-92.9124,Washington,221122,,6785711,NEI
110043815565.0,De Pere Energy Center,112 N 5TH ST,DE PERE,WI,54115,44.4489,-88.0731,Brown,221112,,1001295,GHGRP
110043815565.0,Wisconsin Public Service Corp - De Pere Energy Center,112 North Fifth Street,De Pere,WI,54115,44.4475,-88.0681,Brown,221121,,7642611,NEI
110021350946.0,Desert Star Energy Center,701 El Dorado Valley Drive,Boulder City,NV,89005,35.7867,-114.9928,Clark,221112,,1001306,GHGRP
110021350946.0,San Diego Gas and Electric,701 El Dorado Drive,Boulder City,NV,89005,35.7865,-114.993,Clark,22111,,7757511,NEI
110012164380.0,Midlothian Energy,4601 BROOKHOLLOW DRIVE,MIDLOTHIAN,TX,76065,32.4302,-97.0537,Ellis,221112,,1001309,GHGRP
110012164380.0,ELECTRIC POWER GENERATION,4601 BROOKHOLLOW DR,MIDLOTHIAN,TX,76065,32.4294,-97.0558,Ellis,221122,,6494211,NEI
110005185628.0,Frontera Generation Facility,900 S GOODWIN RD,MISSION,TX,78572,26.208,-98.3992,Hidalgo,221112,,1001311,GHGRP
110005185628.0,FRONTERA ENERGY SERVICES,ONE MI S OF BUSINESS ROUTE 83 & GOODWIN RD,MISSION,TX,78572,26.2082,-98.3995,Hidalgo,221122,,7908611,NEI
110009450478.0,Rhode Island State Energy Center,24 SHUN PIKE,JOHNSTON,RI,2919,41.8017,-71.5186,Providence,221112,,1001315,GHGRP
110009450478.0,"ENTERGY RHODE ISLAND STATE ENERGY, L.P.",24 SHUN PIKE,JOHNSTON,RI,02919,41.8017,-71.5186,Providence,2211,,3073211,NEI
110021082576.0,SRW Cogen Limited Partnership,3055 FM 1006,ORANGE,TX,77630,30.0561,-93.7539,Orange,221112,,1001324,GHGRP
110021082576.0,SRW COGENERATION LTD,LOCATED WITHIN EI DUPONT ORANGE PLANT; FM 1006,ORANGE,TX,77630,30.0549,-93.7574,Orange,221122,,6509111,NEI
110006360446.0,Magic Valley Generating Station,3333 N MCCOLL RD,EDINBURG,TX,78539,26.3403,-98.19,Hidalgo,221112,,1001325,GHGRP
110006360446.0,MAGIC VALLEY GENERATING STATION,INTERX OF MCCOLL RD & MONTE CRISTO RD SW CORNER,EDINBURG,TX,78539,26.3399,-98.192,Hidalgo,221122,,4846411,NEI
110041241073.0,Desert Basin Generating Station,1872 N BURRIS RD,CASA GRANDE,AZ,85222,32.9042,-111.7889,Pinal,221112,,1001329,GHGRP
110041241073.0,Desert Basin Generating Station,1872 N. Burris St.,Casa Grande,AZ,85122,32.9035,-111.792,Pinal,2211,,998111,NEI
110010661667.0,Tenaska Gateway Generating Station,7589 State Hwy 315 E,Long Branch,TX,75669,32.0164,-94.6189,Rusk,221112,,1001331,GHGRP
110010661667.0,ELECTRIC POWER GENERATION,HWY 315; 7.5 MI NE OF MT. ENTERPRISE,MINDEN,TX,75680,32.0179,-94.6192,Rusk,221122,,6498311,NEI
110014433700.0,"Rio Nogales Power Project, LP",711 RIO NOGALES DRIVE,SEGUIN,TX,78155,29.5932,-97.9724,Guadalupe,221112,,1001333,GHGRP
110014433700.0,RIO NOGALES POWER PLANT,6 GUADALUPE ST NORTH,SEGUIN,TX,78155,29.5933,-97.9731,Guadalupe,221122,,7720411,NEI
110021082816.0,Hays Energy Facility,1601 FRANCIS HARRIS LN,SAN MARCOS,TX,78666,29.7806,-97.9894,Hays,221112,,1001335,GHGRP
110021082816.0,HAYS ENERGY FACILITY,1601 FRANCIS HARRIS LN,SAN MARCOS,TX,78666,29.7806,-97.9894,Hays,221122,,4927111,NEI
110000434174.0,VANTAGE OLEOCHEMICALS,4650 S. RACINE AVE.,CHICAGO,IL,60609,41.809983,-87.656351,COOK,325199,,1001336,GHGRP
110000434174.0,Vantage Oleochemicals Inc,4650 S Racine,Chicago,IL,60609,41.81,-87.6564,Cook,325998,,3203811,NEI
110002932328.0,La Paloma Generating Plant,1760 WEST SKYLINE ROAD,MCKITTRICK,CA,93251,35.2956,-119.5919,Kern,221112,,1001339,GHGRP
110002932328.0,LA PALOMA GENERATING CO LLC,1760 W. SKYLINE ROAD,MCKITTRICK,CA,93251,35.2948,-119.593,Kern,221118,,10296711,NEI
110010821753.0,Hinds Energy Facility,3889 BEASLEY ROAD,JACKSON,MS,39213,32.3781,-90.2169,Hinds,221112,,1001367,GHGRP
110010821753.0,"Entergy Mississippi Inc, Hinds County Plant",3889 Beasley Road,Jackson,MS,39213,32.3847,-90.2214,Hinds,22112,,6966711,NEI
110008972763.0,"Ennis Power Company, LLC",4001 WEST ENNIS AVE,ENNIS,TX,75119,32.3194,-96.6739,Ellis,221112,,1001370,GHGRP
110008972763.0,ENNIS ELECTRIC GENERATION PLANT,4001 W ENNIS AVE,ENNIS,TX,75120,32.3208,-96.6751,Ellis,221122,,6389111,NEI
110001996902.0,Wheatland Generating Facility LLC,480 NORTH HALL ROAD,WHEATLAND,IN,47597,38.6716,-87.2931,Knox,221112,,1001371,GHGRP
110001996902.0,WHEATLAND GENERATING FACILITIES,480 NORTH HALL ROAD,WHEATLAND,IN,47597,38.6716,-87.29309999999998,Knox,221122,,4479311,NEI
110021138348.0,Freestone Power Generation,1366 FM 488,FAIRFIELD,TX,75840,31.8907,-96.1128,Freestone,221112,,1001372,GHGRP
110021138348.0,FREESTONE ENERGY CENTER,1366 ON FM 488,FAIRFIELD,TX,75840,31.8913,-96.1109,Freestone,221122,,4852511,NEI
110021089061.0,Montpelier Electric Gen Station,8495 SOUTH 450 WEST,PONETO,IN,46781,40.6206,-85.3057,Wells,221112,,1001374,GHGRP
110021089061.0,DPL ENERGY MONTPELIER ELECTRIC GENERATI,8495 S CR 450 W,Poneto,IN,46781,40.6207,-85.3079,Wells,221122,,5507411,NEI
110034690564.0,Channel Energy Center,451 LIGHT COMPANY ROAD,PASADENA,TX,77506,29.7189,-95.2319,Harris,221112,,1001408,GHGRP
110034690564.0,CHANNEL ENERGY CENTER,451 LIGHT COMPANY RD,HOUSTON,TX,77017,29.719,-95.2323,Harris,221122,,6510011,NEI
110000450155.0,Dolet Hills Power Station,963 POWER PLANT RD,MANSFIELD,LA,71052,32.0306,-93.5692,De Soto,221112,,1001416,GHGRP
110000450155.0,CLECO Power LLC - Dolet Hills Power Station,963 Power Plant Rd,Mansfield,LA,71052,32.0328,-93.5689,De Soto,221112,,7354411,NEI
110000450155.0,DOLET HILLS POWER STATION,963 POWER PLANT RD,MANSFIELD,LA,71052,32.0306,-93.5692,DE SOTO PARISH,221122,,71052CLCCR963PO,TRI
110000472097.0,Irvington Generating Station,3950 E IRVINGTON ROAD,TUCSON,AZ,85714,32.16,-110.9047,Pima,221112,,1001425,GHGRP
110000472097.0,Irvington,3950 East Irvington Road,Tucson,AZ,85714,32.1597,-110.905,Pima,2211,,977911,NEI
110000472097.0,IRVINGTON GENERATING STATION,3950 E IRVINGTON RD,TUCSON,AZ,85714,32.1597,-110.9051,PIMA,221112,,85714RVNGT3950E,TRI
110000830904.0,Coolwater Generating Station,37000 EAST SANTA FE ST,DAGGETT,CA,92327,34.8622,-116.854,San Bernardino,221112,,1001445,GHGRP
110000830904.0,"GENON WEST, LP. - COOLWATER GE",37000 SANTA FE ST,DAGGETT,CA,92327,34.8622,-116.854,San Bernardino,221118,,4947111,NEI
110024530364.0,Mountainview Generating Station,2492 WEST SAN BERNARDINO AVE,REDLANDS,CA,92374,34.0836,-117.2408,San Bernardino,221112,,1001451,GHGRP
110024530364.0,SOUTHERN CALIFORNIA EDISON,2492 W SAN BERNARDINO AVE,REDLANDS,CA,92374,34.0776,-117.243,San Bernardino,221320,,15782011,NEI
110012444417.0,Valley Generating Station,11801 SHELDON ST,SUN VALLEY,CA,91352,34.2481,-118.3903,Los Angeles,221112,,1001457,GHGRP
110012444417.0,"LA CITY, DWP VALLEY GENERATING STATION",11801 SHELDON ST,SUN VALLEY,CA,91352,34.2419,-118.39,Los Angeles,221118,,5681911,NEI
110005293592.0,J C McNeil,111 INTERVALE ROAD,BURLINGTON,VT,5401,44.4917,-73.2081,Chittenden,221112,,1001474,GHGRP
110005293592.0,Burlington Electric Dept (McNeil Station),585 Pine St.,Burlington,VT,05401,44.4933,-73.20879999999998,Chittenden,22111,,7773211,NEI
110007354095.0,Christiana energy Center,251 CHRISTIANA Avenue,WILMINGTON,DE,19801,39.7302,-75.5371,New Castle,221112,,1001475,GHGRP
110007354095.0,CHRISTIANA ENERGY CENTER,CHRISTIANA AVE & LOBDELL ST,WILMINGTON,DE,19801,39.7319,-75.5372,New Castle,2211,,2457411,NEI
110055206584.0,Port Everglades,8100 EISENHOWER BOULEVARD,FORT LAUDERDALE,FL,33316,26.0856,-80.1253,Broward,221112,,1001484,GHGRP
110055206584.0,FLORIDA POWER & LIGHT (PPE),8100 Eisenhower Blvd,FORT LAUDERDALE,FL,33316,26.0859,-80.12619999999998,Broward,2211,,591611,NEI
110055206584.0,FPL PORT EVERGLADES ENERGY CENTER,8100 EISENHOWER BLVD,FORT LAUDERDALE,FL,33316,26.085278,-80.126111,BROWARD,221112,,33316FPLPR8100E,TRI
110017431215.0,Crystal River Power Plant,15760 WEST POWERLINE ST,CRYSTAL RIVER,FL,34428,28.9594,-82.7003,Citrus,221112,,1001487,GHGRP
110017431215.0,CRYSTAL RIVER POWER PLANT,Unknown,CRYSTAL RIVER,FL,00000,28.9594,-82.6931,Citrus,48811,,11663311,NEI
110017431215.0,"DUKE ENERGY FLORIDA, INC. (DEF)",N OF CRYSTAL RIVER/W OF US 19,CRYSTAL RIVER,FL,None,28.9596,-82.7003,Citrus,2211,,640611,NEI
110017431215.0,DUKE ENERGY FLORIDA LLC-CRYSTAL RIVER POWER PLANT,15760 W POWERLINE ST,CRYSTAL RIVER,FL,34428,28.9628,-82.6928,CITRUS,221112,,34428FLRDP15760,TRI
110000588846.0,P L Bartow Power Plant,1601 WEEDON ISLAND DRIVE,SAINT PETERSBURG,FL,33702,27.8613,-82.6012,Pinellas,221112,,1001489,GHGRP
110000588846.0,"DUKE ENERGY FLORIDA, INC.",1601 WEEDON ISLAND DRIVE,ST PETERSBURG,FL,33702,27.8614,-82.6011,Pinellas,2211,,751811,NEI
110000588846.0,DUKE ENERGY FLORIDA LLC-PL BARTOW POWER PLANT,1601 WEEDON ISLAND DR,SAINT PETERSBURG,FL,33702,27.862009,-82.601185,PINELLAS,221112,,33702FLRDPWEEDO,TRI
110000588677.0,Lansing Smith Generating Plant,4300 HIGHWAY 2300,SOUTHPORT,FL,32409,30.2689,-85.7003,Bay,221112,,1001491,GHGRP
110000588677.0,LANSING SMITH PLANT,4300 COUNTY ROAD 2300,LYNN HAVEN,FL,32409,30.2688,-85.7003,Bay,2211,,554911,NEI
110000588677.0,GULF POWER CO PLANT LANSING SMITH,4300 HWY 2300,SOUTHPORT,FL,32409,30.268389,-85.699944,BAY,221112,,32409GLFPW4300H,TRI
110008319505.0,Big Bend,13031 WYANDOTTE ROAD,APOLLO BEACH,FL,33572,27.7944,-82.4036,Hillsborough,221112,,1001492,GHGRP
110008319505.0,TAMPA ELECTRIC COMPANY (TEC),13031 WYANDOTTE ROAD,APOLLO BEACH,FL,None,27.7944,-82.4178,Hillsborough,2211,,538611,NEI
110008319505.0,TAMPA ELECTRIC CO BIG BEND POWER STATION,13031 WYANDOTTE RD,APOLLO BEACH,FL,33572,27.795252,-82.403209,HILLSBOROUGH,221112,,33572TMPLC13031,TRI
110000362615.0,Deerhaven,10001 NW 13TH ST,GAINESVILLE,FL,32653,29.7586,-82.3883,Alachua,221112,,1001495,GHGRP
110000362615.0,"CITY OF GAINESVILLE, GRU",10001 NW 13th St,GAINESVILLE,FL,None,29.7582,-82.3889,Alachua,2211,,535011,NEI
110000362615.0,GAINESVILLE REGIONAL UTILITIES DEERHAVEN GENERATING STATION,10001 NW 13TH ST,GAINESVILLE,FL,32653,29.7586,-82.3883,ALACHUA,221112,,32653GNSVL10001,TRI
110000361929.0,J D Kennedy,4215 TALLEYRAND AVE,JACKSONVILLE,FL,32206,30.3644,-81.6236,Duval,221112,,1001497,GHGRP
110000361929.0,JEA,4215 TALLEYRAND AVE,JACKSONVILLE,FL,None,30.365,-81.62489999999998,Duval,2211,,557811,NEI
110045693692.0,Northside,4377 HECKSCHER DRIVE,JACKSONVILLE,FL,32226,30.4172,-81.5525,Duval,221112,,1001498,GHGRP
110045693692.0,JEA,4377 Heckscher Drive,JACKSONVILLE,FL,None,30.4216,-81.5541,Duval,2211,,640211,NEI
110000363455.0,Vero Beach Municipal,100 17TH ST,VERO BEACH,FL,32961,27.6311,-80.3758,Indian River,221112,,1001502,GHGRP
110000363455.0,CITY OF VERO BEACH,100 17TH ST,VERO BEACH,FL,32960,27.633,-80.3777,Indian River,2211,,1968211,NEI
110041990389.0,"Grand Tower Energy Center, LLC",1820 POWER PLANT ROAD,GRAND TOWER,IL,62942,37.6578,-89.5119,Jackson,221112,,1001515,GHGRP
110041990389.0,GRAND TOWER,Unknown,GRAND TOWER,IL,00000,37.6328,-89.5062,Jackson,48811,,11129111,NEI
110041990389.0,Ameren Energy Generating Co,1820 Power Plant Rd,Grand Tower,IL,62942,37.6583,-89.51139999999998,Jackson,221112,,2585811,NEI
110041119580.0,Paddys Run,4512 Bells Lane,Louisville,KY,40211,38.2147,-85.8453,JEFFERSON,221112,,1001585,GHGRP
110041119580.0,"Louisville Gas & Electric Co., Paddy's Run Station",4512 BELLS LN,LOUISVILLE,KY,None,38.221,-85.8461,Jefferson,221122,,5702311,NEI
110000508086.0,AltaGas Ripon Energy Inc.,944 South Stockton Ave.,Ripon,CA,95366,37.73134,-121.12385,SAN JOAQUIN COUNTY,221112,,1001625,GHGRP
110000508086.0,RIPON COGENERATION,944 S STOCKTON AVE,RIPON,CA,95366,37.7334,-121.121,San Joaquin,221118,,1224911,NEI
110043781707.0,"LOU GAS & ELEC, ZORN STA",3001 UPPER RIVER ROAD,LOUISVILLE,KY,40207,38.28006,-85.70232,JEFFERSON,221112,,1001907,GHGRP
110043781707.0,"Louisville Gas & Electric Co., Zorn Station",3001 RIVER RD,LOUISVILLE,KY,40207,38.2801,-85.70229999999998,Jefferson,221122,,6606011,NEI
110000463392.0,BASF FREEPORT SITE,602 COPPER ROAD,FREEPORT,TX,77541,29.002075,-95.399777,BRAZORIA,325199,,1001934,GHGRP
110000463392.0,FREEPORT SITE,602 COPPER RD,FREEPORT,TX,77541,29.0,-95.4036,Brazoria,325110,,4897511,NEI
110000463392.0,BASF CORP - FREEPORT SITE,602 COPPER RD,FREEPORT,TX,77541,29.002075,-95.399777,BRAZORIA,325199,,77541BSFCR602CO,TRI
110000477396.0,OLS ENERGY CHINO,5601 EUCALYPTUS AVE.,CHINO,CA,91708,33.989444,-117.681111,SAN BERNARDINO COUNTY,221112,,1001971,GHGRP
110000477396.0,OLS ENERGY-CHINO,5601 EUCALYPTUS AVE,CHINO,CA,91710,33.99,-117.681,San Bernardino,221118,,3414111,NEI
110015670521.0,MONSANTO CO - LULING PLANT,12501 S RIVER RD,LULING,LA,70070,29.92444,-90.352217,SAINT CHARLES,325199,,1001989,GHGRP
110015670521.0,Monsanto Co - Luling Plant,12501 River Rd,Luling,LA,70070,29.9197,-90.3525,St. Charles,325320,,5608911,NEI
110015670521.0,BAYER CROPSCIENCE LP,12501 RIVER RD,LULING,LA,70070,29.92444,-90.352217,ST. CHARLES PARISH,325320,,70070MNSNTRIVER,TRI
110000463542.0,E I DU PONT DE NEMOURS LA PORTE PLANT,12501 STRANG RD.,LA PORTE,TX,77571,29.700264,-95.036967,HARRIS,325199,,1002003,GHGRP
110000463542.0,LA PORTE PLANT,12501 STRANG RD,LA PORTE,TX,77571,29.7042,-95.0403,Harris,325110,,4018511,NEI
110000463542.0,LAPORTE RAIL & TERMINAL LLC,12501 STRANG RD,LA PORTE,TX,77571,29.700264,-95.036967,HARRIS,325320,,77571DPNTL12501,TRI
110070377148.0,ASCEND PERFORMANCE MATERIALS CHOCOLATE BAYOU FACILITY,None,ALVIN,TX,77512,29.2567,-95.2144,BRAZORIA,325199,,1002190,GHGRP
110070377148.0,CHOCOLATE BAYOU PLANT,3 M S OF FM 2004 & FM 2917 INTERX,ALVIN,TX,77512,29.2291,-95.1952,Brazoria,325110,,5632411,NEI
110070377148.0,ASCEND PERFORMANCE MATERIALS CHOCOLATE BAYOU PLANT,FM 2917; 8 MI S OF INTX OF HWY 35 & FM 2917,ALVIN,TX,77511,29.2525,-95.2111,Brazoria,325110,,5633311,NEI
110070377148.0,ASCEND PERFORMANCE MATERIALS-CHOCOLATE BAYOU PLANT,1 MONSANTO RD FM 2917,ALVIN,TX,775110000,29.24912,-95.2142,BRAZORIA,325188,,77511SLTNCFM291,TRI
110000419226.0,MILWAUKEE REGIONAL MEDICAL CENTER THERMAL,9250 WATERTOWN PLANK RD,MILWAUKEE,WI,53226,43.0462,-88.0278,MILWAUKEE,221112,,1002210,GHGRP
110000419226.0,Milwaukee County Power Plant,9250 W Watertown Plank Rd,Milwaukee,WI,53226,43.0451,-88.02899999999998,Milwaukee,221330,,4879611,NEI
110000419226.0,MILWAUKEE COUNTY POWER PLANT,9250 WATERTOWN PLANK RD,WAUWATOSA,WI,53226,43.0462,-88.0278,MILWAUKEE,221112,,53226MLWKC9250W,TRI
110056956511.0,DOW CORNING,4770 HIGHWAY 42 EAST,CARROLLTON,KY,41008,38.7074,-85.1048,CARROLL,325199,,1002548,GHGRP
110056956511.0,Dow Corning Corp,4770 US 42 E,Carrollton,KY,None,38.7074,-85.10479999999998,Carroll,326199,,8194311,NEI
110056956511.0,DOW SILICONES CORP,4770 US HWY 42,CARROLLTON,KY,41008,38.7074,-85.1048,CARROLL,325199,,41008DWCRNUSHIG,TRI
110000450002.0,DELTECH CORP - BATON ROUGE FACILITY,11911 SCENIC HIGHWAY,BATON ROUGE,LA,70807,30.553364,-91.202428,EAST BATON ROUGE,325199,,1002789,GHGRP
110000450002.0,Deltech Corp - Baton Rouge Facility,11911 Scenic Hwy,Baton Rouge,LA,70807,30.5532,-91.2034,East Baton Rouge,325110,,7226311,NEI
110000450002.0,DELTECH MONOMERS OPCO LLC,11911 SCENIC HWY,BATON ROUGE,LA,70807,30.553364,-91.202428,EAST BATON ROUGE PARISH,325199,,70807HCHST11911,TRI
110038324382.0,KLEEN ENERGY SYSTEMS POWER PLANT,1349 RIVER RD,MIDDLETOWN,CT,6457,41.5526,-72.597,MIDDLESEX,221112,,1002802,GHGRP
110038324382.0,KLEEN ENERGY SYSTEM PROJECT,1349 RIVER ROAD,MIDDLETOWN,CT,None,41.5527,-72.59829999999998,Middlesex,2211,,14622911,NEI
110038040214.0,TREASURE COAST ENERGY CENTER,4545 ENERGY LANE,FORT PIERCE,FL,34981,27.3839,-80.3775,ST. LUCIE COUNTY,221112,,1002818,GHGRP
110038040214.0,FLORIDA MUNICIPAL POWER AGENCY,4545 Energy Lane,FORT PIERCE,FL,34981,27.3847,-80.3776,St. Lucie,2211,,12779711,NEI
110000527127.0,DOUBLE C LIMITED,10245 OILFIELD ROAD,BAKERSFIELD,CA,93308,35.490363,-119.042957,KERN,221112,,1002820,GHGRP
110000527127.0,DOUBLE C LIMITED,10245 OILFIELD RD,BAKERSFIELD,CA,93308,35.5006,-119.046,Kern,221118,,410111,NEI
110000525021.0,HIGH SIERRA LIMITED,10600 OIL FIELD ROAD,BAKERSFIELD,CA,93308,35.491672,-119.041739,KERN,221112,,1002821,GHGRP
110000525021.0,HIGH SIERRA LIMITED,10600 OILFIELD RD,BAKERSFIELD,CA,93308,35.509,-119.031,Kern,221118,,14108911,NEI
110000525021.0,HIGH SIERRA LIMITED,10600 OIL FIELD ROAD,BAKERSFIELD,CA,93308,35.5063,-119.037,Kern,221112,,410011,NEI
110012169517.0,EQUISTAR CHEMICALS LP,3400 ANAMOSA ROAD,CLINTON,IA,52732,41.807364,-90.295307,CLINTON,325199,,1002927,GHGRP
110012169517.0,"EQUISTAR CHEMICALS, LP",3400 ANAMOSA RD,CLINTON,IA,52732,41.8111,-90.2896,Clinton,325110,,5509711,NEI
110012169517.0,EQUISTAR CHEMICALS CLINTON PLANT,3400 ANAMOSA RD HWY 30 W,CLINTON,IA,52732,41.807,-90.296,CLINTON,325199,,52732QNTMCUSHWY,TRI
110000547052.0,INEOS USA LLC,1900 Fort Amanda Rd,Lima,OH,45804,40.714167,-84.132222,ALLEN COUNTY,325199,,1002955,GHGRP
110000547052.0,INEOS USA LLC (0302020371),1900 Fort Amanda Rd.,Lima,OH,45804,40.7142,-84.13219999999998,Allen,325199,,13571611,NEI
110000547052.0,"PCS Nitrogen Ohio, L.P. (0302020370)",Fort Amanda & Adgate Roads,Lima,OH,45804,40.7131,-84.13689999999998,Allen,325311,,8102411,NEI
110000547052.0,PCS NITROGEN OHIO L.P.,2200 FORT AMANDA RD,LIMA,OH,45804,40.717499,-84.132274,ALLEN,325311,,45802RCDNH1900F,TRI
110007175154.0,UCC SEADRIFT OPERATIONS,7501 HIGHWAY 185 NORTH,SEADRIFT,TX,77983,28.510636,-96.771527,CALHOUN,325199,,1002967,GHGRP
110007175154.0,SEADRIFT PLANT,HIGHWAY 185,SEADRIFT,TX,77983,28.512,-96.7685,Calhoun,325110,,5846511,NEI
110007175154.0,UNION CARBIDE CORP SEADRIFT PLANT,7501 N HWY 185,SEADRIFT,TX,77983,28.510636,-96.771527,CALHOUN,325199,,77979NNCRBPOBOX,TRI
110000748095.0,HUNTSMAN PETROCHEMICAL LLC,5451 JEFFERSON CHEMICAL ROAD,CONROE,TX,77301,30.316129,-95.387683,MONTGOMERY COUNTY,325199,,1002993,GHGRP
110000748095.0,CONROE FACILITY,5451 JEFFERSON CHEMICAL RD,CONROE,TX,77305,30.3136,-95.3847,Montgomery,325110,,4945611,NEI
110000748095.0,HUNTSMAN PETROCHEMICAL LLC,5451 JEFFERSON CHEMICAL RD,CONROE,TX,77301,30.311361,-95.387083,MONTGOMERY,325199,,77301TXCCHJEFFE,TRI
110031000823.0,SOUTH TEXAS ELECTRIC COOP,2849 FM 447,NURSERY,TX,77976,28.8947,-97.1347,VICTORIA COUNTY,221112,,1003190,GHGRP
110031000823.0,SOUTH TEXAS ELECTRIC COOP,FM 447; 3 M W OF NURSERY,NURSERY,TX,77976,28.8927,-97.1353,Victoria,221122,,5863011,NEI
110017746368.0,DUPONT SABINE RIVER WORKS,3055 FARM RD. 1006,ORANGE,TX,77631,30.054796,-93.753863,ORANGE,325199,,1003382,GHGRP
110017746368.0,SABINE RIVER WORKS,FM 1006,ORANGE,TX,77630,30.0577,-93.7425,Orange,325110,,4190211,NEI
110017746368.0,PERFORMANCE MATERIALS NA INC,FARM RD 1006,ORANGE,TX,77630,30.054796,-93.753863,ORANGE,325110,,77631DPNTSFARMR,TRI
110056955987.0,ALBEMARLE CORPORATION HOUSTON PLANT,2500 N. SOUTH ST.,PASADENA,TX,77503,29.743111,-95.166694,HARRIS COUNTY,325199,,1003402,GHGRP
110056955987.0,ALBEMARLE CORP,2500 N SOUTH ST,PASADENA,TX,77503,29.7386,-95.1692,Harris,325110,,6536811,NEI
110056955987.0,ALBEMARLE CORP PASADENA PLANT,2500 N SOUTH ST,PASADENA,TX,77503,29.742498,-95.165513,HARRIS,325199,,77503LBMRL2500N,TRI
110028187049.0,INEOS NOVA LLC Texas City Site,2800 FM 519 E,TEXAS CITY,TX,77592,29.362224,-94.9284,GALVESTON,325199,,1003429,GHGRP
110028187049.0,INEOS STYRENICS TEXAS CITY PLANT,2800 FM 519 E,TEXAS CITY,TX,77592,29.3585,-94.9305,Galveston,325110,,10722911,NEI
110028187049.0,TEXAS CITY CHEMICAL PLANT,2800 FM 519 E,TEXAS CITY,TX,77590,29.3622,-94.9284,Galveston,325110,,3930711,NEI
110028187049.0,BP AMOCO CHEMICAL COMPANY,2800 FM 519 EAST,TEXAS CITY,TX,77590,29.361045,-94.930351,GALVESTON,221119,,77590MCLCM24015,TRI
110028187049.0,BP AMOCO CHEMICAL COMPANY,2800 FM 519 EAST,TEXAS CITY,TX,77590,29.361045,-94.930351,GALVESTON,325192,,77590MCLCM24015,TRI
110028187049.0,BP AMOCO CHEMICAL COMPANY,2800 FM 519 EAST,TEXAS CITY,TX,77590,29.361045,-94.930351,GALVESTON,324110,,77590MCLCM24015,TRI
110000605051.0,BASF CORPORATION,1379 CIBA RD,MC INTOSH,AL,36553,31.279,-87.9955,WASHINGTON COUNTY,325199,,1003551,GHGRP
110000605051.0,BASF Corporation,1379 Ciba Road,Mcintosh,AL,36553,31.2769,-87.97679999999998,Washington,325320,,7440611,NEI
110000605051.0,BASF CORP,1379 CIBA RD,MC INTOSH,AL,36553,31.264095,-87.981969,WASHINGTON,325199,,36653CBGGYGEIGY,TRI
110017398145.0,"LAKE SHORE MOJAVE, LLC",14486 BORAX RD,BORON,CA,93516,35.028339,-117.70335,KERN,221112,,1003632,GHGRP
110017398145.0,MOJAVE COGENERATION COMPANY,14486 BORAX ROAD,BORON,CA,93516,35.0336,-117.702,Kern,221330,,409411,NEI
110000481979.0,J R SIMPLOT COMPANY,12688 S. COLORADO AVE.,HELM,CA,93627,36.551156,-120.113717,FRESNO COUNTY,325311,,1003636,GHGRP
110000481979.0,J R SIMPLOT COMPANY,12688 S COLORADO AVE,HELM,CA,93627,36.549,-120.107,Fresno,325180,,13865911,NEI
110000481979.0,J R SIMPLOT CO,12688 S COLORADO AVE,HELM,CA,93627,36.551156,-120.113717,FRESNO,325311,,93627JRSMP12688,TRI
110005979977.0,WALNUT POWER PLANT,325 S WASHINGTON RD,TURLOCK,CA,95380,37.489917,-120.903595,STANISLAUS COUNTY,221112,,1003831,GHGRP
110005979977.0,TURLOCK IRRIGATION DISTRICT,325 WASHINGTON ROAD,TURLOCK,CA,95380,37.4971,-120.905,Stanislaus,221118,,5704811,NEI
110002630065.0,NRG ENERGY CENTER LLC,460 JESSIE ST,SAN FRANCISCO,CA,94103,37.78203,-122.40841,SAN FRANCISCO COUNTY,221112,,1003978,GHGRP
110002630065.0,NRG ENERGY CENTER SAN FRANCISC,460 JESSIE STREET,SAN FRANCISCO,CA,94103,37.782,-122.409,San Francisco,221330,,10047611,NEI
110000514550.0,Mid Set Cogeneration Facility,13705 SHALE ROAD,FELLOWS,CA,93224,35.19414,-119.56753,KERN COUNTY,221112,,1004004,GHGRP
110000514550.0,MID-SET COGENERATION COMPANY,13705 SHALE RD,FELLOWS,CA,93224,35.195,-119.568,Kern,221118,,13847911,NEI
110000460983.0,"MONUMENT CHEMICAL HOUSTON, LTD.",16717 JACINTOPORT BOULEVARD,HOUSTON,TX,77015,29.75487,-95.10327,HARRIS COUNTY,325199,,1004018,GHGRP
110000460983.0,JACINTOPORT PLANT,16717 JACINTOPORT BOULEVARD,CHANNELVIEW,TX,77530,29.7558,-95.1001,Harris,325110,,4182411,NEI
110000460983.0,MONUMENT CHEMICAL HOUSTON LLC,16717 JACINTOPORT BLVD,HOUSTON,TX,77015,29.75487,-95.10327,HARRIS,325199,,77015JHNNH16717,TRI
110002426232.0,PG&E KETTLEMAN COMPRESSOR STATION,34453 PLYMOUTH AVENUE,AVENAL,CA,93204,36.07429,-120.08369,KINGS COUNTY,221210,,1004068,GHGRP
110002426232.0,PACIFIC GAS & ELECTRIC CO,34453 PLYMOUTH AVE,AVENAL,CA,93204,36.0742,-120.083,Kings,486210,,19311,NEI
110002426232.0,PG&E KETTLEMAN COMPRESSOR STA.,34453 PLYMOUTH,AVENAL,CA,93204,36.0705,-120.086,Kings,221122,,17111,NEI
110001200995.0,PG&E HINKLEY COMPRESSOR STATION,35863 FAIRVIEW RD,HINKLEY,CA,92347,34.902694,-117.160594,SAN BERNARDINO,221210,,1004272,GHGRP
110001200995.0,PG&E HINKLEY COMPRESSOR STA,35863 FAIRVIEW ROAD,HINKLEY,CA,92347,34.905,-117.163,San Bernardino,486210,,4922411,NEI
110010288866.0,JASPER MUNICIPAL ELECTRIC UTILITY,1163 E 15TH ST,JASPER,IN,47546,38.40079,-86.91443,DUBOIS COUNTY,221112,,1004348,GHGRP
110010288866.0,JASPER MUNICIPAL ELECTRIC UTILITY,1163 E 15th St,Jasper,IN,47547,38.3998,-86.9141,Dubois,221122,,7224911,NEI
110000599291.0,WESTHOLLOW TECHNOLOGY CENTER,3333 HWY. 6 S.,HOUSTON,TX,77082,29.72644,-95.64394,HARRIS COUNTY,325199,,1004492,GHGRP
110000599291.0,WESTHOLLOW TECHNOLOGY CENTER,3333 HWY 6 SOUTH,HOUSTON,TX,77082,29.7261,-95.6381,Harris,325110,,3736811,NEI
110002354602.0,SG SOLUTIONS LLC,444 W SANDFORD AVE,WEST TERRE HAUTE,IN,47885,39.532894,-87.426301,VIGO COUNTY,221112,,1004699,GHGRP
110002354602.0,SG SOLUTIONS LLC,444 WEST SANDFORD AVE.,WEST TERRE HAUTE,IN,47885,39.5327,-87.4282,Vigo,325199,,7743511,NEI
110002354602.0,SG SOLUTIONS LLC / WABASH RIVER COMBINED CYCLE PLANT,444 W SANFORD AVE,WEST TERRE HAUTE,IN,47885,39.532894,-87.426301,VIGO,325199,,47885WBSHR444WS,TRI
110043788719.0,LaPorte Methanol Company,11603 Strang Rd,LaPorte,TX,77571,29.70231,-95.05492,HARRIS COUNTY,325199,,1004807,GHGRP
110043788719.0,LA PORTE METHANOL,11603 STRANG RD,LA PORTE,TX,77572,29.706,-95.0558,Harris,325110,,4055111,NEI
110043788719.0,LA PORTE METHANOL PLANT,11603 STRANG RD,LA PORTE,TX,77571,29.70231,-95.05492,HARRIS,325199,,77571LPRTM11603,TRI
110000481924.0,ACE Cogeneration Company,12801 Mariposa Street,Trona,CA,93562,35.7655,-117.3821,SAN BERNARDINO,221112,,1004830,GHGRP
110000481924.0,ACE COGENERATION CO,12801 MARIPOSA ST,TRONA,CA,92392,35.766,-117.383,San Bernardino,221112,,4841211,NEI
110000481924.0,ACE COGENERATION FACILITY,12801 MARIPOSA ST,TRONA,CA,93652,35.7655,-117.3821,SAN BERNARDINO,221112,,93562CCGNR12801,TRI
110000481924.0,ACE COGEN COMPANY,"NADEAU RD (2 S HWY395, 3.5 SE PANAMINT SPRGS)",PANAMINT SPRINGS,CA,93562,36.3207,-117.419,Inyo,212312,,220911,NEI
110000746328.0,WESTLAKE VINYLS CO LP,36045 Highway 30,GEISMAR,LA,70734,30.208604,-91.011128,ASCENSION PARISH,325199,,1004900,GHGRP
110000746328.0,Westlake Vinyls Co LP,36045 Hwy 30,Geismar,LA,70734,30.2125,-91.0058,Ascension,325180,,7915011,NEI
110000746328.0,WESTLAKE VINYLS CO,36045 HWY 30,GEISMAR,LA,70734,30.208604,-91.011128,ASCENSION PARISH,325211,,70734BRDNCLOUIS,TRI
110000481657.0,"MT POSO COGENERATION COMPANY, LLC",36157 FAMOSO ROAD,BAKERSFIELD,CA,93308,35.630714,-118.969809,KERN,221112,,1004948,GHGRP
110000481657.0,MT POSO COGENERATION COMPANY,HEAVY OIL CENTRAL,BAKERSFIELD,CA,93380,35.577,-119.006,Kern,221118,,4197111,NEI
110000481657.0,MT POSO COGENERATION,36157 FAMOSO HWY,BAKERSFIELD,CA,93308,35.577017,-119.00603,KERN,221112,,93308MTPSC36157,TRI
110007919501.0,ConocoPhillips ANGC - LNG,48237 Kenai Spur Highway,Kenai,AK,99611,60.67884,-151.37876,KENAI PENINSULA BOROUGH,221210,,1005004,GHGRP
110007919501.0,Kenai Liquefied Natural Gas (LNG) Plant,Mile 21.5 Kenai Spur Hwy,Kenai,AK,99611,60.6786,-151.389,Kenai Peninsula,211112,,1076311,NEI
110000498033.0,RIO BRAVO POSO,16608 PORTERVILLE HIGHWAY,BAKERSFIELD,CA,93308,35.547408,-119.07522,KERN,221112,,1005088,GHGRP
110000498033.0,RIO BRAVO POSO,16608 PORTERVILLE HWY,BAKERSFIELD,CA,93308,35.5474,-119.075,Kern,221118,,4196911,NEI
110000498033.0,RIO BRAVO POSO,16608 PORTERVILLE HWY,BAKERSFIELD,CA,93308,35.547408,-119.07522,KERN,221112,,93308RBRVP16608,TRI
110008972362.0,Carville Energy Center,4322 HIGHWAY 30,Saint Gabriel,LA,70776,30.2292,-91.065,IBERVILLE,221112,,1005110,GHGRP
110008972362.0,Carville Energy LLC - Carville Energy Center,4332 Hwy 30,St. Gabriel,LA,70776,30.2309,-91.0652,Iberville,221118,,5519911,NEI
110007194847.0,SILAS RAY POWER PLANT,94 W. 13th Street,BROWNSVILLE,TX,78520,25.9131,-97.5214,CAMERON,221112,,1005210,GHGRP
110007194847.0,SILAS RAY POWER PLANT,W 13TH ST & POWER PLANT DR,BROWNSVILLE,TX,78520,25.9111,-97.5211,Cameron,221122,,6493311,NEI
110000427020.0,AGRI ENERGY LLC,502 SOUTH WALNUT AVENUE,LUVERNE,MN,56156,43.648333,-96.224444,ROCK COUNTY,325199,,1005284,GHGRP
110000427020.0,Agri-Energy LLC,502 Walnut Ave S,Luverne,MN,56156,43.6475,-96.2247,Rock,327331,,6926711,NEI
110000373998.0,PMC BIOGENIX INC,1231 POPE STREET,MEMPHIS,TN,38108,35.16677,-89.95893,SHELBY COUNTY,325199,,1005312,GHGRP
110000373998.0,PMC Biogenix (formerly Crompton Corporation/ Enenco),1231 Pope Street,Memphis,TN,38108,35.1681,-89.9567,Shelby,325992,,5706111,NEI
110025332030.0,WHITE PINE ELECTRIC POWER LLC,33707 POWER PLANT RD,WHITE PINE,MI,49971,46.764138,-89.567836,ONTONAGON,221112,,1005366,GHGRP
110025332030.0,WHITE PINE ELECTRIC POWER LLC,29639 WILLOW ROAD,WHITE PINE,MI,49971,46.7647,-89.5674,Ontonagon,221112,,7870111,NEI
110025332030.0,WHITE PINE ELECTRIC POWER LLC,33707 POWER PLANT RD,WHITE PINE,MI,49971,46.764138,-89.567836,ONTONAGON,221122,,49971WHTPN3377P,TRI
110043790092.0,Puget Sound Energy LDC,10885 NE 4th St,Bellevue,WA,98004,47.61373,-122.19453,KING COUNTY,221210,,1005387,GHGRP
110043790092.0,Puget Sound Energy T&D,10885 N.E. 4th Street,Bellevue,WA,98004,47.61373,-122.19453,KING COUNTY,221122,,1010301,GHGRP
110000437974.0,EVONIK CORPORATION,8300 WEST ROUTE 24,MAPLETON,IL,61547,40.564739,-89.724506,PEORIA,325199,,1005465,GHGRP
110000437974.0,Degussa/Goldschmidt Chemical,8300 W Route 24,Mapleton,IL,61547,40.5647,-89.7245,Peoria,325613,,7940111,NEI
110000437974.0,EVONIK CORP,8300 W RT 24,MAPLETON,IL,61547,40.564725,-89.724485,PEORIA,325613,,61547GLDSC8300W,TRI
110001387151.0,Carbide Industries LLC,4400 Bells Lane,Louisville,KY,40211,38.22352,-85.83757,JEFFERSON COUNTY,325199,,1005537,GHGRP
110001387151.0,Carbide Industries LLC,4400 BELLS LN,LOUISVILLE,KY,None,38.2225,-85.8405,Jefferson,325180,,5832311,NEI
110001387151.0,CARBIDE INDUSTRIES LLC,4400 BELLS LN,LOUISVILLE,KY,40211,38.2219,-85.835574,JEFFERSON,325199,,40201RCCRB4400B,TRI
110003740202.0,HENNEPIN COUNTY ENERGY CENTER,600 10TH AVENUE SOUTH,MINNEAPOLIS,MN,55415,44.97206,-93.25783,HENNEPIN,221112,,1005637,GHGRP
110003740202.0,Hennepin County Energy Center,600 10th Ave S,Minneapolis,MN,55415,44.9721,-93.2579,Hennepin,22133,,6393211,NEI
110000592662.0,Whitewater Valley,2000 U.S. 27 South,RICHMOND,IN,47374,39.8028,-84.8953,Wayne,221112,,1005667,GHGRP
110000592662.0,RICHMOND POWER & LIGHT COMPANY RPL,2000 US Hwy 27 S,Richmond,IN,47374,39.8028,-84.8953,Wayne,221112,,5506011,NEI
110000592662.0,WHITEWATER VALLEY GENERATING STATION,2000 US .27 HWY S,RICHMOND,IN,47374,39.8028,-84.8953,WAYNE,221122,,47374WHTWT2000U,TRI
110000608245.0,Limestone,3964 FM 39,JEWETT,TX,75846,31.4219,-96.2525,Limestone,221112,,1005713,GHGRP
110000608245.0,LIMESTONE ELECTRIC GENERATION STATION,9 MI N OF JEWETT ON FM 39,JEWETT,TX,75846,31.4238,-96.2541,Limestone,221122,,5650511,NEI
110000608245.0,LIMESTONE ELECTRIC  GENERATING STATION,3964 FM39,JEWETT,TX,75846,31.423182,-96.251658,LIMESTONE,221122,,75846LMSTNFM39A,TRI
110012511120.0,San Jacinto Steam Electric Station,845 SENS ROAD,LA PORTE,TX,77571,29.6967,-95.0411,Harris,221112,,1005714,GHGRP
110012511120.0,SAN JACINTO STEAM ELECTRIC STATION,845 SENS RD,LA PORTE,TX,77572,29.6951,-95.0411,Harris,221122,,7907811,NEI
110001207756.0,NRG Energy Center Pittsburgh LLC,111 South Commons Avenue,Pittsburgh,PA,15212,40.450662,-80.003102,ALLEGHENY,221112,,1005798,GHGRP
110001207756.0,NRG ENERGY CTR PGH LLC/PGH,111 S COMMONS,PITTSBURGH,PA,None,40.4492,-80.0064,Allegheny,221330,,7395811,NEI
110038076453.0,Ames,200 E 5TH ST,AMES,IA,50010,42.0247,-93.6069,Story,221112,,1005802,GHGRP
110038076453.0,CITY OF AMES STEAM ELECTRIC PLANT,200 E 5TH ST,AMES,IA,50010,42.0254,-93.6078,Story,221112,,12806611,NEI
110038076453.0,Ames Muni,Unknown,Ames,IA,00000,41.992,-93.6218,Story,48811,,9642911,NEI
110038076453.0,CITY OF AMES,200 E 5TH ST,AMES,IA,50010,42.02535,-93.60784,STORY,221112,,50010CTYFM200E5,TRI
110000730433.0,Cabrillo Power I Encina Power Station,4600 CARLSBAD BLVD,CARLSBAD,CA,92008,33.1408,-117.3342,San Diego,221112,,1005837,GHGRP
110000730433.0,CABRILLO POWER I LLC ENCINA POWER PLANT,4600 CARLSBAD BL,CARLSBAD,CA,92008,33.1408,-117.334,San Diego,221118,,5003711,NEI
110000468066.0,Cheyenne Plant,8305 Otto Road,Cheyenne,WY,82001,41.0949,-104.9063,LARAMIE,325311,,1005924,GHGRP
110000468066.0,Fertilizer Plant,"Sec 16-17, T13N, R67W",Laramie County,WY,82001,41.0937,-104.909,Laramie,32531,,7001211,NEI
110000468066.0,DYNO NOBEL INC-CHEYENNE PLANT,8305 OTTO RD,CHEYENNE,WY,82001,41.0949,-104.908,LARAMIE,325311,,82007DYNNB835TT,TRI
110000426487.0,AUSTIN UTILITIES NORTHEAST POWER STATION,3511 11TH ST. N.E.,AUSTIN,MN,55912,43.7014,-92.9626,MOWER,221112,,1005945,GHGRP
110000426487.0,Austin Utilities - NE Power Station,3701 11th St NE,Austin,MN,55912,43.7031,-92.96,Mower,221121,,7002411,NEI
110000426487.0,AUSTIN UTILITIES NORTHEAST POW ER STATION,3511 11TH ST NE,AUSTIN,MN,55912,43.70721,-92.96105,MOWER,221112,,55912STNTL37011,TRI
110031409973.0,Dixie Chemical Company,10601 Bay Area Blvd,Pasadena,TX,77507,29.612017,-95.050481,HARRIS,325199,,1005947,GHGRP
110031409973.0,BAYPORT FACILITY,10601 BAY AREA BLVD,LA PORTE,TX,77571,29.6122,-95.048,Harris,325110,,4862611,NEI
110031409973.0,DIXIE CHEMICAL CO INC,10601 BAY AREA BLVD,PASADENA,TX,77507,29.612017,-95.050481,HARRIS,325199,,77507DXCHM10701,TRI
110006176191.0,Desoto County Energy Park,3800 ROAN ST NE,ARCADIA,FL,34266,27.2272,-81.8092,DeSoto,221112,,1006035,GHGRP
110006176191.0,"DESOTO COUNTY GENERATING COMPANY, LLC",3800 NORTHEAST ROAN STREET,ARCADIA,FL,34266,27.2258,-81.8103,DeSoto,2211,,901411,NEI
110031507028.0,FORNEY POWER PLANT,13770 W US HIGHWAY 80,FORNEY,TX,75126,32.7563,-96.4916,KAUFMAN,221112,,1006085,GHGRP
110031507028.0,FORNEY ELECTRIC GENERATING FACILITY,HWY 80 I MI W OF FORNEY,FORNEY,TX,75126,32.7574,-96.4919,Kaufman,221122,,9146511,NEI
110001505595.0,NORTH DENVER STATION,1228 NORTH DENVER AVENUE,HASTINGS,NE,68901,40.596501,-98.388461,ADAMS,221112,,1006172,GHGRP
110001505595.0,North Denver Station,1228 N Denver Ave,Hastings,NE,None,40.5988,-98.3893,Adams,221118,,5098411,NEI
110000499531.0,Benning Generation Station,3400 BENNING RD NE,WASHINGTON,DC,20019,38.8994,-76.9592,None,221112,,1006393,GHGRP
110000499531.0,Pepco,3400 Benning Road NE,Washington DE,DC,20019,38.89656,-76.95738,DISTRICT OF COLUMBIA,221122,,1009801,GHGRP
110000499531.0,Pepco Benning Generating Station,"3400 Benning Road, NE",Washington,DC,20019,38.8987,-76.9581,District of Columbia,2211,,589411,NEI
110000499531.0,POTOMAC POWER RESOURCES BENNING GENERATING STATION,3400 BENNING RD NE,WASHINGTON,DC,20019,38.89656,-76.95738,DISTRICT OF COLUMBIA,221112,,20019BNNNG3400B,TRI
110000378537.0,Cane Run,5252 Cane Run Road,Louisville,KY,40216,38.1828,-85.8894,JEFFERSON,221112,,1006509,GHGRP
110000378537.0,"Louisville Gas & Electric Co., Cane Run Station",5252 CANE RUN RD,LOUISVILLE,KY,None,38.1831,-85.88899999999998,Jefferson,221122,,5702411,NEI
110000378537.0,LOUISVILLE GAS & ELECTRIC CO - CANE RUN STATION,5252 CANE RUN RD,LOUISVILLE,KY,40216,38.1815,-85.8868,JEFFERSON,221112,,40216LSVLL5252C,TRI
110000378733.0,Mill Creek,14660 Dixie Highway,Louisville,KY,40272,38.0531,-85.91,JEFFERSON,221112,,1006510,GHGRP
110000378733.0,"Louisville Gas & Electric Co., Mill Creek Station",14660 DIXIE HWY,LOUISVILLE,KY,None,38.0531,-85.90999999999998,Jefferson,221122,,7353711,NEI
110000378733.0,LOUISVILLE GAS & ELECTRIC CO. - MILL CREEK STATION,14660 DIXIE HWY,LOUISVILLE,KY,40272,38.0501,-85.9076,JEFFERSON,221112,,40272LSVLL14660,TRI
110000874224.0,Ghent,9485 Highway 42 East,Ghent,KY,41045,38.7497,-85.035,CARROLL,221112,,1006512,GHGRP
110000874224.0,KY Utilities Co - Ghent Station,9485 US 42 E,Ghent,KY,41045,38.7497,-85.03499999999998,Carroll,221121,,5198511,NEI
110000874224.0,KENTUCKY UTILITIES CO GHENT STATION,9485 US HWY 42E,GHENT,KY,41045,38.7497,-85.035,CARROLL,221112,,41045KNTCKUS42P,TRI
110000606522.0,Gerald Gentleman Station,6089 SOUTH HWY 25,SUTHERLAND,NE,69165,41.0808,-101.1408,Lincoln,221112,,1006589,GHGRP
110000606522.0,NPPD Gerald Gentleman Station,6089 S Highway 25,Sutherland,NE,None,41.0836,-101.146,Lincoln,221122,,7766511,NEI
110000606522.0,GERALD GENTLEMAN STATION,6089 S HIGHWAY 25,SUTHERLAND,NE,69165,41.080992,-101.142247,LINCOLN,221112,,69165GRLDGSHWY2,TRI
110013829330.0,Grayson Power Plant,800 AIR WAY,GLENDALE,CA,91201,34.1556,-118.2782,Los Angeles,221112,,1006628,GHGRP
110013829330.0,"GLENDALE CITY, GLENDALE WATER & POWER",800 AIR WAY,GLENDALE,CA,91201,34.1573,-118.279,Los Angeles,221118,,5635111,NEI
110000464168.0,ARKEMA BEAUMONT PLANT,2810 GULF STATES ROAD,BEAUMONT,TX,77701,30.060226,-94.058976,JEFFERSON,325199,,1006644,GHGRP
110000464168.0,ARKEMA BEAUMONT PLANT,2810 GULF STATES RD,BEAUMONT,TX,77701,30.0571,-94.0569,Jefferson,325110,,6430011,NEI
110000464168.0,ARKEMA INC,2810 GULF STATE RD,BEAUMONT,TX,77701,30.060226,-94.058976,JEFFERSON,325199,,77704PNNWL2052G,TRI
110001869078.0,Decker Creek,8003 DECKER LN,AUSTIN,TX,78724,30.3036,-97.6128,Travis,221112,,1006650,GHGRP
110001869078.0,DECKER CREEK POWER PLANT,8003 DECKER LN,AUSTIN,TX,78724,30.3068,-97.6124,Travis,221122,,5021711,NEI
110001505602.0,Gerald Whelan Energy Center,4520 EAST SOUTH ST,HASTINGS,NE,68902,40.5806,-98.3106,Adams,221112,,1006654,GHGRP
110001505602.0,Whelan Energy Center,4520 E South St,Hastings,NE,68901,40.5823,-98.3161,Adams,926130,,8399211,NEI
110001505602.0,WHELAN ENERGY CENTER (WEC 1 HU WEC 2 PPGA),4520 E S ST,HASTINGS,NE,68901,40.5823,-98.3161,ADAMS,221112,,68901WHLNNEHWY6,TRI
110000506079.0,EQUISTAR CHEMICALS LIMITED PARTNERSHIP BAYPORT PLANT,5761 UNDERWOOD ROAD,PASADENA,TX,77507,29.627167,-95.080194,HARRIS COUNTY,325199,,1006656,GHGRP
110000506079.0,BAYPORT UNDERWOOD PLANT,5761 UNDERWOOD RD,PASADENA,TX,77507,29.6303,-95.0794,Harris,325110,,4926611,NEI
110000506079.0,EQUISTAR CHEMICALS BAYPORT CHEMICALS PLANT,5761 UNDERWOOD RD,PASADENA,TX,77507,29.627167,-95.080194,HARRIS,325199,,77507QSTRC5761U,TRI
110002526847.0,Crist Electric Generating Plant,11999 PATE ST,PENSACOLA,FL,32514,30.5661,-87.2289,Escambia,221112,,1006702,GHGRP
110002526847.0,GULF POWER - Crist,11999 Pate Street,PENSACOLA,FL,32514,30.5656,-87.2264,Escambia,2211,,752711,NEI
110002526847.0,GULF CLEAN ENERGY CENTER,11999 PATE RD,PENSACOLA,FL,32514,30.566795,-87.226757,ESCAMBIA,221112,,32514GLFPW11999,TRI
110010300076.0,Santa Rosa Energy Center,5001 STERLING WAY,PACE,FL,32571,30.5661,-87.115,Santa Rosa,221112,,1006707,GHGRP
110010300076.0,SANTA ROSA ENERGY CTR,5001 Sterling Way,PACE,FL,32571,30.568,-87.11499999999998,Santa Rosa,2211,,2492411,NEI
110056955521.0,AGRIFOS FERTILIZER PASADENA,2001 JACKSON ROAD,PASADENA,TX,77506,29.736528,-95.198139,HARRIS COUNTY,325312,,1006743,GHGRP
110056955521.0,AGRIFOS FERTILIZER PASADENA,2001 JACKSON RD,PASADENA,TX,77501,29.7402,-95.1942,Harris,325312,,6616511,NEI
110056955521.0,PCI NITROGEN LLC,2001 JACKSON RD,PASADENA,TX,77506,29.736528,-95.198139,HARRIS,325311,,77501MBLMN2001J,TRI
110014339634.0,CalPeak Power - Panoche LLC,43699 WEST PANOCHE ROAD,FIREBAUGH,CA,93622,36.6531,-120.5797,Fresno,221112,,1006745,GHGRP
110014339634.0,"CAL PEAK POWER - PANOCHE, LLC",43699 WEST PANOCHE RD,FIREBAUGH,CA,93622,36.655,-120.58,Fresno,221118,,10437111,NEI
110002399887.0,Oklahoma Cogeneration,7425 SW 29TH ST,OKLAHOMA CITY,OK,73179,35.44048,-97.65406,OKLAHOMA COUNTY,221112,,1006791,GHGRP
110002399887.0,POWERSMITH COGENERATION PLT,7425 SW 29TH ST,OKLAHOMA CITY,OK,73179,35.4398,-97.6486,Oklahoma,221330,,8185511,NEI
110001844274.0,SOUTH CHESTER CO2 REMOVAL FACILITY,6250 OLD STATE ROAD,JOHANNESBURG,MI,49751,44.915,-84.5406,OTSEGO,221210,,1006798,GHGRP
110001844274.0,DCP Antrim Gas LLC,6250 OLD STATE RD,JOHANNESBURG,MI,49751,44.91,-84.542,Otsego,486210,,6318211,NEI
110008989737.0,Oleander Power Project,555 TOWNSEND RD,COCOA,FL,32926,28.3661,-80.7947,Brevard,221112,,1006808,GHGRP
110008989737.0,"OLEANDER POWER PROJECT, LP",555 Townsend Road,COCOA,FL,32926,28.3655,-80.7951,Brevard,2211,,591111,NEI
110000896816.0,Gadsby,1407 WEST NORTH TEMPLE REAR,SALT LAKE CITY,UT,84104,40.7686,-111.9289,Salt Lake,221112,,1006811,GHGRP
110000896816.0,Pacificorp Energy: Gadsby Power Plant,1407 West North Temple (rear),Salt Lake City,UT,84116,40.7686,-111.92,Salt Lake,221118,,7559311,NEI
110033180206.0,Signal Hill Generating LLC,4511 ALLENDALE RD,WICHITA FALLS,TX,76310,33.86588,-98.59591,WICHITA COUNTY,221112,,1006857,GHGRP
110033180206.0,WF COGENERATION PLANT,4511 ALLENDALE RD,WICHITA FALLS,TX,76310,33.8608,-98.5875,Wichita,221122,,5127311,NEI
110040997393.0,LIVE OAK LIMITED,7001 GRANITE ROAD,BAKERSFIELD,CA,93308,35.610378,-118.891755,KERN COUNTY,221112,,1006860,GHGRP
110040997393.0,LIVE OAK LIMITED,7001 GRANITE ROAD,BAKERSFIELD,CA,93308,35.611,-118.937,Kern,221122,,423811,NEI
110040997393.0,LIVE OAK LIMITED,"7001 GRANITE RD., HEAVY OIL",BAKERSFIELD,CA,93308,35.4962,-119.009,Kern,221118,,456011,NEI
110067040703.0,CLEAR LAKE PLANT,9502 BAYPORT BLVD.,PASADENA,TX,77507,29.625819,-95.061592,HARRIS,325199,,1006867,GHGRP
110067040703.0,LINDE CLEAR LAKE PLANT,9502 BAYPORT BLVD,PASADENA,TX,77507,29.6258,-95.0636,Harris,325120,,10679911,NEI
110067040703.0,CLEAR LAKE PLANT,9502 BAYPORT BLVD,PASADENA,TX,77507,29.6228,-95.0647,Harris,325110,,4057911,NEI
110067040703.0,CELANESE LTD CLEAR LAKE PLANT,9502 BAYPORT BLVD,PASADENA,TX,77507,29.625819,-95.061592,HARRIS,325199,,77507HCHST9502B,TRI
110067040703.0,CLARIANT CORP CLEAR LAKE PLANT,9502 BAYPORT BLVD - ETOX UNIT,PASADENA,TX,77507,29.625819,-95.061592,HARRIS,325613,,7750WCLRNT952BA,TRI
110067040703.0,CLEAR LAKE OPERATIONS,9502 B BAYPORT BLVD B,PASADENA,TX,77501,29.6286,-95.0719,Harris,325110,,13411211,NEI
110067040703.0,"LINDE GAS NORTH AMERICA LLC, CLEARLAKE PLANT",9502 BAYPORT DRIVE,PASADENA,TX,77507,29.62132,-95.064683,HARRIS,325120,,1003049,GHGRP
110000861862.0,"Flint Hills Resources Port Arthur, LLC",4241 SAVANNAH AVE,PORT ARTHUR,TX,77640,29.892778,-93.973333,JEFFERSON,325199,,1006891,GHGRP
110000861862.0,PORT ARTHUR CHEMICALS,4241 SAVANNAH AVE,PORT ARTHUR,TX,77640,29.8936,-93.9696,Jefferson,325110,,6430411,NEI
110000861862.0,MOTIVA CHEMICALS LLC,4241 SAVANNAH AVE,PORT ARTHUR,TX,77640,29.892778,-93.973333,JEFFERSON,325110,,77641TXCCHGATE2,TRI
110028042197.0,Gregory Power Facility,TX HWY 361 EAST @ SAC,GREGORY,TX,78359,27.8881,-97.2572,San Patricio,221112,,1006927,GHGRP
110028042197.0,GREGORY POWER FACILITY,HWY 361 EAST (REYNOLDS METALS PLANT),GREGORY,TX,78359,27.8898,-97.2587,San Patricio,221121,,5780011,NEI
110021170908.0,Red Hills Generation Facility,2391 Pensacola Road,Ackerman,MS,39735,33.3761,-89.2183,Choctaw,221112,,1006935,GHGRP
110021170908.0,"Choctaw Generation Limited Partnership, Red Hills Generation Facilit",2391 Pensacola Road,Ackerman,MS,39735,33.3794,-89.2093,Choctaw,221112,,7053011,NEI
110021170908.0,CHOCTAW GENERATION LP L.L.L.P.,2391 PENSACOLA RD,ACKERMAN,MS,39735,33.37648,-89.21783,CHOCTAW,221122,,39735TRCTBRTE1B,TRI
110008972549.0,Baytown Energy Center,8605 FM 1405,BAYTOWN,TX,77523,29.7731,-94.9019,Chambers,221112,,1006983,GHGRP
110008972549.0,BAYTOWN COGENERATION,HWY 1405 & HWY 565,BAYTOWN,TX,77520,29.772,-94.9046,Chambers,221122,,5729111,NEI
110018861793.0,St Charles Operations (Taft/Star) Union Carbide Corp,355 LA HWY 3142 (GATE 1),TAFT,LA,70057,29.987341,-90.445067,SAINT CHARLES,325199,,1007031,GHGRP
110018861793.0,Union Carbide Corp - St Charles Operations,355 Hwy 3142 Gate 1,Taft,LA,70057,29.9825,-90.444,St. Charles,325110,,7202911,NEI
110018861793.0,ST CHARLES OPERATIONS (TAFT/STAR) UNION CARBIDE CORP,355 LA HWY 3142 (GATE 1),HAHNVILLE,LA,70057,29.9829,-90.4437,ST. CHARLES PARISH,325199,,70057NNCRBHWY31,TRI
110039498674.0,"Air Products and Chemicals, Inc.",412 North Main Street,Calvert City,KY,42029,37.045833,-88.345833,MARSHALL,325199,,1007116,GHGRP
110039498674.0,Air Products & Chemicals,412 N Main St,Calvert City,KY,42029,37.0439,-88.3531,Marshall,325120,,7366911,NEI
110039498674.0,EVONIK CORP,412 N MAIN ST,CALVERT CITY,KY,42029,37.03723,-88.351153,MARSHALL,325199,,42029RPRDCHIGHW,TRI
110000914832.0,Turkey Point,9700 SW 344TH ST,HOMESTEAD,FL,33035,25.4356,-80.3308,Miami-Dade,221112,,1007159,GHGRP
110000914832.0,FLORIDA POWER & LIGHT (PTF),9760 SW 344 ST,HOMESTEAD,FL,33035,25.4361,-80.3379,Miami-Dade,2211,,900011,NEI
110000914832.0,FLORIDA POWER & LIGHT CO TURKEY POINT POWER PLANT,9700 SW 344 ST,HOMESTEAD,FL,33035,25.435833,-80.331111,MIAMI-DADE,221112,,33035TRKYP9700S,TRI
110007477391.0,West County Energy Center,20505 STATE RD 80,LOXAHATCHEE,FL,33470,26.6986,-80.3747,Palm Beach,221112,,1007171,GHGRP
110007477391.0,FP&L / WEST COUNTY ENERGY CENTER,20505 STATE ROAD 80,LOXAHATCHEE,FL,33470,26.6986,-80.37489999999998,Palm Beach,2211,,14654911,NEI
110007477391.0,FLORIDA POWER & LIGHT-WEST COUNTY ENERGY CENTER PLANT,20505 STATE RD 80,LOXAHATCHEE,FL,33470,26.698606,-80.374872,PALM BEACH,221112,,3347WWSTCN255ST,TRI
110011349656.0,Arvah B Hopkins,1125 GEDDIE ROAD,TALLAHASSEE,FL,32304,30.4522,-84.4,Leon,221112,,1007189,GHGRP
110011349656.0,CITY OF TALLAHASSEE,1125 Geddie Road,TALLAHASSEE,FL,32304,30.4522,-84.4,Leon,2211,,715111,NEI
110011349656.0,CITY OF TALLAHASSEE ARVAH B. HOPKINS GENERATING STATION,1125 GEDDIE RD,TALLAHASSEE,FL,32304,30.451976,-84.399472,LEON,221121,,32304CTYFT1125G,TRI
110000519582.0,Coalinga Cogeneration Facility,32812 WEST GALE AVE,COALINGA,CA,93210,36.1807,-120.3885,Fresno,221112,,1007204,GHGRP
110000519582.0,COALINGA COGENERATION CO,32812 W GALE AVE,COALINGA,CA,93210,36.1854,-120.379,Fresno,221118,,6515311,NEI
110005187760.0,Calpine Hidalgo Energy Center,4005 N SEMINARY RD,EDINBURG,TX,78539,26.3389,-98.1708,Hidalgo,221112,,1007233,GHGRP
110005187760.0,HIDALGO ENERGY CENTER,4005 N SEMINARY RD,EDINBURG,TX,78539,26.3419,-98.1754,Hidalgo,221122,,6141711,NEI
110069446246.0,Quantum Auburndale Power L.P.,1501 WEST DERBY AVE.,AUBURNDALE,FL,33823,28.0542,-81.8058,Polk,221112,,1007248,GHGRP
110069446246.0,"QUANTUM AUBURNDALE POWER, LP",1501 W. DERBY AVENUE,AUBURNDALE,FL,None,28.0545,-81.8058,Polk,2211,,8515211,NEI
110000496776.0,Manatee,19050 STATE ROAD 62,PARRISH,FL,34219,27.6058,-82.3456,Manatee,221112,,1007255,GHGRP
110000496776.0,FLORIDA POWER & LIGHT (PMT),19050 State Road 62,PARRISH,FL,None,27.6066,-82.3451,Manatee,2211,,537911,NEI
110000496776.0,FLORIDA POWER & LIGHT CO FPL MANATEE POWER PLANT,19050 STATE RD 62,PARRISH,FL,34219,27.6056,-82.3463,MANATEE,221112,,34219FPLMN19050,TRI
110010131419.0,Bastrop Clean Energy Center,125 OLD BASTROP ROAD,CEDAR CREEK,TX,78612,30.1458,-97.55,Bastrop,221112,,1007300,GHGRP
110010131419.0,BASTROP ENERGY CENTER,SH71; APPROX 0.3 M E,BASTROP,TX,78602,30.1471,-97.5506,Bastrop,221122,,3981411,NEI
110012181673.0,Cottonwood Energy Project,976 COUNTY ROAD 4213,DEWEYVILLE,TX,77614,30.2588,-93.7353,Newton,221112,,1007303,GHGRP
110012181673.0,COTTONWOOD ENERGY CO LP,INDIAN LAKE RD .75 MI W OF INDIAN LAKE,DEWEYVILLE,TX,77614,30.2575,-93.7367,Newton,221122,,9118811,NEI
110012217975.0,Perryville Power Station,11140 HWY 165 N,STERLINGTON,LA,71280,32.6914,-92.0192,Ouachita,221112,,1007305,GHGRP
110012217975.0,Entergy Louisiana LLC - Perryville Generating Station,11140 Hwy 165 N,Perryville,LA,71280,32.6914,-92.0196,Ouachita,221122,,7205211,NEI
110018862337.0,Tracy Combined Cycle Power Plant,14950 W SCHULTE ROAD,TRACY,CA,95377,37.7107,-121.4906,San Joaquin,221112,,1007312,GHGRP
110018862337.0,"GWF ENERGY, LLC - TRACY PEAKER POWER PLANT",14950 W SCHULTE RD,TRACY,CA,95377,37.7216,-121.494,San Joaquin,221118,,10009011,NEI
110021087517.0,Almond Power Plant,4500 CROWS LANDING ROAD,MODESTO,CA,95358,37.5739,-120.9854,Stanislaus,221112,,1007315,GHGRP
110021087517.0,TURLOCK IRRIGATION DISTRICT,4500 CROWS LANDING ROAD,MODESTO,CA,95358,37.5724,-120.994,Stanislaus,221118,,1218311,NEI
110022882576.0,CalPeak Power - Enterprise LLC,201 ENTERPRISE ST,ESCONDIDO,CA,92029,33.1221,-117.117,San Diego,221112,,1007316,GHGRP
110022882576.0,CALPEAK POWER ENTERPRISE LLC,201 ENTERPRISE ST,ESCONDIDO,CA,92029,33.122,-117.116,San Diego,221118,,10098911,NEI
110066942321.0,"Emery Oleochemicals, LLC",4900 ESTE AVENUE,CINCINNATI,OH,45232,39.1792,-84.5053,Hamilton,325199,,1007325,GHGRP
110066942321.0,Emery Oleochemicals LLC (1431074278),4900 Este Avenue,Cincinnati,OH,None,39.1758,-84.5047,Hamilton,325998,,13571911,NEI
110066942321.0,EMERY OLEOCHEMICALS LLC CINCINNATI PLANT,4900 ESTE AVE,CINCINNATI,OH,45232,39.1782,-84.5041,HAMILTON,325199,,45232HNKLC4900E,TRI
110005188082.0,Sabine Cogeneration Facility,4647 FM1006,ORANGE,TX,77630,30.0444,-93.7716,Orange,221112,,1007365,GHGRP
110005188082.0,SABINE COGENERATION FACILITY,FM 1006 & HWY 105,ORANGE,TX,77630,30.0444,-93.7719,Orange,221122,,5731011,NEI
110002524787.0,G E Turner Power Plant,433 LAKEFRONT COURT,ENTERPRISE,FL,32725,28.8689,-81.2728,Volusia,221112,,1007373,GHGRP
110002524787.0,"DUKE ENERGY FLORIDA, INC.",201 DEBARY AVE,DELTONA,FL,32725,28.8689,-81.27559999999998,Volusia,2211,,2797211,NEI
110000743704.0,Eastman Chemical - Texas Operations,300 KODAK BLVD,LONGVIEW,TX,75602,32.4472,-94.6917,Harrison,325199,,1007438,GHGRP
110000743704.0,TEXAS OPERATIONS,HWY 149 KODAK BLVD,LONGVIEW,TX,75607,32.4386,-94.6911,Harrison,325110,,4941511,NEI
110000743704.0,EASTMAN COGENERATION FACILITY,CALLAHAN RD,LONGVIEW,TX,75602,32.4477,-94.6902,Harrison,221121,,7908711,NEI
110000743704.0,EASTMAN CHEMICAL CO TEXAS OPERATIONS,300 KODAK BLVD,LONGVIEW,TX,75602,32.438056,-94.69,HARRISON,325199,,75607TXSSTOFFHI,TRI
110002044065.0,Lauderdale,4300 SOUTHWEST 42ND STREET,FORT LAUDERDALE,FL,33314,26.0681,-80.1983,Broward,221112,,1007471,GHGRP
110002044065.0,FLORIDA POWER & LIGHT (PFL),4300 SW 42 AVENUE,FT. LAUDERDALE,FL,33314,26.0708,-80.1897,Broward,2211,,591711,NEI
110002044065.0,FPL-LAUDERDALE POWER PLANT,4300 SW 42ND ST,FORT LAUDERDALE,FL,33314,26.0705,-80.1974,BROWARD,221112,,33004FLRDPGRIFF,TRI
110000448249.0,Platte,1035 W. Wildwood Drive,Grand Island,NE,68801,40.8538,-98.3481,Hall,221112,,1007597,GHGRP
110000448249.0,Platte Generating Station,1035 W Wildwood Dr,Grand Island,NE,None,40.8551,-98.3487,Hall,221118,,8212011,NEI
110000448249.0,PLATTE GENERATING STATION,1035 W WILDWOOD DR,GRAND ISLAND,NE,68801,40.855103,-98.3487,HALL,221112,,68801PLTTG1035W,TRI
110008147665.0,Stryker Creek,1895 FM 2420 E,JACKSONVILLE,TX,75785,31.9381,-94.9883,Cherokee,221112,,1007619,GHGRP
110008147665.0,STRYKER CREEK ELECTRIC STATION,20 MI E OF JACKSONVILLE ON FM 2420,JACKSONVILLE,TX,75201,31.94,-94.9894,Cherokee,221122,,5729511,NEI
110002151340.0,CLEAR AIR FORCE STATION,200 A Street Stop 1,CLEAR AIR STATION,AK,99704,64.291944,-149.185,DENALI,221112,,1007791,GHGRP
110002151340.0,Clear Air Force Station,13 SWS/CC,Clear Air Station,AK,99704,64.31,-149.13,Denali,928110,,1134011,NEI
110002151340.0,US DOD USAF CLEAR AFS,200 A ST,CLEAR,AK,99704,64.2919,-149.1618,DENALI BOROUGH,928110,,99704SRFRC200AS,TRI
110001474164.0,YELLOWSTONE ENERGY LIMITED PARTNERSHIP,2215 N. FRONTAGE ROAD,BILLINGS,MT,59101,45.811201,-108.428833,YELLOWSTONE,221112,,1007803,GHGRP
110001474164.0,YELLOWSTONE POWER PLANT,2215 N FRONTAGE RD,BILLINGS,MT,59101,45.8083,-108.427,Yellowstone,221118,,5270711,NEI
110000602544.0,DOW CHEMICAL COMPANY,901 LOVERIDGE ROAD,PITTSBURG,CA,94565,38.023129,-121.855352,CONTRA COSTA COUNTY,325199,,1007805,GHGRP
110000602544.0,DOW CHEMICAL COMPANY,901 LOVERIDGE ROAD,PITTSBURG,CA,94565,38.0241,-121.855,Contra Costa,325320,,6530311,NEI
110000602544.0,CORTEVA AGRISCIENCE LLC,901 LOVERIDGE RD,PITTSBURG,CA,94565,38.023129,-121.855352,CONTRA COSTA,325320,,94565DWCHMFOOTO,TRI
110006645238.0,Putnam,392 US HWY 17 SOUTH,EAST PALATKA,FL,32131,29.6283,-81.5856,Putnam,221112,,1007982,GHGRP
110006645238.0,FLORIDA POWER & LIGHT (PPN),392 U.S. HWY 17 SOUTH,EAST PALATKA,FL,32131,29.6284,-81.586,Putnam,2211,,842511,NEI
110006645238.0,FLORIDA POWER & LIGHT CO PUTNAM POWER PLANT,392 US HWY 17 S,EAST PALATKA,FL,32131,29.628706,-81.584933,PUTNAM,221112,,32131FPLPTUS17S,TRI
110022763393.0,Mosaic Carlsbad Facility,1361 Potash Mines Road,Carlsbad,NM,88220,32.40613,-103.94702,EDDY COUNTY,325312,,1009701,GHGRP
110022763393.0,Mosaic Potash Carlsbad Inc,1361 Potash Mines Road,Carlsbad,NM,88220,32.4172,-103.917,Eddy,212391,,7611611,NEI
110001842436.0,Cargill Salt,1395 135th Avenue,Hersey,MI,49639,43.831262,-85.375625,OSCEOLA,325312,,1009702,GHGRP
110001842436.0,Mosaic Potash Hersey LLC,1395 135th Ave,HERSEY,MI,49639,43.841,-85.36249999999998,Osceola,212391,,8522811,NEI
110002412620.0,SRI International Cogeneration Project,"333 Ravenswood Avenue, Bldg U",Menlo Park,CA,94025,37.457419,-122.176154,None,221112,,1012095,GHGRP
110002412620.0,SRI INTERNATIONAL,"333 RAVENSWOOD AVE, MLSTP AE12",MENLO PARK,CA,94025,37.4546,-122.178,San Mateo,541720,,13837611,NEI
110002412620.0,IPT SRI COGENERATION INC,333 RAVENSWOOD DRIVE,MENLO PARK,CA,94025,37.456,-122.179,San Mateo,221112,,575411,NEI
110000338821.0,HAY ROAD ENERGY CENTER,198 HAY ROAD,WILMINGTON,DE,19809,39.7456,-75.5061,New Castle,2211,,640311,NEI
110000338821.0,EDGE MOOR ENERGY CENTER,200 HAY ROAD,WILMINGTON,DE,19809,39.7403,-75.5036,New Castle,2211,,827811,NEI
110000338821.0,EDGE MOOR/HAY ROAD ENERGY CENTERS,200 HAY RD,WILMINGTON,DE,19809,39.738399,-75.503827,NEW CASTLE,221112,,19809DGMRH200HA,TRI
110000338821.0,Hay Road,198 HAY ROAD,WILMINGTON,DE,19809,39.7436,-75.5072,New Castle,221112,,1001082,GHGRP
110000338821.0,Edge Moor,200 HAY ROAD,WILMINGTON,DE,19809,39.7372,-75.5033,New Castle,221112,,1001477,GHGRP
110000464916.0,CALAVERAS PLANT,12940 S US HWY 181,SAN ANTONIO,TX,78223,29.2967,-98.3159,Bexar,221122,,5617211,NEI
110000464916.0,CALAVERAS POWER STATION,12940 S US HIGHWAY 181,SAN ANTONIO,TX,78223,29.308764,-98.321969,BEXAR,221122,,78263WSMMR9599G,TRI
110000464916.0,O W Sommers,12940 S US Hwy 181,SAN ANTONIO,TX,78223,29.3078,-98.3244,Bexar,221112,,1000570,GHGRP
110000524969.0,CALPINE GREENLEAF UNIT II/GILROY ENERGY CENTER,875 NORTH WALTON AVE,YUBA CITY,CA,95993,39.1401,-121.647,Sutter,221118,,1371711,NEI
110000524969.0,Yuba City Energy Center,875 NORTH WALTON AVE,YUBA CITY,CA,95993,39.1365,-121.6397,Sutter,221112,,1000123,GHGRP
110000525030.0,"BURBANK CITY,BURBANK WATER & POWER,SCPPA",164 W MAGNOLIA BLVD,BURBANK,CA,91502,34.1782,-118.317,Los Angeles,531110,,13491811,NEI
110000525030.0,"BURBANK CITY, BURBANK WATER & POWER",164 W MAGNOLIA BLVD,BURBANK,CA,91502,34.1782,-118.317,Los Angeles,221112,,5782811,NEI
110000525030.0,Magnolia,164 WEST MAGNOLIA BOULEVARD,BURBANK,CA,91502,34.1788,-118.3153,Los Angeles,221112,,1000457,GHGRP
110000529376.0,"CALPINE KING CITY COGEN, LLC",750 METZ ROAD,KING CITY,CA,93930,36.2265,-121.128,Monterey,311423,,7877111,NEI
110000529376.0,"Gilroy Energy Center, LLC for King City",51 DON BATES WAY,KING CITY,CA,93930,36.225,-121.1278,Monterey,221112,,1000122,GHGRP
110001188116.0,SUTTER ENERGY CENTER,5029 SOUTH TOWNSHIP ROAD,YUBA CITY,CA,95993,39.0531,-121.694,Sutter,221118,,1371811,NEI
110001188116.0,CALPINE GREENLEAF I,5087 SOUTH TOWNSHIP RD,YUBA CITY,CA,95993,39.0529,-121.696,Sutter,221118,,1371611,NEI
110001188116.0,Greenleaf Energy Unit 1 LLC,5087 South Township,Yuba City,CA,95993,43.0722,-86.2342,SUTTER,221112,,1000594,GHGRP
110001244724.0,The Dow Chemical Co - Louisiana Operations,21255 Hwy 1,Plaquemine,LA,70765,30.3211,-91.2344,Iberville,32519,,8467311,NEI
110001244724.0,THE DOW CHEMICAL CO - LOUISIANA OPERATIONS,21255 LA HWY 1 S,PLAQUEMINE,LA,70764,30.320903,-91.239015,IBERVILLE PARISH,325199,,70765THDWCHIGHW,TRI
110001244724.0,Plaquemine Cogen Facility,21255 HIGHWAY 1,PLAQUEMINE,LA,70765,30.3215,-91.2392,Iberville,325199,,1000816,GHGRP
110001244724.0,The Dow Chemical Company -- Louisiana Operations,21255 Highway 1 South,PLAQUEMINE,LA,70765,30.320903,-91.239015,IBERVILLE,325199,,1004314,GHGRP
110006825908.0,KERN RIVER COGENERATION CO,HEAVY OIL CENTRAL,Placeholder,CA,0,35.4407,-118.961,Kern,221118,,4197011,NEI
110006825908.0,SYCAMORE COGENERATION CO,HEAVY OIL CENTRAL,Placeholder,CA,0,35.452,-118.985,Kern,221118,,3945411,NEI
110006825908.0,SYCAMORE COGENERATION Facility,1546 SW China Grade Loop,BAKERSFIELD,CA,93308,35.42686,-118.99222,KERN,221112,,1003998,GHGRP
110013662009.0,Union Carbide Norco Catalyst Plant,16122 River Rd,Norco,LA,70079,30.0005,-90.4245,St. Charles,325180,,5640011,NEI
110013662009.0,Momentive Specialty Chemicals Inc,16122 River Rd Lot 3,Norco,LA,70079,30.0043,-90.4236,St. Charles,325199,,8026211,NEI
110013662009.0,SHAC CATALYST PLANT,16122 RIVER RD,NORCO,LA,70079,29.99806,-90.4,ST. CHARLES PARISH,325188,,70079CYPRS16122,TRI
110013662009.0,HEXION INC,16122 RIVER RD LOT 3,NORCO,LA,70079,29.99806,-90.4,ST. CHARLES PARISH,325199,,70079RSLTN16122,TRI
110013662009.0,HEXION INC.,16122 RIVER RD LOT 3,NORCO,LA,70079,29.99891,-90.423054,ST. CHARLES PARISH,325199,,1005744,GHGRP
110028037363.0,C & C OPERATORS LLC,VARIOUS LOCATIONS,MCKITTRICK,CA,0,35.3711,-119.649,Kern,211111,,14129111,NEI
110028037363.0,"WCAC OPERATING COMPANY CA, LLC",34759 LENCIONI AVE,BAKERSFIELD,CA,93308,35.4473,-119.085,Kern,811490,,15811811,NEI
110028037363.0,MCKITTRICK LIMITED,34759 LENCIONI AVE,BAKERSFIELD,CA,93308,35.44735,-119.08652,KERN COUNTY,221112,,1002541,GHGRP
110032885723.0,FPL ENERGY MH50 LP/MARCUS HOOK,100 GREEN ST,MARCUS HOOK,PA,19061,39.8099,-75.42749999999998,Delaware,221112,,4724511,NEI
110032885723.0,SUNOCO INC (R&M)/MARCUS HOOK REFINERY,100 GREEN ST,MARCUS HOOK,PA,19061,39.8146,-75.4223,Delaware,324110,,7873611,NEI
110032885723.0,SUNOCO LLC-RACE FUELS,100 GREEN ST,MARCUS HOOK,PA,19061,39.814609,-75.42227,DELAWARE,324110,,19061SNRFNGREEN,TRI
110032885723.0,Marcus Hook Energy Center - MH750,100 Green Street,Marcus Hook,PA,19061,39.8083,-75.4225,Delaware,221112,,1000269,GHGRP
110040966078.0,HANFORD L P,10596 IDAHO AVE,HANFORD,CA,93230,36.2696,-119.648,Kings,221118,,14061911,NEI
110040966078.0,"GWF POWER SYSTEMS COMPANY, INC",10596 IDAHO AVENUE,HANFORD,CA,93230,36.269,-119.648,Kings,221112,,4197811,NEI
110040966078.0,HANFORD L.P.,10596 IDAHO AVE,HANFORD,CA,93230,36.26938,-119.64875,KINGS,221112,,93230HNFRD10596,TRI
110040966078.0,Hanford Energy Park Peaker,10550 IDAHO AVE,HANFORD,CA,93230,36.2689,-119.6469,Kings,221112,,1000130,GHGRP
110043973153.0,Atmos Energy Corporation - APT Howard,5430 LBJ Freeway,Dallas,TX,75240,32.92548,-96.81613,DALLAS,486210,,1006523,GHGRP
110043973153.0,LIBERTY UTILITIES - GEORGIA,2300 Victory Dr.,Columbus,GA,31901,32.92548,-96.81613,DALLAS,221210,,1001386,GHGRP
110020901194.0,NCEMC Anson Plant,600 BLEWETT FALLS ROAD,LILESVILLE,NC,28091,34.9708,-79.9208,Anson,221119,,1000459,GHGRP
110020901194.0,NCEMC - Anson Plant,749 Blewett Falls Rd,Lilesville,NC,28091,34.9681,-79.9223,Anson,221112,,10616211,NEI
110025376448.0,Arkema Inc,13755 US Hwy 43 N,Axis,AL,36505,30.9806,-88.0262,Mobile,325199,,1062311,NEI
110025376448.0,ARKEMA INC,13755 HWY 43 N,AXIS,AL,36505,30.979167,-88.028833,MOBILE,325211,,36505MTCHMHWY43,TRI
110022483258.0,NCEMC Hamlet Plant,162 COOPERATIVE WAY,HAMLET,NC,28345,34.8422,-79.7367,Richmond,221119,,1000462,GHGRP
110022483258.0,NCEMC - Hamlet Plant,162 Cooperative Way,Hamlet,NC,28345,34.8395,-79.74209999999998,Richmond,221112,,10631811,NEI
110000378494.0,CHEMOURS LOUISVILLE WORKS,4200 CAMP GROUND ROAD,LOUISVILLE,KY,40216,38.21229,-85.83975,JEFFERSON COUNTY,325120,,1004133,GHGRP
110000378494.0,E I du Pont de Nemours & Co.,4200 CAMP GROUND RD,LOUISVILLE,KY,None,38.2154,-85.8418,Jefferson,325199,,10695411,NEI
110000378494.0,CHEMOURS LOUISVILLE PLANT,4200 CAMP GROUND RD,LOUISVILLE,KY,40216,38.217166,-85.841979,JEFFERSON,211112,,40216DPNTL4200C,TRI
110028923805.0,WINNEBAGO ENERGY CENTER LLC,8405 LINDENWOOD RD,ROCKFORD,IL,61109,42.15908,-89.06271,WINNEBAGO,221119,,1003731,GHGRP
110028923805.0,WINNEBAGO LANDFILL,8403 LINDENWOOD RD,ROCKFORD,IL,61109,42.159504,-89.055266,WINNEBAGO,562212,,1006358,GHGRP
110028923805.0,Winnebago Energy Center LLC,8403 Lindenwood Rd,Rockford,IL,61109,42.1591,-89.0627,Winnebago,221112,,10867211,NEI
110000485109.0,J.R. SIMPLOT COMPANY,16777 HOWLAND ROAD,LATHROP,CA,95330,37.8,-121.267,San Joaquin,325311,,1224811,NEI
110000485109.0,J R SIMPLOT COMPANY,16777 HOWLAND RD,LATHROP,CA,95330,37.8105,-121.276,San Joaquin,325311,,14165011,NEI
110000485109.0,J R SIMPLOT CO LATHROP,16777 HOWLAND RD,LATHROP,CA,95330,37.807058,-121.277465,SAN JOAQUIN,325312,,95330FRSMP16777,TRI
110001122044.0,BIMAX INC/ SPRINGFIELD,INDUSTRIAL LN,SHREWSBURY,PA,17327,39.8232,-76.6966,York,325199,,12798611,NEI
110001122044.0,BIMAX INC,158 INDUSTRIAL RD,GLEN ROCK,PA,17327,39.818601,-76.6872,YORK,325998,,17327PMXNC158IN,TRI
110016766837.0,NORTHERN CALIF POWER AGENCY,"2900 MAIN ST, SITE 1 OR 2",ALAMEDA,CA,94501,37.7868,-122.291,Alameda,221112,,136511,NEI
110016766837.0,ALAMEDA CREMATIONS,"2900 MAIN ST, SUITE 1161",ALAMEDA,CA,94501,37.7875,-122.292,Alameda,812210,,13985611,NEI
110022523045.0,COMMONWEALTH AGRI-ENERGY LLC,4895 PEMBROKE RD ,HOPKINSVILLE,KY,42240,36.81342,-87.41009,CHRISTIAN COUNTY,325193,,1005115,GHGRP
110022523045.0,Commonwealth Agri-Energy LLC,4895 Pembroke Rd,Hopkinsville,KY,42241,36.8083,-87.41469999999998,Christian,325199,,13715611,NEI
110022523045.0,COMMONWEALTH AGRI-ENERGY LLC,4895 PEMBROKE RD,HOPKINSVILLE,KY,42240,36.81342,-87.41009,CHRISTIAN,325193,,42241CMMNW4895P,TRI
110009554721.0,CROP PRODUCTION SERVICES,3201 AVENUE 54,ALPAUGH,CA,93201,35.8861,-119.501,Tulare,325312,,1465211,NEI
110009554721.0,NUTRIEN AG SOLUTIONS,3201 AVE 54,ALPAUGH,CA,93201,35.8864,-119.5006,TULARE,325314,,93201WSTRN3201A,TRI
110056904060.0,Marion Ethanol LLC d/b/a Poet Biorefining - Marion,1660 Hillman Ford Road,Marion,OH,43302,40.61855,-83.15954,MARION COUNTY,325193,,1004902,GHGRP
110056904060.0,POET Biorefining - Marion (0351010207),Hillman-Ford Road,Marion,OH,43302,40.6261,-83.1559,Marion,325199,,14690911,NEI
110056959929.0,POET BIOREFINING,2111 SANDUSKY STREET,FOSTORIA,OH,44830,41.176338,-83.379148,SENECA COUNTY,325192,,1006912,GHGRP
110056959929.0,POET Biorefining - Fostoria (0374010235),2111 Sandusky Street,Fostoria,OH,44830,41.172,-83.37699999999998,Seneca,325199,,14692611,NEI
110038277147.0,"THE TREMONT GROUP, INC. TSI DIVISION",7235 TREMONT ROAD,DIXON,CA,95620,38.4961,-121.784,Solano,562998,,13522311,NEI
110038277147.0,"THE TREMONT GROUP, INC. TSI DIVISION",7235 TREMONT ROAD,DIXON,CA,95620,38.4943,-121.79,Solano,325312,,1492811,NEI
110030917603.0,Flint Hills Resources Fairmont,1214 Road G,Fairmont,NE,None,40.6114,-97.6014,Fillmore,325199,,15083411,NEI
110030917603.0,POET BIOREFINING - FAIRMONT LLC,1214 COUNTY RD G,FAIRMONT,NE,68354,40.61137,-97.6014,FILLMORE,325193,,68354BFRMN1214R,TRI
110000511893.0,"THERMAL ENERGY DEVELOPMENT PARTNERSHIP, LP.",14800 W. SCHULTE RD.,TRACY,CA,95377,37.7169,-121.478,San Joaquin,221118,,13860411,NEI
110000511893.0,TRACY OPERATORS,14800 W. Schulte Road,TRACY,CA,95376,37.722,-121.493,San Joaquin,221112,,1519211,NEI
110040989375.0,CITY OF PALO ALTO,3201 E BAYSHORE ROAD,PALO ALTO,CA,94303,37.4363,-122.11,Santa Clara,921190,,14193411,NEI
110040989375.0,CITY OF PALO ALTO EQUIPMENT MA,3201 E BAYSHORE ROAD,PALO ALTO,CA,94303,37.4379,-122.111,Santa Clara,221112,,1546311,NEI
110054235608.0,AT&T MOBILITY / AT&T SERVICES,"CUMMINGS SKYWAY BLVD, FIRE GAT",CROCKETT,CA,94525,38.0436,-122.224,Contra Costa,517210,,14172311,NEI
110054235608.0,AT&T MOBILITY /AT&T SERVICES,"CUMMINGS SKYWAY, FIRE GATE 7 8",CROCKETT,CA,94525,38.0256,-122.196,Contra Costa,221112,,15740811,NEI
110070090716.0,PACIFIC ETHANOL STOCKTON LLC,3028 NAVY DRIVE,STOCKTON,CA,95206,37.942858,-121.335361,SAN JOAQUIN COUNTY,325193,,1007262,GHGRP
110070090716.0,PACIFIC ETHANOL STOCKTON LLC,3028 NAVY DR,STOCKTON,CA,95206,37.9413,-121.339,San Joaquin,325199,,15859711,NEI
110070090716.0,PACIFIC ETHANOL STOCKTON LLC,3028 NAVY DRIVE,STOCKTON,CA,95206,37.9413,-121.3385,SAN JOAQUIN,325193,,9520WPCFCT328NA,TRI
110000514587.0,E.F. Oxnard LLC,550 Diaz Avenue,Oxnard,CA,93030,34.19677,-119.168423,VENTURA,115114,,1005565,GHGRP
110000514587.0,E.F. OXNARD LLC,550 DIAZ AVENUE,OXNARD,CA,93030,34.1978,-119.163,Ventura,221112,,1589611,NEI
110058305999.0,"650 TOWNSEND ASSOCIATES, LLC",650 TOWNSEND STREET,SAN FRANCISCO,CA,94103,37.7702,-122.404,San Francisco,221112,,16008011,NEI
110058305999.0,650 TOWNSEND ASSOCIATES LLC,650 TOWNSEND STREET,SAN FRANCISCO,CA,94103,37.771,-122.403,San Francisco,334220,,16007411,NEI
110000759457.0,Zuni,1335 ZUNI ST,DENVER,CO,80204,39.7369,-105.0169,Denver,221330,,1001464,GHGRP
110000759457.0,PUBLIC SERVICE CO ZUNI PLT,1335 ZUNI ST,DENVER,CO,80204,39.7374,-105.017,Denver,221112,,1685411,NEI
110042017000.0,CLINTON POWER STATION,Unknown,CLINTON,IL,00000,40.1717,-88.8375,De Witt,48811,,12295411,NEI
110042017000.0,Amergen Energy Co LLC,8401 Power Rd,Clinton,IL,61727,40.1624,-88.8294,De Witt,221112,,2561311,NEI
110022726237.0,CENTRAL DISPOSAL SYSTEMS INC,21265 430TH ST,LAKE MILLS,IA,50450,43.38633,-93.57196,WINNEBAGO COUNTY,562212,,1007673,GHGRP
110022726237.0,"CENTRAL DISPOSAL SYSTEMS, INC",21265 430TH ST,LAKE MILLS,IA,50450,43.3861,-93.5772,Winnebago,221112,,2942511,NEI
110000844631.0,Pacific Gas and Electric Company (PG&E) - SF6 Emissions,77 Beale Street,San Francisco,CA,94105,37.79134,-122.39604,SAN FRANCISCO COUNTY,221122,,1009578,GHGRP
110000844631.0,PACIFIC GAS & ELECTRIC COMPANY,77 BEALE STREET,SAN FRANCISCO,CA,94105,37.7898,-122.395,San Francisco,221112,,3335911,NEI
110000790181.0,DRESDEN POWER STATION,Unknown,MINOOKA,IL,00000,41.3869,-88.2658,Grundy,48811,,11181611,NEI
110000790181.0,Exelon-Dresden Station,6500 Dresden Rd,Morris,IL,60450,41.3903,-88.27079999999998,Grundy,221112,,3349311,NEI
110009377897.0,CONGRESS DEVELOPMENT CO LANDFILL,4100 W FRONTAGE RD,HILLSIDE,IL,60162,41.87027,-87.88804,COOK,562212,,1006289,GHGRP
110009377897.0,Congress Development Co,4100 W Frontage Rd,Hillside,IL,60162,41.8703,-87.8876,Cook,562212,,3364011,NEI
110009377897.0,Resource Technology Corp,4100 W Frontage Rd,Hillside,IL,60162,41.8703,-87.88729999999998,Cook,221112,,3364711,NEI
110006533037.0,Guadalupe Rubbish Disposal Facility,15999 Guadalupe Mines Road,SAN JOSE,CA,95120,37.20948,-121.89999,SANTA CLARA COUNTY,562212,,1007837,GHGRP
110006533037.0,"GUADALUPE ENERGY HOLDINGS, LLC",15999 GUADALUPE MINES RD,SAN JOSE,CA,95120,37.21,-121.9,Santa Clara,221112,,3397811,NEI
110000492324.0,PPL MONTOUR LLC/MONTOUR SES,18 MCMICHAEL RD,WASHINGTONVILLE,PA,17884,41.0701,-76.6665,Montour,221112,,3881111,NEI
110000492324.0,MONTOUR STEAM ELECTRIC STATION,18 MCMICHAEL RD,DANVILLE,PA,17821,41.069974,-76.665133,MONTOUR,221122,,17821MNTRS18MCM,TRI
110000574423.0,EASTMAN CHEMICAL COMPANY,100 NORTH EASTMAN ROAD,KINGSPORT,TN,37660,36.5222,-82.5411,Sullivan,325199,,3982311,NEI
110000574423.0,EASTMAN CHEMICAL CO TENNESSEE OPERATIONS,100 EASTMAN RD,KINGSPORT,TN,37660,36.519722,-82.540556,SULLIVAN,325211,,37662TNNSSEASTM,TRI
110064198176.0,"Ironside Energy, LLC",3001 Dickey Road,East Chicago,IN,46312,41.65984,-87.46585,LAKE COUNTY,221122,,1003195,GHGRP
110064198176.0,"IRONSIDE ENERGY, LLC","3210 WATLING STREET, MAIL CODE 2-991",EAST CHICAGO,IN,46312,41.6641,-87.4525,Lake,221112,,3988411,NEI
110018150374.0,ROXANA LANDFILL,4600 CAHOKIA CREEK RD,ROXANA,IL,62084,38.822929,-90.014801,MADISON,562212,,1003697,GHGRP
110018150374.0,Roxana Landfill Inc,4600 Cahokia Rd,Roxana,IL,62084,38.823,-90.01489999999998,Madison,562212,,4096011,NEI
110018150374.0,Roxana Resource Recovery LLC,4600 Cahokia Creek Rd,Roxana,IL,62084,38.8272,-90.0163,Madison,221112,,4096211,NEI
110000374265.0,Wm Barr,2105 Channel Avenue/ 2170 Buoy Avenue,Memphis,TN,38113,35.0884,-90.1131,Shelby,325199,,4143711,NEI
110000374265.0,WM BARR & CO INC,2105 CHANNEL AVE,MEMPHIS,TN,38109,35.088444,-90.110682,SHELBY,325510,,38113WMBRR2105C,TRI
110000561945.0,Illinois Corn Processing LLC,1301 S Front St,Pekin,IL,61554,40.5533,-89.6704,Tazewell,221112,,4166411,NEI
110000561945.0,Midwest Grain Products of Illinois,1301 S Front St,Pekin,IL,61554,40.555,-89.66979999999998,Tazewell,312140,,8017711,NEI
110005983481.0,UPPER ROCK ISLAND COUNTY LANDFILL,17201 20TH AVENUE NORTH,EAST MOLINE,IL,61244,41.53668,-90.379678,ROCK ISLAND,562212,,1003696,GHGRP
110005983481.0,Upper Rock Energy Partners LLC,17201 20th Avenue N,East Moline,IL,61244,41.5436,-90.3762,Rock Island,221112,,4573611,NEI
110005983481.0,Upper Rock Island County Landfill,17201 20th Ave N,East Moline,IL,61244,41.5421,-90.3793,Rock Island,562212,,4573311,NEI
110006010583.0,Portside Energy,6290 US HWY 12,PORTAGE,IN,46368,41.6317,-87.1728,Porter,221122,,1000236,GHGRP
110006010583.0,PORTSIDE ENERGY LLC,6290 US Hwy 12,Portage,IN,46368,41.6315,-87.1729,Porter,221112,,4691211,NEI
110046292677.0,ALBEMARLE/TYRONE QUALITY CHEM,2858 BACK VAIL RD,TYRONE,PA,None,40.6932,-78.2305,Blair,325199,,4701311,NEI
110046292677.0,W R GRACE & CO,2858 BACK VAIL ROAD,TYRONE,PA,16686,40.693119,-78.230157,BLAIR,325110,,16686QLTYCINDUS,TRI
110000421080.0,"Chemdesign Products, Inc.",2 Stanton St,Marinette,WI,54143,45.0981,-87.61579999999998,Marinette,325199,,4771011,NEI
110000421080.0,CHEMDESIGN PRODUCTS INC,2 STANTON ST,MARINETTE,WI,54143,45.09713,-87.61406,MARINETTE,325998,,54143SPCLT2STAN,TRI
110021007426.0,LUZ SOLAR PARTNERS VIII & IX LTD.,43880 HARPER LAKE ROAD,HINKLEY,CA,92347,35.03211,-117.34764,SAN BERNARDINO,221119,,1006175,GHGRP
110021007426.0,"LUZ SOLAR PARTNERS LTD., VIII & IX",43880 HARPER LAKE ROAD,HINKLEY,CA,92347,35.0282,-117.348,San Bernardino,221118,,1634011,NEI
110021007426.0,LUZ SOLAR PARNTERS LTD VIII,43880,HARPER LAKE ROAD,CA,92347,35.0321,-117.348,San Bernardino,221112,,4840811,NEI
110038495768.0,AdvanSix Resins & Chemicals LLC,2501 MARGARET STREET,PHILADELPHIA,PA,19137,40.0067,-75.0686,Philadelphia,325192,,1000089,GHGRP
110038495768.0,HONEYWELL/FRANKFORD PLT,4700 BERMUDA STREET,PHILADELPHIA,PA,19137,40.0065,-75.07139999999998,Philadelphia,325199,,4950811,NEI
110038495768.0,ADVANSIX RESINS & CHEMICALS LLC,2501 MARGARET,PHILADELPHIA,PA,19137,40.008039,-75.070917,PHILADELPHIA,325110,,19137LLDSGMARGA,TRI
110045410872.0,MILLIKEN & COMPANY,Unknown,BLACKSBURG,SC,00000,35.1165,-81.56149999999998,Cherokee,48811,,11429411,NEI
110045410872.0,MILLIKEN & CO CHEMICAL ALLEN PLANT,SC HWY 5 & I-85,BLACKSBURG,SC,29702,35.1153,-81.56109999999998,Cherokee,325199,,4967211,NEI
110045410872.0,MILLIKEN CHEMICAL ALLEN PLANT,164 NEW MILLIKEN RD,BLACKSBURG,SC,29702,35.118056,-81.565833,CHEROKEE,313311,,29702MGNLFSCHIG,TRI
110045410872.0,MILLIKEN CHEMICAL ALLEN PLANT,164 NEW MILLIKEN RD,BLACKSBURG,SC,29702,35.118056,-81.565833,CHEROKEE,325199,,29702MGNLFSCHIG,TRI
110000607772.0,GALLIPOLIS FERRY PLANT,STATE ROUTE 2,GALLIPOLIS FERRY,WV,25515,38.7722,-82.2056,Mason,325199,,5002111,NEI
110000607772.0,ICL-IP AMERICA INC,11636 HUNTINGTON,GALLIPOLIS FERRY,WV,25515,38.77222,-82.20556,MASON,325998,,25515KZCHMSTATE,TRI
110007141654.0,"Forked River Power, LLC",FORKED RIVER POWER LLC,LACEY TOWNSHIP,NJ,08731,39.8134,-74.2196,Ocean,221112,,5111011,NEI
110007141654.0,OYSTER CREEK GENERATING STATION,Unknown,FORKED RIVER,NJ,00000,39.8159,-74.2039,Ocean,48811,,11210511,NEI
110001937076.0,Houma,1551 BARROW ST,HOUMA,LA,70360,29.5808,-90.7222,Terrebonne,221121,,1000529,GHGRP
110001937076.0,Terrebonne Parish Consolidated Government - Houma Municipal Power,1551 Barrow St,Houma,LA,70361,29.5802,-90.7228,Terrebonne,221112,,5192511,NEI
110017980443.0,BUCKMAN LABORATORIES INC-CADET,14664 EAST STATE HIGHWAY 47,CADET,MO,63630,37.982,-90.6895,Washington,325199,,5219011,NEI
110017980443.0,BUCKMAN LABORATORIES INC.,14664 E STATE HWY 47,CADET,MO,63630,37.983333,-90.690833,WASHINGTON,325998,,63630BCKMNHIGHW,TRI
110000334380.0,KOPPERS INC/COGEN PLT,SAEGERS STATION RD,MONTGOMERY,PA,17752,41.1824,-76.8258,Lycoming,221112,,5451211,NEI
110000334380.0,KOPPERS INC (SUSQUEHANNA),50 KOPPERS LN,MONTGOMERY,PA,17752,41.18706,-76.83324,LYCOMING,321114,,17752KPPRSTOWNS,TRI
110010507317.0,CORN BELT POWER - WISDOM GENERATING STATION,3365 165TH AVE,SPENCER,IA,51301,43.16,-95.2568,Clay,221112,,5509511,NEI
110010507317.0,CORN BELT CO-OP WISDOM GENERATING STATION,3365 165TH AVE,SPENCER,IA,51301,43.15995,-95.256844,CLAY,221122,,51301WSDMG33651,TRI
110056959055.0,"Pinova, Inc.",2801 Cook Street,Brunswick,GA,31520,31.0955,-81.28319999999998,Glynn,325199,,554411,NEI
110056959055.0,"PINOVA,INC.",2801 COOK ST,BRUNSWICK,GA,31520,31.1653,-81.4811,GLYNN,325191,,31520HRCLS2801C,TRI
110000522818.0,Kingsburg Cogeneration Facility,11765 Mountain View Road,Kingsburg,CA,93631,36.546786,-119.579425,FRESNO COUNTY,221119,,1003016,GHGRP
110000522818.0,KINGSBURG COGEN FACILITY,11765 MOUNTAIN VIEW,KINGSBURG,CA,93631,36.5467,-119.579,Fresno,221118,,14025511,NEI
110000522818.0,KINGSBURG COGENERATION PROJ.,11765 MOUNTAINVIEW ROAD,KINGSBURG,CA,93631,36.543,-119.585,Fresno,221112,,5611,NEI
110000342610.0,Hopewell Cogeneration Facility,1114 HERCULES ROAD,HOPEWELL,VA,23860,37.2914,-77.2821,Hopewell,221119,,1000318,GHGRP
110000342610.0,Hopewell Cogeneration Ltd Partnership,1114 Hercules Rd,Hopewell,VA,23860,37.2914,-77.28189999999998,Hopewell city,221112,,5883511,NEI
110000342610.0,LUMINANT HOPEWELL POWER PLANT,1114 HERCULES RD,HOPEWELL,VA,23860,37.2914,-77.2819,PRINCE GEORGE,221112,,23860HPRWL1114H,TRI
110005974286.0,CHALK POINT GENERATING STA,Unknown,EAGLE HARBOR,MD,00000,38.5565,-76.6927,Prince George's,48811,,12530911,NEI
110005974286.0,"GenOn Energy, Inc.-Chalk Point",8711 Westphalia Rd,Aquasco,MD,20608,38.5444,-76.68609999999998,Prince George's,221112,,6011911,NEI
110005974286.0,CHALK POINT GENERATING STATION,25100 CHALK POINT RD,AQUASCO,MD,20608,38.5444,-76.6861,PRINCE GEORGE'S,221112,,20608CHLKP25100,TRI
110041031709.0,"TGP Station 538 Heidelberg, MS",83 County Road 37,Heidelberg,MS,39439,31.828806,-88.961028,JASPER,486210,,1008227,GHGRP
110041031709.0,"Tennessee Gas Pipeline Company LLC, Hiedelberg Compressor Station Number 538",83 County Road 37,Heidelberg,MS,39439,31.8286,-88.96089999999998,Jasper,221210,,6252511,NEI
110000716226.0,Worland Gas Plant,"Section 23, T47N, R92W",Washakie County,WY,82401,44.0302,-107.851,Washakie,221210,,6479011,NEI
110000716226.0,Worland Gas Plant,"SW Section 15, Township 48N, Range 92W",Washakie County,WY,82401,44.128,-107.908,Washakie,486210,,14566111,NEI
110000482255.0,"TESSENDERLO KERLEY, INC",5427 E CENTRAL AVE,FRESNO,CA,93725,36.6781,-119.699,Fresno,325311,,6514711,NEI
110000482255.0,TESSENDERLO KERLEY INC FRESNO PLANT,5427 E CENTRAL AVE,FRESNO,CA,93725,36.67819,-119.69202,FRESNO,325320,,93725GFRML5427E,TRI
110000370544.0,DuPont Old Hickory,1002 INDUSTRIAL ROAD,OLD HICKORY,TN,37138,36.2756,-86.6644,Davidson,313230,,1000296,GHGRP
110000370544.0,E I Dupont De Nemours & Co Inc,1002 Industrial Rd,Old Hickory,TN,37138,36.2692,-86.6556,Davidson,325199,,6516311,NEI
110000423667.0,3M Cottage Grove Center - Site,10746 Innovation Rd,Cottage Grove,MN,55016,44.789444,-92.908333,WASHINGTON,325998,,1004836,GHGRP
110000423667.0,3M Cottage Grove Utilities/Support Svcs,10746 Innovation Rd,Cottage Grove,MN,55016,44.7904,-92.9141,Washington,325998,,6772511,NEI
110000423667.0,3M Cottage Grove Materials Resource Division,10746 Innovation Rd Bldg 41-1,Cottage Grove,MN,55016,44.7908,-92.9151,Washington,325199,,6772711,NEI
110000423667.0,3M Cottage Grove - Bldg 17,10746 Innovation Rd,Cottage Grove,MN,55016,44.8051,-92.9126,Washington,31323,,6772811,NEI
110000423667.0,3M Cottage Grove Bldg 133/Traffic Safety,10746 Innovation Rd,Cottage Grove,MN,55016,44.7903,-92.9136,Washington,325199,,6785311,NEI
110000423667.0,3M - Cottage Grove Corporate Incinerator,10746 Innovation Rd Bldg 145,Cottage Grove,MN,55016,44.7908,-92.9151,Washington,562213,,8161811,NEI
110000423667.0,3M COTTAGE GROVE CENTER,10746 INNOVATION RD,COTTAGE GROVE,MN,55016,44.789444,-92.908333,WASHINGTON,325998,,55016MCHMLHIGHW,TRI
110000423667.0,3M Cottage Grove Specialty Additives,10746 Innovation Rd,Cottage Grove,MN,55016,44.7908,-92.9151,Washington,327212,,6771911,NEI
110000423667.0,3M Cottage Grove - Bldg 19 & 111,10746 Innovation Rd,Cottage Grove,MN,55016,44.7905,-92.9141,Washington,332999,,13603211,NEI
110010570024.0,TRUNKLINE GAS CO - INDEPENDENCE,8354 HIGHWAY 305,COLDWATER,MS,38618,34.739917,-89.810833,TATE,486210,,1003122,GHGRP
110010570024.0,"Trunkline Gas Company, Independence Compressor Station",8354 Highway 305,Coldwater,MS,38618,34.7397,-89.8108,Tate,221210,,6952811,NEI
110000468182.0,Evansville Plant,4900 E Yellowstone Hwy,Evansville,WY,82636,42.8574,-106.255,Natrona,325199,,6978011,NEI
110000468182.0,CHAMPIONX-EVANSVILLE PLANT 108,4900 E YELLOWSTONE HWY,EVANSVILLE,WY,82636,42.8574,-106.2547,NATRONA,339999,,82636NLCCH4900E,TRI
110007647001.0,"TGP Station 63 Batesville, MS",8450 Highway 6 W,Batesville,MS,38606,34.296056,-90.073139,PANOLA,486210,,1001848,GHGRP
110007647001.0,TGP STATION 63,Unknown,BATESVILLE,MS,00000,34.2961,-90.0722,Panola,48811,,12052311,NEI
110007647001.0,"Tennessee Gas Pipeline Company LLC, Batesville Compressor Station Number 63",8450 Highway 6 West,Batesville,MS,38606,34.2959,-90.0731,Panola,221210,,6992711,NEI
110000594642.0,AL CORN CLEAN FUEL,797 5th Street,CLAREMONT,MN,55924,44.049412,-93.017379,DODGE,325193,,1005149,GHGRP
110000594642.0,Al-Corn Clean Fuel,797 5th St,Claremont,MN,55924,44.0491,-93.0173,Dodge,325199,,7026511,NEI
110001472754.0,TRUNKLINE GAS CO - SHAW,1069 SAND PIT ROAD,SHAW,MS,38773,33.631004,-90.690203,BOLIVAR COUNTY,486210,,1003076,GHGRP
110001472754.0,"Trunkline Gas Company, Shaw Compressor Station",1069 Sand Pit Road,Shaw,MS,38773,33.6306,-90.6878,Bolivar,221210,,7037511,NEI
110002464397.0,"SNG Station 5222 Enterprise, MS",100 COUNTRY ROAD 332,ENTERPRISE,MS,39330,32.14838,-88.84151,CLARKE,486210,,1001656,GHGRP
110002464397.0,"Southern Natural Gas Company, Enterprise Compressor Station",100 County Road 332,Enterprise,MS,39330,32.1514,-88.8439,Clarke,221210,,7054511,NEI
110001471844.0,"TGP Station 546 Columbus, MS",511 Crowe Rd,Columbus,MS,39702,33.448833,-88.358933,LOWNDES,486210,,1009205,GHGRP
110001471844.0,"Tennessee Gas Pipeline Company LLC, Columbus Compressor Station Number 546",511 Crowe Road,Columbus,MS,39702,33.4486,-88.3589,Lowndes,221210,,7070111,NEI
110001471746.0,TEXAS GAS TRANSMISSION - GREENVILLE STATION,1012 BEAUCHAMP ST,GREENVILLE,MS,38701,33.392476,-91.017584,WASHINGTON,486210,,1003557,GHGRP
110001471746.0,"Texas Gas Transmission LLC, Greenville Compressor Station",1012 South Beauchamp Street,Greenville,MS,38701,33.3925,-91.0176,Washington,221210,,7083611,NEI
110012665419.0,ANR Pipeline Greenville CS,1336 South Raceway Road,Greenville,MS,38703,33.372167,-91.00575,WASHINGTON COUNTY,486210,,1005238,GHGRP
110012665419.0,"ANR Pipeline Company, Greenville Compressor Station",1336 South Raceway Road,Greenville,MS,38701,33.372,-91.0056,Washington,221210,,7083811,NEI
110000425861.0,Hawkins Inc - Minneapolis,3100 E Hennepin Ave,Minneapolis,MN,55413,44.9916,-93.21,Hennepin,325199,,7161711,NEI
110000425861.0,HAWKINS INC. - MINNEAPOLIS,3100 E HENNEPIN AVE,MINNEAPOLIS,MN,55413,44.99165,-93.21015,HENNEPIN,424690,,55427HWKNS3100E,TRI
110012665400.0,Texas Gas Transmission - Lake Cormorant Station,2672 WILSON MILL ROAD,LAKE CORMORANT,MS,38641,34.899192,-90.166389,DESOTO,486210,,1003915,GHGRP
110012665400.0,"Texas Gas Transmission LLC, Lake Cormorant Compressor Station",2672 Wilson Mill Road,Lake Cormorant,MS,38641,34.8992,-90.1664,DeSoto,221210,,7183811,NEI
110000739648.0,HARVARD UNIVERSITY,46 BLACKSTONE ST,CAMBRIDGE,MA,None,42.3641,-71.1153,Middlesex,221112,,7240311,NEI
110000739648.0,The President and Fellows of Harvard University (Cambridge Allston Blackstone),46 Blackstone Street,Cambridge,MA,2139,42.3636,-71.1161,Middlesex,611310,,1000656,GHGRP
110000398329.0,INEOS USA LLC,2357 Standard Ave,Whiting,IN,46394,41.6697,-87.4728,Lake,325199,,7248111,NEI
110000398329.0,INEOS OLIGOMERS,2357 STANDARD AVE,WHITING,IN,46394,41.671247,-87.475234,LAKE,325998,,46394MCCHM2357S,TRI
110000495508.0,VALMY GENERATING STATION,N of I80 Stonehouse Int 212,VALMY,NV,89438,40.8813,-117.153,Humboldt,221112,,7302011,NEI
110000495508.0,SIERRA PACIFIC POWER CO NORTH VALMY STATION,23755 TREATY HILL RD,VALMY,NV,89438,40.8816,-117.1521,HUMBOLDT,221122,,89438NRTHVI80EX,TRI
110000582012.0,BURLINGTON GENERATING STATION,Unknown,BURLINGTON,NJ,00000,40.0737,-74.8746,Burlington,48811,,12318911,NEI
110000582012.0,Burlington Generating Station,BURLINGTON GENERATING STA,BURLINGTON,NJ,08016,40.0714,-74.8759,Burlington,221112,,7310911,NEI
110069500524.0,Solutia Inc,500 Monsanto Dr,Sauget,IL,None,38.5973,-90.1687,St. Clair,325199,,7338811,NEI
110069500524.0,FLEXSYS AMERICA LP KRUMMRICH,500 MONSANTO AVE,SAUGET,IL,62206,38.59724,-90.168697,ST. CLAIR,325998,,62206FLXSY500MO,TRI
110000329617.0,CALGON CARBON CORP/NEVILLE ISLAND PLT,200 NEVILLE RD,PITTSBURGH,PA,None,40.4939,-80.0797,Allegheny,325199,,7407911,NEI
110000329617.0,CALGON CARBON CORP NEVILLE ISLAND PLANT,200 NEVILLE RD,PITTSBURGH,PA,15225,40.492329,-80.079626,ALLEGHENY,325998,,15225CLGNC200NE,TRI
110000602465.0,Galata Chemicals LLC - Galata Taft Facility,471 Hwy 3142,Hahnville,LA,70057,29.9773,-90.4525,St. Charles,325199,,7450611,NEI
110000602465.0,GALATA CHEMICALS LLC - GALATA TAFT FACILITY,471 HWY 3142,HAHNVILLE,LA,70057,29.981074,-90.453152,ST. CHARLES PARISH,325998,,70057WTCCRRIVER,TRI
110063993282.0,"E F Kenilworth, Inc.",2000 GALLOPING HILL RD BLDG K-14,KENILWORTH,NJ,7033,40.6781,-74.2744,Union,221330,,1005905,GHGRP
110063993282.0,EF KENILWORTH LLC,2000 GALLOPING HILL RD,KENILWORTH,NJ,07033,40.6762,-74.2748,Union,221112,,7548611,NEI
110041624187.0,Northern Border Pipeline Culbertson CS#3,5444 Road 1016,CULBERTSON,MT,59218,48.215615,-104.396623,ROOSEVELT,486210,,1005957,GHGRP
110041624187.0,N. BORDER PIPELINE CO STA. 3,COMPRESSOR STATION NO. 3,CULBERTSON,MT,59218,48.2145,-104.395,Roosevelt,221210,,7619111,NEI
110000382309.0,CAPITAL RESIN CORP (0125040238),324 DERING AVENUE,COLUMBUS,OH,43207,39.9139,-82.98749999999998,Franklin,325199,,7751111,NEI
110000382309.0,CAPITAL RESIN CORP,324 DERING AVE,COLUMBUS,OH,43207,39.912778,-82.987222,FRANKLIN,325211,,43207CPTLR324DE,TRI
110008053587.0,VERSO ANDROSCOGGIN LLC,300 RILEY RD,JAY,ME,4239,44.5047,-70.2403,FRANKLIN,322121,,1000593,GHGRP
110008053587.0,VERSO PAPER - ANDROSCOGGIN MILL,RILEY RD,JAY,ME,04239,44.5063,-70.2372,Franklin,221112,,7764711,NEI
110008053587.0,PIXELLE SPECIALTY SOLUTIONS,300 RILEY RD - ANDROSCOGGIN MILL,JAY,ME,4239,44.506335,-70.238607,FRANKLIN,322110,,04239NTRNTRILEY,TRI
110006650132.0,Dearborn Industrial Generation,2400 MILLER ROAD,DEARBORN,MI,48121,42.3026,-83.154,Wayne,221119,,1006695,GHGRP
110006650132.0,DEARBORN INDUSTRIAL GENERATION,2400 MILLER RD,DEARBORN,MI,48121,42.3053,-83.1538,Wayne,221112,,7778711,NEI
110007601540.0,Hibbard Energy Center,4913 MAIN ST,DULUTH,MN,55807,46.7356,-92.1531,St. Louis,221330,,1000688,GHGRP
110007601540.0,Minnesota Power Inc - Hibbard Renewable Energy Ctr,4913 Main St,Duluth,MN,55807,46.7355,-92.1523,St. Louis,221112,,7838011,NEI
110000881733.0,MEDICAL AREA TOTAL ENERGY PLANT,474 BROOKLINE AVE,BOSTON,MA,2215,42.336667,-71.108333,SUFFOLK,221330,,1000580,GHGRP
110000881733.0,MEDICAL AREA TOTAL ENERGY PLANT,474 BROOKLINE AVE,BOSTON,MA,None,42.3369,-71.1083,Suffolk,221112,,7887011,NEI
110007970142.0,Chambers Works,EI DU PONT DE NEMOURS AND COMPANY,DEEPWATER,NJ,08023,39.6896,-75.5006,Salem,325199,,7904811,NEI
110007970142.0,DUPONT SPECIALTY PRODUCTS USA LLC -  CHAMBERS WORKS,RT 130,DEEPWATER,NJ,8023,39.682362,-75.491379,SALEM,325110,,08023DPNTCRT130,TRI
110000322623.0,East River,801 EAST 14TH ST,NEW YORK,NY,10009,40.7281,-73.9742,New York,221330,,1000761,GHGRP
110000322623.0,CON ED-EAST RIVER GENERATING STATION,701-827 EAST 14TH ST,NEW YORK,NY,10009,40.7278,-73.97329999999998,New York,221112,,7994011,NEI
110000322623.0,CONSOLIDATED EDISON CO OF NEW YORK - EAST RIVER FACILITY,801 E 14 ST,MANHATTAN,NY,10009,40.7278,-73.9733,NEW YORK,221112,,10009CNSLD801E1,TRI
110041184009.0,Dominion Energy Transmission - Gilmore Station (Tran),656 Gravel Lick Road,Port Washington,OH,43837,40.28667,-81.46528,TUSCARAWAS,486210,,1003537,GHGRP
110041184009.0,Dominion Transmission Inc - Gilmore Station (0679000075),656 Gravel Lick Road,Port Washington,OH,43837,40.2867,-81.4653,Tuscarawas,221210,,7996211,NEI
110057376398.0,Ineos USA LLC (0302020015),Fort Amanda And Adgate Roads P.O Box 628,Lima,OH,None,40.7142,-84.13219999999998,Allen,325311,,8011111,NEI
110057376398.0,INEOS NITRILES USA LLC,1900 FORT AMANDA RD,LIMA,OH,45804,40.714167,-84.132222,ALLEN,325199,,45805BPCHMFORTA,TRI
110000379563.0,PMC Organometallix Inc,2316 Highland Ave,Carrollton,KY,41008,38.6861,-85.1464,Carroll,325199,,8095611,NEI
110000379563.0,PMC ORGANOMETALLIX INC.,2316 HIGHLAND AVE,CARROLLTON,KY,41008,38.685954,-85.146363,CARROLL,325188,,41008MTCHM2316H,TRI
110000380098.0,Estron Chemical Inc,807 N Main St,Calvert City,KY,42029,37.0436,-88.3546,Marshall,325199,,8109411,NEI
110000380098.0,ESTRON CHEMICALS INC,807 NORTH MAIN ST,CALVERT CITY,KY,42029,37.043639,-88.354639,MARSHALL,325211,,42029STRNCHIGHW,TRI
110000408746.0,"Allnex USA, Inc.",2715 MILLER RD,KALAMAZOO,MI,49001,42.2724,-85.5467,Kalamazoo,325199,,8125211,NEI
110000408746.0,ALLNEX USA INC,2715 MILLER RD,KALAMAZOO,MI,49001,42.269722,-85.545556,KALAMAZOO,325211,,49003MRCNC2715M,TRI
110000309522.0,ROHM AND HAAS ELECTRONIC MATERIALS LLC,455 FOREST ST,MARLBOROUGH,MA,None,42.3317,-71.5916,Middlesex,325199,,8143311,NEI
110000309522.0,ROHM & HAAS ELECTRONIC MATERIALS LLC,455 FOREST ST,MARLBOROUGH,MA,1752,42.331661,-71.591577,MIDDLESEX,325998,,01752SHPLY455FO,TRI
110013868840.0,NYACOL PRODUCTS INCORPORATED,MEGUNCO RD,ASHLAND,MA,None,42.2586,-71.473,Middlesex,325199,,8143811,NEI
110013868840.0,NYACOL NANOTECHNOLOGIES INC,211 MEGUNKO RD,ASHLAND,MA,1721,42.25963,-71.472741,MIDDLESEX,325188,,01721NYCLPMEGUN,TRI
110000494019.0,BASF CORP,1609 BIDDLE AVE,WYANDOTTE,MI,48192,42.2183,-83.14589999999998,Wayne,325199,,8158611,NEI
110000494019.0,BASF CORP,1609 BIDDLE AVE,WYANDOTTE,MI,481923729,42.219195,-83.14674,WAYNE,325211,,48192BSFCR1609B,TRI
110000494019.0,BASF CORP (FORMERLY CONCEPP TECHNOLOGIES),1609 BIDDLE AVE,WYANDOTTE,MI,48192,42.219195,-83.14674,WAYNE,326150,,48192CNCPP169BI,TRI
110000494019.0,BASF CORP,1609 BIDDLE AVE,WYANDOTTE,MI,48192,42.2183,-83.14589999999998,Wayne,325991,,8083611,NEI
110000494019.0,BASF Corporation,1609 BIDDLE AVE.,WYANDOTTE,MI,48192,42.2183,-83.14589999999998,Wayne,541712,,13671511,NEI
110033146165.0,RAVENSWOOD GENERATING STATION,38-54 VERNON BLVD,QUEENS,NY,11101,40.7597,-73.946,Queens,221112,,8309011,NEI
110033146165.0,RAVENSWOOD GENERATING STATION,38-54 VERNON BLVD,LONG ISLAND CITY,NY,11101,40.759667,-73.946056,QUEENS,221112,,11101CNSLD3854V,TRI
110033146165.0,Ravenswood Steam Plant,38-54 Vernon Blvd,Long Island City,NY,11101,40.76,-73.75,Queens,221330,,1000567,GHGRP
110000608236.0,HUGO GNRTNG STA,970N 4335 Rd,FORT TOWSON,OK,74735,34.0147,-95.321,Choctaw,221112,,8449511,NEI
110000608236.0,WESTERN FARMERS ELECTRIC COOP,HWY 70,HUGO,OK,74743,34.01633,-95.32188,CHOCTAW,221122,,74735WSTRNHWY70,TRI
110000597373.0,RUBICON LLC - GEISMAR PLANT,9156 HWY. 75,GEISMAR,LA,70734,30.203024,-91.015172,ASCENSION,325192,,1000592,GHGRP
110000597373.0,Rubicon LLC - Geismar Plant,9156 Hwy 75,Geismar,LA,70734,30.203,-91.0152,Ascension,325199,,8465311,NEI
110000597373.0,RUBICON LLC,9156 HIGHWAY 75,GEISMAR,LA,70734,30.1989,-91.0085,ASCENSION PARISH,325192,,70734RBCNN9156H,TRI
110046264760.0,PRAXAIR INC - GEISMAR HYCO FACILITY,9145 Hwy 75 & AVE. E,GEISMAR,LA,70734,30.199444,-91.013333,ASCENSION,325120,,1003255,GHGRP
110046264760.0,Praxair Inc - Geismar Plant,9156 Hwy 73,Geismar,LA,70734,30.1995,-91.0126,Ascension,325199,,8465711,NEI
110003266849.0,HONEYWELL INTERNATIONAL INC - BATON ROUGE PLANT,2966 LUPINE AVENUE,BATON ROUGE,LA,70805,30.474444,-91.183056,EAST BATON ROUGE,325120,,1000625,GHGRP
110003266849.0,Honeywell International Inc - Baton Rouge Plant,Lupine & Ontario,Baton Rouge,LA,70821,30.473,-91.1864,East Baton Rouge,325199,,8467611,NEI
110003266849.0,HONEYWELL INTERNATIONAL INC-BATON ROUGE PLANT,CORNER OF LUPINE & ONTARIO STR EETS,BATON ROUGE,LA,70805,30.474444,-91.183056,EAST BATON ROUGE PARISH,325199,,70805LLDSGCORNE,TRI
110000586376.0,PCS PHOSPHATE COMPANY INCORPORATED,1530 NC HIGHWAY 306 South,AURORA,NC,27806,35.37745,-76.778816,BEAUFORT,212392,,1006242,GHGRP
110000586376.0,PCS Phosphate Company Inc. - Aurora,1530 NC Highway 306 South,Aurora,NC,27806,35.3775,-76.7788,Beaufort,325312,,8479311,NEI
110000586376.0,PCS PHOSPHATE CO INC,1530 NC HWY 306 S,AURORA,NC,27806,35.37745,-76.778816,BEAUFORT,325312,,27806TXSGLHIGHW,TRI
110032967957.0,Agra Resources LLC dba POET BIOREFINING - GLENVILLE,15300 780TH AVE,ALBERT LEA,MN,56007,43.576024,-93.301823,FREEBORN,325193,,1000857,GHGRP
110032967957.0,POET Biorefining - Glenville East,15300 780th Ave,Albert Lea,MN,56007,43.5763,-93.3018,Freeborn,325199,,8484711,NEI
110045447469.0,DAIKIN AMERICA INC.,905 STATE DOCKS ROAD,DECATUR,AL,35601,34.513889,-87.039444,MORGAN,325211,,1005062,GHGRP
110045447469.0,Daikin America Inc,905 State Docks Rd,Decatur,AL,35609,34.6316,-87.0411,Morgan,325199,,948911,NEI
110045447469.0,DAIKIN AMERICA INC,905 STATE DOCKS RD,DECATUR,AL,35601,34.630486,-87.039444,MORGAN,325211,,35601DKNMRSTATE,TRI
110045447469.0,"MDA Manufacturing, Inc.",905 State Docks Rd,Decatur,AL,35609,34.6406,-87.04139999999998,Morgan,325199,,869411,NEI
110058194779.0,Royster-Clark Inc,1 Commerce St.,Florence,AL,35631,34.7989,-87.6547,Lauderdale,325312,,952611,NEI
110058194779.0,AGRIUM US INC,1 COMMERCE ST,FLORENCE,AL,35630,34.80564,-87.65646,LAUDERDALE,325314,,35631MCFRTCORNE,TRI
110020653808.0,GRANITE FALLS ENERGY LLC,15045 HIGHWAY 23 SE,GRANITE FALLS,MN,56241,44.796667,-95.483333,CHIPPEWA COUNTY,325193,,1002173,GHGRP
110020653808.0,Granite Falls Energy LLC,15045 Highway 23 SE,Granite Falls,MN,56241,44.8017,-95.4856,Chippewa,325199,,9540011,NEI
110056961417.0,"Indorama Ventures, Xylenes and PTA, LLC",1401 FINLEY ISLAND ROAD,DECATUR,AL,35601,34.64,-87.0583,Morgan,325110,,1000325,GHGRP
110056961417.0,BP Amoco Chemicals,1401 Finley Island Rd,Decatur,AL,35609,34.6406,-87.05459999999998,Morgan,325199,,999411,NEI
110056961417.0,INDORAMA VENTURES,1401 FINLEY ISLAND RD,DECATUR,AL,35601,34.6415,-87.0589,MORGAN,325110,,35601MCCHMFINLE,TRI
110001664574.0,EASTERN COLOR AND CHEMICAL CO.,35 LIVINGSTON ST,PROVIDENCE,RI,02904,41.8418,-71.4094,Providence,3251,,3074411,NEI
110001664574.0,EASTERN COLOR & CHEMICAL CO,35 LIVINGSTON ST,PROVIDENCE,RI,2904,41.841824,-71.409359,PROVIDENCE,325199,,02940STRNC35LIV,TRI
110000316701.0,HAMPFORD RESEARCH INC,54 VETERANS BLVD,STRATFORD,CT,6615,41.19791,-73.12132,FAIRFIELD,325199,,06497HMPFR292LO,TRI
110000316701.0,HAMPFORD RESEARCH INC,54 VETERANS BLVD,STRATFORD,CT,None,41.1972,-73.12139999999998,Fairfield,325,,589611,NEI
110001405257.0,"Cray Valley USA, LLC",125 ONTARIO ST,STRATFORD,CT,None,41.1745,-73.1499,Fairfield,325,,533411,NEI
110001405257.0,TOTALENERGIES PETROCHEMICALS & REFINING USA INC,105 ONTARIO ST,STRATFORD,CT,6615,41.17816,-73.1257,FAIRFIELD,325199,,06497SRTMR125ON,TRI
110000319806.0,ELEMENTIS SPECIALTIES,400 CLAREMONT AVE,JERSEY CITY,NJ,07304,40.7171,-74.08929999999998,Hudson,325510,,7311711,NEI
110000319806.0,ELEMENTIS SPECIALTIES,400 CLAREMONT AVE,JERSEY CITY,NJ,7304,40.715504,-74.089306,HUDSON,325199,,07304DNLPR400CL,TRI
110000321107.0,Coim USA Inc.,286 MANTUA GRV RD,WEST DEPTFORD,NJ,08066,39.8232,-75.21259999999998,Gloucester,325211,,7701611,NEI
110000321107.0,COIM USA INC,286 MANTUA GROVE RD BUILDING # 1,WEST DEPTFORD,NJ,8066,39.820003,-75.216459,GLOUCESTER,325199,,08066CPLYRMANTU,TRI
110000322286.0,Chemtura Corporation,1000 Convery Blvd.,Perth Amboy,NJ,08861,40.5374,-74.27599999999998,Middlesex,325110,,7444611,NEI
110000322286.0,LANXESS CORP,1000 CONVERY BLVD,PERTH AMBOY,NJ,8861,40.53921,-74.275238,MIDDLESEX,325199,,08862WTCCR1000C,TRI
110030750364.0,FISHER SCIENTIFIC CO. L.L.C.,755 RT 202,BRIDGEWATER,NJ,8807,40.571703,-74.664815,SOMERSET,325199,,08876FSHRS755RT,TRI
110030750364.0,THERMOFISHER SCIENTIFIC,755 RT 202,BRIDGEWATER,NJ,08807,40.5717,-74.6648,Somerset,424690,,12756311,NEI
110000583663.0,OMG AMER/SUGARCREEK TWP,TWO MILE RUN RD,SUGARCREEK BORO,PA,16323,41.4125,-79.7975,Venango,325110,,6516711,NEI
110000583663.0,BORCHERS AMERICAS INC.,240 TWO MILE RUN RD,FRANKLIN,PA,16323,41.412453,-79.797531,VENANGO,325199,,16323MNYCHTWOMI,TRI
110000334291.0,LONZA INC/WILLIAMSPORT PLT,3500 TRENTON AVE,WILLIAMSPORT,PA,None,41.2312,-77.0801,Lycoming,325998,,4120211,NEI
110000334291.0,ARXADA LLC,3500 TRENTON AVE,WILLIAMSPORT,PA,17701,41.230556,-77.080556,LYCOMING,325199,,17701LNZNC3500T,TRI
110000337653.0,JOHNSON MATTHEY INC/RIVERSIDE,900 RIVER RD,CONSHOHOCKEN,PA,None,40.0856,-75.3249,Montgomery,325411,,6558711,NEI
110000337653.0,JOHNSON MATTHEY INC,900 SCHUYLKILL RIVER RD,CONSHOHOCKEN,PA,19428,40.083827,-75.323808,MONTGOMERY,325199,,19428SMTHK900RI,TRI
110000340275.0,Eastman Specialties Corporation,10380 Worton Rd,Chestertown,MD,21620,39.2624,-76.0891,Kent,325211,,7718011,NEI
110000340275.0,EASTMAN SPECIALTIES CORP,10380 WORTON RD,CHESTERTOWN,MD,21620,39.26277,-76.08655,KENT,325199,,21620HLSMRMDRTE,TRI
110000342095.0,KMX CHEMICAL CORP,30474 ENERGY DR,NEW CHURCH,VA,23415,37.97582,-75.538206,ACCOMACK,325199,,23415NWCHRRT709,TRI
110000342095.0,KMX Chemical Corporation,30474 Energy Drive,New Church,VA,23415,37.9768,-75.5385,Accomack,325193,,4549011,NEI
110056525835.0,"Henkel Electronic Materials, LLC",825 Cedar Springs Road,Salisbury,NC,28147,35.63,-80.53579999999998,Rowan,325180,,8507411,NEI
110056525835.0,HENKEL US OPERATIONS CORP,825 CEDAR SPRINGS RD,SALISBURY,NC,28147,35.63367,-80.53335,ROWAN,325199,,28144NTNLSCEDAR,TRI
110012474740.0,"IGM Resins Charlotte, Inc",3300 WESTINGHOUSE BV,Charlotte,NC,None,35.1369,-80.96339999999998,Mecklenburg,325998,,8049111,NEI
110012474740.0,IGM RESINS USA INC,3300 WESTINGHOUSE BLVD,CHARLOTTE,NC,28273,35.136111,-80.961111,MECKLENBURG,325199,,28241HNKLC3300W,TRI
110000349935.0,"Trinity Manufacturing, Inc.",11 EV Hogan Drive,Hamlet,NC,28345,34.919,-79.673,Richmond,32532,,8490711,NEI
110000349935.0,TRINITY MANUFACTURING INC,11 E V.HOGAN DR,HAMLET,NC,28345,34.918889,-79.673333,RICHMOND,325199,,28345TRNTY11EVH,TRI
110007116101.0,"Invista, S.a.r.l.",4600 Highway 421 North,Wilmington,NC,28401,34.3136,-77.9805,New Hanover,325220,,7923411,NEI
110007116101.0,STEPAN CO,4600 HWY 421 N,WILMINGTON,NC,28401,34.31065,-77.98461,NEW HANOVER,325199,,28402CPNDSHIGHW,TRI
110000351397.0,"Duke Energy Carolinas, LLC - Marshall Steam Station",8320 East Highway 150,Terrell,NC,28682,35.598,-80.9612,Catawba,325613,,8370411,NEI
110000351397.0,DUKE ENERGY CAROLINAS LLC - MARSHALL STEAM STATION,8320 E NC 150 HWY,TERRELL,NC,28682,35.5983,-80.9636,CATAWBA,221112,,28682DKNRG8320E,TRI
110067426672.0,ALBEMARLE CORP,725 CANNON BRIDGE RD,ORANGEBURG,SC,29115,33.4675,-80.8811,Orangeburg,325110,,4143511,NEI
110067426672.0,SI GROUP INC,725 CANNON BRIDGE RD,ORANGEBURG,SC,29115,33.4675,-80.881111,ORANGEBURG,325412,,29116THYLCCANNO,TRI
110067426672.0,SI GROUP INC,725 CANNON BRIDGE RD,ORANGEBURG,SC,29115,33.4675,-80.881111,ORANGEBURG,325199,,29116THYLCCANNO,TRI
110000542985.0,LUBRIZOL ADVANCED MATERIALS,195 BROOKS BLVD,SPARTANBURG,SC,29307,35.01056,-81.87635,SPARTANBURG,325199,,29302SPCLT195BR,TRI
110000542985.0,Lubrizol Spartanburg,195 Brooks Boulevard,Spartanburg,SC,29302,35.0108,-81.8782,Spartanburg,325613,,2840211,NEI
110000352797.0,SANTOLUBES MANUFACTURING LLC  DBA BLACKMAN UHLER SPECIALTIES,2155 W CROFT CIR,SPARTANBURG,SC,29302,34.919444,-81.850833,SPARTANBURG,325199,,29304BLCKMPOBOX,TRI
110000352797.0,Blackman Uhler Chemical,2155 W Croft Circle,Spartanburg,SC,29302,34.9194,-81.8508,Spartanburg,325110,,6670711,NEI
110000353206.0,SYNTHOMER USA LLC,200 RAILROAD ST,ROEBUCK,SC,29376,34.876111,-81.971667,SPARTANBURG,325199,,29376BCNDSPOBOX,TRI
110000353206.0,Eastman Chemical Company,200 Railroad St,Roebuck,SC,29376,34.8761,-81.9717,Spartanburg,325110,,4040711,NEI
110038266051.0,LANXESS CORP BUSHY PARK SITE,1530 BUSHY PARK RD,GOOSE CREEK,SC,29445,32.9869,-79.9295,Berkeley,325130,,4952911,NEI
110038266051.0,LANXESS CORP  BUSHY PARK PLANT,1530 BUSHY PARK RD,GOOSE CREEK,SC,29445,32.983796,-79.932678,BERKELEY,325199,,29445LNXSS153BU,TRI
110000354134.0,ETHOX CHEMICALS LLC,1801 PERIMETER RD,GREENVILLE,SC,29605,34.734471,-82.375617,GREENVILLE,325199,,29605THXCHPERIM,TRI
110000354134.0,Ethox Chemicals,1801 Perimeter Road,Greenville,SC,29605,34.7339,-82.3747,Greenville,325613,,4103011,NEI
110000356481.0,GEO SPECIALTY CHEMICALS INC.,701 WISSAHICKON AVE,CEDARTOWN,GA,30125,34.019632,-85.270141,POLK,325199,,30125HNKLC701WI,TRI
110000356481.0,Geo Specialty Chemicals Inc,701 Wissahickon Ave.,Cedartown,GA,30125,34.015,-85.26529999999998,Polk,325613,,2531811,NEI
110041142304.0,"SEMINOLE ELECTRIC COOPERATIVE, INC.",890 NORTH U.S. HIGHWAY 17,PALATKA,FL,None,29.7337,-81.6327,Putnam,2211,,2474411,NEI
110041142304.0,SEMINOLE GENERATING STATION,890 N US HWY 17,PALATKA,FL,32177,29.733333,-81.633333,PUTNAM,221112,,32177SMNLGUSHWY,TRI
110043804808.0,JEA - GREENLAND ENERGY CENTER,6850 Energy Center Drive,JACKSONVILLE,FL,32256,30.1574,-81.51779999999998,Duval,2211,,15032711,NEI
110043804808.0,JACKSONVILLE ELECTRIC AUTHORITY GREENLAND ENERGY CENTER,6850 ENERGY CENTER DRIVE,JACKSONVILLE,FL,32256,30.1599,-81.5168,DUVAL,221112,,3225WJCKSN12121,TRI
110002530805.0,SCHOLZ,1460 Gulf Power Road,SNEADS,FL,32460,30.6691,-84.8875,Jackson,2211,,1968811,NEI
110002530805.0,GULF POWER CO PLANT SCHOLZ,RTE 1 BOX 234-A,SNEADS,FL,32460,30.669338,-84.886808,JACKSON,221112,,32460GLFPWROUTE,TRI
110000909214.0,"DUKE ENERGY FLORIDA, INC.",4037 RIVER ROAD,LIVE OAK,FL,32060,30.3754,-83.18009999999998,Suwannee,2211,,642811,NEI
110000909214.0,DUKE ENERGY FLORIDA INC-SUWANNEE RIVER POWER PLANT,4037 RIVER RD,LIVE OAK,FL,32060,30.376225,-83.180498,SUWANNEE,221112,,32462FLRDPSOFUS,TRI
110000363598.0,FLORIDA MUNICIPAL POWER AGENCY,6900 FRONT ST EXTENDED,STOCK ISLAND,FL,None,24.5638,-81.7341,Monroe,2211,,554011,NEI
110000363598.0,KEYS ENERGY SERVICES,6900 FRONT ST EXTENDED,KEY WEST,FL,33040,24.56295,-81.733895,MONROE,221112,,33041CTYLC6900F,TRI
110000365248.0,FLORIDA POWER & LIGHT (PFM),10650 STATE ROAD 80,FORT MYERS,FL,33905,26.6883,-81.7889,Lee,2211,,922311,NEI
110000365248.0,FORT MYERS POWER PLANT,10650 SR 80,FORT MYERS,FL,33905,26.6967,-81.7831,LEE,221112,,33916HFSCN3052M,TRI
110008329068.0,"DUKE ENERGY FLORIDA, INC.",1729 BAILLIES BLUFF ROAD,HOLIDAY,FL,None,28.1844,-82.7883,Pasco,2211,,717211,NEI
110008329068.0,DUKE ENERGY FLORIDA INC-ANCLOTE POWER PLANT,1729 BAILLIES BLUFF RD,HOLIDAY,FL,34691,28.184215,-82.787895,PASCO,221112,,34691FLRDP1729B,TRI
110000747817.0,U.S. Amines (Bucks) LLC,14086 Hwy 43 North,Bucks,AL,36505,30.9833,-88.022,Mobile,325180,,1062111,NEI
110000747817.0,U.S. AMINES (BUCKS) LLC,14086 HWY 43 N,AXIS,AL,36505,30.985223,-88.026254,MOBILE,325199,,36512HCHSTHIGHW,TRI
110055053926.0,Cray Valley USA LLCformerly Sartomer Company Inc,Hwy 17 S,Chatom,AL,36518,31.4549,-88.25759999999998,Washington,325211,,1028811,NEI
110055053926.0,TOTALENERGIES PETROCHEMICALS & REFINING USA INC.,16150 JORDAN ST,CHATOM,AL,36518,31.4559,-88.25811,WASHINGTON,325199,,36518RCKLNHIGHW,TRI
110009492361.0,MANUFACTURER'S CHEMICAL LP,4325 OLD TASSO RD,CLEVELAND,TN,37312,35.18567,-84.827931,BRADLEY,325199,,37311MNFCT4325O,TRI
110009492361.0,Manufacturer'S Chemical L P,4325 Old Tasso Rd.,Cleveland,TN,37312,35.1872,-84.8281,Bradley,325611,,2968911,NEI
110011703530.0,Velsicol Chemical Corporation,1199 Warford Sreet,Memphis,TN,38108,35.1642,-89.9644,Shelby,325991,,6194211,NEI
110011703530.0,VELSICOL CHEMICAL LLC,1199 WARFORD ST,MEMPHIS,TN,38108,35.165278,-89.965278,SHELBY,325199,,38108VLSCL1100W,TRI
110000375184.0,"CYTEC INDUSTRIES, INC.",7910 MOUNT JOY ROAD,MT. PLEASANT,TN,38474,35.5249,-87.2431,Maury,325180,,5722911,NEI
110000375184.0,CYTEC INDUSTRIES INC,7910 MT JOY RD,MOUNT PLEASANT,TN,38474,35.5249,-87.2431,MAURY,325199,,38474CMRCSMTJOY,TRI
110002222871.0,"Greenwood Utilities, Henderson Station",2107 West River Road Extended,Greenwood,MS,38930,33.5169,-90.206,Leflore,22111,,8231311,NEI
110002222871.0,GREENWOOD UTILITIES-HENDERSON STATION,2107 RIVER RD EXTENDED,GREENWOOD,MS,38930,33.516851,-90.205964,LEFLORE,221112,,38930GRNWDRIVER,TRI
110000376502.0,"Ergon Biofuels, LLC",1833 Haining Road,Vicksburg,MS,39183,32.388258,-90.888467,WARREN,325193,,1000634,GHGRP
110000376502.0,ERGON BIOFUELS LLC,1833 HAINING RD.,VICKSBURG,MS,39180,32.389246,-90.895446,WARREN,325199,,39180BNGCR1833H,TRI
110000376502.0,"Bunge-Ergon Vicksburg, LLC",1833 Haining Road,Vicksburg,MS,39183,32.3893,-90.8954,Warren,325193,,6285511,NEI
110027373072.0,Westlake Vinyls Inc,2468 Industrial Pkwy,Calvert City,KY,42029,37.0511,-88.33419999999998,Marshall,325998,,5929411,NEI
110027373072.0,WESTLAKE VINYLS INC,2468 IND US TRIAL PKWY,CALVERT CITY,KY,42029,37.051111,-88.334167,MARSHALL,325199,,42029WSTLK2468I,TRI
110000498701.0,Vanderbilt Chemicals LLC,396 Pella Way,Murray,KY,42071,36.6473,-88.30039999999998,Calloway,327992,,7430811,NEI
110000498701.0,VANDERBILT CHEMICALS LLC-MURRAY DIV,396 PELLA WAY,MURRAY,KY,42071,36.647333,-88.300444,CALLOWAY,325199,,42071VNDRBPENNY,TRI
110000380212.0,INGEVITY VIRGINIA CORPORATION - CARBON PLANT,2025 BEECHGROVE RD.,WICKLIFFE,KY,42087,36.95,-89.066111,BALLARD COUNTY,325998,,1003749,GHGRP
110000380212.0,MeadWestvaco Virginia Corp - Wickliffe Carbon Plant,2025 Beech Grove Rd,Wickliffe,KY,42087,36.9442,-89.08079999999998,Ballard,325998,,5606311,NEI
110000380212.0,INGEVITY VIRGINIA CORP-WICKLIFFE CARBON PLANT,2025 BEECH GROVE RD,WICKLIFFE,KY,42087,36.95,-89.066111,BALLARD,325199,,42087WSTVCHIGHA,TRI
110000757501.0,Owensboro Grain Ed Oil,1145 Ewing Rd,Owensboro,KY,42302,37.7858,-87.1447,Daviess,311224,,6052911,NEI
110000757501.0,Owensboro Grain Biodiesel LLC,1145 Ewing Rd,Owensboro,KY,42302,37.785,-87.1442,Daviess,325199,,13418711,NEI
110000382693.0,ISP CHEMICALS LLC,1979 ATLAS ST,COLUMBUS,OH,43228,39.99105,-83.14306,FRANKLIN,325199,,43228RSYNX1979A,TRI
110000382693.0,Isp Chemicals Inc,1979 Atlas St.,Columbus,OH,43228,39.9917,-83.1444,Franklin,325412,,7752711,NEI
110000384744.0,WILEY COS,1245 S 6TH ST,COSHOCTON,OH,43812,40.2596,-81.86261,COSHOCTON,325199,,43812WLYRG1245S,TRI
110000384744.0,Organic Techs,1245 S. 6th St.,Coshocton,OH,43812,40.2592,-81.8644,Coshocton,3119,,8249611,NEI
110000397909.0,ACS TECHNICAL PRODUCTS INC.,420 S COLFAX AVE,GRIFFITH,IN,46319,41.517222,-87.416111,LAKE,325199,,46319MRCNC420SC,TRI
110000397909.0,"American Chemical Services, Inc.",420 S Colfax Ave,Griffith,IN,46319,41.5147,-87.417,Lake,325998,,7247811,NEI
110000592831.0,HOOSIER ENERGY REC INC MEROM GENERA,5500 W Old SR 54,Sullivan,IN,47882,39.0692,-87.512,Sullivan,221121,,8396211,NEI
110000592831.0,MEROM GENERATING STATION,5500 W OLD HWY 54,SULLIVAN,IN,47882,39.0694,-87.5108,SULLIVAN,221112,,47882MRMGNHWY54,TRI
110017393907.0,CRAWFORDSVILLE ENERGY LLC,700 LAFAYETTE RD,CRAWFORDSVILLE,IN,47933,40.047333,-86.900333,MONTGOMERY COUNTY,221122,,1003132,GHGRP
110017393907.0,Crawfordsville Electric Power & Light,700 Lafayette Rd,Crawfordsville,IN,47933,40.0488,-86.9062,Montgomery,221122,,8224711,NEI
110017393907.0,CRAWFORDSVILLE ENERGY LLC,700 LAFAYETTE RD,CRAWFORDSVILLE,IN,47933,40.047333,-86.900333,MONTGOMERY,221112,,47933CRWFR700LA,TRI
110000605872.0,Aldrich Chemical Company,5485 County Road V,Sheboygan Falls,WI,53085,43.6738,-87.7809,Sheboygan,325180,,5656411,NEI
110000605872.0,ALDRICH CHEMICAL CO LLC,5485 COUNTY RD V,SHEBOYGAN FALLS,WI,53085,43.67406,-87.78147,SHEBOYGAN,325199,,53085LDRCH6100H,TRI
110001442332.0,Hibbing Public Utilities Commission,1832 6th Ave E,Hibbing,MN,55746,47.4295,-92.935,St. Louis,221122,,6236711,NEI
110001442332.0,HIBBING PUBLIC UTILITIES COMMISSION,1832 6TH AVE E,HIBBING,MN,55746,47.429087,-92.935269,ST LOUIS,221112,,55749HBBNG1832S,TRI
110001442341.0,Virginia Department of Public Utilities,618 2nd St S,Virginia,MN,55792,47.5183,-92.5329,St. Louis,221121,,6236811,NEI
110001442341.0,VIRGINIA PUBLIC UTILITIES,618 2ND ST S,VIRGINIA,MN,55792,47.52103,-92.54146,ST LOUIS,221112,,5579WVRGNP6182N,TRI
110001850015.0,Willmar Municipal Utilities,710 Benson Ave SW,Willmar,MN,56201,45.1215,-95.0524,Kandiyohi,221122,,6454411,NEI
110001850015.0,WILLMAR MUNICIPAL UTILITIES,710 BENSON AVE SW,WILLMAR,MN,56201,45.121461,-95.0526,KANDIYOHI,221112,,56201WLLMR71BEN,TRI
110000432871.0,CCI Manufacturing IL Corp,15550 Canal Bank Rd,Lemont,IL,60439,41.6822,-87.9933,Cook,325998,,7411211,NEI
110000432871.0,CCI MANUFACTURING IL CORP,15550 CANAL BANK RD,LEMONT,IL,60439,41.682231,-87.993259,COOK,325199,,60439NTCTM15550,TRI
110000435413.0,Ester Solutions,5851 W 73rd St,Bedford Park,IL,60638,41.7587,-87.76739999999998,Cook,325998,,8189311,NEI
110000435413.0,HALLSTAR CO ESTER SOLUTIONS FACILITY,5851 W 73RD ST,BEDFORD PARK,IL,60638,41.75869,-87.76741,COOK,325199,,60638THCPH5851W,TRI
110016660451.0,Emerald Performance Materials LLC,1550 County Rd 1450 N,Henry,IL,61537,41.1351,-89.33839999999998,Marshall,325998,,4620811,NEI
110016660451.0,EMERALD PERFORMANCE MATERIALS LLC,"1550 COUNTY RD, 1450 N",HENRY,IL,61537,41.135468,-89.339559,MARSHALL,325199,,61537BFGDRRR1BO,TRI
110035813117.0,Performance Chemicals,8316 W Route 24,Mapleton,IL,61547,40.5638,-89.7281,Peoria,325998,,5422811,NEI
110035813117.0,ARXADA LLC,8316 W RT 24,MAPLETON,IL,61547,40.564278,-89.728417,PEORIA,325199,,61547LNZNCUSROU,TRI
110000755521.0,Chemtura Corp,8220 W Rte 24,Mapleton,IL,61547,40.5658,-89.7215,Peoria,325998,,4532011,NEI
110000755521.0,LANXESS CORP,8220 W US HIGHWAY 24,MAPLETON,IL,61547,40.565833,-89.721389,PEORIA,325199,,61547SHRXCROUTE,TRI
110000441004.0,ELEMENTIS SPECIALTIES INC-ELEMENTIS SPECIALTIES INC,5548 MANCHESTER,ST. LOUIS,MO,63110,38.6225,-90.2805,St. Louis city,325998,,7301011,NEI
110000441004.0,ELEMENTIS SPECIALTIES INC.,5548 MANCHESTER AVE,SAINT LOUIS,MO,63110,38.6225,-90.28054,ST LOUIS (CITY),325199,,63110NLCHM5548M,TRI
110000442021.0,ASHLAND INC-MISSOURI CHEMICAL WORKS,11083 HWY D,LOUISIANA,MO,63353,39.4294,-91.0329,Pike,325110,,7285611,NEI
110000442021.0,MISSOURI CHEMICAL WORKS,11083 HWY D,LOUISIANA,MO,63353,39.42942,-91.03289,PIKE,325199,,63353MSSRCHIGHW,TRI
110000446679.0,AIR PRODUCTS MANUFACTURING CORP.,6601 SOUTH RIDGE RD.,HAYSVILLE,KS,67060,37.5742,-97.4286,Sedgwick,325110,,8066811,NEI
110000446679.0,EVONIK CORP,6601 S RIDGE RD,HAYSVILLE,KS,67060,37.574167,-97.426111,SEDGWICK,325199,,67231RPRDC6601S,TRI
110015862440.0,CHS MCPHERSON REFINERY INC.,2000 SOUTH MAIN STREET,MCPHERSON,KS,67460,38.347278,-97.673846,MCPHERSON,324110,,1007942,GHGRP
110015862440.0,NATIONAL COOP. REFINERY ASSN.,2000 S. MAIN,MC PHERSON,KS,67460,38.3475,-97.6692,McPherson,324110,,8067211,NEI
110015862440.0,CHS MCPHERSON REFINERY - SRU,2000 S MAIN ST,MCPHERSON,KS,67460,38.347278,-97.673846,MCPHERSON,325311,,67460NTNLC2000M,TRI
110015862440.0,CHS MCPHERSON REFINERY - SRU,2000 S MAIN ST,MCPHERSON,KS,67460,38.347278,-97.673846,MCPHERSON,324110,,67460NTNLC2000M,TRI
110014466372.0,CF Industries Nitrogen LLC - Donaldsonville Nitrogen Complex,39018 Hwy 3089,Donaldsonville,LA,70346,30.0952,-90.9521,Ascension,325180,,7381111,NEI
110014466372.0,CF Industries Nitrogen LLC - Donaldsonville Nitrogen Complex,39018 Hwy 3089,Donaldsonville,LA,70346,30.0882,-90.9551,Ascension,325180,,7914611,NEI
110014466372.0,CF INDUSTRIES NITROGEN LLC,39018 HWY 3089,DONALDSONVILLE,LA,70346,30.098563,-90.95599,ASCENSION PARISH,325311,,70346CFNDSHWY30,TRI
110000449774.0,OCCIDENTAL CHEMICAL CORPORATION - GEISMAR PLANT,8318 ASHLAND ROAD,GEISMAR,LA,70734,30.1875,-90.98833,ASCENSION,325181,,1001706,GHGRP
110000449774.0,Occidental Chemical Corporation - Geismar Plant,8318 Ashland Rd,Geismar,LA,70734,30.1846,-90.9774,Ascension,325180,,7445711,NEI
110000449774.0,OCCIDENTAL CHEMICAL HOLDING CORP - GEISMAR PLANT,8318 ASHLAND RD,GEISMAR,LA,70734,30.1851,-90.9804,ASCENSION PARISH,325199,,70734VLCNMASHLA,TRI
110040089043.0,Dynamic Fuels LLC - Renewable Synthetic Fuels - Geismar Plant,36187 Hwy 30,Geismar,LA,70734,30.2022,-91.0098,Ascension,325110,,15087311,NEI
110040089043.0,REG GEISMAR LLC,36187 HWY 30,GEISMAR,LA,70734,30.203595,-91.009457,ASCENSION PARISH,325199,,7073WDYNMC36187,TRI
110000449934.0,BASF Corp,111 W Irene Rd,Zachary,LA,70791,30.6123,-91.2318,East Baton Rouge,325998,,8215011,NEI
110000449934.0,BASF CORP,111 W IRENE RD,ZACHARY,LA,70791,30.61349,-91.23737,EAST BATON ROUGE PARISH,325199,,70791GRNTCHWY61,TRI
110000598835.0,MONTICELLO STEAM ELECTRIC STATION,7 M SW OF MT. PLEASANT OFF FM 127,MOUNT PLEASANT,TX,75455,33.0959,-95.0359,Titus,221122,,4036111,NEI
110000598835.0,MONTICELLO STEAM ELECTRIC STATION & LIGNITE MINE,OFF FM 127 8 MI SW OF MOUNT PLEASANT,MOUNT PLEASANT,TX,75455,33.092262,-95.038053,TITUS,221112,,75455MNTCLOFFFM,TRI
110000458282.0,AEP PIRKEY POWER PLANT,RT 2 BOX 165,HALLSVILLE,TX,75650,32.4598,-94.4876,Harrison,221122,,4845611,NEI
110000458282.0,AMERICAN ELECTRIC POWER HW PIRKEY POWER PLANT,2400 FM RD 3251,HALLSVILLE,TX,75650,32.460267,-94.485225,HARRISON,221112,,75650HWPRK2400F,TRI
110000458424.0,PERGAN MARSHALL,710 BUSSEY RD,MARSHALL,TX,75670,32.6058,-94.3495,Harrison,325110,,6809411,NEI
110000458424.0,PERGAN MARSHALL LLC,710 B BUSSEY RD,MARSHALL,TX,75670,32.60748,-94.35046,HARRISON,325199,,75670WTCCROFFHW,TRI
110013349947.0,WELSH POWER PLANT,1187 CR 4865,MOUNT PLEASANT,TX,75455,33.0566,-94.8458,Titus,221122,,4164411,NEI
110013349947.0,AMERICAN ELECTRIC POWER WELSH PLANT,FM 1735 STOREROOM 65,PITTSBURG,TX,75686,33.055134,-94.83983,CAMP,221112,,75686WLSHPFM173,TRI
110043787220.0,MARTIN LAKE ELECTRICAL STATION,8850 FM 2658 N,TATUM,TX,75691,32.2586,-94.5681,Rusk,221122,,4207311,NEI
110043787220.0,MARTIN LAKE STEAM ELECTRIC STATION & LIGNITE MINE,8850 FM 2658 N,TATUM,TX,75691,32.259653,-94.570331,RUSK,221112,,75691MRTNL8850F,TRI
110000598988.0,BIG BROWN STEAM ELECTRIC STATION,9 M NE OF FAIRFIELD,FAIRFIELD,TX,75840,31.8339,-96.0397,Freestone,221122,,3052111,NEI
110000598988.0,BIG BROWN STEAM ELECTRIC STATION & LIGNITE MINE,11 MI E OF FAIRFIELD ON FM 2570,FAIRFIELD,TX,75840,31.8205,-96.0553,FREESTONE,221112,,75840BGBRW11MIE,TRI
110000599139.0,HONEYWELL ELECTRONIC CHEMICALS LLC,100 US HWY 287 N,MANSFIELD,TX,76063,32.560556,-97.113333,TARRANT,325199,,76063TXSLT100US,TRI
110000599139.0,Gem Microelectronics Materials L L C,100 U.S. Hwy. 287 N.,Mansfield,TX,76063,32.5605,-97.1133,Tarrant,3251,,6903311,NEI
110000460153.0,OKLAUNION POWER STATION,3.5 MI SSW OF OKLAUNION ON FM 3430,OKLAUNION,TX,76373,34.0864,-99.1769,Wilbarger,221122,,7927311,NEI
110000460153.0,AMERICAN ELECTRIC POWER OKLAUNION PLANT,12567 FM RD 3430,VERNON,TX,76384,34.08255,-99.17601,WILBARGER,221112,,76384KLNNP12567,TRI
110007197853.0,SANDOW 5 GENERATING PLANT,9 MI SW OF ROCKDALE ON FM 1786,ROCKDALE,TX,76567,30.5674,-97.0605,Milam,221122,,13408411,NEI
110007197853.0,SANDOW STEAM ELECTRIC STATION,7 M SW OF ROCKDALE,ROCKDALE,TX,76567,30.5661,-97.0709,Milam,221122,,4204811,NEI
110007197853.0,SANDOW STEAM ELECTRIC STATION,7 MI SW OF ROCKDALE OFF FM 1786,ROCKDALE,TX,76567,30.564592,-97.068506,MILAM,221112,,76567SNDWS7MISW,TRI
110015666144.0,TWIN OAKS POWER,8 M N OF CALVERT ON HWY 6,CALVERT,TX,77837,31.0914,-96.6955,Robertson,221122,,7552911,NEI
110015666144.0,TWIN OAKS,13065 PLANT RD,BREMOND,TX,76629,31.092778,-96.695828,ROBERTSON,221112,,76629TXSNWHWY6X,TRI
110000461134.0,TPC GROUP LLC,8600 PARK PLACE BOULEVARD,HOUSTON,TX,77017,29.69845,-95.254597,HARRIS,325110,,1005198,GHGRP
110000461134.0,HOUSTON PLANT,8600 PARK PLACE,HOUSTON,TX,77017,29.6993,-95.2531,Harris,325110,,4168611,NEI
110000461134.0,TPC GROUP LLC,8600 PARK PL BLVD,HOUSTON,TX,77017,29.69845,-95.254597,HARRIS,325199,,77017TXSPT8600P,TRI
110031389192.0,OXEA BAY CITY PLANT,2001 FM 3057 ADMIN BLDG,BAY CITY,TX,77414,28.8588,-96.02,Matagorda,325110,,13411911,NEI
110031389192.0,CELANESE LTD BAY CITY PLANT,2001 FM 3057,BAY CITY,TX,77414,28.861921,-96.020763,MATAGORDA,325199,,77414HCHSTPOBOX,TRI
110043799958.0,DITNTROTOLUENE PLANT PASADENA FACILITY,1423 HWY 225,PASADENA,TX,77501,29.7181,-95.1892,Harris,325110,,6510311,NEI
110043799958.0,AIR PRODUCTS LLC,1423 HWY 225,PASADENA,TX,77506,29.716191,-95.194361,HARRIS,325199,,77506RPRDC1423H,TRI
110043799958.0,PASADENA PLANT,1423 HWY 225,PASADENA,TX,77506,29.7164,-95.1907,Harris,325211,,6510111,NEI
110012183216.0,CENTAURI TECHNOLOGIES,5200 UNDERWOOD RD,PASADENA,TX,77507,29.63565,-95.08689,HARRIS,325199,,77507CNTRT52UND,TRI
110012183216.0,Centauri Technologies,5200 Underwood Rd,Pasadena,TX,77507,29.634,-95.0868,Harris,3251,,9134811,NEI
110000462794.0,ROGER W POWELL PLANT,11002 CHOATE RD,PASADENA,TX,77507,29.6178,-95.0474,Harris,325110,,4168111,NEI
110000462794.0,E R CARPENTER LP,11002 CHOATE RD,PASADENA,TX,77507,29.62001,-95.0455,HARRIS,325199,,77507CRPNT11002,TRI
110000462856.0,GOODYEAR TIRE & RUBBER CO BAYPORT CHEMICAL PLANT,13441 BAY AREA BOULEVARD,PASADENA,TX,77507,29.6469,-95.0479,HARRIS,325998,,1002991,GHGRP
110000462856.0,BAYPORT CHEMICAL PLANT,13441 BAY AREA BLVD,PASADENA,TX,77501,29.6484,-95.0475,Harris,325110,,4055511,NEI
110000462856.0,THE GOODYEAR TIRE & RUBBER CO BAYPORT CHEMICAL PLANT,13441 BAY AREA BLVD,PASADENA,TX,77507,29.6469,-95.0479,HARRIS,325199,,77507GDYRB13441,TRI
110044232773.0,AKZO NOBEL POLYMER CHEMICALS PASADENA,12900 BAY PARK RD,PASADENA,TX,77058,29.6411,-95.061,Harris,325110,,4057711,NEI
110044232773.0,NOURYON FUNCTIONAL CHEMICALS LLC,12900 BAY PARK RD,PASADENA,TX,77507,29.639444,-95.062778,HARRIS,325199,,77507KZCHM13000,TRI
110000462945.0,GULF BAYPORT CHEMICALS FACILITY,9700 BAYPORT BLVD,PASADENA,TX,77507,29.6156,-95.061,Harris,325110,,6671611,NEI
110000462945.0,SOLENIS LLC,9700 BAYPORT BLVD,PASADENA,TX,77507,29.615556,-95.061389,HARRIS,325199,,77507LNZBY9700B,TRI
110000463034.0,CLEAR LAKE CHEMICALS FACILITY,11200 BAY AREA BLVD,PASADENA,TX,77507,29.6176,-95.043,Harris,325110,,4941911,NEI
110000463034.0,MULTI-CHEM GROUP BAYPORT TX FACILITY,11200 BAY AREA BLVD,PASADENA,TX,77507,29.61813,-95.0439,HARRIS,325199,,77507WLCHM11200,TRI
110000463070.0,ADVANCED AROMATICS,5501 BAKER RD,BAYTOWN,TX,77520,29.7638,-95.0213,Harris,325110,,4056711,NEI
110000463070.0,MONUMENT CHEMICAL BAYTOWN LLC,5501 BAKER RD,BAYTOWN,TX,77520,29.763056,-95.0225,HARRIS,325199,,77520DVNCD5501B,TRI
110000463098.0,BAYER MATERIAL SCIENCE BAYTOWN PLANT,8500 W BAY RD,BAYTOWN,TX,77520,29.7575,-94.9035,Chambers,325110,,5729211,NEI
110000463098.0,LANXESS CORP BAYTOWN,"W SIDE OF CHAMBER COUNTY NEXT TO CHAMBER/HARRIS CTY LINE, ON CEDAR BAYOU TAKE ST HWY 146 S FROM I-10",BAYTOWN,TX,77520,29.7573,-94.9111,Chambers,325110,,9175811,NEI
110000463098.0,COVESTRO LLC,8500 W BAY RD MS-21,BAYTOWN,TX,77523,29.759767,-94.907294,CHAMBERS,325199,,77520MBYCR8500W,TRI
110000463098.0,LANXESS CORPORATION,8500 WEST BAY RD,BAYTOWN,TX,77520,29.7575,-94.903056,CHAMBERS COUNTY,325192,,1004234,GHGRP
110000463249.0,CROSBY FACILITY,16503 RAMSEY RD,CROSBY,TX,77532,29.9225,-95.0549,Harris,325110,,4167811,NEI
110000463249.0,KMCO CROSBY PLANT,16503 RAMSEY RD,CROSBY,TX,77532,29.9222,-95.0544,HARRIS,325199,,77532KMCNC16503,TRI
110000463258.0,CROSBY FACILITY,18000 CROSBY EASTGATE ROAD,CROSBY,TX,77532,29.9482,-95.0223,Harris,325110,,4018611,NEI
110000463258.0,ARKEMA INC,18000 CROSBY EASTGATE RD,CROSBY,TX,77532,29.948842,-95.021864,HARRIS,325199,,77532PNNWL18000,TRI
110000607576.0,INDORAMA VENTURES OXIDES LLC,3892 US HWY 90,DAYTON,TX,77535,29.999444,-94.9525,LIBERTY,325199,,77535BKRPRUSHWY,TRI
110000607576.0,Dayton Manufacturing Unit,"3892 U.S. Hwy. 90 W., 5 Mi. W. Of Dayton",Houston,TX,77007,29.9983,-94.9528,Liberty,325998,,4030311,NEI
110017743281.0,BATTLEGROUND RD FACILITY,2525 BATTLEGROUND RD,DEER PARK,TX,77536,29.7345,-95.0917,Harris,561499,,6520111,NEI
110017743281.0,TM DEER PARK SERVICES LP,2525 BATTLEGROUND RD,DEER PARK,TX,77536,29.73427,-95.08986,HARRIS,562211,,77536DSPSL2525B,TRI
110017743281.0,TM DEER PARK SERVICES LP,2525 BATTLEGROUND RD,DEER PARK,TX,77536,29.73427,-95.08986,HARRIS,325199,,77536DSPSL2525B,TRI
110008160337.0,LAPORTE PAO FACILITY,MILLER CUT OFF RD GATE 11,LA PORTE,TX,77571,29.7101,-95.0645,Harris,325110,,4033911,NEI
110008160337.0,INEOS OLIGOMERS USA LLC,1230 MILLER CUT-OFF RD GATE 10,LA PORTE,TX,77571,29.710851,-95.065571,HARRIS,325199,,77536QNTMC1515M,TRI
110000463374.0,BATTLEGROUND SITE,730 BATTLEGROUND RD,DEER PARK,TX,77536,29.7108,-95.0893,Harris,325110,,4927011,NEI
110000463374.0,NOURYON FUNCTIONAL CHEMICALS LLC,730 INDEPENDENCE PKWY S,LA PORTE,TX,77571,29.687314,-95.12114,HARRIS,325199,,77536TXSLK730BA,TRI
110012256076.0,HUNTSMAN ETHYLENEAMINES,307 CR 624 AT GATE A 38 BLOCK,FREEPORT,TX,77541,28.953,-95.3125,Brazoria,325110,,5632011,NEI
110012256076.0,HUNTSMAN ETHYLENEAMINES PLANT,307 COUNTY RD 624 A1 A38 BLOCK,FREEPORT,TX,77541,28.9525,-95.313,BRAZORIA,325199,,77541HNTSM307CO,TRI
110000754167.0,PETROCHEMICAL REFINING,PLANT 5 ON CR 229,FREEPORT,TX,77541,28.9577,-95.3331,Brazoria,325998,,5633711,NEI
110000754167.0,CHAMPIONX FREEPORT,2322 COUNTY RD 229,FREEPORT,TX,77541,28.9578,-95.335,BRAZORIA,325199,,77541NLCCHPODRA,TRI
110000599451.0,FREEPORT PLANT,6213 HWY 332 EAST,FREEPORT,TX,77541,28.9905,-95.3618,Brazoria,325110,,6614511,NEI
110000599451.0,VENCOREX US INC,6213 HWY 332 E,FREEPORT,TX,77541,28.991019,-95.36107,BRAZORIA,325199,,77541RHNPL6213H,TRI
110017769734.0,OXY VINYLS LP - LA PORTE VCM PLANT,2400 MILLER CUT-OFF ROAD,LA PORTE,TX,77571,29.7237,-95.07408,HARRIS COUNTY,325181,,1001713,GHGRP
110017769734.0,GEON OXY VINYL LAPORTE PLANT,2400 MILLER CUT OFF RD,LA PORTE,TX,77571,29.7283,-95.0783,Harris,325110,,4057611,NEI
110017769734.0,OXY VINYLS LP LA PORTE VCM PLANT,2400 MILLER CUTOFF RD,LA PORTE,TX,77571,29.7237,-95.07408,HARRIS,325199,,77571LPRTC2400M,TRI
110017769734.0,OXY VINYLS LP LA PORTE VCM PLANT,2400 MILLER CUTOFF RD,LA PORTE,TX,77571,29.7237,-95.07408,HARRIS,325181,,77571LPRTC2400M,TRI
110017874736.0,LA PORTE PLANT,12455 STRANGE RD,LA PORTE,TX,77571,29.7036,-95.0345,Harris,325110,,9103411,NEI
110017874736.0,THE LYCRA CO LA PORTE PLANT (PREVIOUSLY INVISTA SARL,12455  STRANG RD,LA PORTE,TX,77571,29.69797,-95.03339,HARRIS,325199,,77571NVSTS12455,TRI
110000501341.0,MULTIPURPOSE ORGAN SYNTH,1901 AVENUE 'H' AT ITS INTERSECTION WITH 16TH STREET,LA PORTE,TX,77571,29.6556,-95.0365,Harris,325110,,6510211,NEI
110000501341.0,ALTIVIA SPECIALTY CHEMICALS LLC,1901 W H ST,LA PORTE,TX,77571,29.654833,-95.036528,HARRIS,325199,,77571PPGND1901A,TRI
110000463597.0,LYONDELLBASELL ACETYLS,1350 MILLER CUT OFF RD,LA PORTE,TX,77571,29.7113,-95.0656,Harris,325110,,6671911,NEI
110000463597.0,LYONDELLBASELL ACETYLS LLC,1350 MILLER CUT OFF RD,LA PORTE,TX,77571,29.712222,-95.066667,HARRIS,325199,,77571QNTMC11603,TRI
110034641635.0,EQUISTAR CHEMICALS LAPORTE COMPLEX,1515 MILLER CUT- OFF ROAD,LA PORTE,TX,77571,29.717471,-95.068008,HARRIS,325110,,1002758,GHGRP
110034641635.0,LA PORTE COMPLEX,1515 MILLER CUT-OFF ROAD,DEER PARK,TX,77536,29.7096,-95.0718,Harris,325110,,4182311,NEI
110034641635.0,EQUISTAR CHEMICALS LP,1515 MILLER CUT OFF RD,LA PORTE,TX,77571,29.717471,-95.068008,HARRIS,325199,,77571QNTMC1515M,TRI
110000463800.0,SEA LION TECHNOLOGY INC,5700 CENTURY BLVD,TEXAS CITY,TX,77590,29.4237,-95.0179,Galveston,325110,,3667211,NEI
110000463800.0,MPM SILICONES LLC,5700 CENTURY BLVD,TEXAS CITY,TX,77590,29.42501,-95.02019,GALVESTON,325199,,77590SLNCH5700J,TRI
110000463864.0,Eastman Chemical Texas City Operations,201 Bay Street South,Texas City,TX,77590,29.380301,-94.894036,GALVESTON,325110,,1004957,GHGRP
110000463864.0,TEXAS CITY OPERATONS,201 BAY ST S,TEXAS CITY,TX,77590,29.379,-94.8946,Galveston,325110,,6615111,NEI
110000463864.0,EASTMAN CHEMICAL TEXAS CITY INC,201 BAY ST S,TEXAS CITY,TX,77590,29.380301,-94.894036,GALVESTON,325199,,77592STRLN201BA,TRI
110000463917.0,BEAUMONT PLANT,LOCATED IN THE LUCITE BEAUMONT INDUSTRIAL PARK; 6350 N TWIN CITY HWY,BEAUMONT,TX,77701,30.0129,-94.0252,Jefferson,325110,,6385211,NEI
110000463917.0,MITSUBISHI CHEMICAL AMERICA INC.,6350 N TWIN CITY HWY,NEDERLAND,TX,77627,30.013916,-94.029616,JEFFERSON,325199,,77627CCRYL6350N,TRI
110022523982.0,INVISTA SRW SABINE RIVER WORKS ORANGE SITE,FM 1006,ORANGE,TX,77631,30.0521,-93.7576,Orange,325110,,10678011,NEI
110022523982.0,INV NYLON CHEMICALS AMERICAS ORANGE SITE,3055A FM 1006,ORANGE,TX,77630,30.054167,-93.752208,ORANGE,325199,,77630NVSTS355AF,TRI
110020148008.0,"CHEVRON PHILLIPS CHEMICAL COMPANY, LP PORT ARTHUR PLANT",2001 SOUTH GULFWAY DRIVE ,PORT ARTHUR,TX,77640,29.850396,-93.977222,JEFFERSON COUNTY,325110,,1002146,GHGRP
110020148008.0,PORT ARTHUR PLANT,2001 SOUTH GULFWAY DRIVE (IN THE OLD CHEVRON REFINERY),PORT ARTHUR,TX,77640,29.8539,-93.9788,Jefferson,325110,,6158411,NEI
110020148008.0,CHEVRON PHILLIPS CHEMICAL CO,2001 S GULFWAY DR,PORT ARTHUR,TX,77640,29.850396,-93.977222,JEFFERSON,325199,,77640CHVRN2001S,TRI
110000464042.0,KMCO PORT ARTHUR,2450 S GULFWAY DR PORT ARTHUR,PORT ARTHUR,TX,77640,29.8279,-93.9642,Jefferson,325110,,13381911,NEI
110000464042.0,MONUMENT CHEMICAL PORT ARTHUR LLC,2450 S GULFWAY DR,PORT ARTHUR,TX,77641,29.825641,-93.965034,JEFFERSON,325199,,77641KMCNC2450S,TRI
110000504801.0,PORT NECHES PLANT,2102 SPUR 136,PORT NECHES,TX,77651,29.9645,-93.9303,Jefferson,325110,,4945211,NEI
110000504801.0,TPC GROUP,2102 SPUR 136,PORT NECHES,TX,77651,29.964146,-93.930138,JEFFERSON,325199,,77651TXSPT212SP,TRI
110000743900.0,OCI BEAUMONT LLC,5470 N TWIN CITY HWY,NEDERLAND,TX,77627,30.013944,-94.048333,JEFFERSON,325199,,77720BMNTMHWY34,TRI
110000743900.0,OCI BEAUMONT LLC,5470 N TWIN CITY HWY,NEDERLAND,TX,77627,30.013944,-94.048333,JEFFERSON,488320,,77720BMNTMHWY34,TRI
110034504757.0,OAK GROVE STEAM ELECTRIC STATION,11 MI E OF TOWN,FRANKLIN,TX,77856,31.1828,-96.488,Robertson,221122,,13385811,NEI
110034504757.0,OAK GROVE STEAM ELECTRIC STATION,8127 OAK GROVE RD,FRANKLIN,TX,77856,31.1818,-96.4874,ROBERTSON,221112,,7785WKGRVS13MIL,TRI
110000464391.0,VICTORIA SITE,8.5 MI SE OFF FM 404,VICTORIA,TX,77901,28.6736,-96.9528,Victoria,325110,,5679711,NEI
110000464391.0,INV NYLON CHEMICALS AMERICAS VICTORIA SITE,2695 OLD BLOOMINGTON RD NORTH,VICTORIA,TX,77905,28.673056,-96.953611,VICTORIA,325199,,77905NVSTS2695L,TRI
110032992153.0,COLETO CREEK POWER STATION,SCHROEDER RD (FM 2987),FANNIN,TX,77960,28.7137,-97.2158,Goliad,221122,,4018411,NEI
110032992153.0,COLETO CREEK POWER STATION,45 FM 2987,FANNIN,TX,77960,28.7129,-97.2144,GOLIAD,221112,,77960CLTCRFMRD2,TRI
110031352649.0,TICONA POLYMERS INCORPORATED,5738 COUNTY ROAD 4,BISHOP,TX,78343,27.569714,-97.83493,NUECES,325211,,1007868,GHGRP
110031352649.0,BISHOP FACILITY,1 M S OF BISHOP ON US HWY 77 BUS,BISHOP,TX,78343,27.5677,-97.8225,Nueces,325110,,4929511,NEI
110031352649.0,OQ CHEMICALS BISHOP LLC,5738 COUNTY ROAD 4 - BISHOP,BISHOP,TX,78343,27.565772,-97.826958,NUECES,325199,,78343XBSHPUSHWY,TRI
110031352649.0,OXEA BISHOP,FROM BISHOP TX NORTH CITY LIMITS TAKE BUS HWY 77 SOUTH TO FM 4 TURN RIGHT TO PLANT ENTRANCE,BISHOP,TX,78343,27.566,-97.8268,Nueces,325110,,13389511,NEI
110000599807.0,INGLESIDE PLANT,"ON F.M. 361, S. OF S.H. 35",INGLESIDE,TX,78362,27.881,-97.2429,San Patricio,325110,,5746611,NEI
110000599807.0,OCCIDENTAL CHEMICAL CORP,4133 HWY 361,GREGORY,TX,78359,27.883611,-97.241383,SAN PATRICIO,325199,,78359CCDNTHWY36,TRI
110000722638.0,MARTIN OPERATING PTNR-PLAINVIEW,1920 STATE HWY 194 W,PLAINVIEW,TX,79072,34.223333,-101.755833,HALE,325311,,79072MRTNRHWY19,TRI
110000722638.0,Martin Resources (Plainview),1920 State Hwy 194 W,Plainview,TX,79072,34.2233,-101.756,Hale,325312,,9120411,NEI
110042010999.0,NICHOLS STATION POWER PLANT,1.5 M N ON LAKESIDE DR FROM SH 136,AMARILLO,TX,79101,35.2831,-101.746,Potter,221122,,5678011,NEI
110042010999.0,SOUTHWESTERN PUBLIC SERVICE CO HARRINGTON STATION,8400 N LAKESIDE DR,AMARILLO,TX,79108,35.299422,-101.749725,POTTER,221112,,79108STHWSNLAKE,TRI
110000600136.0,CHAMPIONX-ODESSA EAST 528,12205 W COUNTY RD 125,ODESSA,TX,79765,31.904455,-102.245483,MIDLAND,325199,,79765NLCXX12205,TRI
110000600136.0,Ondeo Nalco Energy Services Plant 114,12205 W. County Rd. 125,Odessa,TX,None,31.9058,-102.247,Midland,42469,,7650111,NEI
110059602899.0,COLORADO-GOLDEN ENERGY CORPORATION,25 10TH ST,GOLDEN,CO,80401,39.7604,-105.216,Jefferson,22133,,896111,NEI
110059602899.0,COLORADO ENERGY NATIONS CO LLC,1003-VASQUEZ ST,GOLDEN,CO,80401,39.760555,-105.215,JEFFERSON,221112,,80401TRGNN2510T,TRI
110000467469.0,BOULDER SCIENTIFIC CO,598 COUNTY HWY 7,MEAD,CO,80542,40.2388,-104.999,Weld,325998,,898411,NEI
110000467469.0,BOULDER SCIENTIFIC CO LLC - MEAD FACILITY,598 3RD ST,MEAD,CO,80542,40.238056,-104.998056,WELD,325199,,80542BLDRS5983R,TRI
110057930253.0,AIR PROD & CHEM INC,3305 E 26TH ST,LOS ANGELES,CA,90058,34.0125,-118.213,Los Angeles,325998,,4084311,NEI
110057930253.0,EVONIK CORP,3305 E 26TH ST,LOS ANGELES,CA,90058,34.01272,-118.21293,LOS ANGELES,325199,,90023PCFCN3305E,TRI
110014327442.0,RIO BRAVO JASMIN,11258 PORTERVILLE HWY,Placeholder,CA,93308,35.7472,-119.052,Kern,221118,,5815411,NEI
110014327442.0,RIO BRAVO JASMIN,11258 PORTERVILLE HWY,BAKERSFIELD,CA,93308,35.7415,-119.0512,KERN,221112,,93308RBRVJ11258,TRI
110000383399.0,SAUDER,502 MIDDLE ST,ARCHBOLD,OH,43502,41.516952,-84.30266,FULTON,337122,,43502SDRWD502MI,TRI
110000383399.0,Sauder Woodworking Cogeneration Facility (0326000079),502 Middle St.,Archbold,OH,43502,41.5156,-84.2933,Fulton,221112,,10698611,NEI
110000414123.0,THE ANDERSONS INC - SIOUX CITY,514 S FLOYD BLVD,SIOUX CITY,IA,51101,42.48715,-96.39377,WOODBURY,325314,,51101NTRFL514SO,TRI
110000414123.0,NUTRA-FLO COMPANY,514 S. Floyd Blvd.,Sioux City,IA,51101,42.4814,-96.3828,Woodbury,325311,,2944011,NEI
110000483147.0,DUPONT ELECTRONIC TECHNOLOGIES,2520 BARRINGTON CT,HAYWARD,CA,94545,37.6545,-122.137,Alameda,311942,,13820511,NEI
110000483147.0,EKC TECHNOLOGY INC.,2520 BARRINGTON CT,HAYWARD,CA,94545,37.65559,-122.14037,ALAMEDA,325998,,94545SKCTC2520B,TRI
110000483147.0,Ekc Technology,2520 Barrington Ct,Hayward,CA,94545,37.6544,-122.137,Alameda,221112,,7845311,NEI
110000700055.0,U.S. AIR FORCE ROBINS AFB GA,"775 MACON STREET, BUILDING 1555",ROBINS AFB,GA,31098,32.619983,-83.582075,HOUSTON COUNTY,928110,,1002876,GHGRP
110000700055.0,USAF Robins Air Force Base,Hwy 247 & Watson Blvd.,Warner Robins,GA,31098,32.6273,-83.6006,Houston,928110,,7414911,NEI
110000700055.0,Robins AFB Airport,Unknown,Warner Robins,GA,00000,32.6401,-83.5918,Houston,48811,,9760811,NEI
110000700055.0,U.S. DOD USAF ROBINS AFB,775 MACON ST BUILDING 1555,ROBINS AFB,GA,31098,32.619983,-83.582075,HOUSTON,928110,,31098SDDSF216OC,TRI
110000700055.0,Ga Power Company - Robins,S. Macon St.,Warner Robins,GA,31098,32.5792,-83.5824,Houston,221112,,2654411,NEI
110000745196.0,BRIDGESTONE FIRESTONE INCORPORATED,3001 FIRESTONE PARKWAY,WILSON,NC,27893,35.75965,-77.86715,WILSON,326211,,1002954,GHGRP
110000745196.0,Bridgestone/Firestone Inc,3001 Firestone Parkway,Wilson,NC,27894,35.7597,-77.86709999999998,Wilson,326211,,7938911,NEI
110000745196.0,BRIDGESTONE AMERICAS TIRE OPERATIONS LLC,3001 FIRESTONE PKWY,WILSON,NC,27893,35.75598,-77.86917,WILSON,326211,,27893FRSTNFIRES,TRI
110000745196.0,City of Wilson - Bridgestone/Firestone Genset,3001 Firestone Parkway,Wilson,NC,27894,35.7584,-77.8661,Wilson,221112,,15616911,NEI
110007155121.0,DANC SOLID WASTE MANAGEMENT FACILITY,23400 ST RTE 177,RODMAN,NY,13682,43.818,-75.9186,Jefferson,562212,,8036611,NEI
110007155121.0,INNOVATIVE DANC,23400 ST RTE 177,RODMAN,NY,13682,43.8222,-75.92019999999998,Jefferson,221112,,10750111,NEI
110008986810.0,GREEN VALLEY LANDFILL,100 ADDINGTON RD,ASHLAND,KY,41102,38.39657,-82.80856,BOYD,562212,,1004483,GHGRP
110008986810.0,East KY Power Corp - Green Valley Landfill,517 Addington Rd,Ashland,KY,41102-4109,38.3966,-82.8086,Greenup,221112,,10688811,NEI
110010382629.0,Beluga River Unit,Upper Cook Inlet,Anchorage,AK,99519,61.1851,-151.033,Kenai Peninsula,333611,,15558911,NEI
110010382629.0,Beluga River Power Plant,40 miles W of Anchorage,Anchorage,AK,99519,61.1894,-151.045,Kenai Peninsula,221112,,12661111,NEI
110016925274.0,ADVANCED DISPOSAL SEVEN MILE CREEK LANDFILL LLC,8001 OLSON DR,EAU CLAIRE,WI,54703,44.837534,-91.367144,EAU CLAIRE,562212,,1006964,GHGRP
110016925274.0,"Advanced Disposal Services Seven Mile Creek Landfill, Llc",8001 Olson Drive,Eau Claire,WI,54703,44.8333,-91.3707,Eau Claire,562212,,9041311,NEI
110016925274.0,Dairyland Power Coop-Seven Mile Creek Landfill Gas To Renewable Ener,8001 Olson Drive,Eau Claire,WI,54703,44.8311,-91.3735,Eau Claire,221112,,9010911,NEI
110017407153.0,TRICOR REFINING LLC,1134 Manor Street,BAKERSFIELD,CA,93308,35.4185,-119.0112,KERN,324110,,1002261,GHGRP
110017407153.0,OILDALE ENERGY LLC,1134 MANOR ST & NORRIS RD,OILDALE,CA,93308,35.4175,-119.011,Kern,221118,,424911,NEI
110017407153.0,TRICOR REFINING LLC,1134 MANOR ST,BAKERSFIELD,CA,93308,35.4185,-119.0112,KERN,324110,,93308WTCCRCORNE,TRI
110017407153.0,"TRICOR REFINING, LLC",1134 MANOR ST,OILDALE,CA,93388,35.4175,-119.011,Kern,324110,,4842911,NEI
110017407153.0,"OILDALE ENERGY, LLC",1134 MANOR ST,BAKERSFIELD,CA,93308,35.417,-119.013,Kern,221112,,14386611,NEI
110024324300.0,BORDEN & REMINGTON CORP,63 WATER ST,FALL RIVER,MA,2721,41.70382,-71.16343,BRISTOL,424690,,02722BRMCS106FE,TRI
110024324300.0,BORDEN & REMINGTON,63 WATER ST,FALL RIVER,MA,02721-0000,41.7013,-71.1686,Bristol,325199,,8168511,NEI
110035869165.0,AJINOMOTO HEARTLAND LLC,1116 HIGHWAY 137,EDDYVILLE,IA,None,41.1436,-92.6479,Monroe,311119,,7741311,NEI
110035869165.0,"AJINOMOTO FOOD INGREDIENTS, LLC",1 Ajinomoto Dr.,Eddyville,IA,52553,41.1486,-92.6447,Monroe,325199,,3779911,NEI
110043462062.0,LANDCOMP LANDFILL,2840  E. 13TH RD.,OTTAWA,IL,61350,41.344022,-88.913,LA SALLE,562212,,1002090,GHGRP
110043462062.0,Land Comp Corp,2840 E 13th Rd,Ottawa,IL,61350,41.3413,-88.89799999999998,La Salle,562212,,5431311,NEI
110043462062.0,RTC Ottawa Landfill Gas To Energy Plant,2840 E 13th Rd,Ottawa,IL,61350,41.3437,-88.9028,La Salle,221112,,10691511,NEI
110054262766.0,"VISA, INC",900 METRO CENTER BLVD,FOSTER CITY,CA,94404,37.5587,-122.278,San Mateo,522210,,15732211,NEI
110054262766.0,"VISA LAND DEVELOPMENT I, L P",900 METRO CENTER BLVD,FOSTER CITY,CA,94404,37.5587,-122.277,San Mateo,221112,,14091611,NEI
110067425708.0,"GREAT PLAINS MANUFACTURING, INC. (SEE 1690007 & 1690048)",1733 DEWEY,SALINA,KS,67401-0000,38.8508,-97.588,Saline,333111,,3122411,NEI
110067425708.0,MCSHARES,1835 E. NORTH STREET,SALINA,KS,67401,38.8503,-97.5818,Saline,325199,,15594111,NEI
nan,"EPL Oil & Gas, Inc. - SP 77 A",None,Offshore,LA,0,28.8308,-89.4061,ORLEANS PARISH,211111,,1010333,GHGRP
nan,Air Liquide Large Industries U.S. Lp El Segundo,1310 E El Segundo Blvd,El Segundo,CA,90245,33.9058,-118.402,Los Angeles,32512,,10210811,NEI
nan,Cogeneration Project,Mile 2.5 Dayville Rd.,Valdez,AK,99686,61.0843,-146.252,Valdez-Cordova,221112,,1025411,NEI
nan,Glennallen Diesel Plant,Mile 187 Glenn Hwy,Glennallen,AK,99588,62.1186,-145.529,Valdez-Cordova,221112,,1025511,NEI
nan,Valdez Diesel Power Plant,West Egan Dr,Valdez,AK,99686,61.1352,-146.353,Valdez-Cordova,221112,,1025611,NEI
nan,Petro Star Valdez Refinery,Mile 2.5 Dayville Rd.,Valdez,AK,99686,61.0838,-146.253,Valdez-Cordova,324110,,1025911,NEI
nan,Valdez Pioneer Field,Unknown,Valdez,AK,00000,61.1339,-146.248,Valdez-Cordova,48811,,10551311,NEI
nan,New Chenega Airport,Unknown,New Chenega,AK,00000,60.0772,-147.992,Valdez-Cordova,48811,,10551511,NEI
nan,May Creek,Unknown,May Creek,AK,00000,61.3357,-142.687,Valdez-Cordova,48811,,10551611,NEI
nan,Middleton Island,Unknown,Middleton Island,AK,00000,59.45,-146.309,Valdez-Cordova,48811,,10551811,NEI
nan,Whittier,Unknown,Whittier,AK,00000,60.7772,-148.722,Valdez-Cordova,48811,,10551911,NEI
nan,Gulkana,Unknown,Gulkana,AK,00000,62.1549,-145.457,Valdez-Cordova,48811,,10552011,NEI
nan,Chisana,Unknown,Chisana,AK,00000,62.0712,-142.048,Valdez-Cordova,48811,,10552111,NEI
nan,Chitina,Unknown,Chitina,AK,00000,61.5829,-144.427,Valdez-Cordova,48811,,10552211,NEI
nan,Cordova Muni,Unknown,Cordova,AK,00000,60.5439,-145.727,Valdez-Cordova,48811,,10554511,NEI
nan,Merle K (Mudhole) Smith,Unknown,Cordova,AK,00000,60.4918,-145.478,Valdez-Cordova,48811,,10554611,NEI
nan,Tatitlek,Unknown,Tatitlek,AK,00000,60.8689,-146.686,Valdez-Cordova,48811,,10554711,NEI
nan,Mc Carthy Nr 2,Unknown,Mc Carthy,AK,00000,61.4371,-142.904,Valdez-Cordova,48811,,10554811,NEI
nan,"PS #10, TAPS Pump Station",None,Paxson,AK,99586,63.4233,-145.768,Valdez-Cordova,486110,,10556011,NEI
nan,Pogo Mine,38 Miles NE Of Delta Junction,Delta Junction,AK,99737,64.8,-146.56,Fairbanks North Star,212221,,10594011,NEI
nan,CROSSWIND LAKE,Unknown,CROSSWIND LAKE,AK,00000,62.4009,-146.013,Valdez-Cordova,48811,,11028311,NEI
nan,ELLAMAR,Unknown,ELLAMAR,AK,00000,60.8939,-146.704,Valdez-Cordova,48811,,11042611,NEI
nan,LONG LAKE,Unknown,LONG LAKE,AK,00000,61.3779,-143.326,Valdez-Cordova,48811,,11159911,NEI
nan,JACOBUS FIELD,Unknown,GULKANA,AK,00000,62.2803,-145.363,Valdez-Cordova,48811,,11272911,NEI
nan,SPORTS MANS PARADISE,Unknown,TOK,AK,00000,62.5121,-143.236,Valdez-Cordova,48811,,11285411,NEI
nan,SWIFT CREEK,Unknown,MCCARTHY,AK,00000,61.4112,-143.001,Valdez-Cordova,48811,,11297011,NEI
nan,BOSWELL BAY,Unknown,BOSWELL BAY,AK,00000,60.4231,-146.146,Valdez-Cordova,48811,,11298211,NEI
nan,DUFFYS TAVERN,Unknown,SLANA,AK,00000,62.7246,-143.921,Valdez-Cordova,48811,,11320011,NEI
nan,PAXSON,Unknown,PAXSON,AK,00000,63.0246,-145.501,Valdez-Cordova,48811,,11422611,NEI
nan,PERRY ISLAND,Unknown,PERRY ISLAND,AK,00000,60.6853,-147.919,Valdez-Cordova,48811,,11422711,NEI
nan,COPPER CENTER 2,Unknown,COPPER CENTER,AK,00000,61.9412,-145.294,Valdez-Cordova,48811,,11473311,NEI
nan,VALDEZ HOSPITAL,Unknown,VALDEZ,AK,00000,61.1366,-146.345,Valdez-Cordova,48811,,11486211,NEI
nan,YOUNG CREEK,Unknown,MAY CREEK,AK,00000,61.3565,-142.733,Valdez-Cordova,48811,,11518711,NEI
nan,Griffith Micro Science Inc,4900 S GIFFORD AVE,Los Angeles,CA,90058,33.9972,-118.191,Los Angeles,812990,,1157811,NEI
nan,JAKES BAR,Unknown,MCCARTHY,AK,00000,61.2187,-142.89,Valdez-Cordova,48811,,11623511,NEI
nan,STRAWBERRY POINT,Unknown,CORDOVA,AK,00000,60.3912,-146.098,Valdez-Cordova,48811,,11626011,NEI
nan,TAZLINA /SMOKEY LAKE/,Unknown,TAZLINA,AK,00000,62.0634,-146.449,Valdez-Cordova,48811,,11833011,NEI
nan,MANKOMEN LAKE,Unknown,MANKOMEN LAKE,AK,00000,62.9899,-144.48,Valdez-Cordova,48811,,11844411,NEI
nan,JOHNSTONE POINT,Unknown,HINCHINBROOK,AK,00000,60.4817,-146.584,Valdez-Cordova,48811,,11980811,NEI
nan,TOLSONA LAKE,Unknown,TOLSONA LAKE,AK,00000,62.1134,-146.041,Valdez-Cordova,48811,,12038811,NEI
nan,TAZLINA,Unknown,TAZLINA,AK,00000,62.0648,-146.461,Valdez-Cordova,48811,,12106511,NEI
nan,CHISTOCHINA,Unknown,CHISTOCHINA,AK,00000,62.5635,-144.669,Valdez-Cordova,48811,,12309011,NEI
nan,Unicircuit Inc,8192 Southpark Ln.,Littleton,CO,80120,39.5692,-105.006,Arapahoe,334412,,1238411,NEI
nan,THOMPSON PASS,Unknown,THOMPSON PASS,AK,00000,61.1773,-145.688,Valdez-Cordova,48811,,12410311,NEI
nan,GLACIER CREEK,Unknown,GLACIER CREEK,AK,00000,61.4551,-142.381,Valdez-Cordova,48811,,12411311,NEI
nan,ROBE LAKE,Unknown,VALDEZ,AK,00000,61.0871,-146.144,Valdez-Cordova,48811,,12413611,NEI
nan,DEVILS MOUNTAIN LODGE,Unknown,NABESNA,AK,00000,62.4018,-142.995,Valdez-Cordova,48811,,12528011,NEI
nan,Klamath Generation Peakers,4940 HIGHWAY 97 SOUTH,KLAMATH FALLS,OR,97603,42.1808,-121.801,Klamath,221112,,12659811,NEI
nan,Orca Power Plant,103 Orca Road,Cordova,AK,99574,60.5559,-145.754,Valdez-Cordova,221112,,12660911,NEI
nan,HAARP Research Site,"Milepost 11.3, Tok Cut-Off",Gakona,AK,99586,62.3917,-145.13,Valdez-Cordova,928110,,12662511,NEI
nan,CAT PVM-2500 Asphalt Plant,None,None,AK,None,,,Multiple (portable facilities),237310,,12663111,NEI
nan,MUSTANG STATION UNIT 4 & 5,5 MILES E OF DENVER CITY ON CR 390,DENVER CITY,TX,79323,32.9748,-102.744,Yoakum,221122,,13411811,NEI
nan,Monterey Regional Waste Management District,14201 Del Monte Blvd,Marina,CA,93933,36.7092,-121.766,Monterey,562212,,1353811,NEI
nan,Sevenmile Gulch Compressor Station,NW section 18 T21 R111,Sweetwater County,WY,82935,41.7991,-110.046,Sweetwater,2212,,14555111,NEI
nan,Kivetts Incorporated,711 Southwest Boulevard,Clinton,NC,28328,34.9873,-78.3211,Sampson,337127,,15605411,NEI
nan,MADERA GLASS COMPANY,24441 AVENUE 12,MADERA,CA,93637,36.9261,-120.106,Madera,327213,,1565611,NEI
nan,POPLAR MUNI,UNKNOWN,POPLAR,MT,00000,48.1344,-105.162,Roosevelt,48811,,16089311,NEI
nan,CVTC FIELD,UNKNOWN,VALDEZ,AK,00000,61.13,-146.371,Valdez-Cordova,48811,,16091611,NEI
nan,SHERMAN HOSPITAL RANDALL ROAD,UNKNOWN,ELGIN,IL,00000,42.0722,-88.3297,Kane,48811,,16110611,NEI
nan,Fulton County,UNKNOWN,Johnstown,NY,00000,42.9981,-74.3294,Fulton,48811,,16133411,NEI
nan,Skaneateles Aero Drome,UNKNOWN,Skaneateles,NY,00000,42.9139,-76.44079999999998,Onondaga,48811,,16134211,NEI
nan,GENCO ANADARKO PLT,701 NE 7TH ST,ANADARKO,OK,73005,35.0826,-98.229,Caddo,221112,,16154811,NEI
nan,PREMIER ETHANOL LLC D/B/A/ POET BIOREFINING - PORTLAND,None,None,IN,None,40.4137,-85.0248,Jay,325193,,16668411,NEI
nan,POET BIOREFINING North Manchester,None,None,IN,None,40.9461,-85.7834,Wabash,325193,,16668711,NEI
nan,Frenchie Draw Graham Unit Central Tank Battery,SENW Section 15 T37N R89W,Fremont County,WY,82520,43.1807,-107.51,Fremont,424710,,16675411,NEI
nan,Kirby Creek Pipeline Station,"NWNW Section 22, Township 43N, Range 92W",Hot Springs County,WY,82443,43.6858,-107.897,Hot Springs,4861,,16679911,NEI
nan,KLUNE INDUSTRIES INC,1800 N 300 W,SPANISH FORK,UT,84660,40.133,-111.66,Utah,332813,,16721911,NEI
nan,Crown Cork & Seal Co (USA),3737 E Exchange Ave,Aurora,IL,60504,41.7646,-88.26,Kane,332431,,1785211,NEI
nan,Shell Oil Prods U S Sulfur Recovery Plant,23208 S. Alameda St.,Carson,CA,90810,33.8136,-118.229,Los Angeles,3251,,2123411,NEI
nan,CITY OF MOUNTAIN VIEW (SHORELINE LANDFILL),2600 SHORELINE BLVD,MOUNTAIN VIEW,CA,94043,37.4288,-122.078,Santa Clara,562212,,2339811,NEI
nan,Arlon Inc,1100 Governor Lea Road,Bear,DE,19701,39.6031,-75.66549999999998,New Castle,33422,,2439811,NEI
nan,EMPIRE LUMBER CO (DBA KAMIAH MILLS),HWY 12 & RAILROAD AVE,Kamiah,ID,83536,46.2261,-116.019,Lewis,321113,,2467111,NEI
nan,SOUTHEAST COUNTY LANDFILL,15960 CR 672,LITHIA,FL,33547,27.7626,-82.20149999999998,Hillsborough,562212,,2594511,NEI
nan,Monroe Auto Equipment Co,200 Mcintyre Dr.,Hartwell,GA,30643,34.35,-82.95,Hart,336330,,2653211,NEI
nan,Mcclarin Plastics Inc,100 Blettner Ave.,Hanover,PA,None,39.7925,-76.998,York,326199,,3002211,NEI
nan,Tex Par Energy Inc,268 Industrial Blvd.,Bainbridge,GA,31717,30.9686,-84.62919999999998,Decatur,45431,,3704911,NEI
nan,U S Marine Corps Logistics Base Albany,814 Radford Blvd.,Albany,GA,31704,31.5481,-84.0686,Dougherty,928110,,3710411,NEI
nan,Global Stone Tenn Luttrell Company,486 Clinch Valley Road,Luttrell,TN,None,36.2333,-83.7077,Union,32741,,3933111,NEI
nan,FRITO-LAY INC.,22801 HWY 58,BAKERSFIELD,CA,93312,35.3913,-119.315,Kern,311919,,422611,NEI
nan,WHEELER RECYCLING & DISPOSAL FACILITY,None,None,IN,None,41.5152,-87.1984,Porter,562212,,5436211,NEI
nan,Osram Sylvania Prods Inc,835 Washington Rd.,Saint Marys,PA,15857,41.4406,-78.5592,Elk,335110,,5454011,NEI
nan,Innovative Coating Tech Inc,1347 Pool St. Mojave Airport Building 105,Mojave,CA,93501,35.0594,-118.165,Kern,332812,,563511,NEI
nan,CONSOLIDATED FABRICATORS,17 SAINT MARK ST,AUBURN,MA,None,42.1899,-71.824,Worcester,335312,,5688011,NEI
nan,Alcoa Inc,2500 Alumax Road,Yankton,SD,57078,42.8899,-97.3514,Yankton,331318,,6195911,NEI
nan,CPFILMS - PLANT II,4129 The Great Rd.,Fieldale,VA,24089,36.7269,-79.95059999999998,Henry,326130,,6326011,NEI
nan,East Central Mixed Mun (kanabec),"Hwy 23, 4 mi SW of Mora",Arthur,MN,55051,45.8479,-93.3508,Kanabec,562212,,6451211,NEI
nan,MHBA CB LLLP,FM 2917,Alvin,TX,77512,29.2467,-95.1964,Brazoria,325199,,6583711,NEI
nan,SILGAN CONTAINERS MFR. CORP.,3250 PATTERSON ROAD,RIVERBANK,CA,95367,37.7336,-120.939,Stanislaus,332431,,6592411,NEI
nan,Northeast Nebraska Solid Waste Coalition (NNSWC),57220 825 RD,Clarkson,NE,68629,41.7838,-97.0909,Stanton,562212,,6898411,NEI
nan,G J Chemical Co Inc,128 Doremus Ave.,Newark,NJ,7105,40.7189,-74.16469999999998,Essex,42469,,7196011,NEI
nan,Cwc Industries Inc,185 Foundry St,Newark,NJ,7105,40.7278,-74.1333,Essex,325510,,7202411,NEI
nan,Poly Foam Intl Inc Style Crest Prods,600 Hagerty Dr.,Fremont,OH,None,41.3725,-83.11279999999998,Sandusky,32612,,7294511,NEI
nan,Gibson Tube Inc,100 Aspen Hill Rd.,North Branch,NJ,None,40.5656,-74.5647,Somerset,331210,,7493411,NEI
nan,Prestone Prods Corp,250 Halls Mill Rd.,Freehold,NJ,7728,40.25,-74.25,Monmouth,325998,,7541111,NEI
nan,Kennecott Utah Copper Mine Concentrators & Power Plant,12300 S. Utah Hwy. 111,Copperton,UT,84006,40.5167,-112.15,Salt Lake,212234,,7697611,NEI
nan,GE Advanced Ceramics,22557 W. Lunn Rd.,Strongsville,OH,44136,41.2997,-81.87919999999998,Cuyahoga,327120,,7750211,NEI
nan,Machinery Recovery Services/Convertapax,5539 Gundy Dr.,Midvale,OH,44653,40.4364,-81.3542,Tuscarawas,322220,,7769211,NEI
nan,Schmidt Progressive L L C,360 Harmon Ave.,Lebanon,OH,None,39.4517,-84.1911,Warren,32612,,7771811,NEI
nan,REPUBLIC STEEL LACKAWANNA,S3049 Lakeshore Rd.,Blasdell,NY,14219,42.8017,-78.8417,Erie,331110,,7797411,NEI
nan,Owens-Brockway Glass Container Inc Plant #35,Rd. #6 County House Rd.,Auburn,NY,13021,42.9614,-76.55419999999998,Cayuga,327213,,7805311,NEI
nan,Blazer Fabricating Inc,4466 Pinson Valley Parkway,Birmingham,AL,35215,33.4879,-86.7132,Jefferson,332313,,7919111,NEI
nan,Jmc (Usa) Inc,1 Innovation Dr.,Research Triangle Park,NC,27709,35.8333,-78.8756,Durham,331110,,8052711,NEI
nan,Trinity Inds Inc,425 E. O'Connor Ave.,Lima,OH,45801,40.7575,-84.0994,Allen,332812,,8102011,NEI
nan,Whemco Ohio Fndy Div Inc,1600 McClain Rd.,Lima,OH,45804,40.7146,-84.11,Allen,331511,,8103111,NEI
nan,"Newco Metals Processing, Inc.",4635 Peerless Road,Bedford,IN,47421,38.9216,-86.5202,Lawrence,331492,,8225511,NEI
nan,Btlsr Toledo Inc,2112 Sylvan Ave.,Toledo,OH,None,41.6583,-83.575,Lucas,325211,,8262511,NEI
nan,ASHLAND INC,2401 Doyle St.,Greensboro,NC,27406,36.0433,-79.7886,Guilford,325998,,8285711,NEI
nan,Columbus Chemical Industries Inc,N4335 Temkin Rd,Columbus,WI,53925,43.3511,-89.00069999999998,Dodge,42469,,8316411,NEI
nan,Kemmerer Mine,"SWNW Section 29, Township 21 N, Range 116 W",Lincoln County,WY,83101,41.7296,-110.606,Lincoln,21211,,8419311,NEI
nan,Bunzl Extrusion,764 South Athol Road,Athol,MA,1331,42.5842,-72.2497,Worcester,339999,,8510211,NEI
nan,HEARTHSIDE FOOD SOLUTIONS,312 Rader Rd.,Mc Comb,OH,45858,41.1114,-83.79989999999998,Hancock,311821,,8543911,NEI
nan,Valdez Marine Terminal,West End of Dayville Road,Valdez,AK,99686,61.0867,-146.396,Valdez-Cordova,488320,,865711,NEI
nan,J.R. SIMPLOT COMPANY,12688 SO. COLORADO AVE.,HELM,CA,93627,36.5486,-120.108,Fresno,325998,,8811,NEI
nan,Hexcel Corp,3300 Mallard Fox Dr.,Decatur,AL,35603,34.6555,-87.07089999999998,Morgan,325220,,884811,NEI
nan,Sherwin Alumina Lp,4633 Hwy 361,Gregory,TX,78359,27.8833,-97.2625,San Patricio,331313,,9143811,NEI
nan,Dunmore Corp,145 Wharton Rd,Bristol,PA,19007,40.1175,-74.88219999999998,Bucks,326199,,9245311,NEI
nan,MASCO CABINETRY,217 Lamoka Rd,Sayre,PA,18840,41.9902,-76.575,Bradford,33711,,9248011,NEI
nan,Robinson Nevada Mining Co,4232 W White Pine Co. Rd 44,Ruth,NV,89319,39.2708,-115.013,White Pine,212234,,9371711,NEI
nan,Conocophillips Co Gulf Coast Lubes Plant,None,None,LA,None,30.1488,-93.3451,Calcasieu,324191,,9607411,NEI
nan,HB Fuller Construction Products Inc,1105 S Frontenac,Aurora,IL,60504,41.7349,-88.2305,DuPage,325520,,9730311,NEI
nan,Emd Chemicals Inc.,110 Emd Blvd,Savannah,GA,31407,32.2004,-81.1714,Chatham,325180,,9752211,NEI
nan,W. M. Sheppard Lumber Co. Inc.,Hwy 80 E,Brooklet,GA,30415,32.3708,-81.6567,Bulloch,321999,,9757511,NEI
nan,Plummer Forest Products,732 10th St,Plummer,ID,83851,47.33,-116.88,Benewah,321999,,9774411,NEI
