FACILITY_ID,STKHGT,STKDIAM,STKTEMP,STKFLOW,STKVEL,UNIT_ID,PROCESS_ID,FacilityID,FacilityName,Address,City,State,Zip,Latitude,Longitude,County,NAICS,SIC
15490411,73,3.25,460,494.2,59.6,110639313,156411914,15490411,PRYOR CHEMICAL,4463 HUNT ST,PRYOR,OK,74362,36.2427,-95.2787,Mayes,325311,
15490411,78,2,105,,156.4,112094613,158386214,15490411,PRYOR CHEMICAL,4463 HUNT ST,PRYOR,OK,74362,36.2427,-95.2787,Mayes,325311,
15490411,101,2.5,675,,181.1,112094513,158386114,15490411,PRYOR CHEMICAL,4463 HUNT ST,PRYOR,OK,74362,36.2427,-95.2787,Mayes,325311,
15490411,30,2.98,265,203.0166,29.096,97007913,135224614,15490411,PRYOR CHEMICAL,4463 HUNT ST,PRYOR,OK,74362,36.2427,-95.2787,Mayes,325311,
15490411,24,.33,180,0.9116,10.66,97007813,135224514,15490411,PRYOR CHEMICAL,4463 HUNT ST,PRYOR,OK,74362,36.2427,-95.2787,Mayes,325311,
15490411,22,.5,180,0.9116,4.6,97007813,135224514,15490411,PRYOR CHEMICAL,4463 HUNT ST,PRYOR,OK,74362,36.2427,-95.2787,Mayes,325311,
15490411,73,3.25,460,494.2,59.6,97008413,135225214,15490411,PRYOR CHEMICAL,4463 HUNT ST,PRYOR,OK,74362,36.2427,-95.2787,Mayes,325311,
15490411,52,4.25,360,79.85,5.57,112094413,158386014,15490411,PRYOR CHEMICAL,4463 HUNT ST,PRYOR,OK,74362,36.2427,-95.2787,Mayes,325311,
15490411,15,.5,225,6.1666,31.3939,112094213,158385814,15490411,PRYOR CHEMICAL,4463 HUNT ST,PRYOR,OK,74362,36.2427,-95.2787,Mayes,325311,
15490411,91,.5,62,0.005,.0254,112093913,158385514,15490411,PRYOR CHEMICAL,4463 HUNT ST,PRYOR,OK,74362,36.2427,-95.2787,Mayes,325311,
15490411,,,,,,112093813,158385414,15490411,PRYOR CHEMICAL,4463 HUNT ST,PRYOR,OK,74362,36.2427,-95.2787,Mayes,325311,
15490411,63,2.5,550,,55,97008713,135225514,15490411,PRYOR CHEMICAL,4463 HUNT ST,PRYOR,OK,74362,36.2427,-95.2787,Mayes,325311,
15490411,38,1.1,90,175.0,177.63,97008513,135225314,15490411,PRYOR CHEMICAL,4463 HUNT ST,PRYOR,OK,74362,36.2427,-95.2787,Mayes,325311,
15490411,,,,,,97008213,135224914,15490411,PRYOR CHEMICAL,4463 HUNT ST,PRYOR,OK,74362,36.2427,-95.2787,Mayes,325311,
15490411,,,,,,97008113,135224814,15490411,PRYOR CHEMICAL,4463 HUNT ST,PRYOR,OK,74362,36.2427,-95.2787,Mayes,325311,
15490411,24,3.5,372,205.3666,21.84,97008013,135224714,15490411,PRYOR CHEMICAL,4463 HUNT ST,PRYOR,OK,74362,36.2427,-95.2787,Mayes,325311,
15490411,35,2.7,400,56.6666,9.54,97008613,135225414,15490411,PRYOR CHEMICAL,4463 HUNT ST,PRYOR,OK,74362,36.2427,-95.2787,Mayes,325311,
15490411,15,.5,220,6.1666,31.3939,97008313,135225114,15490411,PRYOR CHEMICAL,4463 HUNT ST,PRYOR,OK,74362,36.2427,-95.2787,Mayes,325311,
15490411,70,5.75,360,1166.6666,45,97008313,135225114,15490411,PRYOR CHEMICAL,4463 HUNT ST,PRYOR,OK,74362,36.2427,-95.2787,Mayes,325311,
15490411,35,2.7,400,56.6666,9.54,97008913,135225714,15490411,PRYOR CHEMICAL,4463 HUNT ST,PRYOR,OK,74362,36.2427,-95.2787,Mayes,325311,
15490411,,,,,,97008813,135225614,15490411,PRYOR CHEMICAL,4463 HUNT ST,PRYOR,OK,74362,36.2427,-95.2787,Mayes,325311,
15490411,,,,,,104931513,149044014,15490411,PRYOR CHEMICAL,4463 HUNT ST,PRYOR,OK,74362,36.2427,-95.2787,Mayes,325311,
15490411,35,2.7,400,56.6666,9.54,104931513,149043914,15490411,PRYOR CHEMICAL,4463 HUNT ST,PRYOR,OK,74362,36.2427,-95.2787,Mayes,325311,
2444211,176,1.67,175,180.0,82.1438,110667313,156439914,2444211,Rentech Energy Midwest Corp,16675 Highway 20 W,East Dubuque,IL,61025,42.4435,-90.5561,Jo Daviess,325311,
2444211,33,.33,69,0.0333,.3895,127043413,182541814,2444211,Rentech Energy Midwest Corp,16675 Highway 20 W,East Dubuque,IL,61025,42.4435,-90.5561,Jo Daviess,325311,
2444211,28,5,387,1233.0,62.7709,127043313,182541714,2444211,Rentech Energy Midwest Corp,16675 Highway 20 W,East Dubuque,IL,61025,42.4435,-90.5561,Jo Daviess,325311,
2444211,50,3.1,650,352.7166,46.713,59844813,85853614,2444211,Rentech Energy Midwest Corp,16675 Highway 20 W,East Dubuque,IL,61025,42.4435,-90.5561,Jo Daviess,325311,
2444211,166,1.9,1600,248.3333,87.5514,59844613,182541614,2444211,Rentech Energy Midwest Corp,16675 Highway 20 W,East Dubuque,IL,61025,42.4435,-90.5561,Jo Daviess,325311,
2444211,166,1.9,1600,248.3333,87.5514,59844613,85854314,2444211,Rentech Energy Midwest Corp,16675 Highway 20 W,East Dubuque,IL,61025,42.4435,-90.5561,Jo Daviess,325311,
2444211,50,4.5,500,445.0,27.9685,59844413,85853814,2444211,Rentech Energy Midwest Corp,16675 Highway 20 W,East Dubuque,IL,61025,42.4435,-90.5561,Jo Daviess,325311,
2444211,40,1.33,202,61.3333,44.1294,59844113,85854114,2444211,Rentech Energy Midwest Corp,16675 Highway 20 W,East Dubuque,IL,61025,42.4435,-90.5561,Jo Daviess,325311,
2444211,99,2.25,152,257.5,64.7362,59844013,85854014,2444211,Rentech Energy Midwest Corp,16675 Highway 20 W,East Dubuque,IL,61025,42.4435,-90.5561,Jo Daviess,325311,
2444211,80,3.33,400,178.1333,20.4452,40223813,45348914,2444211,Rentech Energy Midwest Corp,16675 Highway 20 W,East Dubuque,IL,61025,42.4435,-90.5561,Jo Daviess,325311,
2444211,147,1.67,212,183.3333,83.665,40223713,45349014,2444211,Rentech Energy Midwest Corp,16675 Highway 20 W,East Dubuque,IL,61025,42.4435,-90.5561,Jo Daviess,325311,
2444211,103,4.5,510,1366.6666,85.8959,40223513,45349214,2444211,Rentech Energy Midwest Corp,16675 Highway 20 W,East Dubuque,IL,61025,42.4435,-90.5561,Jo Daviess,325311,
2444211,103,4.5,548,1366.6666,85.8959,40223513,45349214,2444211,Rentech Energy Midwest Corp,16675 Highway 20 W,East Dubuque,IL,61025,42.4435,-90.5561,Jo Daviess,325311,
2444211,25,5.1,500,300.0,14.6796,40223413,45349314,2444211,Rentech Energy Midwest Corp,16675 Highway 20 W,East Dubuque,IL,61025,42.4435,-90.5561,Jo Daviess,325311,
2444211,176,1.67,175,180.0,82.1438,40223313,45349414,2444211,Rentech Energy Midwest Corp,16675 Highway 20 W,East Dubuque,IL,61025,42.4435,-90.5561,Jo Daviess,325311,
2444211,40,1.33,202,61.3333,44.1294,40223113,45349614,2444211,Rentech Energy Midwest Corp,16675 Highway 20 W,East Dubuque,IL,61025,42.4435,-90.5561,Jo Daviess,325311,
2444211,146,1.5,212,150.0,84.8484,40222913,182541514,2444211,Rentech Energy Midwest Corp,16675 Highway 20 W,East Dubuque,IL,61025,42.4435,-90.5561,Jo Daviess,325311,
2444211,146,1.5,212,150.0,84.8484,40222913,45349814,2444211,Rentech Energy Midwest Corp,16675 Highway 20 W,East Dubuque,IL,61025,42.4435,-90.5561,Jo Daviess,325311,
2444211,50,4.5,400,900.0,56.5656,40222313,45350414,2444211,Rentech Energy Midwest Corp,16675 Highway 20 W,East Dubuque,IL,61025,42.4435,-90.5561,Jo Daviess,325311,
2444211,74,3.78,416,329.0,29.3054,125337913,179118014,2444211,Rentech Energy Midwest Corp,16675 Highway 20 W,East Dubuque,IL,61025,42.4435,-90.5561,Jo Daviess,325311,
2444211,20,.33,69,0.0333,.3895,59844213,85854214,2444211,Rentech Energy Midwest Corp,16675 Highway 20 W,East Dubuque,IL,61025,42.4435,-90.5561,Jo Daviess,325311,
2444211,15,.5,1600,16.6666,84.8484,59844513,85853914,2444211,Rentech Energy Midwest Corp,16675 Highway 20 W,East Dubuque,IL,61025,42.4435,-90.5561,Jo Daviess,325311,
2444211,90,3.42,233,498.3333,54.2254,40224013,45348714,2444211,Rentech Energy Midwest Corp,16675 Highway 20 W,East Dubuque,IL,61025,42.4435,-90.5561,Jo Daviess,325311,
2444211,176,3.5,600,117.4166,12.1991,59844313,85853714,2444211,Rentech Energy Midwest Corp,16675 Highway 20 W,East Dubuque,IL,61025,42.4435,-90.5561,Jo Daviess,325311,
2444211,22,1.5,400,18.3333,10.3703,40223613,45349114,2444211,Rentech Energy Midwest Corp,16675 Highway 20 W,East Dubuque,IL,61025,42.4435,-90.5561,Jo Daviess,325311,
2444211,49,1.13,900,86.6666,86.3834,40224413,45348314,2444211,Rentech Energy Midwest Corp,16675 Highway 20 W,East Dubuque,IL,61025,42.4435,-90.5561,Jo Daviess,325311,
4956711,216,6.91,130,2392.97,63.7846,110766313,156538914,4956711,Rock Springs Fertilizer Complex,"NW Sec. 15, T18N, R104W",Sweetwater County,WY,82935,41.5383,-109.128,Sweetwater,325312,
4956711,70,2,752,206.0884,65.6,129343813,187263414,4956711,Rock Springs Fertilizer Complex,"NW Sec. 15, T18N, R104W",Sweetwater County,WY,82935,41.5383,-109.128,Sweetwater,325312,
4956711,50,5,507,541.1393,27.56,120556713,172182914,4956711,Rock Springs Fertilizer Complex,"NW Sec. 15, T18N, R104W",Sweetwater County,WY,82935,41.5383,-109.128,Sweetwater,325312,
4956711,150,6.58,345,2242.284,65.94,120557613,172183814,4956711,Rock Springs Fertilizer Complex,"NW Sec. 15, T18N, R104W",Sweetwater County,WY,82935,41.5383,-109.128,Sweetwater,325312,
4956711,112,2.35,68,108.434,25,120556613,172182814,4956711,Rock Springs Fertilizer Complex,"NW Sec. 15, T18N, R104W",Sweetwater County,WY,82935,41.5383,-109.128,Sweetwater,325312,
4956711,198,5.9,170,1982.4024,72.51,120556813,172183014,4956711,Rock Springs Fertilizer Complex,"NW Sec. 15, T18N, R104W",Sweetwater County,WY,82935,41.5383,-109.128,Sweetwater,325312,
4956711,125,2.17,70,92.459,25,120557113,172183314,4956711,Rock Springs Fertilizer Complex,"NW Sec. 15, T18N, R104W",Sweetwater County,WY,82935,41.5383,-109.128,Sweetwater,325312,
4956711,,,,,,120557313,172183514,4956711,Rock Springs Fertilizer Complex,"NW Sec. 15, T18N, R104W",Sweetwater County,WY,82935,41.5383,-109.128,Sweetwater,325312,
4956711,,,,,,120558013,172184214,4956711,Rock Springs Fertilizer Complex,"NW Sec. 15, T18N, R104W",Sweetwater County,WY,82935,41.5383,-109.128,Sweetwater,325312,
4956711,15,.5,1,0.1963,1,120558313,172184514,4956711,Rock Springs Fertilizer Complex,"NW Sec. 15, T18N, R104W",Sweetwater County,WY,82935,41.5383,-109.128,Sweetwater,325312,
4956711,20,.5,100,4.9087,25,120558413,172184614,4956711,Rock Springs Fertilizer Complex,"NW Sec. 15, T18N, R104W",Sweetwater County,WY,82935,41.5383,-109.128,Sweetwater,325312,
4956711,255,3.8,1831,743.3333,65.6,129344213,187263814,4956711,Rock Springs Fertilizer Complex,"NW Sec. 15, T18N, R104W",Sweetwater County,WY,82935,41.5383,-109.128,Sweetwater,325312,
4956711,,,,,,120557413,172183614,4956711,Rock Springs Fertilizer Complex,"NW Sec. 15, T18N, R104W",Sweetwater County,WY,82935,41.5383,-109.128,Sweetwater,325312,
4956711,38,.5,70,4.9087,25,120557513,172183714,4956711,Rock Springs Fertilizer Complex,"NW Sec. 15, T18N, R104W",Sweetwater County,WY,82935,41.5383,-109.128,Sweetwater,325312,
4956711,1,1,1,9.0006,11.46,120557813,172184014,4956711,Rock Springs Fertilizer Complex,"NW Sec. 15, T18N, R104W",Sweetwater County,WY,82935,41.5383,-109.128,Sweetwater,325312,
4956711,216,4,103,669.7875,53.3,120557913,172184114,4956711,Rock Springs Fertilizer Complex,"NW Sec. 15, T18N, R104W",Sweetwater County,WY,82935,41.5383,-109.128,Sweetwater,325312,
4956711,100,1,200,2.55,3.25,120558113,172184314,4956711,Rock Springs Fertilizer Complex,"NW Sec. 15, T18N, R104W",Sweetwater County,WY,82935,41.5383,-109.128,Sweetwater,325312,
4956711,15,.2,1,0.36,11.46,120558213,172184414,4956711,Rock Springs Fertilizer Complex,"NW Sec. 15, T18N, R104W",Sweetwater County,WY,82935,41.5383,-109.128,Sweetwater,325312,
4956711,198,9.74,156,1163.8281,15.62,120557713,172183914,4956711,Rock Springs Fertilizer Complex,"NW Sec. 15, T18N, R104W",Sweetwater County,WY,82935,41.5383,-109.128,Sweetwater,325312,
4956711,20,1,500,78.5398,100,120558513,172184714,4956711,Rock Springs Fertilizer Complex,"NW Sec. 15, T18N, R104W",Sweetwater County,WY,82935,41.5383,-109.128,Sweetwater,325312,
4956711,6,.25,1225,4.9087,100,120556413,172182614,4956711,Rock Springs Fertilizer Complex,"NW Sec. 15, T18N, R104W",Sweetwater County,WY,82935,41.5383,-109.128,Sweetwater,325312,
4956711,216,3.5,90,353.0953,36.7,124654913,177542714,4956711,Rock Springs Fertilizer Complex,"NW Sec. 15, T18N, R104W",Sweetwater County,WY,82935,41.5383,-109.128,Sweetwater,325312,
4956711,,,,,,120557013,172183214,4956711,Rock Springs Fertilizer Complex,"NW Sec. 15, T18N, R104W",Sweetwater County,WY,82935,41.5383,-109.128,Sweetwater,325312,
4956711,74,.5,70,2.2501,11.46,120557213,172183414,4956711,Rock Springs Fertilizer Complex,"NW Sec. 15, T18N, R104W",Sweetwater County,WY,82935,41.5383,-109.128,Sweetwater,325312,
4956711,216,3.5,95,423.3296,44,120556513,172182714,4956711,Rock Springs Fertilizer Complex,"NW Sec. 15, T18N, R104W",Sweetwater County,WY,82935,41.5383,-109.128,Sweetwater,325312,
4956711,216,6.92,141,2414.555,64.2,120556913,172183114,4956711,Rock Springs Fertilizer Complex,"NW Sec. 15, T18N, R104W",Sweetwater County,WY,82935,41.5383,-109.128,Sweetwater,325312,
4956711,100,8.2,275,2480.8333,47,129343513,187263114,4956711,Rock Springs Fertilizer Complex,"NW Sec. 15, T18N, R104W",Sweetwater County,WY,82935,41.5383,-109.128,Sweetwater,325312,
4956711,246,3.2,1831,527.5865,65.6,129343613,187263214,4956711,Rock Springs Fertilizer Complex,"NW Sec. 15, T18N, R104W",Sweetwater County,WY,82935,41.5383,-109.128,Sweetwater,325312,
4956711,255,3.8,1831,743.3333,65.6,129343713,187263314,4956711,Rock Springs Fertilizer Complex,"NW Sec. 15, T18N, R104W",Sweetwater County,WY,82935,41.5383,-109.128,Sweetwater,325312,
4956711,25,.5,223,15.9,81.1,129343913,187263514,4956711,Rock Springs Fertilizer Complex,"NW Sec. 15, T18N, R104W",Sweetwater County,WY,82935,41.5383,-109.128,Sweetwater,325312,
4956711,,,,,,129344013,187263614,4956711,Rock Springs Fertilizer Complex,"NW Sec. 15, T18N, R104W",Sweetwater County,WY,82935,41.5383,-109.128,Sweetwater,325312,
4956711,246,3.2,1831,527.5865,65.6,129344113,187263714,4956711,Rock Springs Fertilizer Complex,"NW Sec. 15, T18N, R104W",Sweetwater County,WY,82935,41.5383,-109.128,Sweetwater,325312,
4956711,216,4,103,669.7875,53.3,124655013,177542814,4956711,Rock Springs Fertilizer Complex,"NW Sec. 15, T18N, R104W",Sweetwater County,WY,82935,41.5383,-109.128,Sweetwater,325312,
4956711,25,.3,908,2.1166,30,129343413,187263014,4956711,Rock Springs Fertilizer Complex,"NW Sec. 15, T18N, R104W",Sweetwater County,WY,82935,41.5383,-109.128,Sweetwater,325312,
7001211,180,4.5,73,1382.2,86.9,110896313,156668914,7001211,Fertilizer Plant,"Sec 16-17, T13N, R67W",Laramie County,WY,82001,41.0937,-104.909,Laramie,32531,
7001211,70,5.31,450,406.6666,18.24,120476213,172100514,7001211,Fertilizer Plant,"Sec 16-17, T13N, R67W",Laramie County,WY,82001,41.0937,-104.909,Laramie,32531,
7001211,70,1.08,450,15.5,16.8,120476713,172101014,7001211,Fertilizer Plant,"Sec 16-17, T13N, R67W",Laramie County,WY,82001,41.0937,-104.909,Laramie,32531,
7001211,70,5.31,450,406.6666,18.2,120476113,172100414,7001211,Fertilizer Plant,"Sec 16-17, T13N, R67W",Laramie County,WY,82001,41.0937,-104.909,Laramie,32531,
7001211,92,6.5,104,1028.9,31.2,120477013,172101314,7001211,Fertilizer Plant,"Sec 16-17, T13N, R67W",Laramie County,WY,82001,41.0937,-104.909,Laramie,32531,
7001211,120.8,4.42,463,1235.0,80.5,120475413,172099714,7001211,Fertilizer Plant,"Sec 16-17, T13N, R67W",Laramie County,WY,82001,41.0937,-104.909,Laramie,32531,
7001211,50.7,20,95,10524.3335,33.5,120475613,172099914,7001211,Fertilizer Plant,"Sec 16-17, T13N, R67W",Laramie County,WY,82001,41.0937,-104.909,Laramie,32531,
7001211,54.5,4.65,140,847.3166,50,120475313,172099614,7001211,Fertilizer Plant,"Sec 16-17, T13N, R67W",Laramie County,WY,82001,41.0937,-104.909,Laramie,32531,
7001211,165,3,428,1515.1166,214.3,120475913,172100214,7001211,Fertilizer Plant,"Sec 16-17, T13N, R67W",Laramie County,WY,82001,41.0937,-104.909,Laramie,32531,
7001211,15,.63,806,25.3333,81.3,120476613,172100914,7001211,Fertilizer Plant,"Sec 16-17, T13N, R67W",Laramie County,WY,82001,41.0937,-104.909,Laramie,32531,
7001211,12,.4,973,28.6513,228,124641213,177525714,7001211,Fertilizer Plant,"Sec 16-17, T13N, R67W",Laramie County,WY,82001,41.0937,-104.909,Laramie,32531,
7001211,34,.25,110,0.7363,15,120477113,172101414,7001211,Fertilizer Plant,"Sec 16-17, T13N, R67W",Laramie County,WY,82001,41.0937,-104.909,Laramie,32531,
7001211,8,.33,1,0.0855,1,124641113,177525614,7001211,Fertilizer Plant,"Sec 16-17, T13N, R67W",Laramie County,WY,82001,41.0937,-104.909,Laramie,32531,
7001211,30,.5,1,0.1963,1,124641313,177525814,7001211,Fertilizer Plant,"Sec 16-17, T13N, R67W",Laramie County,WY,82001,41.0937,-104.909,Laramie,32531,
7001211,10,.5,1,2.2501,11.46,129339813,187258414,7001211,Fertilizer Plant,"Sec 16-17, T13N, R67W",Laramie County,WY,82001,41.0937,-104.909,Laramie,32531,
7001211,10,.5,1,2.2501,11.46,129340513,187259114,7001211,Fertilizer Plant,"Sec 16-17, T13N, R67W",Laramie County,WY,82001,41.0937,-104.909,Laramie,32531,
7001211,10,.5,1,2.2501,11.46,129340613,187259214,7001211,Fertilizer Plant,"Sec 16-17, T13N, R67W",Laramie County,WY,82001,41.0937,-104.909,Laramie,32531,
7001211,10,.5,1,2.2501,11.46,129339913,187258514,7001211,Fertilizer Plant,"Sec 16-17, T13N, R67W",Laramie County,WY,82001,41.0937,-104.909,Laramie,32531,
7001211,10,.5,1,2.2501,11.46,129340013,187258614,7001211,Fertilizer Plant,"Sec 16-17, T13N, R67W",Laramie County,WY,82001,41.0937,-104.909,Laramie,32531,
7001211,10,.5,1,2.2501,11.46,129340113,187258714,7001211,Fertilizer Plant,"Sec 16-17, T13N, R67W",Laramie County,WY,82001,41.0937,-104.909,Laramie,32531,
7001211,10,.5,1,2.2501,11.46,129340213,187258814,7001211,Fertilizer Plant,"Sec 16-17, T13N, R67W",Laramie County,WY,82001,41.0937,-104.909,Laramie,32531,
7001211,10,.5,1,2.2501,11.46,129340313,187258914,7001211,Fertilizer Plant,"Sec 16-17, T13N, R67W",Laramie County,WY,82001,41.0937,-104.909,Laramie,32531,
7001211,10,.5,1,2.2501,11.46,129340413,187259014,7001211,Fertilizer Plant,"Sec 16-17, T13N, R67W",Laramie County,WY,82001,41.0937,-104.909,Laramie,32531,
7001211,44,5.51,415,1308.8333,55,120476813,172101114,7001211,Fertilizer Plant,"Sec 16-17, T13N, R67W",Laramie County,WY,82001,41.0937,-104.909,Laramie,32531,
7001211,180,4.5,74,1348.6857,84.8,120476913,172101214,7001211,Fertilizer Plant,"Sec 16-17, T13N, R67W",Laramie County,WY,82001,41.0937,-104.909,Laramie,32531,
7001211,,,,,,120477213,172101514,7001211,Fertilizer Plant,"Sec 16-17, T13N, R67W",Laramie County,WY,82001,41.0937,-104.909,Laramie,32531,
7001211,44,5.51,415,1308.8333,55,120477313,172101614,7001211,Fertilizer Plant,"Sec 16-17, T13N, R67W",Laramie County,WY,82001,41.0937,-104.909,Laramie,32531,
7001211,18,.25,1,0.103,2.1,120477413,172101714,7001211,Fertilizer Plant,"Sec 16-17, T13N, R67W",Laramie County,WY,82001,41.0937,-104.909,Laramie,32531,
7001211,81,3,239,867.3666,122.7,120475513,172099814,7001211,Fertilizer Plant,"Sec 16-17, T13N, R67W",Laramie County,WY,82001,41.0937,-104.909,Laramie,32531,
7001211,31,27.99,95,15824.8336,25.72,120475713,172100014,7001211,Fertilizer Plant,"Sec 16-17, T13N, R67W",Laramie County,WY,82001,41.0937,-104.909,Laramie,32531,
7001211,31,27.99,95,15824.8336,25.72,120475813,172100114,7001211,Fertilizer Plant,"Sec 16-17, T13N, R67W",Laramie County,WY,82001,41.0937,-104.909,Laramie,32531,
7001211,18,.5,1495,32.35,165,120476313,172100614,7001211,Fertilizer Plant,"Sec 16-17, T13N, R67W",Laramie County,WY,82001,41.0937,-104.909,Laramie,32531,
7001211,18,.5,1495,32.35,165,120476413,172100714,7001211,Fertilizer Plant,"Sec 16-17, T13N, R67W",Laramie County,WY,82001,41.0937,-104.909,Laramie,32531,
7001211,10,.5,1,0.1767,.9,129339313,187257914,7001211,Fertilizer Plant,"Sec 16-17, T13N, R67W",Laramie County,WY,82001,41.0937,-104.909,Laramie,32531,
7001211,10,.5,1,2.2501,11.46,129339413,187258014,7001211,Fertilizer Plant,"Sec 16-17, T13N, R67W",Laramie County,WY,82001,41.0937,-104.909,Laramie,32531,
7001211,10,.5,1,0.1767,.9,129339513,187258114,7001211,Fertilizer Plant,"Sec 16-17, T13N, R67W",Laramie County,WY,82001,41.0937,-104.909,Laramie,32531,
7001211,10,.5,1,2.2501,11.46,129339613,187258214,7001211,Fertilizer Plant,"Sec 16-17, T13N, R67W",Laramie County,WY,82001,41.0937,-104.909,Laramie,32531,
7001211,10,.5,1,2.2501,11.46,129339713,187258314,7001211,Fertilizer Plant,"Sec 16-17, T13N, R67W",Laramie County,WY,82001,41.0937,-104.909,Laramie,32531,
7212911,115,4.42,100,,5,110911513,156684114,7212911,Cherokee Nitrogen Company,1080 Industrial Drive,Cherokee,AL,35616,34.8066,-87.93689999999998,Colbert,325311,
7212911,,,,,,10816513,67630214,7212911,Cherokee Nitrogen Company,1080 Industrial Drive,Cherokee,AL,35616,34.8066,-87.93689999999998,Colbert,325311,
7212911,78.6,4.4,299,621.7,40.1,10816513,67630314,7212911,Cherokee Nitrogen Company,1080 Industrial Drive,Cherokee,AL,35616,34.8066,-87.93689999999998,Colbert,325311,
7212911,40,3.5,537,623.3333,65,10817013,61091014,7212911,Cherokee Nitrogen Company,1080 Industrial Drive,Cherokee,AL,35616,34.8066,-87.93689999999998,Colbert,325311,
7212911,23,2,478,92.5333,29.46,107438313,152251214,7212911,Cherokee Nitrogen Company,1080 Industrial Drive,Cherokee,AL,35616,34.8066,-87.93689999999998,Colbert,325311,
7212911,115,4.42,100,,5,10816613,61091414,7212911,Cherokee Nitrogen Company,1080 Industrial Drive,Cherokee,AL,35616,34.8066,-87.93689999999998,Colbert,325311,
7212911,62,3.33,85,500.0,57.5,10816613,61091514,7212911,Cherokee Nitrogen Company,1080 Industrial Drive,Cherokee,AL,35616,34.8066,-87.93689999999998,Colbert,325311,
7212911,56,3.8,102,862.3333,76.04,10816613,61091614,7212911,Cherokee Nitrogen Company,1080 Industrial Drive,Cherokee,AL,35616,34.8066,-87.93689999999998,Colbert,325311,
7212911,70,.5,400,,1500,10816713,61091314,7212911,Cherokee Nitrogen Company,1080 Industrial Drive,Cherokee,AL,35616,34.8066,-87.93689999999998,Colbert,325311,
7212911,26,.5,212,7.55,38.4,10816713,152251414,7212911,Cherokee Nitrogen Company,1080 Industrial Drive,Cherokee,AL,35616,34.8066,-87.93689999999998,Colbert,325311,
7212911,70,.5,250,8.0633,41.07,10816713,152251314,7212911,Cherokee Nitrogen Company,1080 Industrial Drive,Cherokee,AL,35616,34.8066,-87.93689999999998,Colbert,325311,
7212911,,,,,,10816913,146071114,7212911,Cherokee Nitrogen Company,1080 Industrial Drive,Cherokee,AL,35616,34.8066,-87.93689999999998,Colbert,325311,
7212911,100,4,305,,109.5,10817113,61090914,7212911,Cherokee Nitrogen Company,1080 Industrial Drive,Cherokee,AL,35616,34.8066,-87.93689999999998,Colbert,325311,
7212911,50.5,3.96,304,352.6166,28.8,107437913,152250814,7212911,Cherokee Nitrogen Company,1080 Industrial Drive,Cherokee,AL,35616,34.8066,-87.93689999999998,Colbert,325311,
7212911,45,1.67,210,131.6666,60.1,107438013,152250914,7212911,Cherokee Nitrogen Company,1080 Industrial Drive,Cherokee,AL,35616,34.8066,-87.93689999999998,Colbert,325311,
7212911,,,,,,107438113,152251014,7212911,Cherokee Nitrogen Company,1080 Industrial Drive,Cherokee,AL,35616,34.8066,-87.93689999999998,Colbert,325311,
7212911,13,.4,500,38.9638,310.06,107438213,152251114,7212911,Cherokee Nitrogen Company,1080 Industrial Drive,Cherokee,AL,35616,34.8066,-87.93689999999998,Colbert,325311,
7318611,119,3.3,244,,61,110922713,156695314,7318611,Koch Nitrogen Company LLC,21178 SW 89th Rd,Beatrice,NE,None,40.3191,-96.8414,Gage,325311,
7318611,71,8.76,332,2374.1167,39.5,114206313,160371514,7318611,Koch Nitrogen Company LLC,21178 SW 89th Rd,Beatrice,NE,None,40.3191,-96.8414,Gage,325311,
7318611,71,8.76,332,2374.1167,39.5,114206413,160371614,7318611,Koch Nitrogen Company LLC,21178 SW 89th Rd,Beatrice,NE,None,40.3191,-96.8414,Gage,325311,
7318611,71,8.76,332,2374.1167,39.5,8381713,24482914,7318611,Koch Nitrogen Company LLC,21178 SW 89th Rd,Beatrice,NE,None,40.3191,-96.8414,Gage,325311,
7318611,71,8.76,332,2374.1167,39.5,8381913,24482714,7318611,Koch Nitrogen Company LLC,21178 SW 89th Rd,Beatrice,NE,None,40.3191,-96.8414,Gage,325311,
7318611,71,8.76,332,2374.1167,39.5,8381513,24483114,7318611,Koch Nitrogen Company LLC,21178 SW 89th Rd,Beatrice,NE,None,40.3191,-96.8414,Gage,325311,
7318611,71,8.76,332,2374.1167,39.5,106577513,150953214,7318611,Koch Nitrogen Company LLC,21178 SW 89th Rd,Beatrice,NE,None,40.3191,-96.8414,Gage,325311,
7318611,71,8.76,332,2374.1167,39.5,8381013,24483614,7318611,Koch Nitrogen Company LLC,21178 SW 89th Rd,Beatrice,NE,None,40.3191,-96.8414,Gage,325311,
7318611,71,8.76,332,2374.1167,39.5,8380813,24483814,7318611,Koch Nitrogen Company LLC,21178 SW 89th Rd,Beatrice,NE,None,40.3191,-96.8414,Gage,325311,
7318611,71,8.76,332,2374.1167,39.5,8381613,24483014,7318611,Koch Nitrogen Company LLC,21178 SW 89th Rd,Beatrice,NE,None,40.3191,-96.8414,Gage,325311,
7318611,71,8.76,332,2374.1167,39.5,8381413,24483214,7318611,Koch Nitrogen Company LLC,21178 SW 89th Rd,Beatrice,NE,None,40.3191,-96.8414,Gage,325311,
7318611,71,8.76,332,2374.1167,39.5,8380913,24483714,7318611,Koch Nitrogen Company LLC,21178 SW 89th Rd,Beatrice,NE,None,40.3191,-96.8414,Gage,325311,
7318611,71,8.76,332,2374.1167,39.5,8380613,24484014,7318611,Koch Nitrogen Company LLC,21178 SW 89th Rd,Beatrice,NE,None,40.3191,-96.8414,Gage,325311,
7318611,71,8.76,332,2374.1167,39.5,87267813,118125514,7318611,Koch Nitrogen Company LLC,21178 SW 89th Rd,Beatrice,NE,None,40.3191,-96.8414,Gage,325311,
7318611,71,8.76,332,2374.1167,39.5,8381113,24483514,7318611,Koch Nitrogen Company LLC,21178 SW 89th Rd,Beatrice,NE,None,40.3191,-96.8414,Gage,325311,
7318611,71,8.76,332,2374.1167,39.5,8380713,24483914,7318611,Koch Nitrogen Company LLC,21178 SW 89th Rd,Beatrice,NE,None,40.3191,-96.8414,Gage,325311,
7318611,71,8.76,332,2374.1167,39.5,8381813,24482814,7318611,Koch Nitrogen Company LLC,21178 SW 89th Rd,Beatrice,NE,None,40.3191,-96.8414,Gage,325311,
7318611,71,8.76,332,2374.1167,39.5,8382013,24482614,7318611,Koch Nitrogen Company LLC,21178 SW 89th Rd,Beatrice,NE,None,40.3191,-96.8414,Gage,325311,
7318611,71,8.76,332,2374.1167,39.5,8382113,24482514,7318611,Koch Nitrogen Company LLC,21178 SW 89th Rd,Beatrice,NE,None,40.3191,-96.8414,Gage,325311,
7318611,71,8.76,332,2374.1167,39.5,8382313,24482314,7318611,Koch Nitrogen Company LLC,21178 SW 89th Rd,Beatrice,NE,None,40.3191,-96.8414,Gage,325311,
7318611,71,8.76,332,2374.1167,39.5,87268213,118125914,7318611,Koch Nitrogen Company LLC,21178 SW 89th Rd,Beatrice,NE,None,40.3191,-96.8414,Gage,325311,
7318611,71,8.76,332,2374.1167,39.5,87268413,118126114,7318611,Koch Nitrogen Company LLC,21178 SW 89th Rd,Beatrice,NE,None,40.3191,-96.8414,Gage,325311,
7318611,71,8.76,332,2374.1167,39.5,87268113,118125814,7318611,Koch Nitrogen Company LLC,21178 SW 89th Rd,Beatrice,NE,None,40.3191,-96.8414,Gage,325311,
7318611,71,8.76,332,2374.1167,39.5,8382513,24482114,7318611,Koch Nitrogen Company LLC,21178 SW 89th Rd,Beatrice,NE,None,40.3191,-96.8414,Gage,325311,
7318611,71,8.76,332,2374.1167,39.5,8382813,24481814,7318611,Koch Nitrogen Company LLC,21178 SW 89th Rd,Beatrice,NE,None,40.3191,-96.8414,Gage,325311,
7318611,71,8.76,332,2374.1167,39.5,8382413,24482214,7318611,Koch Nitrogen Company LLC,21178 SW 89th Rd,Beatrice,NE,None,40.3191,-96.8414,Gage,325311,
7318611,71,8.76,332,2374.1167,39.5,8382213,24482414,7318611,Koch Nitrogen Company LLC,21178 SW 89th Rd,Beatrice,NE,None,40.3191,-96.8414,Gage,325311,
7318611,71,8.76,332,2374.1167,39.5,87268613,118126314,7318611,Koch Nitrogen Company LLC,21178 SW 89th Rd,Beatrice,NE,None,40.3191,-96.8414,Gage,325311,
7318611,71,8.76,332,2374.1167,39.5,8381213,24483414,7318611,Koch Nitrogen Company LLC,21178 SW 89th Rd,Beatrice,NE,None,40.3191,-96.8414,Gage,325311,
7318611,71,8.76,332,2374.1167,39.5,8382913,24481714,7318611,Koch Nitrogen Company LLC,21178 SW 89th Rd,Beatrice,NE,None,40.3191,-96.8414,Gage,325311,
7318611,71,8.76,332,2374.1167,39.5,87268013,118125714,7318611,Koch Nitrogen Company LLC,21178 SW 89th Rd,Beatrice,NE,None,40.3191,-96.8414,Gage,325311,
7318611,71,8.76,332,2374.1167,39.5,8382713,24481914,7318611,Koch Nitrogen Company LLC,21178 SW 89th Rd,Beatrice,NE,None,40.3191,-96.8414,Gage,325311,
7318611,71,8.76,332,2374.1167,39.5,87267913,118125614,7318611,Koch Nitrogen Company LLC,21178 SW 89th Rd,Beatrice,NE,None,40.3191,-96.8414,Gage,325311,
7318611,71,8.76,332,2374.1167,39.5,87268313,118126014,7318611,Koch Nitrogen Company LLC,21178 SW 89th Rd,Beatrice,NE,None,40.3191,-96.8414,Gage,325311,
7318611,71,8.76,332,2374.1167,39.5,87268513,118126214,7318611,Koch Nitrogen Company LLC,21178 SW 89th Rd,Beatrice,NE,None,40.3191,-96.8414,Gage,325311,
7890711,2,174.5,11,290.0,2109.3,110980413,156753014,7890711,"KOCH NITROGEN COMPANY, LLC - FORT DODGE",3162 200TH ST,FORT DODGE,IA,50501,42.4989,-94.0179,Webster,325311,
7890711,2,31.8,20,110.0,8872.6416,111730313,157956214,7890711,"KOCH NITROGEN COMPANY, LLC - FORT DODGE",3162 200TH ST,FORT DODGE,IA,50501,42.4989,-94.0179,Webster,325311,
7890711,1,,,,,108878813,154180014,7890711,"KOCH NITROGEN COMPANY, LLC - FORT DODGE",3162 200TH ST,FORT DODGE,IA,50501,42.4989,-94.0179,Webster,325311,
7890711,2,1,1,68.0,.0166,108878613,154179714,7890711,"KOCH NITROGEN COMPANY, LLC - FORT DODGE",3162 200TH ST,FORT DODGE,IA,50501,42.4989,-94.0179,Webster,325311,
7890711,2,33,26,98.0,15287.0946,123591013,175836014,7890711,"KOCH NITROGEN COMPANY, LLC - FORT DODGE",3162 200TH ST,FORT DODGE,IA,50501,42.4989,-94.0179,Webster,325311,
7890711,1,,,,,125634913,180637014,7890711,"KOCH NITROGEN COMPANY, LLC - FORT DODGE",3162 200TH ST,FORT DODGE,IA,50501,42.4989,-94.0179,Webster,325311,
7890711,2,75,1,500.0,114.7169,88824213,120713714,7890711,"KOCH NITROGEN COMPANY, LLC - FORT DODGE",3162 200TH ST,FORT DODGE,IA,50501,42.4989,-94.0179,Webster,325311,
7890711,2,80,1.33,183.0,52.6,68206213,94096114,7890711,"KOCH NITROGEN COMPANY, LLC - FORT DODGE",3162 200TH ST,FORT DODGE,IA,50501,42.4989,-94.0179,Webster,325311,
7890711,2,125,3.5,260.0,1136.5666,68206113,183209614,7890711,"KOCH NITROGEN COMPANY, LLC - FORT DODGE",3162 200TH ST,FORT DODGE,IA,50501,42.4989,-94.0179,Webster,325311,
7890711,2,125,3.5,260.0,1136.5666,68206113,94096014,7890711,"KOCH NITROGEN COMPANY, LLC - FORT DODGE",3162 200TH ST,FORT DODGE,IA,50501,42.4989,-94.0179,Webster,325311,
7890711,2,14.7,.9,950.0,143.8166,68205813,183209514,7890711,"KOCH NITROGEN COMPANY, LLC - FORT DODGE",3162 200TH ST,FORT DODGE,IA,50501,42.4989,-94.0179,Webster,325311,
7890711,2,14.7,.9,950.0,143.8166,68205813,94095714,7890711,"KOCH NITROGEN COMPANY, LLC - FORT DODGE",3162 200TH ST,FORT DODGE,IA,50501,42.4989,-94.0179,Webster,325311,
7890711,2,50,2.5,500.0,164.2666,68205413,94095314,7890711,"KOCH NITROGEN COMPANY, LLC - FORT DODGE",3162 200TH ST,FORT DODGE,IA,50501,42.4989,-94.0179,Webster,325311,
7890711,3,44,.5,70.0,21.3333,68205113,94095014,7890711,"KOCH NITROGEN COMPANY, LLC - FORT DODGE",3162 200TH ST,FORT DODGE,IA,50501,42.4989,-94.0179,Webster,325311,
7890711,2,163,2.33,550.0,1333.9622,68204513,94094414,7890711,"KOCH NITROGEN COMPANY, LLC - FORT DODGE",3162 200TH ST,FORT DODGE,IA,50501,42.4989,-94.0179,Webster,325311,
7890711,2,86,2.5,170.0,325,68204313,94094214,7890711,"KOCH NITROGEN COMPANY, LLC - FORT DODGE",3162 200TH ST,FORT DODGE,IA,50501,42.4989,-94.0179,Webster,325311,
7890711,2,60,.9,1450.0,534.5597,68204113,120713114,7890711,"KOCH NITROGEN COMPANY, LLC - FORT DODGE",3162 200TH ST,FORT DODGE,IA,50501,42.4989,-94.0179,Webster,325311,
7890711,2,41.5,26,103.0,15703.8053,123590713,175833514,7890711,"KOCH NITROGEN COMPANY, LLC - FORT DODGE",3162 200TH ST,FORT DODGE,IA,50501,42.4989,-94.0179,Webster,325311,
7890711,5,27,.33,120.0,.3166,68206013,94095914,7890711,"KOCH NITROGEN COMPANY, LLC - FORT DODGE",3162 200TH ST,FORT DODGE,IA,50501,42.4989,-94.0179,Webster,325311,
7890711,2,15.5,.5,855.0,60.1666,68205513,94095414,7890711,"KOCH NITROGEN COMPANY, LLC - FORT DODGE",3162 200TH ST,FORT DODGE,IA,50501,42.4989,-94.0179,Webster,325311,
7890711,2,74,2.75,1420.0,265.6239,68205213,94095114,7890711,"KOCH NITROGEN COMPANY, LLC - FORT DODGE",3162 200TH ST,FORT DODGE,IA,50501,42.4989,-94.0179,Webster,325311,
7890711,2,163,2.33,550.0,1333.9622,68205013,94094914,7890711,"KOCH NITROGEN COMPANY, LLC - FORT DODGE",3162 200TH ST,FORT DODGE,IA,50501,42.4989,-94.0179,Webster,325311,
7890711,2,65.8,30,105.0,13659.4971,123590913,175835314,7890711,"KOCH NITROGEN COMPANY, LLC - FORT DODGE",3162 200TH ST,FORT DODGE,IA,50501,42.4989,-94.0179,Webster,325311,
7890711,2,60,.9,1450.0,534.5597,68204213,120713214,7890711,"KOCH NITROGEN COMPANY, LLC - FORT DODGE",3162 200TH ST,FORT DODGE,IA,50501,42.4989,-94.0179,Webster,325311,
7890711,2,50,2.5,500.0,164.2666,68205313,94095214,7890711,"KOCH NITROGEN COMPANY, LLC - FORT DODGE",3162 200TH ST,FORT DODGE,IA,50501,42.4989,-94.0179,Webster,325311,
7890711,3,67.6,.25,70.0,.2466,68204413,94094314,7890711,"KOCH NITROGEN COMPANY, LLC - FORT DODGE",3162 200TH ST,FORT DODGE,IA,50501,42.4989,-94.0179,Webster,325311,
7890711,2,127,12.17,315.0,3582.5472,68204613,94094514,7890711,"KOCH NITROGEN COMPANY, LLC - FORT DODGE",3162 200TH ST,FORT DODGE,IA,50501,42.4989,-94.0179,Webster,325311,
7890711,2,127,12.17,315.0,3582.5472,68204813,94094714,7890711,"KOCH NITROGEN COMPANY, LLC - FORT DODGE",3162 200TH ST,FORT DODGE,IA,50501,42.4989,-94.0179,Webster,325311,
8081811,305,5,397,6500.0001,331,111010713,156783314,8081811,COFFEYVILLE RESOURCES NITROGEN FERT.,701 E. MARTIN,COFFEYVILLE,KS,67337,37.0461,-95.6047,Montgomery,325311,
8081811,145,3,1250,537.2,76,108780013,154052314,8081811,COFFEYVILLE RESOURCES NITROGEN FERT.,701 E. MARTIN,COFFEYVILLE,KS,67337,37.0461,-95.6047,Montgomery,325311,
8081811,145,3,1250,537.2,76,108780013,154052414,8081811,COFFEYVILLE RESOURCES NITROGEN FERT.,701 E. MARTIN,COFFEYVILLE,KS,67337,37.0461,-95.6047,Montgomery,325311,
8081811,145,3,1250,537.2,76,108780013,154052514,8081811,COFFEYVILLE RESOURCES NITROGEN FERT.,701 E. MARTIN,COFFEYVILLE,KS,67337,37.0461,-95.6047,Montgomery,325311,
8081811,,,,,,6192013,37852914,8081811,COFFEYVILLE RESOURCES NITROGEN FERT.,701 E. MARTIN,COFFEYVILLE,KS,67337,37.0461,-95.6047,Montgomery,325311,
8081811,70,5.5,1420,490.0,21,6191513,37853414,8081811,COFFEYVILLE RESOURCES NITROGEN FERT.,701 E. MARTIN,COFFEYVILLE,KS,67337,37.0461,-95.6047,Montgomery,325311,
8081811,30,.25,77,3.6666,75,6191413,88528214,8081811,COFFEYVILLE RESOURCES NITROGEN FERT.,701 E. MARTIN,COFFEYVILLE,KS,67337,37.0461,-95.6047,Montgomery,325311,
8081811,30,.25,77,3.6666,75,6191413,88528014,8081811,COFFEYVILLE RESOURCES NITROGEN FERT.,701 E. MARTIN,COFFEYVILLE,KS,67337,37.0461,-95.6047,Montgomery,325311,
8081811,30,.25,77,3.6666,75,6191413,37853514,8081811,COFFEYVILLE RESOURCES NITROGEN FERT.,701 E. MARTIN,COFFEYVILLE,KS,67337,37.0461,-95.6047,Montgomery,325311,
8081811,30,.25,77,3.6666,75,6191413,88528114,8081811,COFFEYVILLE RESOURCES NITROGEN FERT.,701 E. MARTIN,COFFEYVILLE,KS,67337,37.0461,-95.6047,Montgomery,325311,
8081811,,,,,,6191313,154052814,8081811,COFFEYVILLE RESOURCES NITROGEN FERT.,701 E. MARTIN,COFFEYVILLE,KS,67337,37.0461,-95.6047,Montgomery,325311,
8081811,,,,,,6191313,37853614,8081811,COFFEYVILLE RESOURCES NITROGEN FERT.,701 E. MARTIN,COFFEYVILLE,KS,67337,37.0461,-95.6047,Montgomery,325311,
8081811,43,1.13,0,33.4358,33.34,6191313,88525714,8081811,COFFEYVILLE RESOURCES NITROGEN FERT.,701 E. MARTIN,COFFEYVILLE,KS,67337,37.0461,-95.6047,Montgomery,325311,
8081811,80,2.5,210,63.6666,13,6192113,37852614,8081811,COFFEYVILLE RESOURCES NITROGEN FERT.,701 E. MARTIN,COFFEYVILLE,KS,67337,37.0461,-95.6047,Montgomery,325311,
8081811,80,2.5,210,63.6666,13,6192113,37852714,8081811,COFFEYVILLE RESOURCES NITROGEN FERT.,701 E. MARTIN,COFFEYVILLE,KS,67337,37.0461,-95.6047,Montgomery,325311,
8081811,66,1.16,240,96.6666,90,6192313,37852414,8081811,COFFEYVILLE RESOURCES NITROGEN FERT.,701 E. MARTIN,COFFEYVILLE,KS,67337,37.0461,-95.6047,Montgomery,325311,
8081811,63,1.33,190,400.0,288,6192313,154052714,8081811,COFFEYVILLE RESOURCES NITROGEN FERT.,701 E. MARTIN,COFFEYVILLE,KS,67337,37.0461,-95.6047,Montgomery,325311,
8081811,50,3.67,582,301.3,29,6192213,37852514,8081811,COFFEYVILLE RESOURCES NITROGEN FERT.,701 E. MARTIN,COFFEYVILLE,KS,67337,37.0461,-95.6047,Montgomery,325311,
8081811,120,3.5,291,913.3333,95,63903713,88527514,8081811,COFFEYVILLE RESOURCES NITROGEN FERT.,701 E. MARTIN,COFFEYVILLE,KS,67337,37.0461,-95.6047,Montgomery,325311,
8081811,61,3.33,479,982.3166,113,63903713,154052614,8081811,COFFEYVILLE RESOURCES NITROGEN FERT.,701 E. MARTIN,COFFEYVILLE,KS,67337,37.0461,-95.6047,Montgomery,325311,
8081811,,,,,,63903813,88529014,8081811,COFFEYVILLE RESOURCES NITROGEN FERT.,701 E. MARTIN,COFFEYVILLE,KS,67337,37.0461,-95.6047,Montgomery,325311,
8081811,125,1.12,77,43.3333,44,63903813,88529314,8081811,COFFEYVILLE RESOURCES NITROGEN FERT.,701 E. MARTIN,COFFEYVILLE,KS,67337,37.0461,-95.6047,Montgomery,325311,
8081811,,,,,,63903813,88530414,8081811,COFFEYVILLE RESOURCES NITROGEN FERT.,701 E. MARTIN,COFFEYVILLE,KS,67337,37.0461,-95.6047,Montgomery,325311,
8081811,,,,,,63903813,88530114,8081811,COFFEYVILLE RESOURCES NITROGEN FERT.,701 E. MARTIN,COFFEYVILLE,KS,67337,37.0461,-95.6047,Montgomery,325311,
8081811,50,1,77,26.6666,34,63903813,88529714,8081811,COFFEYVILLE RESOURCES NITROGEN FERT.,701 E. MARTIN,COFFEYVILLE,KS,67337,37.0461,-95.6047,Montgomery,325311,
8081811,100,2,77,143.3333,46,63903813,88529914,8081811,COFFEYVILLE RESOURCES NITROGEN FERT.,701 E. MARTIN,COFFEYVILLE,KS,67337,37.0461,-95.6047,Montgomery,325311,
8081811,50,1,77,26.6666,34,63903813,88529614,8081811,COFFEYVILLE RESOURCES NITROGEN FERT.,701 E. MARTIN,COFFEYVILLE,KS,67337,37.0461,-95.6047,Montgomery,325311,
8081811,,,,,,63903813,88530614,8081811,COFFEYVILLE RESOURCES NITROGEN FERT.,701 E. MARTIN,COFFEYVILLE,KS,67337,37.0461,-95.6047,Montgomery,325311,
8081811,22,1.5,77,41.6666,24,63903813,88529214,8081811,COFFEYVILLE RESOURCES NITROGEN FERT.,701 E. MARTIN,COFFEYVILLE,KS,67337,37.0461,-95.6047,Montgomery,325311,
8081811,50,1,77,26.6666,34,63903813,88529414,8081811,COFFEYVILLE RESOURCES NITROGEN FERT.,701 E. MARTIN,COFFEYVILLE,KS,67337,37.0461,-95.6047,Montgomery,325311,
8081811,,,,,,63903813,88530314,8081811,COFFEYVILLE RESOURCES NITROGEN FERT.,701 E. MARTIN,COFFEYVILLE,KS,67337,37.0461,-95.6047,Montgomery,325311,
8081811,50,1,77,26.6666,34,63903813,88529514,8081811,COFFEYVILLE RESOURCES NITROGEN FERT.,701 E. MARTIN,COFFEYVILLE,KS,67337,37.0461,-95.6047,Montgomery,325311,
8081811,,,,,,63903813,88530014,8081811,COFFEYVILLE RESOURCES NITROGEN FERT.,701 E. MARTIN,COFFEYVILLE,KS,67337,37.0461,-95.6047,Montgomery,325311,
8081811,,,,,,63903813,88529114,8081811,COFFEYVILLE RESOURCES NITROGEN FERT.,701 E. MARTIN,COFFEYVILLE,KS,67337,37.0461,-95.6047,Montgomery,325311,
8081811,,,,,,63903813,88530214,8081811,COFFEYVILLE RESOURCES NITROGEN FERT.,701 E. MARTIN,COFFEYVILLE,KS,67337,37.0461,-95.6047,Montgomery,325311,
8081811,,,,,,63903813,88530514,8081811,COFFEYVILLE RESOURCES NITROGEN FERT.,701 E. MARTIN,COFFEYVILLE,KS,67337,37.0461,-95.6047,Montgomery,325311,
8081811,100,2,77,143.3333,46,63903813,88529814,8081811,COFFEYVILLE RESOURCES NITROGEN FERT.,701 E. MARTIN,COFFEYVILLE,KS,67337,37.0461,-95.6047,Montgomery,325311,
8081811,305,5,397,6500.0001,331,63904013,88532314,8081811,COFFEYVILLE RESOURCES NITROGEN FERT.,701 E. MARTIN,COFFEYVILLE,KS,67337,37.0461,-95.6047,Montgomery,325311,
8081811,305,5,397,6500.0001,331,63904013,88531614,8081811,COFFEYVILLE RESOURCES NITROGEN FERT.,701 E. MARTIN,COFFEYVILLE,KS,67337,37.0461,-95.6047,Montgomery,325311,
8081811,305,5,397,6500.0001,331,63904013,88531714,8081811,COFFEYVILLE RESOURCES NITROGEN FERT.,701 E. MARTIN,COFFEYVILLE,KS,67337,37.0461,-95.6047,Montgomery,325311,
8081811,305,5,397,6500.0001,331,63904013,88532414,8081811,COFFEYVILLE RESOURCES NITROGEN FERT.,701 E. MARTIN,COFFEYVILLE,KS,67337,37.0461,-95.6047,Montgomery,325311,
8081811,305,5,397,6500.0001,331,63904013,88531314,8081811,COFFEYVILLE RESOURCES NITROGEN FERT.,701 E. MARTIN,COFFEYVILLE,KS,67337,37.0461,-95.6047,Montgomery,325311,
8081811,305,5,397,6500.0001,331,63904013,88531214,8081811,COFFEYVILLE RESOURCES NITROGEN FERT.,701 E. MARTIN,COFFEYVILLE,KS,67337,37.0461,-95.6047,Montgomery,325311,
8081811,305,5,397,6500.0001,331,63904013,88531414,8081811,COFFEYVILLE RESOURCES NITROGEN FERT.,701 E. MARTIN,COFFEYVILLE,KS,67337,37.0461,-95.6047,Montgomery,325311,
8081811,305,5,397,6500.0001,331,63904013,88531814,8081811,COFFEYVILLE RESOURCES NITROGEN FERT.,701 E. MARTIN,COFFEYVILLE,KS,67337,37.0461,-95.6047,Montgomery,325311,
8081811,305,5,397,6500.0001,331,63904013,88531114,8081811,COFFEYVILLE RESOURCES NITROGEN FERT.,701 E. MARTIN,COFFEYVILLE,KS,67337,37.0461,-95.6047,Montgomery,325311,
8081811,305,5,397,6500.0001,331,63904013,88531514,8081811,COFFEYVILLE RESOURCES NITROGEN FERT.,701 E. MARTIN,COFFEYVILLE,KS,67337,37.0461,-95.6047,Montgomery,325311,
8081811,305,5,397,6500.0001,331,63904013,88532514,8081811,COFFEYVILLE RESOURCES NITROGEN FERT.,701 E. MARTIN,COFFEYVILLE,KS,67337,37.0461,-95.6047,Montgomery,325311,
8081811,305,5,397,6500.0001,331,63904013,88532114,8081811,COFFEYVILLE RESOURCES NITROGEN FERT.,701 E. MARTIN,COFFEYVILLE,KS,67337,37.0461,-95.6047,Montgomery,325311,
8081811,305,5,397,6500.0001,331,63904013,88531914,8081811,COFFEYVILLE RESOURCES NITROGEN FERT.,701 E. MARTIN,COFFEYVILLE,KS,67337,37.0461,-95.6047,Montgomery,325311,
8081811,305,5,397,6500.0001,331,63904013,88532014,8081811,COFFEYVILLE RESOURCES NITROGEN FERT.,701 E. MARTIN,COFFEYVILLE,KS,67337,37.0461,-95.6047,Montgomery,325311,
8081811,305,5,397,6500.0001,331,63904013,88532214,8081811,COFFEYVILLE RESOURCES NITROGEN FERT.,701 E. MARTIN,COFFEYVILLE,KS,67337,37.0461,-95.6047,Montgomery,325311,
8081811,75,2.5,210,63.6666,13,6191813,88526114,8081811,COFFEYVILLE RESOURCES NITROGEN FERT.,701 E. MARTIN,COFFEYVILLE,KS,67337,37.0461,-95.6047,Montgomery,325311,
8081811,,,,,,6191813,88525914,8081811,COFFEYVILLE RESOURCES NITROGEN FERT.,701 E. MARTIN,COFFEYVILLE,KS,67337,37.0461,-95.6047,Montgomery,325311,
8081811,128,.66,210,16.6666,48,6191813,88526514,8081811,COFFEYVILLE RESOURCES NITROGEN FERT.,701 E. MARTIN,COFFEYVILLE,KS,67337,37.0461,-95.6047,Montgomery,325311,
8081811,8,.66,210,18.85,54,6191813,88526314,8081811,COFFEYVILLE RESOURCES NITROGEN FERT.,701 E. MARTIN,COFFEYVILLE,KS,67337,37.0461,-95.6047,Montgomery,325311,
8081811,13,.83,210,5.65,10,6191813,88526214,8081811,COFFEYVILLE RESOURCES NITROGEN FERT.,701 E. MARTIN,COFFEYVILLE,KS,67337,37.0461,-95.6047,Montgomery,325311,
8081811,80,2.5,210,63.6666,13,6191813,88526614,8081811,COFFEYVILLE RESOURCES NITROGEN FERT.,701 E. MARTIN,COFFEYVILLE,KS,67337,37.0461,-95.6047,Montgomery,325311,
8081811,,,,,,6191813,88525814,8081811,COFFEYVILLE RESOURCES NITROGEN FERT.,701 E. MARTIN,COFFEYVILLE,KS,67337,37.0461,-95.6047,Montgomery,325311,
8081811,75,.5,210,7.55,39,6191813,37853114,8081811,COFFEYVILLE RESOURCES NITROGEN FERT.,701 E. MARTIN,COFFEYVILLE,KS,67337,37.0461,-95.6047,Montgomery,325311,
8081811,39,3,210,68.6666,10,6191813,88526414,8081811,COFFEYVILLE RESOURCES NITROGEN FERT.,701 E. MARTIN,COFFEYVILLE,KS,67337,37.0461,-95.6047,Montgomery,325311,
8081811,,,,,,6191813,88526714,8081811,COFFEYVILLE RESOURCES NITROGEN FERT.,701 E. MARTIN,COFFEYVILLE,KS,67337,37.0461,-95.6047,Montgomery,325311,
8081811,150,2,250,204.1666,65,6191613,88527714,8081811,COFFEYVILLE RESOURCES NITROGEN FERT.,701 E. MARTIN,COFFEYVILLE,KS,67337,37.0461,-95.6047,Montgomery,325311,
8081811,150,2,250,204.1666,65,6191613,37853314,8081811,COFFEYVILLE RESOURCES NITROGEN FERT.,701 E. MARTIN,COFFEYVILLE,KS,67337,37.0461,-95.6047,Montgomery,325311,
8081811,150,2,250,204.1666,65,6191613,88527814,8081811,COFFEYVILLE RESOURCES NITROGEN FERT.,701 E. MARTIN,COFFEYVILLE,KS,67337,37.0461,-95.6047,Montgomery,325311,
8081811,150,2,250,204.1666,65,6191613,88527914,8081811,COFFEYVILLE RESOURCES NITROGEN FERT.,701 E. MARTIN,COFFEYVILLE,KS,67337,37.0461,-95.6047,Montgomery,325311,
8081811,150,2,250,204.1666,65,6191613,88527614,8081811,COFFEYVILLE RESOURCES NITROGEN FERT.,701 E. MARTIN,COFFEYVILLE,KS,67337,37.0461,-95.6047,Montgomery,325311,
8081811,62,3.75,1200,110.0,10,6191713,37853214,8081811,COFFEYVILLE RESOURCES NITROGEN FERT.,701 E. MARTIN,COFFEYVILLE,KS,67337,37.0461,-95.6047,Montgomery,325311,
8081811,59,1,1074,471.24,600,6191713,154052914,8081811,COFFEYVILLE RESOURCES NITROGEN FERT.,701 E. MARTIN,COFFEYVILLE,KS,67337,37.0461,-95.6047,Montgomery,325311,
8081811,50,1,77,26.6666,34,63903913,88531014,8081811,COFFEYVILLE RESOURCES NITROGEN FERT.,701 E. MARTIN,COFFEYVILLE,KS,67337,37.0461,-95.6047,Montgomery,325311,
8081811,,,,,,63903913,88530814,8081811,COFFEYVILLE RESOURCES NITROGEN FERT.,701 E. MARTIN,COFFEYVILLE,KS,67337,37.0461,-95.6047,Montgomery,325311,
8081811,50,1,77,26.6666,34,63903913,88530914,8081811,COFFEYVILLE RESOURCES NITROGEN FERT.,701 E. MARTIN,COFFEYVILLE,KS,67337,37.0461,-95.6047,Montgomery,325311,
8081811,,,,,,63903913,88530714,8081811,COFFEYVILLE RESOURCES NITROGEN FERT.,701 E. MARTIN,COFFEYVILLE,KS,67337,37.0461,-95.6047,Montgomery,325311,
8081811,,,,,,6192413,88527314,8081811,COFFEYVILLE RESOURCES NITROGEN FERT.,701 E. MARTIN,COFFEYVILLE,KS,67337,37.0461,-95.6047,Montgomery,325311,
8081811,,,,,,6192413,88526814,8081811,COFFEYVILLE RESOURCES NITROGEN FERT.,701 E. MARTIN,COFFEYVILLE,KS,67337,37.0461,-95.6047,Montgomery,325311,
8081811,,,,,,6192413,88526914,8081811,COFFEYVILLE RESOURCES NITROGEN FERT.,701 E. MARTIN,COFFEYVILLE,KS,67337,37.0461,-95.6047,Montgomery,325311,
8081811,,,,,,6192413,88527214,8081811,COFFEYVILLE RESOURCES NITROGEN FERT.,701 E. MARTIN,COFFEYVILLE,KS,67337,37.0461,-95.6047,Montgomery,325311,
8081811,,,,,,6192413,88527414,8081811,COFFEYVILLE RESOURCES NITROGEN FERT.,701 E. MARTIN,COFFEYVILLE,KS,67337,37.0461,-95.6047,Montgomery,325311,
8081811,,,,,,6192413,37852314,8081811,COFFEYVILLE RESOURCES NITROGEN FERT.,701 E. MARTIN,COFFEYVILLE,KS,67337,37.0461,-95.6047,Montgomery,325311,
8081811,,,,,,6192413,88527114,8081811,COFFEYVILLE RESOURCES NITROGEN FERT.,701 E. MARTIN,COFFEYVILLE,KS,67337,37.0461,-95.6047,Montgomery,325311,
8081811,250,1.66,250,788.3333,361,63904113,88532614,8081811,COFFEYVILLE RESOURCES NITROGEN FERT.,701 E. MARTIN,COFFEYVILLE,KS,67337,37.0461,-95.6047,Montgomery,325311,
8081811,250,1.66,250,788.3333,361,63904113,88532714,8081811,COFFEYVILLE RESOURCES NITROGEN FERT.,701 E. MARTIN,COFFEYVILLE,KS,67337,37.0461,-95.6047,Montgomery,325311,
8081811,150,4,69,1041.6666,83,6192613,88528814,8081811,COFFEYVILLE RESOURCES NITROGEN FERT.,701 E. MARTIN,COFFEYVILLE,KS,67337,37.0461,-95.6047,Montgomery,325311,
8081811,150,4,69,1041.6666,83,6192613,37852114,8081811,COFFEYVILLE RESOURCES NITROGEN FERT.,701 E. MARTIN,COFFEYVILLE,KS,67337,37.0461,-95.6047,Montgomery,325311,
8081811,150,4,69,1041.6666,83,6192613,88528414,8081811,COFFEYVILLE RESOURCES NITROGEN FERT.,701 E. MARTIN,COFFEYVILLE,KS,67337,37.0461,-95.6047,Montgomery,325311,
8081811,150,4,69,1041.6666,83,6192613,88528614,8081811,COFFEYVILLE RESOURCES NITROGEN FERT.,701 E. MARTIN,COFFEYVILLE,KS,67337,37.0461,-95.6047,Montgomery,325311,
8081811,150,4,69,1041.6666,83,6192613,88528514,8081811,COFFEYVILLE RESOURCES NITROGEN FERT.,701 E. MARTIN,COFFEYVILLE,KS,67337,37.0461,-95.6047,Montgomery,325311,
8081811,150,4,69,1041.6666,83,6192613,88528714,8081811,COFFEYVILLE RESOURCES NITROGEN FERT.,701 E. MARTIN,COFFEYVILLE,KS,67337,37.0461,-95.6047,Montgomery,325311,
8081811,150,4,69,1041.6666,83,6192613,88528314,8081811,COFFEYVILLE RESOURCES NITROGEN FERT.,701 E. MARTIN,COFFEYVILLE,KS,67337,37.0461,-95.6047,Montgomery,325311,
8081811,150,4,69,1041.6666,83,6192613,88528914,8081811,COFFEYVILLE RESOURCES NITROGEN FERT.,701 E. MARTIN,COFFEYVILLE,KS,67337,37.0461,-95.6047,Montgomery,325311,
8081811,31.9,1,60,0.7854,1,6191913,37853014,8081811,COFFEYVILLE RESOURCES NITROGEN FERT.,701 E. MARTIN,COFFEYVILLE,KS,67337,37.0461,-95.6047,Montgomery,325311,
8081811,,,,,,6191213,67200814,8081811,COFFEYVILLE RESOURCES NITROGEN FERT.,701 E. MARTIN,COFFEYVILLE,KS,67337,37.0461,-95.6047,Montgomery,325311,
8081811,78.6,4.4,299,621.7,40.1,6191213,67200914,8081811,COFFEYVILLE RESOURCES NITROGEN FERT.,701 E. MARTIN,COFFEYVILLE,KS,67337,37.0461,-95.6047,Montgomery,325311,
8086711,411,16,250,,1,111011813,156784414,8086711,Great Plains Synfuels Plant,420 County Road 26,Beulah,ND,58523,47.3616,-101.841,Mercer,221210,
8086711,125.5,4,77,,1,64301913,89254014,8086711,Great Plains Synfuels Plant,420 County Road 26,Beulah,ND,58523,47.3616,-101.841,Mercer,221210,
8086711,191.8,2.2,77,,1,64302013,89254114,8086711,Great Plains Synfuels Plant,420 County Road 26,Beulah,ND,58523,47.3616,-101.841,Mercer,221210,
8086711,111.5,3.3,77,,1,64302213,89254314,8086711,Great Plains Synfuels Plant,420 County Road 26,Beulah,ND,58523,47.3616,-101.841,Mercer,221210,
8086711,141,1,181,,1,64302713,89254814,8086711,Great Plains Synfuels Plant,420 County Road 26,Beulah,ND,58523,47.3616,-101.841,Mercer,221210,
8086711,,,,,,64305913,89258014,8086711,Great Plains Synfuels Plant,420 County Road 26,Beulah,ND,58523,47.3616,-101.841,Mercer,221210,
8086711,52.8,2,77,,1,64302113,89254214,8086711,Great Plains Synfuels Plant,420 County Road 26,Beulah,ND,58523,47.3616,-101.841,Mercer,221210,
8086711,167.4,4.8,110,,1,64304113,89256214,8086711,Great Plains Synfuels Plant,420 County Road 26,Beulah,ND,58523,47.3616,-101.841,Mercer,221210,
8086711,80,5.8,550,,1,64305013,89257114,8086711,Great Plains Synfuels Plant,420 County Road 26,Beulah,ND,58523,47.3616,-101.841,Mercer,221210,
8086711,411,16,250,,1,64305613,89257714,8086711,Great Plains Synfuels Plant,420 County Road 26,Beulah,ND,58523,47.3616,-101.841,Mercer,221210,
8086711,97.5,4.3,143,,1,64305813,89257914,8086711,Great Plains Synfuels Plant,420 County Road 26,Beulah,ND,58523,47.3616,-101.841,Mercer,221210,
8086711,400,23,199,,1,64306713,89258814,8086711,Great Plains Synfuels Plant,420 County Road 26,Beulah,ND,58523,47.3616,-101.841,Mercer,221210,
8086711,225,5,1341,,1,64304213,89256314,8086711,Great Plains Synfuels Plant,420 County Road 26,Beulah,ND,58523,47.3616,-101.841,Mercer,221210,
8086711,250,5,1700,,1,64304413,89256514,8086711,Great Plains Synfuels Plant,420 County Road 26,Beulah,ND,58523,47.3616,-101.841,Mercer,221210,
8086711,136.2,5.8,387,,1,64304713,89256814,8086711,Great Plains Synfuels Plant,420 County Road 26,Beulah,ND,58523,47.3616,-101.841,Mercer,221210,
8086711,,,,,,64306013,89258114,8086711,Great Plains Synfuels Plant,420 County Road 26,Beulah,ND,58523,47.3616,-101.841,Mercer,221210,
8086711,166.6,3.3,77,,1,64302613,89254714,8086711,Great Plains Synfuels Plant,420 County Road 26,Beulah,ND,58523,47.3616,-101.841,Mercer,221210,
8086711,141,1,181,,1,64302813,89254914,8086711,Great Plains Synfuels Plant,420 County Road 26,Beulah,ND,58523,47.3616,-101.841,Mercer,221210,
8086711,141,1,181,,1,64303013,89255114,8086711,Great Plains Synfuels Plant,420 County Road 26,Beulah,ND,58523,47.3616,-101.841,Mercer,221210,
8086711,141,1,181,,1,64303113,89255214,8086711,Great Plains Synfuels Plant,420 County Road 26,Beulah,ND,58523,47.3616,-101.841,Mercer,221210,
8086711,141,1,181,,1,64303513,89255614,8086711,Great Plains Synfuels Plant,420 County Road 26,Beulah,ND,58523,47.3616,-101.841,Mercer,221210,
8086711,100,4,1500,,1,64304513,89256614,8086711,Great Plains Synfuels Plant,420 County Road 26,Beulah,ND,58523,47.3616,-101.841,Mercer,221210,
8086711,80,3,150,,1,64304913,89257014,8086711,Great Plains Synfuels Plant,420 County Road 26,Beulah,ND,58523,47.3616,-101.841,Mercer,221210,
8086711,400,23,199,,1,64305513,89257614,8086711,Great Plains Synfuels Plant,420 County Road 26,Beulah,ND,58523,47.3616,-101.841,Mercer,221210,
8086711,411,1.123,350,,1,133803113,195898414,8086711,Great Plains Synfuels Plant,420 County Road 26,Beulah,ND,58523,47.3616,-101.841,Mercer,221210,
8086711,141,1,181,,1,64302913,89255014,8086711,Great Plains Synfuels Plant,420 County Road 26,Beulah,ND,58523,47.3616,-101.841,Mercer,221210,
8086711,141,1,181,,1,64303213,89255314,8086711,Great Plains Synfuels Plant,420 County Road 26,Beulah,ND,58523,47.3616,-101.841,Mercer,221210,
8086711,141,1,181,,1,64303413,89255514,8086711,Great Plains Synfuels Plant,420 County Road 26,Beulah,ND,58523,47.3616,-101.841,Mercer,221210,
8086711,141,1,181,,1,64303613,89255714,8086711,Great Plains Synfuels Plant,420 County Road 26,Beulah,ND,58523,47.3616,-101.841,Mercer,221210,
8086711,141,1,181,,1,64303813,89255914,8086711,Great Plains Synfuels Plant,420 County Road 26,Beulah,ND,58523,47.3616,-101.841,Mercer,221210,
8086711,130,.7,1500,,1,64304613,89256714,8086711,Great Plains Synfuels Plant,420 County Road 26,Beulah,ND,58523,47.3616,-101.841,Mercer,221210,
8086711,400,23,199,,1,64305313,89257414,8086711,Great Plains Synfuels Plant,420 County Road 26,Beulah,ND,58523,47.3616,-101.841,Mercer,221210,
8086711,,,,,,64306613,89258714,8086711,Great Plains Synfuels Plant,420 County Road 26,Beulah,ND,58523,47.3616,-101.841,Mercer,221210,
8086711,141,1,181,,1,64303313,89255414,8086711,Great Plains Synfuels Plant,420 County Road 26,Beulah,ND,58523,47.3616,-101.841,Mercer,221210,
8086711,141,1,181,,1,64303713,89255814,8086711,Great Plains Synfuels Plant,420 County Road 26,Beulah,ND,58523,47.3616,-101.841,Mercer,221210,
8086711,400,23,199,,1,64305113,89257214,8086711,Great Plains Synfuels Plant,420 County Road 26,Beulah,ND,58523,47.3616,-101.841,Mercer,221210,
8086711,400,23,199,,1,64305213,89257314,8086711,Great Plains Synfuels Plant,420 County Road 26,Beulah,ND,58523,47.3616,-101.841,Mercer,221210,
8086711,400,23,199,,1,64305413,89257514,8086711,Great Plains Synfuels Plant,420 County Road 26,Beulah,ND,58523,47.3616,-101.841,Mercer,221210,
8121411,2,175,1.5,680.0,1767.1459,111016813,156789414,8121411,"CF INDUSTRIES NITROGEN, LLC - PORT NEAL COMPLEX",1182 260TH ST,SERGEANT BLUFF,IA,51054,42.3286,-96.3777,Woodbury,325311,
8121411,2,72,8,500.0,1032.4528,123920813,176423714,8121411,"CF INDUSTRIES NITROGEN, LLC - PORT NEAL COMPLEX",1182 260TH ST,SERGEANT BLUFF,IA,51054,42.3286,-96.3777,Woodbury,325311,
8121411,2,50,3.83,300.0,436.6654,4726913,42345714,8121411,"CF INDUSTRIES NITROGEN, LLC - PORT NEAL COMPLEX",1182 260TH ST,SERGEANT BLUFF,IA,51054,42.3286,-96.3777,Woodbury,325311,
8121411,2,65,.67,1700.0,352.5652,123924313,176427714,8121411,"CF INDUSTRIES NITROGEN, LLC - PORT NEAL COMPLEX",1182 260TH ST,SERGEANT BLUFF,IA,51054,42.3286,-96.3777,Woodbury,325311,
8121411,2,300,13.08,110.0,11742.3587,123923813,176427014,8121411,"CF INDUSTRIES NITROGEN, LLC - PORT NEAL COMPLEX",1182 260TH ST,SERGEANT BLUFF,IA,51054,42.3286,-96.3777,Woodbury,325311,
8121411,2,210,1.17,110.0,21.5094,123923813,176427014,8121411,"CF INDUSTRIES NITROGEN, LLC - PORT NEAL COMPLEX",1182 260TH ST,SERGEANT BLUFF,IA,51054,42.3286,-96.3777,Woodbury,325311,
8121411,1,,,,,123923613,176426814,8121411,"CF INDUSTRIES NITROGEN, LLC - PORT NEAL COMPLEX",1182 260TH ST,SERGEANT BLUFF,IA,51054,42.3286,-96.3777,Woodbury,325311,
8121411,2,82.8,4,170.0,693.3962,4727813,94135714,8121411,"CF INDUSTRIES NITROGEN, LLC - PORT NEAL COMPLEX",1182 260TH ST,SERGEANT BLUFF,IA,51054,42.3286,-96.3777,Woodbury,325311,
8121411,2,322,7.67,1740.0,463.522,123922513,176425614,8121411,"CF INDUSTRIES NITROGEN, LLC - PORT NEAL COMPLEX",1182 260TH ST,SERGEANT BLUFF,IA,51054,42.3286,-96.3777,Woodbury,325311,
8121411,2,72.5,8.08,1500.0,242.966,4727613,94135514,8121411,"CF INDUSTRIES NITROGEN, LLC - PORT NEAL COMPLEX",1182 260TH ST,SERGEANT BLUFF,IA,51054,42.3286,-96.3777,Woodbury,325311,
8121411,2,8.5,.42,950.0,20.8333,123920313,176423214,8121411,"CF INDUSTRIES NITROGEN, LLC - PORT NEAL COMPLEX",1182 260TH ST,SERGEANT BLUFF,IA,51054,42.3286,-96.3777,Woodbury,325311,
8121411,2,98.4,4.92,1530.0,669.5912,123920713,176423614,8121411,"CF INDUSTRIES NITROGEN, LLC - PORT NEAL COMPLEX",1182 260TH ST,SERGEANT BLUFF,IA,51054,42.3286,-96.3777,Woodbury,325311,
8121411,2,48.2,37,100.0,22882.5161,123920613,176423514,8121411,"CF INDUSTRIES NITROGEN, LLC - PORT NEAL COMPLEX",1182 260TH ST,SERGEANT BLUFF,IA,51054,42.3286,-96.3777,Woodbury,325311,
8121411,3,12.5,.5,1052.0,21.6,123922213,176425314,8121411,"CF INDUSTRIES NITROGEN, LLC - PORT NEAL COMPLEX",1182 260TH ST,SERGEANT BLUFF,IA,51054,42.3286,-96.3777,Woodbury,325311,
8121411,2,85,1,200.0,785.3981,4727213,42345214,8121411,"CF INDUSTRIES NITROGEN, LLC - PORT NEAL COMPLEX",1182 260TH ST,SERGEANT BLUFF,IA,51054,42.3286,-96.3777,Woodbury,325311,
8121411,5,5.5,.25,70.0,.0166,123920913,180671814,8121411,"CF INDUSTRIES NITROGEN, LLC - PORT NEAL COMPLEX",1182 260TH ST,SERGEANT BLUFF,IA,51054,42.3286,-96.3777,Woodbury,325311,
8121411,2,210,.33,105.0,.0166,123919613,176422514,8121411,"CF INDUSTRIES NITROGEN, LLC - PORT NEAL COMPLEX",1182 260TH ST,SERGEANT BLUFF,IA,51054,42.3286,-96.3777,Woodbury,325311,
8121411,2,164,3.33,115.0,667.2169,123922013,176425114,8121411,"CF INDUSTRIES NITROGEN, LLC - PORT NEAL COMPLEX",1182 260TH ST,SERGEANT BLUFF,IA,51054,42.3286,-96.3777,Woodbury,325311,
8121411,2,130,6.25,235.0,1857.7044,123921913,176425014,8121411,"CF INDUSTRIES NITROGEN, LLC - PORT NEAL COMPLEX",1182 260TH ST,SERGEANT BLUFF,IA,51054,42.3286,-96.3777,Woodbury,325311,
8121411,2,130,6.25,235.0,1857.7044,123921813,176424914,8121411,"CF INDUSTRIES NITROGEN, LLC - PORT NEAL COMPLEX",1182 260TH ST,SERGEANT BLUFF,IA,51054,42.3286,-96.3777,Woodbury,325311,
8121411,2,70,2,1830.0,1080.1887,123921613,176424614,8121411,"CF INDUSTRIES NITROGEN, LLC - PORT NEAL COMPLEX",1182 260TH ST,SERGEANT BLUFF,IA,51054,42.3286,-96.3777,Woodbury,325311,
8121411,2,70,2,1830.0,1080.1887,123921613,176424714,8121411,"CF INDUSTRIES NITROGEN, LLC - PORT NEAL COMPLEX",1182 260TH ST,SERGEANT BLUFF,IA,51054,42.3286,-96.3777,Woodbury,325311,
8121411,2,322,7.67,1740.0,463.522,123921413,176424414,8121411,"CF INDUSTRIES NITROGEN, LLC - PORT NEAL COMPLEX",1182 260TH ST,SERGEANT BLUFF,IA,51054,42.3286,-96.3777,Woodbury,325311,
8121411,2,322,7.67,1740.0,463.522,123921413,183232314,8121411,"CF INDUSTRIES NITROGEN, LLC - PORT NEAL COMPLEX",1182 260TH ST,SERGEANT BLUFF,IA,51054,42.3286,-96.3777,Woodbury,325311,
8121411,3,12.5,.5,1052.0,21.6,123925213,176428614,8121411,"CF INDUSTRIES NITROGEN, LLC - PORT NEAL COMPLEX",1182 260TH ST,SERGEANT BLUFF,IA,51054,42.3286,-96.3777,Woodbury,325311,
8121411,2,7,.33,980.0,12.6333,123925113,176428514,8121411,"CF INDUSTRIES NITROGEN, LLC - PORT NEAL COMPLEX",1182 260TH ST,SERGEANT BLUFF,IA,51054,42.3286,-96.3777,Woodbury,325311,
8121411,2,120,3.33,330.0,869.4968,4727913,42341714,8121411,"CF INDUSTRIES NITROGEN, LLC - PORT NEAL COMPLEX",1182 260TH ST,SERGEANT BLUFF,IA,51054,42.3286,-96.3777,Woodbury,325311,
8121411,2,65,.67,1700.0,352.5652,123924913,176428314,8121411,"CF INDUSTRIES NITROGEN, LLC - PORT NEAL COMPLEX",1182 260TH ST,SERGEANT BLUFF,IA,51054,42.3286,-96.3777,Woodbury,325311,
8121411,2,110,4,170.0,297.1698,4727413,42342314,8121411,"CF INDUSTRIES NITROGEN, LLC - PORT NEAL COMPLEX",1182 260TH ST,SERGEANT BLUFF,IA,51054,42.3286,-96.3777,Woodbury,325311,
8121411,2,23,.17,70.0,.0166,125662513,180671614,8121411,"CF INDUSTRIES NITROGEN, LLC - PORT NEAL COMPLEX",1182 260TH ST,SERGEANT BLUFF,IA,51054,42.3286,-96.3777,Woodbury,325311,
8121411,2,23,.17,70.0,.0166,125662513,180671714,8121411,"CF INDUSTRIES NITROGEN, LLC - PORT NEAL COMPLEX",1182 260TH ST,SERGEANT BLUFF,IA,51054,42.3286,-96.3777,Woodbury,325311,
8121411,2,40,.25,70.0,.0166,123920113,176423014,8121411,"CF INDUSTRIES NITROGEN, LLC - PORT NEAL COMPLEX",1182 260TH ST,SERGEANT BLUFF,IA,51054,42.3286,-96.3777,Woodbury,325311,
8121411,2,46.8,37,100.0,23433.7111,123922413,176425514,8121411,"CF INDUSTRIES NITROGEN, LLC - PORT NEAL COMPLEX",1182 260TH ST,SERGEANT BLUFF,IA,51054,42.3286,-96.3777,Woodbury,325311,
8121411,2,300,13.08,110.0,11742.3587,123922313,176425414,8121411,"CF INDUSTRIES NITROGEN, LLC - PORT NEAL COMPLEX",1182 260TH ST,SERGEANT BLUFF,IA,51054,42.3286,-96.3777,Woodbury,325311,
8121411,2,95,.83,70.0,33.3333,123924713,176428114,8121411,"CF INDUSTRIES NITROGEN, LLC - PORT NEAL COMPLEX",1182 260TH ST,SERGEANT BLUFF,IA,51054,42.3286,-96.3777,Woodbury,325311,
8121411,1,,,,,125662413,180671514,8121411,"CF INDUSTRIES NITROGEN, LLC - PORT NEAL COMPLEX",1182 260TH ST,SERGEANT BLUFF,IA,51054,42.3286,-96.3777,Woodbury,325311,
8121411,5,5.5,.25,70.0,.0166,123922913,180671414,8121411,"CF INDUSTRIES NITROGEN, LLC - PORT NEAL COMPLEX",1182 260TH ST,SERGEANT BLUFF,IA,51054,42.3286,-96.3777,Woodbury,325311,
8121411,2,18,.5,644.0,25.1698,123922813,176425914,8121411,"CF INDUSTRIES NITROGEN, LLC - PORT NEAL COMPLEX",1182 260TH ST,SERGEANT BLUFF,IA,51054,42.3286,-96.3777,Woodbury,325311,
8121411,2,131.2,13.08,330.0,5522.5472,123919713,176422614,8121411,"CF INDUSTRIES NITROGEN, LLC - PORT NEAL COMPLEX",1182 260TH ST,SERGEANT BLUFF,IA,51054,42.3286,-96.3777,Woodbury,325311,
8121411,2,322,7.67,1740.0,463.522,123920513,176423414,8121411,"CF INDUSTRIES NITROGEN, LLC - PORT NEAL COMPLEX",1182 260TH ST,SERGEANT BLUFF,IA,51054,42.3286,-96.3777,Woodbury,325311,
8121411,2,70,2,1830.0,1080.1887,123923213,176426314,8121411,"CF INDUSTRIES NITROGEN, LLC - PORT NEAL COMPLEX",1182 260TH ST,SERGEANT BLUFF,IA,51054,42.3286,-96.3777,Woodbury,325311,
8121411,2,23,.17,70.0,.0166,125662313,180671214,8121411,"CF INDUSTRIES NITROGEN, LLC - PORT NEAL COMPLEX",1182 260TH ST,SERGEANT BLUFF,IA,51054,42.3286,-96.3777,Woodbury,325311,
8121411,2,23,.17,70.0,.0166,125662313,180671314,8121411,"CF INDUSTRIES NITROGEN, LLC - PORT NEAL COMPLEX",1182 260TH ST,SERGEANT BLUFF,IA,51054,42.3286,-96.3777,Woodbury,325311,
8121411,1,,,,,125662213,180671114,8121411,"CF INDUSTRIES NITROGEN, LLC - PORT NEAL COMPLEX",1182 260TH ST,SERGEANT BLUFF,IA,51054,42.3286,-96.3777,Woodbury,325311,
8121411,2,80,.83,70.0,25,123924513,176427914,8121411,"CF INDUSTRIES NITROGEN, LLC - PORT NEAL COMPLEX",1182 260TH ST,SERGEANT BLUFF,IA,51054,42.3286,-96.3777,Woodbury,325311,
8121411,2,3.8,2.09,1180.0,5.1572,125662113,180671014,8121411,"CF INDUSTRIES NITROGEN, LLC - PORT NEAL COMPLEX",1182 260TH ST,SERGEANT BLUFF,IA,51054,42.3286,-96.3777,Woodbury,325311,
8121411,5,86,2.65,68.0,24.9056,123922613,176425714,8121411,"CF INDUSTRIES NITROGEN, LLC - PORT NEAL COMPLEX",1182 260TH ST,SERGEANT BLUFF,IA,51054,42.3286,-96.3777,Woodbury,325311,
8121411,2,23,.67,805.0,51.7138,125662013,180670914,8121411,"CF INDUSTRIES NITROGEN, LLC - PORT NEAL COMPLEX",1182 260TH ST,SERGEANT BLUFF,IA,51054,42.3286,-96.3777,Woodbury,325311,
8121411,2,175,1.5,680.0,1767.1459,123925013,176428414,8121411,"CF INDUSTRIES NITROGEN, LLC - PORT NEAL COMPLEX",1182 260TH ST,SERGEANT BLUFF,IA,51054,42.3286,-96.3777,Woodbury,325311,
8121411,2,300,13.08,110.0,11742.3587,123923013,176426114,8121411,"CF INDUSTRIES NITROGEN, LLC - PORT NEAL COMPLEX",1182 260TH ST,SERGEANT BLUFF,IA,51054,42.3286,-96.3777,Woodbury,325311,
8121411,2,322,7.67,1740.0,463.522,123919813,176422714,8121411,"CF INDUSTRIES NITROGEN, LLC - PORT NEAL COMPLEX",1182 260TH ST,SERGEANT BLUFF,IA,51054,42.3286,-96.3777,Woodbury,325311,
8121411,2,23,.67,805.0,51.7138,125661913,180670814,8121411,"CF INDUSTRIES NITROGEN, LLC - PORT NEAL COMPLEX",1182 260TH ST,SERGEANT BLUFF,IA,51054,42.3286,-96.3777,Woodbury,325311,
8121411,1,,,,,123922713,176425814,8121411,"CF INDUSTRIES NITROGEN, LLC - PORT NEAL COMPLEX",1182 260TH ST,SERGEANT BLUFF,IA,51054,42.3286,-96.3777,Woodbury,325311,
8121411,1,,,,,4728013,157957514,8121411,"CF INDUSTRIES NITROGEN, LLC - PORT NEAL COMPLEX",1182 260TH ST,SERGEANT BLUFF,IA,51054,42.3286,-96.3777,Woodbury,325311,
8121411,2,175,1.5,680.0,1767.1459,4727513,42342214,8121411,"CF INDUSTRIES NITROGEN, LLC - PORT NEAL COMPLEX",1182 260TH ST,SERGEANT BLUFF,IA,51054,42.3286,-96.3777,Woodbury,325311,
8121411,2,89,3.33,500.0,1358.4905,4727313,42345114,8121411,"CF INDUSTRIES NITROGEN, LLC - PORT NEAL COMPLEX",1182 260TH ST,SERGEANT BLUFF,IA,51054,42.3286,-96.3777,Woodbury,325311,
8121411,2,50,3.83,300.0,477.9874,4727113,94135414,8121411,"CF INDUSTRIES NITROGEN, LLC - PORT NEAL COMPLEX",1182 260TH ST,SERGEANT BLUFF,IA,51054,42.3286,-96.3777,Woodbury,325311,
8121411,2,90,8.92,245.0,3374.2453,4727013,42345514,8121411,"CF INDUSTRIES NITROGEN, LLC - PORT NEAL COMPLEX",1182 260TH ST,SERGEANT BLUFF,IA,51054,42.3286,-96.3777,Woodbury,325311,
8121411,2,90,8.92,245.0,3374.2453,4727013,42345614,8121411,"CF INDUSTRIES NITROGEN, LLC - PORT NEAL COMPLEX",1182 260TH ST,SERGEANT BLUFF,IA,51054,42.3286,-96.3777,Woodbury,325311,
8121411,2,50,.54,2000.0,34.0377,4726813,42345914,8121411,"CF INDUSTRIES NITROGEN, LLC - PORT NEAL COMPLEX",1182 260TH ST,SERGEANT BLUFF,IA,51054,42.3286,-96.3777,Woodbury,325311,
8121411,2,50,.54,2000.0,34.0377,4726813,42345814,8121411,"CF INDUSTRIES NITROGEN, LLC - PORT NEAL COMPLEX",1182 260TH ST,SERGEANT BLUFF,IA,51054,42.3286,-96.3777,Woodbury,325311,
8121411,2,4.9,.25,1050.0,8.6666,123920013,176422914,8121411,"CF INDUSTRIES NITROGEN, LLC - PORT NEAL COMPLEX",1182 260TH ST,SERGEANT BLUFF,IA,51054,42.3286,-96.3777,Woodbury,325311,
8121411,1,,,,,4726713,67207114,8121411,"CF INDUSTRIES NITROGEN, LLC - PORT NEAL COMPLEX",1182 260TH ST,SERGEANT BLUFF,IA,51054,42.3286,-96.3777,Woodbury,325311,
8185111,180,4.2,110,1000.0,72.18,111028213,156800814,8185111,VERDIGRIS PLT,6606 EAST 540 RD,CLAREMORE,OK,None,36.2335,-95.7191,Rogers,325311,
8185111,180,4.2,110,1000.0,72.18,5370613,16060614,8185111,VERDIGRIS PLT,6606 EAST 540 RD,CLAREMORE,OK,None,36.2335,-95.7191,Rogers,325311,
8185111,120,13,330,3583.3334,27,5370513,16060714,8185111,VERDIGRIS PLT,6606 EAST 540 RD,CLAREMORE,OK,None,36.2335,-95.7191,Rogers,325311,
8185111,50,5,302,684.9333,34.88,5370413,16061014,8185111,VERDIGRIS PLT,6606 EAST 540 RD,CLAREMORE,OK,None,36.2335,-95.7191,Rogers,325311,
8185111,123,1.5,110,381.1833,216,5370313,16061114,8185111,VERDIGRIS PLT,6606 EAST 540 RD,CLAREMORE,OK,None,36.2335,-95.7191,Rogers,325311,
8185111,,,,,,5370213,16061214,8185111,VERDIGRIS PLT,6606 EAST 540 RD,CLAREMORE,OK,None,36.2335,-95.7191,Rogers,325311,
8185111,170,1.2,180,186.6666,165.05,5369813,16061614,8185111,VERDIGRIS PLT,6606 EAST 540 RD,CLAREMORE,OK,None,36.2335,-95.7191,Rogers,325311,
8185111,152,3.1,660,289.85,37.558,5369713,16061714,8185111,VERDIGRIS PLT,6606 EAST 540 RD,CLAREMORE,OK,None,36.2335,-95.7191,Rogers,325311,
8185111,120,1.6,385,55.5,27.614,5369613,16061814,8185111,VERDIGRIS PLT,6606 EAST 540 RD,CLAREMORE,OK,None,36.2335,-95.7191,Rogers,325311,
8185111,48,6.8,380,458.3333,12.62,5369513,16061914,8185111,VERDIGRIS PLT,6606 EAST 540 RD,CLAREMORE,OK,None,36.2335,-95.7191,Rogers,325311,
8185111,180,4.2,110,1000.0,72.18,5369413,16062014,8185111,VERDIGRIS PLT,6606 EAST 540 RD,CLAREMORE,OK,None,36.2335,-95.7191,Rogers,325311,
8185111,75,4.8,300,466.6666,25.79,5369313,16062114,8185111,VERDIGRIS PLT,6606 EAST 540 RD,CLAREMORE,OK,None,36.2335,-95.7191,Rogers,325311,
8185111,120,1.6,330,55.5,27.614,5369213,16062214,8185111,VERDIGRIS PLT,6606 EAST 540 RD,CLAREMORE,OK,None,36.2335,-95.7191,Rogers,325311,
8185111,170,1.2,185,200.0,176.838,5369113,16062314,8185111,VERDIGRIS PLT,6606 EAST 540 RD,CLAREMORE,OK,None,36.2335,-95.7191,Rogers,325311,
8185111,120,13,385,3583.3334,27,5369013,16062614,8185111,VERDIGRIS PLT,6606 EAST 540 RD,CLAREMORE,OK,None,36.2335,-95.7191,Rogers,325311,
8185111,25,.3,136,0.1833,2.71,5368813,16062814,8185111,VERDIGRIS PLT,6606 EAST 540 RD,CLAREMORE,OK,None,36.2335,-95.7191,Rogers,325311,
8185111,123,1.5,110,381.1833,216,5369913,16061514,8185111,VERDIGRIS PLT,6606 EAST 540 RD,CLAREMORE,OK,None,36.2335,-95.7191,Rogers,325311,
8185111,,,,,,72319713,100096714,8185111,VERDIGRIS PLT,6606 EAST 540 RD,CLAREMORE,OK,None,36.2335,-95.7191,Rogers,325311,
8185111,50,.1,100,0.0166,2.1212,72319213,119747014,8185111,VERDIGRIS PLT,6606 EAST 540 RD,CLAREMORE,OK,None,36.2335,-95.7191,Rogers,325311,
8185111,50,.1,100,0.0166,2.1212,72319113,119746914,8185111,VERDIGRIS PLT,6606 EAST 540 RD,CLAREMORE,OK,None,36.2335,-95.7191,Rogers,325311,
8185111,50,.1,100,0.0166,2.1212,72319013,119746814,8185111,VERDIGRIS PLT,6606 EAST 540 RD,CLAREMORE,OK,None,36.2335,-95.7191,Rogers,325311,
8185111,13,.5,200,0.9666,4.92,72318813,100096214,8185111,VERDIGRIS PLT,6606 EAST 540 RD,CLAREMORE,OK,None,36.2335,-95.7191,Rogers,325311,
8185111,12,.5,200,0.9666,4.92,72318713,100096114,8185111,VERDIGRIS PLT,6606 EAST 540 RD,CLAREMORE,OK,None,36.2335,-95.7191,Rogers,325311,
8185111,106,4.2,150,9.55,.69,72318613,100096014,8185111,VERDIGRIS PLT,6606 EAST 540 RD,CLAREMORE,OK,None,36.2335,-95.7191,Rogers,325311,
8185111,127,2.9,200,180.15,26.217,5370113,16061314,8185111,VERDIGRIS PLT,6606 EAST 540 RD,CLAREMORE,OK,None,36.2335,-95.7191,Rogers,325311,
8185111,,,,,,96990913,135195314,8185111,VERDIGRIS PLT,6606 EAST 540 RD,CLAREMORE,OK,None,36.2335,-95.7191,Rogers,325311,
8185111,,,,,,96990713,135195114,8185111,VERDIGRIS PLT,6606 EAST 540 RD,CLAREMORE,OK,None,36.2335,-95.7191,Rogers,325311,
8185111,,,,,,96990613,135195014,8185111,VERDIGRIS PLT,6606 EAST 540 RD,CLAREMORE,OK,None,36.2335,-95.7191,Rogers,325311,
8185111,28,1.2,627,83.05,73.433,96990513,135194914,8185111,VERDIGRIS PLT,6606 EAST 540 RD,CLAREMORE,OK,None,36.2335,-95.7191,Rogers,325311,
8185111,28,1.2,627,83.05,73.433,96990813,135195214,8185111,VERDIGRIS PLT,6606 EAST 540 RD,CLAREMORE,OK,None,36.2335,-95.7191,Rogers,325311,
8185111,28,1.2,627,83.05,73.433,92001413,125531014,8185111,VERDIGRIS PLT,6606 EAST 540 RD,CLAREMORE,OK,None,36.2335,-95.7191,Rogers,325311,
8185111,110,1,150,96.0,122,72319613,100096614,8185111,VERDIGRIS PLT,6606 EAST 540 RD,CLAREMORE,OK,None,36.2335,-95.7191,Rogers,325311,
8185111,104,1,150,96.0,122,72319513,100096514,8185111,VERDIGRIS PLT,6606 EAST 540 RD,CLAREMORE,OK,None,36.2335,-95.7191,Rogers,325311,
8185111,8,.4,960,15.1666,120.6439,108756613,153984614,8185111,VERDIGRIS PLT,6606 EAST 540 RD,CLAREMORE,OK,None,36.2335,-95.7191,Rogers,325311,
8185111,,,,,,108756413,153984214,8185111,VERDIGRIS PLT,6606 EAST 540 RD,CLAREMORE,OK,None,36.2335,-95.7191,Rogers,325311,
8185111,,,,,,108756413,153984314,8185111,VERDIGRIS PLT,6606 EAST 540 RD,CLAREMORE,OK,None,36.2335,-95.7191,Rogers,325311,
8185111,152,3.3,660,162.95,18.632,72318013,100095614,8185111,VERDIGRIS PLT,6606 EAST 540 RD,CLAREMORE,OK,None,36.2335,-95.7191,Rogers,325311,
8185111,60,4.5,340,466.6666,29.34,5368913,16062714,8185111,VERDIGRIS PLT,6606 EAST 540 RD,CLAREMORE,OK,None,36.2335,-95.7191,Rogers,325311,
8185111,112,.67,200,,46,111932813,158093214,8185111,VERDIGRIS PLT,6606 EAST 540 RD,CLAREMORE,OK,None,36.2335,-95.7191,Rogers,325311,
8185111,76,4.2,150,9.55,.689,111933113,158093514,8185111,VERDIGRIS PLT,6606 EAST 540 RD,CLAREMORE,OK,None,36.2335,-95.7191,Rogers,325311,
8185111,50,.83,200,,110,111932913,158093314,8185111,VERDIGRIS PLT,6606 EAST 540 RD,CLAREMORE,OK,None,36.2335,-95.7191,Rogers,325311,
8185111,,,,,,72319413,100096414,8185111,VERDIGRIS PLT,6606 EAST 540 RD,CLAREMORE,OK,None,36.2335,-95.7191,Rogers,325311,
8185111,,,,,,72319313,100096314,8185111,VERDIGRIS PLT,6606 EAST 540 RD,CLAREMORE,OK,None,36.2335,-95.7191,Rogers,325311,
8185111,50,.1,100,0.0166,2.1212,72318913,119746714,8185111,VERDIGRIS PLT,6606 EAST 540 RD,CLAREMORE,OK,None,36.2335,-95.7191,Rogers,325311,
8185111,18,.1,136,0.25,32.54,5370013,16061414,8185111,VERDIGRIS PLT,6606 EAST 540 RD,CLAREMORE,OK,None,36.2335,-95.7191,Rogers,325311,
8185111,76,4.2,150,9.55,.69,72318513,100095914,8185111,VERDIGRIS PLT,6606 EAST 540 RD,CLAREMORE,OK,None,36.2335,-95.7191,Rogers,325311,
8185111,,,,,,5368713,64400414,8185111,VERDIGRIS PLT,6606 EAST 540 RD,CLAREMORE,OK,None,36.2335,-95.7191,Rogers,325311,
