Facility Id,FRS Id,Primary NAICS Code,Industry Type (subparts),Industry Type (sectors),Unit Name,Unit Type,Unit Reporting Method,Unit Maximum Rated Heat Input Capacity (mmBTU/hr),Unit CO2 emissions (non-biogenic) ,Unit Methane (CH4) emissions ,Unit Nitrous Oxide (N2O) emissions ,Unit Biogenic CO2 emissions (metric tons),FacilityID,FacilityName,Address,City,State,Zip,Latitude,Longitude,County,NAICS,SIC
1006005,110000414089.0,325311,"C,G,PP,V","Chemicals, Suppliers of CO2",CP-1,OCS (Other combustion source),Tier1/2/3,480.0,272069.5,128.25,152.874,0.0,1006005,"CF Industries Nitrogen, LLC-Port Neal Nitrogen Complex",1182 260TH ST.,SERGEANT BLUFF,IA,51054,42.32786,-96.36489,WOODBURY COUNTY,325311,
1006005,110000414089.0,325311,"C,G,PP,V","Chemicals, Suppliers of CO2",EU-200,OCS (Other combustion source),"Tier4, Alt-P75 or P75",,448984.5,226.75,270.286,0.0,1006005,"CF Industries Nitrogen, LLC-Port Neal Nitrogen Complex",1182 260TH ST.,SERGEANT BLUFF,IA,51054,42.32786,-96.36489,WOODBURY COUNTY,325311,
1006005,110000414089.0,325311,"C,G,PP,V","Chemicals, Suppliers of CO2",EU-400,"OB (Boiler, other)","Tier4, Alt-P75 or P75",,108648.0,54.0,64.368,0.0,1006005,"CF Industries Nitrogen, LLC-Port Neal Nitrogen Complex",1182 260TH ST.,SERGEANT BLUFF,IA,51054,42.32786,-96.36489,WOODBURY COUNTY,325311,
1006005,110000414089.0,325311,"C,G,PP,V","Chemicals, Suppliers of CO2",EU-401,"OB (Boiler, other)","Tier4, Alt-P75 or P75",,100113.5,54.25,64.666,0.0,1006005,"CF Industries Nitrogen, LLC-Port Neal Nitrogen Complex",1182 260TH ST.,SERGEANT BLUFF,IA,51054,42.32786,-96.36489,WOODBURY COUNTY,325311,
1006005,110000414089.0,325311,"C,G,PP,V","Chemicals, Suppliers of CO2",EU-650,RICE (Reciprocating internal combustion engine),Tier1/2/3,3.5,17.7,0.0,0.0,0.0,1006005,"CF Industries Nitrogen, LLC-Port Neal Nitrogen Complex",1182 260TH ST.,SERGEANT BLUFF,IA,51054,42.32786,-96.36489,WOODBURY COUNTY,325311,
1006005,110000414089.0,325311,"C,G,PP,V","Chemicals, Suppliers of CO2",GP-1,OCS (Other combustion source),Tier1/2/3,58.8,2303.7,1.0,1.192,0.0,1006005,"CF Industries Nitrogen, LLC-Port Neal Nitrogen Complex",1182 260TH ST.,SERGEANT BLUFF,IA,51054,42.32786,-96.36489,WOODBURY COUNTY,325311,
1006005,110000414089.0,325311,"C,G,PP,V","Chemicals, Suppliers of CO2",CP-1,OCS (Other combustion source),Tier1/2/3,480.0,259846.8,122.5,146.02,0.0,1006005,"CF Industries Nitrogen, LLC-Port Neal Nitrogen Complex",1182 260TH ST.,SERGEANT BLUFF,IA,51054,42.32786,-96.36489,WOODBURY COUNTY,325311,
1006005,110000414089.0,325311,"C,G,PP,V","Chemicals, Suppliers of CO2",EU-200,OCS (Other combustion source),"Tier4, Alt-P75 or P75",,414917.0,217.0,258.664,0.0,1006005,"CF Industries Nitrogen, LLC-Port Neal Nitrogen Complex",1182 260TH ST.,SERGEANT BLUFF,IA,51054,42.32786,-96.36489,WOODBURY COUNTY,325311,
1006005,110000414089.0,325311,"C,G,PP,V","Chemicals, Suppliers of CO2",EU-400,"OB (Boiler, other)","Tier4, Alt-P75 or P75",,106429.3,55.0,65.56,0.0,1006005,"CF Industries Nitrogen, LLC-Port Neal Nitrogen Complex",1182 260TH ST.,SERGEANT BLUFF,IA,51054,42.32786,-96.36489,WOODBURY COUNTY,325311,
1006005,110000414089.0,325311,"C,G,PP,V","Chemicals, Suppliers of CO2",EU-401,"OB (Boiler, other)","Tier4, Alt-P75 or P75",,99632.8,55.0,65.56,0.0,1006005,"CF Industries Nitrogen, LLC-Port Neal Nitrogen Complex",1182 260TH ST.,SERGEANT BLUFF,IA,51054,42.32786,-96.36489,WOODBURY COUNTY,325311,
1006005,110000414089.0,325311,"C,G,PP,V","Chemicals, Suppliers of CO2",EU-650,RICE (Reciprocating internal combustion engine),Tier1/2/3,3.5,48.8,0.0,0.0,0.0,1006005,"CF Industries Nitrogen, LLC-Port Neal Nitrogen Complex",1182 260TH ST.,SERGEANT BLUFF,IA,51054,42.32786,-96.36489,WOODBURY COUNTY,325311,
1006005,110000414089.0,325311,"C,G,PP,V","Chemicals, Suppliers of CO2",GP-1,OCS (Other combustion source),Tier1/2/3,58.8,3018.0,1.5,1.788,0.0,1006005,"CF Industries Nitrogen, LLC-Port Neal Nitrogen Complex",1182 260TH ST.,SERGEANT BLUFF,IA,51054,42.32786,-96.36489,WOODBURY COUNTY,325311,
1006005,110000414089.0,325311,"C,G,PP,V","Chemicals, Suppliers of CO2",CP-1,OCS (Other combustion source),Tier1/2/3,480.0,260790.0,123.0,146.616,0.0,1006005,"CF Industries Nitrogen, LLC-Port Neal Nitrogen Complex",1182 260TH ST.,SERGEANT BLUFF,IA,51054,42.32786,-96.36489,WOODBURY COUNTY,325311,
1006005,110000414089.0,325311,"C,G,PP,V","Chemicals, Suppliers of CO2",EU-200,OCS (Other combustion source),"Tier4, Alt-P75 or P75",,411114.4,244.25,291.146,0.0,1006005,"CF Industries Nitrogen, LLC-Port Neal Nitrogen Complex",1182 260TH ST.,SERGEANT BLUFF,IA,51054,42.32786,-96.36489,WOODBURY COUNTY,325311,
1006005,110000414089.0,325311,"C,G,PP,V","Chemicals, Suppliers of CO2",EU-400,"OB (Boiler, other)","Tier4, Alt-P75 or P75",,107420.2,53.5,63.772,0.0,1006005,"CF Industries Nitrogen, LLC-Port Neal Nitrogen Complex",1182 260TH ST.,SERGEANT BLUFF,IA,51054,42.32786,-96.36489,WOODBURY COUNTY,325311,
1006005,110000414089.0,325311,"C,G,PP,V","Chemicals, Suppliers of CO2",EU-401,"OB (Boiler, other)","Tier4, Alt-P75 or P75",,94036.5,55.0,65.56,0.0,1006005,"CF Industries Nitrogen, LLC-Port Neal Nitrogen Complex",1182 260TH ST.,SERGEANT BLUFF,IA,51054,42.32786,-96.36489,WOODBURY COUNTY,325311,
1006005,110000414089.0,325311,"C,G,PP,V","Chemicals, Suppliers of CO2",EU-650,RICE (Reciprocating internal combustion engine),Tier1/2/3,3.5,27.5,0.0,0.0,0.0,1006005,"CF Industries Nitrogen, LLC-Port Neal Nitrogen Complex",1182 260TH ST.,SERGEANT BLUFF,IA,51054,42.32786,-96.36489,WOODBURY COUNTY,325311,
1006005,110000414089.0,325311,"C,G,PP,V","Chemicals, Suppliers of CO2",GP-1,OCS (Other combustion source),Tier1/2/3,58.8,2174.0,1.0,1.192,0.0,1006005,"CF Industries Nitrogen, LLC-Port Neal Nitrogen Complex",1182 260TH ST.,SERGEANT BLUFF,IA,51054,42.32786,-96.36489,WOODBURY COUNTY,325311,
1006005,110000414089.0,325311,"C,G,PP,V","Chemicals, Suppliers of CO2",CP-1,OCS (Other combustion source),Tier1/2/3,480.0,226970.7,107.0,127.544,0.0,1006005,"CF Industries Nitrogen, LLC-Port Neal Nitrogen Complex",1182 260TH ST.,SERGEANT BLUFF,IA,51054,42.32786,-96.36489,WOODBURY COUNTY,325311,
1006005,110000414089.0,325311,"C,G,PP,V","Chemicals, Suppliers of CO2",EU-200,OCS (Other combustion source),"Tier4, Alt-P75 or P75",,386529.5,172.25,205.322,0.0,1006005,"CF Industries Nitrogen, LLC-Port Neal Nitrogen Complex",1182 260TH ST.,SERGEANT BLUFF,IA,51054,42.32786,-96.36489,WOODBURY COUNTY,325311,
1006005,110000414089.0,325311,"C,G,PP,V","Chemicals, Suppliers of CO2",EU-400,"OB (Boiler, other)","Tier4, Alt-P75 or P75",,108194.6,53.0,63.176,0.0,1006005,"CF Industries Nitrogen, LLC-Port Neal Nitrogen Complex",1182 260TH ST.,SERGEANT BLUFF,IA,51054,42.32786,-96.36489,WOODBURY COUNTY,325311,
1006005,110000414089.0,325311,"C,G,PP,V","Chemicals, Suppliers of CO2",EU-401,"OB (Boiler, other)","Tier4, Alt-P75 or P75",,111679.9,52.75,62.878,0.0,1006005,"CF Industries Nitrogen, LLC-Port Neal Nitrogen Complex",1182 260TH ST.,SERGEANT BLUFF,IA,51054,42.32786,-96.36489,WOODBURY COUNTY,325311,
1006005,110000414089.0,325311,"C,G,PP,V","Chemicals, Suppliers of CO2",EU-650,RICE (Reciprocating internal combustion engine),Tier1/2/3,3.5,37.6,0.0,0.0,0.0,1006005,"CF Industries Nitrogen, LLC-Port Neal Nitrogen Complex",1182 260TH ST.,SERGEANT BLUFF,IA,51054,42.32786,-96.36489,WOODBURY COUNTY,325311,
1006005,110000414089.0,325311,"C,G,PP,V","Chemicals, Suppliers of CO2",GP-1,OCS (Other combustion source),Tier1/2/3,58.8,401.3,0.25,0.298,0.0,1006005,"CF Industries Nitrogen, LLC-Port Neal Nitrogen Complex",1182 260TH ST.,SERGEANT BLUFF,IA,51054,42.32786,-96.36489,WOODBURY COUNTY,325311,
1006005,110000414089.0,325311,"C,G,PP,V","Chemicals, Suppliers of CO2",CP-1,OCS (Other combustion source),Tier1/2/3,480.0,263357.4,124.0,147.808,0.0,1006005,"CF Industries Nitrogen, LLC-Port Neal Nitrogen Complex",1182 260TH ST.,SERGEANT BLUFF,IA,51054,42.32786,-96.36489,WOODBURY COUNTY,325311,
1006005,110000414089.0,325311,"C,G,PP,V","Chemicals, Suppliers of CO2",EU-650,RICE (Reciprocating internal combustion engine),Tier1/2/3,3.5,11.3,0.0,0.0,0.0,1006005,"CF Industries Nitrogen, LLC-Port Neal Nitrogen Complex",1182 260TH ST.,SERGEANT BLUFF,IA,51054,42.32786,-96.36489,WOODBURY COUNTY,325311,
1006005,110000414089.0,325311,"C,G,PP,V","Chemicals, Suppliers of CO2",CP-1,OCS (Other combustion source),Tier1/2/3,480.0,241179.7,113.75,135.59,0.0,1006005,"CF Industries Nitrogen, LLC-Port Neal Nitrogen Complex",1182 260TH ST.,SERGEANT BLUFF,IA,51054,42.32786,-96.36489,WOODBURY COUNTY,325311,
1006005,110000414089.0,325311,"C,G,PP,V","Chemicals, Suppliers of CO2",EU-650,RICE (Reciprocating internal combustion engine),Tier1/2/3,3.5,5.7,0.0,0.0,0.0,1006005,"CF Industries Nitrogen, LLC-Port Neal Nitrogen Complex",1182 260TH ST.,SERGEANT BLUFF,IA,51054,42.32786,-96.36489,WOODBURY COUNTY,325311,
1006005,110000414089.0,325311,"C,G,PP,V","Chemicals, Suppliers of CO2",CP-1,OCS (Other combustion source),Tier1/2/3,480.0,245069.6,115.5,137.676,0.0,1006005,"CF Industries Nitrogen, LLC-Port Neal Nitrogen Complex",1182 260TH ST.,SERGEANT BLUFF,IA,51054,42.32786,-96.36489,WOODBURY COUNTY,325311,
1006005,110000414089.0,325311,"C,G,PP,V","Chemicals, Suppliers of CO2",CP-1,OCS (Other combustion source),Tier1/2/3,391.0,245020.7,115.5,137.676,0.0,1006005,"CF Industries Nitrogen, LLC-Port Neal Nitrogen Complex",1182 260TH ST.,SERGEANT BLUFF,IA,51054,42.32786,-96.36489,WOODBURY COUNTY,325311,
1006005,110000414089.0,325311,"C,G,PP,V","Chemicals, Suppliers of CO2",CP-1,OCS (Other combustion source),Tier1/2/3,391.0,232288.4,109.5,130.524,0.0,1006005,"CF Industries Nitrogen, LLC-Port Neal Nitrogen Complex",1182 260TH ST.,SERGEANT BLUFF,IA,51054,42.32786,-96.36489,WOODBURY COUNTY,325311,
1006005,110000414089.0,325311,"C,G,PP,V","Chemicals, Suppliers of CO2",CP-1,OCS (Other combustion source),Tier1/2/3,391.0,235202.9,111.0,132.312,0.0,1006005,"CF Industries Nitrogen, LLC-Port Neal Nitrogen Complex",1182 260TH ST.,SERGEANT BLUFF,IA,51054,42.32786,-96.36489,WOODBURY COUNTY,325311,
1007770,110000589373.0,325311,"C,G,PP,V","Chemicals, Suppliers of CO2",Emergency Firewater Pump Engine,RICE (Reciprocating internal combustion engine),Tier1/2/3,2.0,2.0,0.0,0.0,0.0,1007770,CHEROKEE NITROGEN,1080 INDUSTRIAL DRIVE,CHEROKEE,AL,35616,34.80302,-87.93974,COLBERT COUNTY,325311,
1007770,110000589373.0,325311,"C,G,PP,V","Chemicals, Suppliers of CO2",GP-Nat Gas Fired Equip (<100 MMBtu/hr),OCS (Other combustion source),Tier1/2/3,97.6,12957.8,6.0,7.152,0.0,1007770,CHEROKEE NITROGEN,1080 INDUSTRIAL DRIVE,CHEROKEE,AL,35616,34.80302,-87.93974,COLBERT COUNTY,325311,
1007770,110000589373.0,325311,"C,G,PP,V","Chemicals, Suppliers of CO2",Synthetic Ammonia Plant Reformer,PRH (Process Heater),Tier1/2/3,288.0,100254.6,47.25,56.322,0.0,1007770,CHEROKEE NITROGEN,1080 INDUSTRIAL DRIVE,CHEROKEE,AL,35616,34.80302,-87.93974,COLBERT COUNTY,325311,
1007770,110000589373.0,325311,"C,G,PP,V","Chemicals, Suppliers of CO2",Emergency Firewater Pump Engine,RICE (Reciprocating internal combustion engine),Tier1/2/3,2.0,2.9,0.0,0.0,0.0,1007770,CHEROKEE NITROGEN,1080 INDUSTRIAL DRIVE,CHEROKEE,AL,35616,34.80302,-87.93974,COLBERT COUNTY,325311,
1007770,110000589373.0,325311,"C,G,PP,V","Chemicals, Suppliers of CO2",GP-Nat Gas Fired Equip (<100 MMBtu/hr),OCS (Other combustion source),Tier1/2/3,97.6,16555.9,7.75,9.238,0.0,1007770,CHEROKEE NITROGEN,1080 INDUSTRIAL DRIVE,CHEROKEE,AL,35616,34.80302,-87.93974,COLBERT COUNTY,325311,
1007770,110000589373.0,325311,"C,G,PP,V","Chemicals, Suppliers of CO2",Synthetic Ammonia Plant Reformer,PRH (Process Heater),Tier1/2/3,288.0,94634.0,44.5,53.044,0.0,1007770,CHEROKEE NITROGEN,1080 INDUSTRIAL DRIVE,CHEROKEE,AL,35616,34.80302,-87.93974,COLBERT COUNTY,325311,
1007770,110000589373.0,325311,"C,G,PP,V","Chemicals, Suppliers of CO2",Emergency Firewater Pump Engine,RICE (Reciprocating internal combustion engine),Tier1/2/3,2.0,0.6,0.0,0.0,0.0,1007770,CHEROKEE NITROGEN,1080 INDUSTRIAL DRIVE,CHEROKEE,AL,35616,34.80302,-87.93974,COLBERT COUNTY,325311,
1007770,110000589373.0,325311,"C,G,PP,V","Chemicals, Suppliers of CO2",GP-Nat Gas Fired Equip (<100 MMBtu/hr),OCS (Other combustion source),Tier1/2/3,97.6,19657.2,9.25,11.026,0.0,1007770,CHEROKEE NITROGEN,1080 INDUSTRIAL DRIVE,CHEROKEE,AL,35616,34.80302,-87.93974,COLBERT COUNTY,325311,
1007770,110000589373.0,325311,"C,G,PP,V","Chemicals, Suppliers of CO2",Synthetic Ammonia Plant Reformer,PRH (Process Heater),Tier1/2/3,288.0,81782.1,38.5,45.892,0.0,1007770,CHEROKEE NITROGEN,1080 INDUSTRIAL DRIVE,CHEROKEE,AL,35616,34.80302,-87.93974,COLBERT COUNTY,325311,
1007770,110000589373.0,325311,"C,G,PP,V","Chemicals, Suppliers of CO2",Emergency Firewater Pump Engine,RICE (Reciprocating internal combustion engine),Tier1/2/3,2.0,1.1,0.0,0.0,0.0,1007770,CHEROKEE NITROGEN,1080 INDUSTRIAL DRIVE,CHEROKEE,AL,35616,34.80302,-87.93974,COLBERT COUNTY,325311,
1007770,110000589373.0,325311,"C,G,PP,V","Chemicals, Suppliers of CO2",GP-Nat Gas Fired Equip (<100 MMBtu/hr),OCS (Other combustion source),Tier1/2/3,97.6,18579.3,8.75,10.43,0.0,1007770,CHEROKEE NITROGEN,1080 INDUSTRIAL DRIVE,CHEROKEE,AL,35616,34.80302,-87.93974,COLBERT COUNTY,325311,
1007770,110000589373.0,325311,"C,G,PP,V","Chemicals, Suppliers of CO2",Synthetic Ammonia Plant Reformer,PRH (Process Heater),Tier1/2/3,288.0,96994.7,45.75,54.534,0.0,1007770,CHEROKEE NITROGEN,1080 INDUSTRIAL DRIVE,CHEROKEE,AL,35616,34.80302,-87.93974,COLBERT COUNTY,325311,
1007770,110000589373.0,325311,"C,G,PP,V","Chemicals, Suppliers of CO2",Emergency Firewater Pump Engine,RICE (Reciprocating internal combustion engine),Tier1/2/3,2.0,11.9,0.0,0.0,0.0,1007770,CHEROKEE NITROGEN,1080 INDUSTRIAL DRIVE,CHEROKEE,AL,35616,34.80302,-87.93974,COLBERT COUNTY,325311,
1007770,110000589373.0,325311,"C,G,PP,V","Chemicals, Suppliers of CO2",GP-Nat Gas Fired Equip (<100 MMBtu/hr),OCS (Other combustion source),Tier1/2/3,97.6,16339.8,7.75,9.238,0.0,1007770,CHEROKEE NITROGEN,1080 INDUSTRIAL DRIVE,CHEROKEE,AL,35616,34.80302,-87.93974,COLBERT COUNTY,325311,
1007770,110000589373.0,325311,"C,G,PP,V","Chemicals, Suppliers of CO2",Synthetic Ammonia Plant Reformer,PRH (Process Heater),Tier1/2/3,288.0,93143.0,44.0,52.448,0.0,1007770,CHEROKEE NITROGEN,1080 INDUSTRIAL DRIVE,CHEROKEE,AL,35616,34.80302,-87.93974,COLBERT COUNTY,325311,
1007770,110000589373.0,325311,"C,G,PP,V","Chemicals, Suppliers of CO2",Emergency Firewater Pump Engine,RICE (Reciprocating internal combustion engine),Tier1/2/3,2.0,4.8,0.0,0.0,0.0,1007770,CHEROKEE NITROGEN,1080 INDUSTRIAL DRIVE,CHEROKEE,AL,35616,34.80302,-87.93974,COLBERT COUNTY,325311,
1007770,110000589373.0,325311,"C,G,PP,V","Chemicals, Suppliers of CO2",GP-Nat Gas Fired Equip (<100 MMBtu/hr),OCS (Other combustion source),Tier1/2/3,97.6,20242.2,9.5,11.324,0.0,1007770,CHEROKEE NITROGEN,1080 INDUSTRIAL DRIVE,CHEROKEE,AL,35616,34.80302,-87.93974,COLBERT COUNTY,325311,
1007770,110000589373.0,325311,"C,G,PP,V","Chemicals, Suppliers of CO2",Synthetic Ammonia Plant Reformer,PRH (Process Heater),Tier1/2/3,288.0,85983.3,40.5,48.276,0.0,1007770,CHEROKEE NITROGEN,1080 INDUSTRIAL DRIVE,CHEROKEE,AL,35616,34.80302,-87.93974,COLBERT COUNTY,325311,
1007770,110000589373.0,325311,"C,G,PP,V","Chemicals, Suppliers of CO2",Emergency Firewater Pump Engine,RICE (Reciprocating internal combustion engine),Tier1/2/3,2.0,12.7,0.0,0.0,0.0,1007770,CHEROKEE NITROGEN,1080 INDUSTRIAL DRIVE,CHEROKEE,AL,35616,34.80302,-87.93974,COLBERT COUNTY,325311,
1007770,110000589373.0,325311,"C,G,PP,V","Chemicals, Suppliers of CO2",GP-Nat Gas Fired Equip (<100 MMBtu/hr),OCS (Other combustion source),Tier1/2/3,97.6,20430.5,9.75,11.622,0.0,1007770,CHEROKEE NITROGEN,1080 INDUSTRIAL DRIVE,CHEROKEE,AL,35616,34.80302,-87.93974,COLBERT COUNTY,325311,
1007770,110000589373.0,325311,"C,G,PP,V","Chemicals, Suppliers of CO2",Synthetic Ammonia Plant Reformer,PRH (Process Heater),Tier1/2/3,288.0,83195.7,39.25,46.786,0.0,1007770,CHEROKEE NITROGEN,1080 INDUSTRIAL DRIVE,CHEROKEE,AL,35616,34.80302,-87.93974,COLBERT COUNTY,325311,
1007770,110000589373.0,325311,"C,G,PP,V","Chemicals, Suppliers of CO2",Emergency Firewater Pump Engine,RICE (Reciprocating internal combustion engine),Tier1/2/3,2.0,3.3,0.0,0.0,0.0,1007770,CHEROKEE NITROGEN,1080 INDUSTRIAL DRIVE,CHEROKEE,AL,35616,34.80302,-87.93974,COLBERT COUNTY,325311,
1007770,110000589373.0,325311,"C,G,PP,V","Chemicals, Suppliers of CO2",GP-Nat Gas Fired Equip (<100 MMBtu/hr),OCS (Other combustion source),Tier1/2/3,97.6,17470.5,8.25,9.834,0.0,1007770,CHEROKEE NITROGEN,1080 INDUSTRIAL DRIVE,CHEROKEE,AL,35616,34.80302,-87.93974,COLBERT COUNTY,325311,
1007770,110000589373.0,325311,"C,G,PP,V","Chemicals, Suppliers of CO2",Synthetic Ammonia Plant Reformer,PRH (Process Heater),Tier1/2/3,288.0,66901.3,31.5,37.548,0.0,1007770,CHEROKEE NITROGEN,1080 INDUSTRIAL DRIVE,CHEROKEE,AL,35616,34.80302,-87.93974,COLBERT COUNTY,325311,
1007770,110000589373.0,325311,"C,G,PP,V","Chemicals, Suppliers of CO2",Emergency Firewater Pump Engine,RICE (Reciprocating internal combustion engine),Tier1/2/3,2.0,6.0,0.0,0.0,0.0,1007770,CHEROKEE NITROGEN,1080 INDUSTRIAL DRIVE,CHEROKEE,AL,35616,34.80302,-87.93974,COLBERT COUNTY,325311,
1007770,110000589373.0,325311,"C,G,PP,V","Chemicals, Suppliers of CO2",GP-Nat Gas Fired Equip (<100 MMBtu/hr),OCS (Other combustion source),Tier1/2/3,97.6,15415.8,7.5,8.642,0.0,1007770,CHEROKEE NITROGEN,1080 INDUSTRIAL DRIVE,CHEROKEE,AL,35616,34.80302,-87.93974,COLBERT COUNTY,325311,
1007770,110000589373.0,325311,"C,G,PP,V","Chemicals, Suppliers of CO2",Synthetic Ammonia Plant Reformer,PRH (Process Heater),Tier1/2/3,288.0,100165.8,47.25,56.322,0.0,1007770,CHEROKEE NITROGEN,1080 INDUSTRIAL DRIVE,CHEROKEE,AL,35616,34.80302,-87.93974,COLBERT COUNTY,325311,
1007770,110000589373.0,325311,"C,G,PP,V","Chemicals, Suppliers of CO2",Emergency Firewater Pump Engine,RICE (Reciprocating internal combustion engine),Tier1/2/3,2.0,7.3,0.0,0.0,0.0,1007770,CHEROKEE NITROGEN,1080 INDUSTRIAL DRIVE,CHEROKEE,AL,35616,34.80302,-87.93974,COLBERT COUNTY,325311,
1007770,110000589373.0,325311,"C,G,PP,V","Chemicals, Suppliers of CO2",GP-Nat Gas Fired Equip (<100 MMBtu/hr),OCS (Other combustion source),Tier1/2/3,97.6,13022.8,6.25,7.45,0.0,1007770,CHEROKEE NITROGEN,1080 INDUSTRIAL DRIVE,CHEROKEE,AL,35616,34.80302,-87.93974,COLBERT COUNTY,325311,
1007770,110000589373.0,325311,"C,G,PP,V","Chemicals, Suppliers of CO2",Synthetic Ammonia Plant Reformer,PRH (Process Heater),Tier1/2/3,288.0,115693.1,54.5,64.964,0.0,1007770,CHEROKEE NITROGEN,1080 INDUSTRIAL DRIVE,CHEROKEE,AL,35616,34.80302,-87.93974,COLBERT COUNTY,325311,
1005502,110000606158.0,325311,"C,G,PP,V","Chemicals, Suppliers of CO2",GP-1,OCS (Other combustion source),Tier1/2/3,170.0,95904.0,45.25,53.938,0.0,1005502,"East Dubuque Nitrogen Fertilizers, LLC",16675 HIGHWAY 20 WEST,EAST DUBUQUE,IL,61025,42.44311,-90.55686,JO DAVIESS,325311,
1005502,110000606158.0,325311,"C,G,PP,V","Chemicals, Suppliers of CO2",R-1,PRH (Process Heater),Tier1/2/3,495.0,195699.4,92.25,109.962,0.0,1005502,"East Dubuque Nitrogen Fertilizers, LLC",16675 HIGHWAY 20 WEST,EAST DUBUQUE,IL,61025,42.44311,-90.55686,JO DAVIESS,325311,
1005502,110000606158.0,325311,"C,G,PP,V","Chemicals, Suppliers of CO2",GP-1,OCS (Other combustion source),Tier1/2/3,170.0,103449.7,48.75,58.11,0.0,1005502,"East Dubuque Nitrogen Fertilizers, LLC",16675 HIGHWAY 20 WEST,EAST DUBUQUE,IL,61025,42.44311,-90.55686,JO DAVIESS,325311,
1005502,110000606158.0,325311,"C,G,PP,V","Chemicals, Suppliers of CO2",R-1,PRH (Process Heater),Tier1/2/3,495.0,149500.6,70.5,84.036,0.0,1005502,"East Dubuque Nitrogen Fertilizers, LLC",16675 HIGHWAY 20 WEST,EAST DUBUQUE,IL,61025,42.44311,-90.55686,JO DAVIESS,325311,
1005502,110000606158.0,325311,"C,G,PP,V","Chemicals, Suppliers of CO2",Temp Boiler,"OB (Boiler, other)",Tier1/2/3,30.3,324.3,0.25,0.894,0.0,1005502,"East Dubuque Nitrogen Fertilizers, LLC",16675 HIGHWAY 20 WEST,EAST DUBUQUE,IL,61025,42.44311,-90.55686,JO DAVIESS,325311,
1005502,110000606158.0,325311,"C,G,PP,V","Chemicals, Suppliers of CO2",GP-1,OCS (Other combustion source),Tier1/2/3,170.0,100693.2,47.5,56.62,0.0,1005502,"East Dubuque Nitrogen Fertilizers, LLC",16675 HIGHWAY 20 WEST,EAST DUBUQUE,IL,61025,42.44311,-90.55686,JO DAVIESS,325311,
1005502,110000606158.0,325311,"C,G,PP,V","Chemicals, Suppliers of CO2",R-1,PRH (Process Heater),Tier1/2/3,495.0,172559.5,81.25,96.85,0.0,1005502,"East Dubuque Nitrogen Fertilizers, LLC",16675 HIGHWAY 20 WEST,EAST DUBUQUE,IL,61025,42.44311,-90.55686,JO DAVIESS,325311,
1005502,110000606158.0,325311,"C,G,PP,V","Chemicals, Suppliers of CO2",GP-1,OCS (Other combustion source),Tier1/2/3,150.0,91257.1,43.0,51.256,0.0,1005502,"East Dubuque Nitrogen Fertilizers, LLC",16675 HIGHWAY 20 WEST,EAST DUBUQUE,IL,61025,42.44311,-90.55686,JO DAVIESS,325311,
1005502,110000606158.0,325311,"C,G,PP,V","Chemicals, Suppliers of CO2",R-1,PRH (Process Heater),Tier1/2/3,495.0,166192.0,78.25,93.274,0.0,1005502,"East Dubuque Nitrogen Fertilizers, LLC",16675 HIGHWAY 20 WEST,EAST DUBUQUE,IL,61025,42.44311,-90.55686,JO DAVIESS,325311,
1005502,110000606158.0,325311,"C,G,PP,V","Chemicals, Suppliers of CO2",GP-1,OCS (Other combustion source),Tier1/2/3,150.0,94941.7,44.75,53.342,0.0,1005502,"East Dubuque Nitrogen Fertilizers, LLC",16675 HIGHWAY 20 WEST,EAST DUBUQUE,IL,61025,42.44311,-90.55686,JO DAVIESS,325311,
1005502,110000606158.0,325311,"C,G,PP,V","Chemicals, Suppliers of CO2",R-1,PRH (Process Heater),Tier1/2/3,371.5,161076.6,76.0,90.592,0.0,1005502,"East Dubuque Nitrogen Fertilizers, LLC",16675 HIGHWAY 20 WEST,EAST DUBUQUE,IL,61025,42.44311,-90.55686,JO DAVIESS,325311,
1005502,110000606158.0,325311,"C,G,PP,V","Chemicals, Suppliers of CO2",GP-1,OCS (Other combustion source),Tier1/2/3,150.0,95241.0,44.75,53.342,0.0,1005502,"East Dubuque Nitrogen Fertilizers, LLC",16675 HIGHWAY 20 WEST,EAST DUBUQUE,IL,61025,42.44311,-90.55686,JO DAVIESS,325311,
1005502,110000606158.0,325311,"C,G,PP,V","Chemicals, Suppliers of CO2",R-1,PRH (Process Heater),Tier1/2/3,371.5,164920.6,77.75,92.678,0.0,1005502,"East Dubuque Nitrogen Fertilizers, LLC",16675 HIGHWAY 20 WEST,EAST DUBUQUE,IL,61025,42.44311,-90.55686,JO DAVIESS,325311,
1005502,110000606158.0,325311,"C,G,PP,V","Chemicals, Suppliers of CO2",GP-1,OCS (Other combustion source),Tier1/2/3,150.0,86611.1,40.75,48.574,0.0,1005502,"East Dubuque Nitrogen Fertilizers, LLC",16675 HIGHWAY 20 WEST,EAST DUBUQUE,IL,61025,42.44311,-90.55686,JO DAVIESS,325311,
1005502,110000606158.0,325311,"C,G,PP,V","Chemicals, Suppliers of CO2",R-1,PRH (Process Heater),Tier1/2/3,371.5,153414.4,72.25,86.122,0.0,1005502,"East Dubuque Nitrogen Fertilizers, LLC",16675 HIGHWAY 20 WEST,EAST DUBUQUE,IL,61025,42.44311,-90.55686,JO DAVIESS,325311,
1005502,110000606158.0,325311,"C,G,PP,V","Chemicals, Suppliers of CO2",GP-1,OCS (Other combustion source),Tier1/2/3,170.0,107128.1,50.5,60.196,0.0,1005502,"East Dubuque Nitrogen Fertilizers, LLC",16675 HIGHWAY 20 WEST,EAST DUBUQUE,IL,61025,42.44311,-90.55686,JO DAVIESS,325311,
1005502,110000606158.0,325311,"C,G,PP,V","Chemicals, Suppliers of CO2",R-1,PRH (Process Heater),Tier1/2/3,371.5,106762.9,50.25,59.898,0.0,1005502,"East Dubuque Nitrogen Fertilizers, LLC",16675 HIGHWAY 20 WEST,EAST DUBUQUE,IL,61025,42.44311,-90.55686,JO DAVIESS,325311,
1005502,110000606158.0,325311,"C,G,PP,V","Chemicals, Suppliers of CO2",GP-1,OCS (Other combustion source),Tier1/2/3,170.0,105664.1,49.75,59.302,0.0,1005502,"East Dubuque Nitrogen Fertilizers, LLC",16675 HIGHWAY 20 WEST,EAST DUBUQUE,IL,61025,42.44311,-90.55686,JO DAVIESS,325311,
1005502,110000606158.0,325311,"C,G,PP,V","Chemicals, Suppliers of CO2",R-1,PRH (Process Heater),Tier1/2/3,371.5,124159.1,58.5,69.732,0.0,1005502,"East Dubuque Nitrogen Fertilizers, LLC",16675 HIGHWAY 20 WEST,EAST DUBUQUE,IL,61025,42.44311,-90.55686,JO DAVIESS,325311,
1005502,110000606158.0,325311,"C,G,PP,V","Chemicals, Suppliers of CO2",GP-1,OCS (Other combustion source),Tier1/2/3,170.0,94127.5,44.5,53.64,0.0,1005502,"East Dubuque Nitrogen Fertilizers, LLC",16675 HIGHWAY 20 WEST,EAST DUBUQUE,IL,61025,42.44311,-90.55686,JO DAVIESS,325311,
1005502,110000606158.0,325311,"C,G,PP,V","Chemicals, Suppliers of CO2",R-1,PRH (Process Heater),Tier1/2/3,371.5,117814.8,55.5,65.56,0.0,1005502,"East Dubuque Nitrogen Fertilizers, LLC",16675 HIGHWAY 20 WEST,EAST DUBUQUE,IL,61025,42.44311,-90.55686,JO DAVIESS,325311,
1006575,110000596846.0,325311,"C,G,PP,V","Chemicals, Suppliers of CO2",CP-1,OCS (Other combustion source),Tier1/2/3,615.59,212504.8,100.0,119.2,0.0,1006575,"KOCH FERTILIZER BEATRICE, LLC",21178 SOUTHWEST 89TH ROAD,BEATRICE,NE,68310,40.319147,-96.841297,GAGE COUNTY,325311,
1006575,110000596846.0,325311,"C,G,PP,V","Chemicals, Suppliers of CO2",Diesel Engine,RICE (Reciprocating internal combustion engine),Tier1/2/3,3.5,7.1,0.0,0.0,0.0,1006575,"KOCH FERTILIZER BEATRICE, LLC",21178 SOUTHWEST 89TH ROAD,BEATRICE,NE,68310,40.319147,-96.841297,GAGE COUNTY,325311,
1006575,110000596846.0,325311,"C,G,PP,V","Chemicals, Suppliers of CO2",CP-1,OCS (Other combustion source),Tier1/2/3,615.59,212679.9,100.25,119.498,0.0,1006575,"KOCH FERTILIZER BEATRICE, LLC",21178 SOUTHWEST 89TH ROAD,BEATRICE,NE,68310,40.319147,-96.841297,GAGE COUNTY,325311,
1006575,110000596846.0,325311,"C,G,PP,V","Chemicals, Suppliers of CO2",Diesel Engine,RICE (Reciprocating internal combustion engine),Tier1/2/3,3.5,4.3,0.0,0.0,0.0,1006575,"KOCH FERTILIZER BEATRICE, LLC",21178 SOUTHWEST 89TH ROAD,BEATRICE,NE,68310,40.319147,-96.841297,GAGE COUNTY,325311,
1006575,110000596846.0,325311,"C,G,PP,V","Chemicals, Suppliers of CO2",CP-1,OCS (Other combustion source),Tier1/2/3,615.59,200806.7,94.5,112.644,0.0,1006575,"KOCH FERTILIZER BEATRICE, LLC",21178 SOUTHWEST 89TH ROAD,BEATRICE,NE,68310,40.319147,-96.841297,GAGE COUNTY,325311,
1006575,110000596846.0,325311,"C,G,PP,V","Chemicals, Suppliers of CO2",Diesel Engine,RICE (Reciprocating internal combustion engine),Tier1/2/3,3.5,39.4,0.0,0.0,0.0,1006575,"KOCH FERTILIZER BEATRICE, LLC",21178 SOUTHWEST 89TH ROAD,BEATRICE,NE,68310,40.319147,-96.841297,GAGE COUNTY,325311,
1006575,110000596846.0,325311,"C,G,PP,V","Chemicals, Suppliers of CO2",CP-1,OCS (Other combustion source),Tier1/2/3,615.59,207371.8,97.75,116.518,0.0,1006575,"KOCH FERTILIZER BEATRICE, LLC",21178 SOUTHWEST 89TH ROAD,BEATRICE,NE,68310,40.319147,-96.841297,GAGE COUNTY,325311,
1006575,110000596846.0,325311,"C,G,PP,V","Chemicals, Suppliers of CO2",Diesel Engine,RICE (Reciprocating internal combustion engine),Tier1/2/3,3.5,7.6,0.0,0.0,0.0,1006575,"KOCH FERTILIZER BEATRICE, LLC",21178 SOUTHWEST 89TH ROAD,BEATRICE,NE,68310,40.319147,-96.841297,GAGE COUNTY,325311,
1006575,110000596846.0,325311,"C,G,PP,V","Chemicals, Suppliers of CO2",CP-1,OCS (Other combustion source),Tier1/2/3,615.59,210519.7,99.25,118.306,0.0,1006575,"KOCH FERTILIZER BEATRICE, LLC",21178 SOUTHWEST 89TH ROAD,BEATRICE,NE,68310,40.319147,-96.841297,GAGE COUNTY,325311,
1006575,110000596846.0,325311,"C,G,PP,V","Chemicals, Suppliers of CO2",Diesel- engine-,RICE (Reciprocating internal combustion engine),Tier1/2/3,3.5,4.3,0.0,0.0,0.0,1006575,"KOCH FERTILIZER BEATRICE, LLC",21178 SOUTHWEST 89TH ROAD,BEATRICE,NE,68310,40.319147,-96.841297,GAGE COUNTY,325311,
1006575,110000596846.0,325311,"C,G,PP,V","Chemicals, Suppliers of CO2",CP-1,OCS (Other combustion source),Tier1/2/3,615.59,170904.0,80.5,95.956,0.0,1006575,"KOCH FERTILIZER BEATRICE, LLC",21178 SOUTHWEST 89TH ROAD,BEATRICE,NE,68310,40.319147,-96.841297,GAGE COUNTY,325311,
1006575,110000596846.0,325311,"C,G,PP,V","Chemicals, Suppliers of CO2",Diesel- engine-,RICE (Reciprocating internal combustion engine),Tier1/2/3,3.5,7.2,0.0,0.0,0.0,1006575,"KOCH FERTILIZER BEATRICE, LLC",21178 SOUTHWEST 89TH ROAD,BEATRICE,NE,68310,40.319147,-96.841297,GAGE COUNTY,325311,
1006575,110000596846.0,325311,"C,G,PP,V","Chemicals, Suppliers of CO2",CP-1,OCS (Other combustion source),Tier1/2/3,509.0,203198.9,95.75,114.134,0.0,1006575,"KOCH FERTILIZER BEATRICE, LLC",21178 SOUTHWEST 89TH ROAD,BEATRICE,NE,68310,40.319147,-96.841297,GAGE COUNTY,325311,
1006575,110000596846.0,325311,"C,G,PP,V","Chemicals, Suppliers of CO2",Diesel- engine-,RICE (Reciprocating internal combustion engine),Tier1/2/3,3.5,2.6,0.0,0.0,0.0,1006575,"KOCH FERTILIZER BEATRICE, LLC",21178 SOUTHWEST 89TH ROAD,BEATRICE,NE,68310,40.319147,-96.841297,GAGE COUNTY,325311,
1006575,110000596846.0,325311,"C,G,PP,V","Chemicals, Suppliers of CO2",CP-1,OCS (Other combustion source),Tier1/2/3,509.0,210923.8,99.5,118.604,0.0,1006575,"KOCH FERTILIZER BEATRICE, LLC",21178 SOUTHWEST 89TH ROAD,BEATRICE,NE,68310,40.319147,-96.841297,GAGE COUNTY,325311,
1006575,110000596846.0,325311,"C,G,PP,V","Chemicals, Suppliers of CO2",Diesel- engine-,RICE (Reciprocating internal combustion engine),Tier1/2/3,3.5,7.5,0.0,0.0,0.0,1006575,"KOCH FERTILIZER BEATRICE, LLC",21178 SOUTHWEST 89TH ROAD,BEATRICE,NE,68310,40.319147,-96.841297,GAGE COUNTY,325311,
1006575,110000596846.0,325311,"C,G,PP,V","Chemicals, Suppliers of CO2",CP-1,OCS (Other combustion source),Tier1/2/3,509.0,188682.4,89.0,106.088,0.0,1006575,"KOCH FERTILIZER BEATRICE, LLC",21178 SOUTHWEST 89TH ROAD,BEATRICE,NE,68310,40.319147,-96.841297,GAGE COUNTY,325311,
1006575,110000596846.0,325311,"C,G,PP,V","Chemicals, Suppliers of CO2",Diesel- engine-,RICE (Reciprocating internal combustion engine),Tier1/2/3,3.5,23.1,0.0,0.0,0.0,1006575,"KOCH FERTILIZER BEATRICE, LLC",21178 SOUTHWEST 89TH ROAD,BEATRICE,NE,68310,40.319147,-96.841297,GAGE COUNTY,325311,
1006575,110000596846.0,325311,"C,G,PP,V","Chemicals, Suppliers of CO2",CP-1,OCS (Other combustion source),Tier1/2/3,509.0,206808.0,97.5,116.22,0.0,1006575,"KOCH FERTILIZER BEATRICE, LLC",21178 SOUTHWEST 89TH ROAD,BEATRICE,NE,68310,40.319147,-96.841297,GAGE COUNTY,325311,
1006575,110000596846.0,325311,"C,G,PP,V","Chemicals, Suppliers of CO2",Diesel- engine-,RICE (Reciprocating internal combustion engine),Tier1/2/3,3.5,0.8,0.0,0.0,0.0,1006575,"KOCH FERTILIZER BEATRICE, LLC",21178 SOUTHWEST 89TH ROAD,BEATRICE,NE,68310,40.319147,-96.841297,GAGE COUNTY,325311,
1007046,110010507861.0,325311,"C,G,PP,V","Chemicals, Suppliers of CO2",CP-1 natural gas,OCS (Other combustion source),Tier1/2/3,550.0,229111.4,108.0,128.736,0.0,1007046,"Koch Fertilizer Ft. Dodge, LLC",3162 200TH STREET,Duncombe,IA,50532,42.499406,-94.017177,WEBSTER,325311,
1007046,110010507861.0,325311,"C,G,PP,V","Chemicals, Suppliers of CO2",CP-1 natural gas,OCS (Other combustion source),Tier1/2/3,550.0,202441.1,95.5,113.836,0.0,1007046,"Koch Fertilizer Ft. Dodge, LLC",3162 200TH STREET,Duncombe,IA,50532,42.499406,-94.017177,WEBSTER,325311,
1007046,110010507861.0,325311,"C,G,PP,V","Chemicals, Suppliers of CO2",CP-1 natural gas,OCS (Other combustion source),Tier1/2/3,550.0,259198.9,122.25,145.722,0.0,1007046,"Koch Fertilizer Ft. Dodge, LLC",3162 200TH STREET,Duncombe,IA,50532,42.499406,-94.017177,WEBSTER,325311,
1007046,110010507861.0,325311,"C,G,PP,V","Chemicals, Suppliers of CO2",CP-1 natural gas,OCS (Other combustion source),Tier1/2/3,550.0,250257.2,118.0,140.656,0.0,1007046,"Koch Fertilizer Ft. Dodge, LLC",3162 200TH STREET,Duncombe,IA,50532,42.499406,-94.017177,WEBSTER,325311,
1007046,110010507861.0,325311,"C,G,PP,V","Chemicals, Suppliers of CO2",CP-1 natural gas,OCS (Other combustion source),Tier1/2/3,550.0,220780.6,104.0,123.968,0.0,1007046,"Koch Fertilizer Ft. Dodge, LLC",3162 200TH STREET,Duncombe,IA,50532,42.499406,-94.017177,WEBSTER,325311,
1007046,110010507861.0,325311,"C,G,PP,V","Chemicals, Suppliers of CO2",CP-1 natural gas,OCS (Other combustion source),Tier1/2/3,550.0,250176.9,117.75,140.358,0.0,1007046,"Koch Fertilizer Ft. Dodge, LLC",3162 200TH STREET,Duncombe,IA,50532,42.499406,-94.017177,WEBSTER,325311,
1007046,110010507861.0,325311,"C,G,PP,V","Chemicals, Suppliers of CO2",CP-1 natural gas,OCS (Other combustion source),Tier1/2/3,550.0,225438.7,106.25,125.16,0.0,1007046,"Koch Fertilizer Ft. Dodge, LLC",3162 200TH STREET,Duncombe,IA,50532,42.499406,-94.017177,WEBSTER,325311,
1007046,110010507861.0,325311,"C,G,PP,V","Chemicals, Suppliers of CO2",CP-1 natural gas,OCS (Other combustion source),Tier1/2/3,550.0,245895.7,116.0,138.272,0.0,1007046,"Koch Fertilizer Ft. Dodge, LLC",3162 200TH STREET,Duncombe,IA,50532,42.499406,-94.017177,WEBSTER,325311,
1007046,110010507861.0,325311,"C,G,PP,V","Chemicals, Suppliers of CO2",CP-1 natural gas,OCS (Other combustion source),Tier1/2/3,550.0,188007.3,88.75,105.79,0.0,1007046,"Koch Fertilizer Ft. Dodge, LLC",3162 200TH STREET,Duncombe,IA,50532,42.499406,-94.017177,WEBSTER,325311,
1005867,110000598531.0,325311,"C,G,PP,V","Chemicals, Suppliers of CO2",GP-Natural Gas Combustion Sources,OCS (Other combustion source),Tier1/2/3,80.0,13031.3,6.25,7.45,0.0,1005867,PRYOR CHEMICAL COMPANY,4463 HUNT STREET,PRYOR,OK,74361,36.241247,-95.278349,MAYES,325311,
1005867,110000598531.0,325311,"C,G,PP,V","Chemicals, Suppliers of CO2",Primary Reformer,F (Furnace),Tier1/2/3,300.0,79054.9,37.25,44.402,0.0,1005867,PRYOR CHEMICAL COMPANY,4463 HUNT STREET,PRYOR,OK,74361,36.241247,-95.278349,MAYES,325311,
1005867,110000598531.0,325311,"C,G,PP,V","Chemicals, Suppliers of CO2",GP-Natural Gas Combustion Sources,OCS (Other combustion source),Tier1/2/3,80.0,14379.9,6.75,8.046,0.0,1005867,PRYOR CHEMICAL COMPANY,4463 HUNT STREET,PRYOR,OK,74361,36.241247,-95.278349,MAYES,325311,
1005867,110000598531.0,325311,"C,G,PP,V","Chemicals, Suppliers of CO2",Primary Reformer,F (Furnace),Tier1/2/3,300.0,64706.0,30.5,36.356,0.0,1005867,PRYOR CHEMICAL COMPANY,4463 HUNT STREET,PRYOR,OK,74361,36.241247,-95.278349,MAYES,325311,
1005867,110000598531.0,325311,"C,G,PP,V","Chemicals, Suppliers of CO2",GP-Natural Gas Combustion Sources,OCS (Other combustion source),Tier1/2/3,80.0,24479.0,11.5,13.708,0.0,1005867,PRYOR CHEMICAL COMPANY,4463 HUNT STREET,PRYOR,OK,74361,36.241247,-95.278349,MAYES,325311,
1005867,110000598531.0,325311,"C,G,PP,V","Chemicals, Suppliers of CO2",Primary Reformer,F (Furnace),Tier1/2/3,300.0,79019.4,37.25,44.402,0.0,1005867,PRYOR CHEMICAL COMPANY,4463 HUNT STREET,PRYOR,OK,74361,36.241247,-95.278349,MAYES,325311,
1005867,110000598531.0,325311,"C,G,PP,V","Chemicals, Suppliers of CO2",GP-Natural Gas Combustion Sources,OCS (Other combustion source),Tier1/2/3,80.0,21475.5,10.0,11.92,0.0,1005867,PRYOR CHEMICAL COMPANY,4463 HUNT STREET,PRYOR,OK,74361,36.241247,-95.278349,MAYES,325311,
1005867,110000598531.0,325311,"C,G,PP,V","Chemicals, Suppliers of CO2",Primary Reformer,F (Furnace),Tier1/2/3,300.0,52896.8,25.0,29.8,0.0,1005867,PRYOR CHEMICAL COMPANY,4463 HUNT STREET,PRYOR,OK,74361,36.241247,-95.278349,MAYES,325311,
1005867,110000598531.0,325311,"C,G,PP,V","Chemicals, Suppliers of CO2",GP-Natural Gas Combustion Sources,OCS (Other combustion source),Tier1/2/3,80.0,22539.5,10.5,12.516,0.0,1005867,PRYOR CHEMICAL COMPANY,4463 HUNT STREET,PRYOR,OK,74361,36.241247,-95.278349,MAYES,325311,
1005867,110000598531.0,325311,"C,G,PP,V","Chemicals, Suppliers of CO2",Primary Reformer,F (Furnace),Tier1/2/3,300.0,75850.7,35.75,42.614,0.0,1005867,PRYOR CHEMICAL COMPANY,4463 HUNT STREET,PRYOR,OK,74361,36.241247,-95.278349,MAYES,325311,
1005867,110000598531.0,325311,"C,G,PP,V","Chemicals, Suppliers of CO2",GP-Natural Gas Combustion Sources,OCS (Other combustion source),Tier1/2/3,300.0,82747.0,39.0,46.488,0.0,1005867,PRYOR CHEMICAL COMPANY,4463 HUNT STREET,PRYOR,OK,74361,36.241247,-95.278349,MAYES,325311,
1005867,110000598531.0,325311,"C,G,PP,V","Chemicals, Suppliers of CO2",GP-Natural Gas Combustion Sources,OCS (Other combustion source),Tier1/2/3,225.0,85298.7,40.25,47.978,0.0,1005867,PRYOR CHEMICAL COMPANY,4463 HUNT STREET,PRYOR,OK,74361,36.241247,-95.278349,MAYES,325311,
1005867,110000598531.0,325311,"C,G,PP,V","Chemicals, Suppliers of CO2",GP-Natural Gas Combustion Sources,OCS (Other combustion source),Tier1/2/3,225.0,68826.4,32.5,38.74,0.0,1005867,PRYOR CHEMICAL COMPANY,4463 HUNT STREET,PRYOR,OK,74361,36.241247,-95.278349,MAYES,325311,
1005867,110000598531.0,325311,"C,G,PP,V","Chemicals, Suppliers of CO2",GP-Natural Gas Combustion Sources,OCS (Other combustion source),Tier1/2/3,225.0,81907.0,38.5,44.7,0.0,1005867,PRYOR CHEMICAL COMPANY,4463 HUNT STREET,PRYOR,OK,74361,36.241247,-95.278349,MAYES,325311,
1005867,110000598531.0,325311,"C,G,PP,V","Chemicals, Suppliers of CO2",GP-Natural Gas Combustion Sources,OCS (Other combustion source),Tier1/2/3,225.0,103171.7,48.5,56.62,0.0,1005867,PRYOR CHEMICAL COMPANY,4463 HUNT STREET,PRYOR,OK,74361,36.241247,-95.278349,MAYES,325311,
