,TRIFD,FACILITY NAME,PRIMARY NAICS,NAICS 2,NAICS 3,NAICS 4,NAICS 5,NAICS 6,PARENT CO NAME,FRS ID,FRS_ID,FacilityName,Address,City,State,Zip,Latitude,Longitude,County,NAICS,SIC,FacilityID,Source,_merge
6,3264WVLTXN131SU,AIR LIQUIDE ADVANCED MATERIALS INC,325120,325180.0,issues,issues,issues,issues,AMERICAN AIR LIQUIDE HOLDINGS INC,110012540483,issues,issues,issues,issues,issues,issues,issues,issues,issues,issues,issues,issues,issues,left_only
10,7974WDCPGL16WES,DCP GOLDSMITH PLANT,211130,issues,issues,issues,issues,issues,DCP MIDSTREAM LLC,110034359405,issues,issues,issues,issues,issues,issues,issues,issues,issues,issues,issues,issues,issues,left_only
13,8824WNCPLN136ST,EUNICE PLANT,211130,issues,issues,issues,issues,issues,DCP MIDSTREAM LLC,110055499991,issues,issues,issues,issues,issues,issues,issues,issues,issues,issues,issues,issues,issues,left_only
16,6041WDVRSF24338,DIVERSIFIED CPC INTERNATIONAL INC,325120,issues,issues,issues,issues,issues,SUMITOMO CORP OF AMERICAS,110000578214,issues,issues,issues,issues,issues,issues,issues,issues,issues,issues,issues,issues,issues,left_only
18,1807WMTHSN141ST,MATHESON TRI-GAS INC-PALM,325120,issues,issues,issues,issues,issues,TAIYO NIPPON SANSO USA INC,110043569466,issues,issues,issues,issues,issues,issues,issues,issues,issues,issues,issues,issues,issues,left_only
21,7750WRLQDL11777,AIR LIQUIDE LARGE INDUSTRIES US LP - SMR UNIT,325120,issues,issues,issues,issues,issues,AMERICAN AIR LIQUIDE HOLDINGS INC,110046424598,issues,issues,issues,issues,issues,issues,issues,issues,issues,issues,issues,issues,issues,left_only
24,7007WRPRDC1251B,AIR PRODUCTS & CHEMICALS INC LULING SMR,325120,issues,issues,issues,issues,issues,AIR PRODUCTS & CHEMICALS INC.,110055498956,issues,issues,issues,issues,issues,issues,issues,issues,issues,issues,issues,issues,issues,left_only
30,0096WHDSNT869KM,HUDSON TECHNOLOGIES CO,325120,issues,issues,issues,issues,issues,HUDSON TECHNOLOGIES INC,110070071511,issues,issues,issues,issues,issues,issues,issues,issues,issues,issues,issues,issues,issues,left_only
32,2618WCHMRS848DU,CHEMOURS WASHINGTON WORKS,325120,325211.0,issues,issues,issues,issues,THE CHEMOURS CO,110000586081,issues,issues,issues,issues,issues,issues,issues,issues,issues,issues,issues,issues,issues,left_only
47,8538WRPRCR8932W,A-GAS US INC,325120,issues,issues,issues,issues,issues,A-GAS US HOLDINGS INC,110069348664,issues,issues,issues,issues,issues,issues,issues,issues,issues,issues,issues,issues,issues,left_only
49,4021WDPNTL425CA,DUPONT LOUISVILLE PLANT,325120,issues,issues,issues,issues,issues,DUPONT DE NEMOURS INC,110069236883,issues,issues,issues,issues,issues,issues,issues,issues,issues,issues,issues,issues,issues,left_only
52,7701WPTRMX1519S,PETROMAX REFINING CO LLC,211130,issues,issues,issues,issues,issues,PETROMAX REFINING CO LLC,110064465289,issues,issues,issues,issues,issues,issues,issues,issues,issues,issues,issues,issues,issues,left_only
53,46323GGSCN3930M,LINDE GAS NA LLC,325120,issues,issues,issues,issues,issues,LINDE GAS N.A. LLC,110000727447,issues,issues,issues,issues,issues,issues,issues,issues,issues,issues,issues,issues,issues,left_only
59,7607WDVRSF115SU,A-GAS US INC,325120,issues,issues,issues,issues,issues,A-GAS US HOLDINGS INC,110064403239,issues,issues,issues,issues,issues,issues,issues,issues,issues,issues,issues,issues,issues,left_only
66,77507BGTHR11400,AIR LIQUIDE LARGE INDUSTRIES US LP,325120,issues,issues,issues,issues,issues,AMERICAN AIR LIQUIDE HOLDINGS INC,110000462758,issues,issues,issues,issues,issues,issues,issues,issues,issues,issues,issues,issues,issues,left_only
67,3919WRGSNT1226R,AIRGAS NITROUS OXIDE,325120,issues,issues,issues,issues,issues,AIRGAS INC,110038172946,issues,issues,issues,issues,issues,issues,issues,issues,issues,issues,issues,issues,issues,left_only
71,9176WPLRTC747EF,HUDSON TECHNOLOGIES CO,325120,issues,issues,issues,issues,issues,HUDSON TECHNOLOGIES INC,110060260211,issues,issues,issues,issues,issues,issues,issues,issues,issues,issues,issues,issues,issues,left_only
72,7739WSMMTR8541E,SUMMIT REFRIGERANTS,325120,423740.0,238220.0,issues,issues,issues,issues,110070541426,issues,issues,issues,issues,issues,issues,issues,issues,issues,issues,issues,issues,issues,left_only
75,7806WCSTLC1819F,COASTAL CHEMICAL CO. LLC,213112,issues,issues,issues,issues,issues,BRENNTAG N.A. INC,110055499606,issues,issues,issues,issues,issues,issues,issues,issues,issues,issues,issues,issues,issues,left_only
78,91761NNCRB5705E,LINDE INC,325120,issues,issues,issues,issues,issues,LINDE INC,110065364135,issues,issues,issues,issues,issues,issues,issues,issues,issues,issues,issues,issues,issues,left_only
80,7007WRPRDC14885,AIR PRODUCTS & CHEMCIALS INC  NORCO SMR,325120,issues,issues,issues,issues,issues,AIR PRODUCTS & CHEMICALS INC,110055569567,issues,issues,issues,issues,issues,issues,issues,issues,issues,issues,issues,issues,issues,left_only
88,48217DTRTS1025S,AIR PRODUCTS & CHEMICALS INC/DETROIT HYDROGEN FACILITY,325120,issues,issues,issues,issues,issues,AIR PRODUCTS & CHEMICALS INC,110054838459,issues,issues,issues,issues,issues,issues,issues,issues,issues,issues,issues,issues,issues,left_only
99,75603RLQDMOFFCA,AIR LIQUIDE - LONGVIEW POX,325120,issues,issues,issues,issues,issues,AIR LIQUIDE LARGE INDUSTRIES US,110056955610,issues,issues,issues,issues,issues,issues,issues,issues,issues,issues,issues,issues,issues,left_only
100,7480WRPRDC541UP,AIR PRODUCTS LLC,325120,issues,issues,issues,issues,issues,AIR PRODUCTS & CHEMICALS INC,110041624873,issues,issues,issues,issues,issues,issues,issues,issues,issues,issues,issues,issues,issues,left_only
103,3650WBGSCM3888S,BIG ESCAMBIA CREEK GAS PLANT,211130,issues,issues,issues,issues,issues,ESCAMBIA OPERATING CO,110000727697,issues,issues,issues,issues,issues,issues,issues,issues,issues,issues,issues,issues,issues,left_only
109,94510PRXRN331EC,PRAXAIR INC,325120,issues,issues,issues,issues,issues,PRAXAIR INC,110000482781,issues,issues,issues,issues,issues,issues,issues,issues,issues,issues,issues,issues,issues,left_only
121,7764WPRXRP181SU,LINDE  PORT ARTHUR 2,325120,issues,issues,issues,issues,issues,LINDE INC,110060241885,issues,issues,issues,issues,issues,issues,issues,issues,issues,issues,issues,issues,issues,left_only
132,37134MTHSN200MA,MATHESON TRI-GAS-NEW JOHNSONVILLE TN BRANCH,325120,issues,issues,issues,issues,issues,TAIYO NIPPON SANSO USA INC,110056639106,issues,issues,issues,issues,issues,issues,issues,issues,issues,issues,issues,issues,issues,left_only
133,45147RCDSTSTRT1,AIRGAS USA LLC MIAMIVILLE,325120,issues,issues,issues,issues,issues,AIRGAS INC,110000726126,issues,issues,issues,issues,issues,issues,issues,issues,issues,issues,issues,issues,issues,left_only
154,77651RLQDP2121P,AIR LIQUIDE LARGE INDUSTRIES US LP PORT NECHES,325120,issues,issues,issues,issues,issues,AIR LIQUIDE LARGE INDUSTRIES US LP,110014407846,issues,issues,issues,issues,issues,issues,issues,issues,issues,issues,issues,issues,issues,left_only
156,7735WCMBSG345FM,COOLGAS INC DBA A-GAS,325120,issues,issues,issues,issues,issues,A-GAS US HOLDINGS INC,110055506796,issues,issues,issues,issues,issues,issues,issues,issues,issues,issues,issues,issues,issues,left_only
159,94553RPRDSTRACT,AIR PRODUCTS & CHEMICALS INC MARTINEZ SOLANO WAY,325120,issues,issues,issues,issues,issues,AIR PRODUCTS & CHEMICALS INC,110070131948,issues,issues,issues,issues,issues,issues,issues,issues,issues,issues,issues,issues,issues,left_only
206,77418WSTRN7173H,WESTERN INTERNATIONAL GAS & CYLINDERS INC.,325120,issues,issues,issues,issues,issues,MATHESON TRI-GAS INC,110000728491,issues,issues,issues,issues,issues,issues,issues,issues,issues,issues,issues,issues,issues,left_only
212,98248LQDCR446AL,LINDE INC,325120,issues,issues,issues,issues,issues,LINDE INC,110000490120,issues,issues,issues,issues,issues,issues,issues,issues,issues,issues,issues,issues,issues,left_only
229,7908WSNRYG11571,ETC TEXAS PIPELINE LTD. SUNRAY GAS PLANT,211130,issues,issues,issues,issues,issues,ENERGY TRANSFER EQUITY LP,110043790591,issues,issues,issues,issues,issues,issues,issues,issues,issues,issues,issues,issues,issues,left_only
239,1834WRLQDDDEMIR,AIR LIQUIDE ADVANCED MATERIALS INC,325120,325180.0,issues,issues,issues,issues,AMERICAN AIR LIQUIDE HOLDINGS INC,110070068460,issues,issues,issues,issues,issues,issues,issues,issues,issues,issues,issues,issues,issues,left_only
270,7007WPRXRSVALER,LINDE ST CHARLES FACILITY,325120,issues,issues,issues,issues,issues,LINDE INC,110056382463,issues,issues,issues,issues,issues,issues,issues,issues,issues,issues,issues,issues,issues,left_only
