,TRIFD,FACILITY NAME,PRIMARY NAICS,NAICS 2,NAICS 3,NAICS 4,NAICS 5,NAICS 6,PARENT CO NAME,FRS ID,FRS_ID,FacilityName,Address,City,State,Zip,Latitude,Longitude,County,NAICS,SIC,FacilityID,Source,_merge
1924,01960GGRGT55RUS,AGGREGATE INDUSTRIES NORTHEAST REGION INC,324121,212319.0,issues,issues,issues,issues,HOLCIM (US) INC,110001956401.0,issues,issues,issues,issues,issues,issues,issues,issues,issues,issues,issues,issues,issues,left_only
2033,9343WCLPRT468SA,CALPORTLAND CO GAREY PLANT,324121,issues,issues,issues,issues,issues,TAIHEIYO CEMENT USA INC,110067124490.0,issues,issues,issues,issues,issues,issues,issues,issues,issues,issues,issues,issues,issues,left_only
2036,7350WRGNSP931SW,ERGON ASPHALT & EMULSIONS INC. - LAWTON,324121,issues,issues,issues,issues,issues,ERGON INC.,110013866432.0,issues,issues,issues,issues,issues,issues,issues,issues,issues,issues,issues,issues,issues,left_only
2038,2290WSLWLL123RI,SL WILLIAMSON CO INC SHOP,324121,issues,issues,issues,issues,issues,issues,110060257680.0,issues,issues,issues,issues,issues,issues,issues,issues,issues,issues,issues,issues,issues,left_only
2055,38363KCHMTHWY41,ERGON ASPHALT & EMULSIONS INC. - PARSONS,324121,issues,issues,issues,issues,issues,ERGON INC.,110008056897.0,issues,issues,issues,issues,issues,issues,issues,issues,issues,issues,issues,issues,issues,left_only
2080,00851HSSLVLIMET,LIMETREE BAY REFINING LLC & LIMETREE BAY TERMINALS LLC,324110,issues,issues,issues,issues,issues,issues,110000307864.0,issues,issues,issues,issues,issues,issues,issues,issues,issues,issues,issues,issues,issues,left_only
2152,92335KCHMT14929,ERGON ASPHALT & EMULSIONS INC. - FONTANA,324121,issues,issues,issues,issues,issues,ERGON INC,110001133130.0,issues,issues,issues,issues,issues,issues,issues,issues,issues,issues,issues,issues,issues,left_only
2183,85226RGNSP694WC,ERGON ASPHALT & EMULSIONS INC. - CHANDLER,324121,issues,issues,issues,issues,issues,ERGON INC,110020516164.0,issues,issues,issues,issues,issues,issues,issues,issues,issues,issues,issues,issues,issues,left_only
2257,66115MPRBL450FU,ERGON ARMOR INC-KANSAS CITY,324121,issues,issues,issues,issues,issues,ERGON INC,110015679764.0,issues,issues,issues,issues,issues,issues,issues,issues,issues,issues,issues,issues,issues,left_only
2432,8408WSPHLT7961S,ASPHALT MATERIALS INC,324121,issues,issues,issues,issues,issues,issues,110001880849.0,issues,issues,issues,issues,issues,issues,issues,issues,issues,issues,issues,issues,issues,left_only
2449,31717RGNTR161SP,BKEP MATERIALS LLC - BAINBRIDGE GA,324121,issues,issues,issues,issues,issues,BLUEKNIGHT ENERGY PARTNERS LP,110009140081.0,issues,issues,issues,issues,issues,issues,issues,issues,issues,issues,issues,issues,issues,left_only
2481,6704WRGNSP8EAST,ERGON ASPHALT & EMULSIONS INC. - EL DORADO,324121,issues,issues,issues,issues,issues,ERGON INC.,110001240595.0,issues,issues,issues,issues,issues,issues,issues,issues,issues,issues,issues,issues,issues,left_only
2855,89118KCHPR3901W,ERGON ASPHALT & EMULSIONS INC. - LAS VEGAS,324121,issues,issues,issues,issues,issues,ERGON INC.,110009460145.0,issues,issues,issues,issues,issues,issues,issues,issues,issues,issues,issues,issues,issues,left_only
2891,37210RGNTR1114V,ERGON ASPHALT & EMULSIONS INC. - NASHVILLE,324121,issues,issues,issues,issues,issues,ERGON INC,110001860576.0,issues,issues,issues,issues,issues,issues,issues,issues,issues,issues,issues,issues,issues,left_only
2938,2789WBLCKC252WI,ERGON ASPHALT & EMULSIONS INC. - WILSON,324121,issues,issues,issues,issues,issues,ERGON INC,110043968418.0,issues,issues,issues,issues,issues,issues,issues,issues,issues,issues,issues,issues,issues,left_only
3236,18103CRFCN1680E,CRAFCO INC-ALLENTOWN,324121,issues,issues,issues,issues,issues,ERGON INC,110001085904.0,issues,issues,issues,issues,issues,issues,issues,issues,issues,issues,issues,issues,issues,left_only
3698,44509WLKRW912SA,CRAFCO INC-YOUNGSTOWN,324121,issues,issues,issues,issues,issues,ERGON INC.,110000390112.0,issues,issues,issues,issues,issues,issues,issues,issues,issues,issues,issues,issues,issues,left_only
3774,78064RGNSP972ND,ERGON ASPHALT & EMULSIONS INC. - PLEASANTON,324121,issues,issues,issues,issues,issues,ERGON INC.,110012491151.0,issues,issues,issues,issues,issues,issues,issues,issues,issues,issues,issues,issues,issues,left_only
3991,6740WRGNSP11WGR,ERGON ASPHALT & EMULSIONS INC. - SALINA,324121,issues,issues,issues,issues,issues,ERGON INC.,110017507795.0,issues,issues,issues,issues,issues,issues,issues,issues,issues,issues,issues,issues,issues,left_only
3993,06810TLCNC5PLUM,TILCON CONNECTICUT INC,324121,issues,issues,issues,issues,issues,CRH AMERICAS INC,110008053890.0,issues,issues,issues,issues,issues,issues,issues,issues,issues,issues,issues,issues,issues,left_only
4116,06040TLCNC569NM,TILCON CONNECTICUT INC,324121,issues,issues,issues,issues,issues,CRH AMERICAS INC,110008053792.0,issues,issues,issues,issues,issues,issues,issues,issues,issues,issues,issues,issues,issues,left_only
4167,73117WNSCR3400N,OWENS CORNING ROOFING & ASPHALT L.L.C OKLAHOMA CITY,324121,issues,issues,issues,issues,issues,OWENS CORNING,110008060043.0,issues,issues,issues,issues,issues,issues,issues,issues,issues,issues,issues,issues,issues,left_only
4236,7565WTRNTY8621B,TRINITY ASPHALT INC.-HENDERSON,324121,issues,issues,issues,issues,issues,ERGON INC,110070232573.0,issues,issues,issues,issues,issues,issues,issues,issues,issues,issues,issues,issues,issues,left_only
4307,35118RGNTR789BI,ERGON ASPHALT & EMULSIONS INC. - BIRMINGPORT,324121,issues,issues,issues,issues,issues,ERGON INC.,110001715467.0,issues,issues,issues,issues,issues,issues,issues,issues,issues,issues,issues,issues,issues,left_only
4612,7545WRGNSP29AIR,ERGON ASPHALT & EMULSIONS INC. - MT. PLEASANT,324121,issues,issues,issues,issues,issues,ERGON INC.,110005166676.0,issues,issues,issues,issues,issues,issues,issues,issues,issues,issues,issues,issues,issues,left_only
4844,62812MRTHN42SPA,MARATHON PETROLEUM CO - BENTON IL ASPHALT TERMINAL,324121,issues,issues,issues,issues,issues,MARATHON PETROLEUM CORP,110041201749.0,issues,issues,issues,issues,issues,issues,issues,issues,issues,issues,issues,issues,issues,left_only
4856,06480TLCNC231AI,TILCON CONNECTICUT INC,324121,issues,issues,issues,issues,issues,CRH AMERICAS INC,110008053934.0,issues,issues,issues,issues,issues,issues,issues,issues,issues,issues,issues,issues,issues,left_only
4860,8200WCRFCN325RA,CRAFCO INC. - CHEYENNE,324121,issues,issues,issues,issues,issues,ERGON INC,110043694794.0,issues,issues,issues,issues,issues,issues,issues,issues,issues,issues,issues,issues,issues,left_only
4897,0062WPRTRCCARRE,TALLABOA PUERTO RICO LLC,324121,issues,issues,issues,issues,issues,issues,110070234789.0,issues,issues,issues,issues,issues,issues,issues,issues,issues,issues,issues,issues,issues,left_only
4904,7875WRGNSP883NR,ERGON ASPHALT & EMULSIONS INC. - AUSTIN,324121,issues,issues,issues,issues,issues,ERGON INC.,110005038280.0,issues,issues,issues,issues,issues,issues,issues,issues,issues,issues,issues,issues,issues,left_only
4908,7825WRGNXX996BR,ERGON ASPHALT & EMULSIONS INC - SAN ANTONIO,324121,issues,issues,issues,issues,issues,ERGON INC,110070239269.0,issues,issues,issues,issues,issues,issues,issues,issues,issues,issues,issues,issues,issues,left_only
4930,7220WRGNSP61SHA,ERGON ASPHALT & EMULSIONS INC. - LITTLE ROCK,324121,issues,issues,issues,issues,issues,ERGON INC.,110001700142.0,issues,issues,issues,issues,issues,issues,issues,issues,issues,issues,issues,issues,issues,left_only
4958,6610WRGNSP152WL,ERGON ASPHALT & EMULSIONS INC. - WOLCOTT,324121,issues,issues,issues,issues,issues,ERGON INC,110060259321.0,issues,issues,issues,issues,issues,issues,issues,issues,issues,issues,issues,issues,issues,left_only
4966,06517TLCNC155PI,TILCON CONNECTICUT INC,324121,issues,issues,issues,issues,issues,CRH AMERICAS INC,110001730663.0,issues,issues,issues,issues,issues,issues,issues,issues,issues,issues,issues,issues,issues,left_only
4979,3847WRGNSP1251N,ERGON ASPHALT & EMULSIONS INC. - COLUMBIA,324121,issues,issues,issues,issues,issues,ERGON INC,110067453464.0,issues,issues,issues,issues,issues,issues,issues,issues,issues,issues,issues,issues,issues,left_only
5007,06340TLCNC185SR,TILCON CONNECTICUT INC.,324121,issues,issues,issues,issues,issues,CRH AMERICAS INC,110008053756.0,issues,issues,issues,issues,issues,issues,issues,issues,issues,issues,issues,issues,issues,left_only
5046,7340WRGNSP25REF,ERGON ASPHALT & EMULSIONS INC.  - ARDMORE,324121,issues,issues,issues,issues,issues,ERGON INC.,110017358866.0,issues,issues,issues,issues,issues,issues,issues,issues,issues,issues,issues,issues,issues,left_only
5048,06475TLCNC1BOST,TILCON CONNECTICUT INC,324121,issues,issues,issues,issues,issues,CRH AMERICAS INC,110044110100.0,issues,issues,issues,issues,issues,issues,issues,issues,issues,issues,issues,issues,issues,left_only
5060,06470TLCNC9BUTO,TILCON CONNECTICUT INC,324121,issues,issues,issues,issues,issues,CRH AMERICAS INC,110008053710.0,issues,issues,issues,issues,issues,issues,issues,issues,issues,issues,issues,issues,issues,left_only
5062,38040CRFCN121IN,CRAFCO INC-HALLS,324121,issues,issues,issues,issues,issues,ERGON INC,110012705563.0,issues,issues,issues,issues,issues,issues,issues,issues,issues,issues,issues,issues,issues,left_only
5088,38113RGNSP1655H,ERGON ARMOR-MEMPHIS,324121,issues,issues,issues,issues,issues,ERGON INC,110020518055.0,issues,issues,issues,issues,issues,issues,issues,issues,issues,issues,issues,issues,issues,left_only
5103,85226CRFCN6975W,CRAFCO INC - CHANDLER,324121,issues,issues,issues,issues,issues,ERGON INC,110002583623.0,issues,issues,issues,issues,issues,issues,issues,issues,issues,issues,issues,issues,issues,left_only
5111,80216CBTCN5301N,COBITCO INC,324121,issues,issues,issues,issues,issues,issues,110000859526.0,issues,issues,issues,issues,issues,issues,issues,issues,issues,issues,issues,issues,issues,left_only
5116,67801KCHMT2600B,ERGON ASPHALT & EMULSIONS INC. - DODGE CITY,324121,issues,issues,issues,issues,issues,ERGON INC.,110039508789.0,issues,issues,issues,issues,issues,issues,issues,issues,issues,issues,issues,issues,issues,left_only
5123,7511WRGNSP23CEA,ERGON ASPHALT & EMULSIONS INC. - ENNIS,324121,issues,issues,issues,issues,issues,ERGON INC,110043671130.0,issues,issues,issues,issues,issues,issues,issues,issues,issues,issues,issues,issues,issues,left_only
5126,67056SMMTR3INDU,ERGON ASPHALT & EMULSIONS INC. - HALSTEAD,324121,issues,issues,issues,issues,issues,ERGON INC.,110024523933.0,issues,issues,issues,issues,issues,issues,issues,issues,issues,issues,issues,issues,issues,left_only
5133,0096WPTRLMCARRE,PETROLEUM PRODUCTS SUPPLY LLC,324121,issues,issues,issues,issues,issues,issues,110069263861.0,issues,issues,issues,issues,issues,issues,issues,issues,issues,issues,issues,issues,issues,left_only
5134,74401KCHMT2501P,BKEP MATERIALS LLC - PORT OF MUSKOGEE,324121,issues,issues,issues,issues,issues,BLUEKNIGHT ENERGY PARTNERS LP,110001645783.0,issues,issues,issues,issues,issues,issues,issues,issues,issues,issues,issues,issues,issues,left_only
5148,7670WRGNSP182EA,ERGON ASPHALT & EMULSIONS INC - WACO,324121,issues,issues,issues,issues,issues,ERGON INC.,110006133380.0,issues,issues,issues,issues,issues,issues,issues,issues,issues,issues,issues,issues,issues,left_only
5158,7865WRGNSP13811,ERGON ASPHALT & EMULSIONS INC. - MANOR,324121,issues,issues,issues,issues,issues,ERGON INC,110070232571.0,issues,issues,issues,issues,issues,issues,issues,issues,issues,issues,issues,issues,issues,left_only
5183,74015SMMTR585AR,ERGON ASPHALT & EMULSIONS INC. - CATOOSA,324121,issues,issues,issues,issues,issues,ERGON INC.,110038106288.0,issues,issues,issues,issues,issues,issues,issues,issues,issues,issues,issues,issues,issues,left_only
5185,06708TLCNC567SL,TILCON CONNECTICUT INC,324121,issues,issues,issues,issues,issues,CRH AMERICAS INC,110008053907.0,issues,issues,issues,issues,issues,issues,issues,issues,issues,issues,issues,issues,issues,left_only
5204,8820WWRSTR49EMA,ERGON ASPHALT & EMULSIONS INC. - ROSWELL,324121,issues,issues,issues,issues,issues,ERGON INC,110046347761.0,issues,issues,issues,issues,issues,issues,issues,issues,issues,issues,issues,issues,issues,left_only
5209,80216WNSCR5201B,OWENS CORNING ROOFING & ASPHALT LLC,324121,issues,issues,issues,issues,issues,OWENS CORNING INC,110011372184.0,issues,issues,issues,issues,issues,issues,issues,issues,issues,issues,issues,issues,issues,left_only
5216,91784HLLDY2006N,HOLLIDAY ROCK CO INC - CAMPUS,324121,327320.0,212321.0,issues,issues,issues,HOLLIDAY ROCK CO INC,110012701898.0,issues,issues,issues,issues,issues,issues,issues,issues,issues,issues,issues,issues,issues,left_only
5226,3885WRGNSP35CR3,ERGON ASPHALT & EMULSIONS INC. - YELLOW CREEK,324121,424710.0,issues,issues,issues,issues,ERGON INC.,110046279175.0,issues,issues,issues,issues,issues,issues,issues,issues,issues,issues,issues,issues,issues,left_only
5231,19714VPRCN16BRO,VP RACING FUELS,324199,issues,issues,issues,issues,issues,VP RACING FUELS INC,110012707801.0,issues,issues,issues,issues,issues,issues,issues,issues,issues,issues,issues,issues,issues,left_only
5250,7650WRGNSP4648W,ERGON ASPHALT & EMULSIONS INC. - TEMPLE,324121,issues,issues,issues,issues,issues,ERGON INC,110069521734.0,issues,issues,issues,issues,issues,issues,issues,issues,issues,issues,issues,issues,issues,left_only
5277,31408KCHMT14FOU,ERGON ASPHALT & EMULSIONS INC. - GARDEN CITY,324121,issues,issues,issues,issues,issues,ERGON INC.,110044220973.0,issues,issues,issues,issues,issues,issues,issues,issues,issues,issues,issues,issues,issues,left_only
5298,06353TLCNC4753C,TILCON CONNECTICUT INC,324121,issues,issues,issues,issues,issues,OLDCASTLE INC,110003021168.0,issues,issues,issues,issues,issues,issues,issues,issues,issues,issues,issues,issues,issues,left_only
5299,issues,issues,issues,issues,issues,issues,issues,issues,issues,issues,110031267064.0,WESTLAKE EPOXY INC.- DEER PARK SITE,5900 HIGHWAY 225 - GATE 7B,DEER PARK,TX,77536,29.722222,-95.126944,HARRIS,325211,nan,77536RSLTN5900H,TRI,right_only
5300,issues,issues,issues,issues,issues,issues,issues,issues,issues,issues,110031267064.0,SHELL CHEMICAL LP,5900 HWY 225 EAST,DEER PARK,TX,77536,29.722222,-95.126944,HARRIS,325110,nan,77536SHLLLHIGHW,TRI,right_only
5301,issues,issues,issues,issues,issues,issues,issues,issues,issues,issues,110000475940.0,ALTAIR PARAMOUNT LLC,14700 DOWNEY AVE,PARAMOUNT,CA,90723,33.899645,-118.15141,LOS ANGELES,325199,nan,90723PRMNT14700,TRI,right_only
