FRS_ID,FacilityName,Address,City,State,Zip,Latitude,Longitude,County,NAICS,SIC,FacilityID,Source
110007920116.0,Anna Platform,None,Anchorage,AK,99503.0,60.97640050572,-151.3151066962,KENAI PENINSULA,211111,,1001756,GHGRP
110007920116.0,Anna Platform,Upper Cook Inlet,Anchorage,AK,99503,60.9769,-151.3133,Kenai Peninsula,211120,,681111,NEI
110067456069.0,Caelus Natural Resources Alaska 890 - Arctic Slope Basin,None,Prudhoe Bay,AK,99734.0,70.4136,-150.0123,NORTH SLOPE,211111,,1002157,GHGRP
110067456069.0,Oooguruk Development Project,East Harrison Bay,Prudhoe Bay,AK,99734,70.4956,-150.2506,North Slope,211120,,12661711,NEI
110067456069.0,OOOGURUK TIE IN PAD,Unknown,NUIQSUT,AK,00000,70.4141,-150.0186,North Slope,48811,,11623111,NEI
110002929813.0,PLATFORM HERMOSA,None,OFFSHORE,CA,0.0,34.454167,-120.646667,None,211111,,1002934,GHGRP
110002929813.0,PLATFORM HERMOSA,"PLATFORM HERMOSA, PT. ARGUELLO OILFIELD (10570)",SANTA BARBARA COUNTY,CA,93117,34.45559,-120.64755,Santa Barbara,211120,,13701511,NEI
110002929822.0,PLATFORM HIDALGO,None,OFFSHORE,CA,0.0,34.486667,-120.703333,None,211111,,1002974,GHGRP
110002929822.0,PLATFORM HIDALGO,Unknown,LOMPOC,CA,00000,34.495017,-120.702344,Santa Barbara,48811,,12506511,NEI
110002929822.0,PLATFORM HIDALGO,"PLATFORM HIDALGO, PT. ARGUELLO OILFIELD",SANTA BARBARA COUNTY,CA,93117,34.469015,-120.682258,Santa Barbara,211120,,13577811,NEI
110001187705.0,Arroyo Grande Production Facility,1821 PRICE CANYON ROAD,SAN LUIS OBISPO,CA,93401.0,35.1814,-120.61965,SAN LUIS OBISPO COUNTY,211111,,1002978,GHGRP
110001187705.0,SENTINEL PEAK RESOURCES CALIFORNIA LLC,1821 PRICE CANYON ROAD,SAN LUIS OBISPO,CA,93401,35.18356,-120.62019,San Luis Obispo,211120,,7126211,NEI
110041240868.0,Gomez Gas Plant,3238 W. Gomez Road,Fort Stockton,TX,79735.0,30.985001,-102.974442,PECOS COUNTY,211111,,1004248,GHGRP
110041240868.0,GOMEZ COMPRESSOR STATION,6 M N ON SH 18 5.6 M W ON CNTY RD,FORT STOCKTON,TX,79735,30.974908,-102.970958,Pecos,486210,,5677811,NEI
110002690794.0,PLATFORM HARVEST,None,OFFSHORE,CA,0.0,34.468333,-120.680833,None,211111,,1006244,GHGRP
110002690794.0,PLATFORM HARVEST,Unknown,LOMPOC,CA,00000,34.47833,-120.67944,Santa Barbara,48811,,12506611,NEI
110035783042.0,GORDON GAS PROCESSING PLANT,1160 Hwy. 193 East,GORDON,TX,76453.0,32.538896,-98.338628,PALO PINTO COUNTY,211111,,1006709,GHGRP
110035783042.0,GORDON GAS PROCESSING PLANT,2 MI N ON HWY 193 FROM I 20,GORDON,TX,76453,32.540042,-98.338133,Palo Pinto,211130,,6477411,NEI
110067216079.0,"CRUDE OIL TOPPING UNIT, PRUDHOE BAY OPERATIONS CENTER, TARMAC CAMP",None,Prudhoe Bay,AK,99734.0,70.254036,-148.346077,NORTH SLOPE BOROUGH,211111,,1006838,GHGRP
110067216079.0,Crude Oil Topping Unit (COTU),None,Prudhoe Bay,AK,99734,70.3217,-148.5142,North Slope,211120,,10572811,NEI
110000398338.0,BP Whiting Business Unit,2815 INDIANAPOLIS BLVD,WHITING,IN,46394.0,41.6703,-87.4803,Lake,324110,,1007339,GHGRP
110000398338.0,BP Products North America Inc Whiting R,2815 Indianapolis Blvd,Whiting,IN,46394,41.663055,-87.479643,Lake,32411,,7247711,NEI
110000398338.0,BP PRODUCTS NA WHITING BUSINESS UNIT,2815 INDIANAPOLIS BLVD,WHITING,IN,46394,41.663055,-87.479643,LAKE,324110,,46394MCLCX2815I,TRI
110070208531.0,SEAWATER TREATMENT PLANT,None,Prudhoe Bay,AK,99734.0,70.412133,-148.531186,NORTH SLOPE,211111,,1007371,GHGRP
110070208531.0,Prudhoe Seawater Treatment Plant,None,Prudhoe Bay,AK,99734,70.4115,-148.5286,North Slope,211120,,7734011,NEI
110010381256.0,Hatters Pond Gas Plant,1340 Radcliff Road,Creola,AL,36525.0,30.892209,-88.067121,MOBILE COUNTY,211111,,1007657,GHGRP
110010381256.0,Hilcorp Energy Company,1340 Radcliff Rd,Creola,AL,36525,30.890911,-88.0672,Mobile,211130,,1061511,NEI
110038160584.0,MARTIN OPERATING PTNR LP,484 EAST 6TH STREET,SMACKOVER,AR,71762.0,33.364143,-92.716924,UNION COUNTY,324110,,1007661,GHGRP
110038160584.0,Martin Operating Partnership L.P.,484 East 6th Street,Smackover,AR,71762,33.363731,-92.714928,Union,324191,,17077411,NEI
110038160584.0,MARTIN OPERATING PTNR LP,484 E 6TH ST,SMACKOVER,AR,71762,33.364143,-92.716924,UNION,324110,,71762CRSSLPOBOX,TRI
110007920544.0,"Hilcorp Alaska, LLC 820 Kenai",3800 Centerpoint Drive Ste 1400,Anchorage,AK,99503.0,60.4589,-151.2653,KENAI PENINSULA BOROUGH,211111,,1009332,GHGRP
110007920544.0,Kenai Gas Field 14-6 Pad,35350 Kalifornsky Beach Road,Kenai,AK,99611,60.4589,-151.2653,Kenai Peninsula,211120,,1090411,NEI
110058932561.0,Point Thomson Production Facility,None,"Point Thomson Unit, North Slope Borough",AK,99734.0,70.1709,-146.2572,NORTH SLOPE BOROUGH,211111,,1011831,GHGRP
110058932561.0,Point Thomson Production Facility,None,Prudhoe Bay,AK,99734,70.1722,-146.2561,North Slope,211130,,17058911,NEI
110058932561.0,CENTRAL PAD,UNKNOWN,ANCHORAGE,AK,00000,70.171285,-146.25856,North Slope,48811,,16091411,NEI
110037976955.0,BECKVILLE GAS PROCESSING PLANT,329 COUNTY ROAD 257,BECKVILLE,TX,75631.0,32.235649,-94.486066,PANOLA COUNTY,211111,,1012062,GHGRP
110037976955.0,BECKVILLE COMPRESSOR STATION,1.75 MI SE OF BECKVILLE OFF HWY 149,BECKVILLE,TX,75631,32.223389,-94.431667,Panola,486210,,9110611,NEI
110020147465.0,Corpus Christi Terminal Condensate Splitter,1802 Poth Lane,Corpus Christi,TX,78407.0,27.811441,-97.431765,NUECES COUNTY,493190,,1012506,GHGRP
110020147465.0,CORPUS CHRISTI TERMINAL,1802 POTH LN,CORPUS CHRISTI,TX,78412,27.808236,-97.436461,Nueces,493110,,5780311,NEI
110070082458.0,Berry Petroleum Company 575 Uinta Basin Gathering and Boosting,5201 Truxtun ave.,Bakersfield,CA,93309.0,35.368562,-119.060231,KERN COUNTY,211111,,1012713,GHGRP
110070082458.0,BERRY PETROLEUM COMPANY,5201 TRUXTUN AVENUE,BAKERSFIELD,CA,93309,35.368562,-119.060231,Kern,211120,,18144811,NEI
110070393972.0,Battle Ridge Plant,None,Cushing,OK,74023.0,35.944,-96.8076,PAYNE COUNTY,211111,,1012793,GHGRP
110070393972.0,BATTLE RIDGE PLT,0.1 MI W OF N3480/E0740 RD,CUSHING,OK,74023,35.943,-96.804,Payne,211130,,18000111,NEI
110039116462.0,Conroe Gas Processing Plant,12770 Koalstad Road,Conroe,TX,77302.0,30.26364,-95.373801,MONTGOMERY COUNTY,211111,,1013093,GHGRP
110039116462.0,CONROE COMPRESSOR STATION,12770 KOALSTAD RD,CONROE,TX,77301,30.267375,-95.373761,Montgomery,2111,,4179511,NEI
110000321189.0,CPI Operations LLC,4 PARADISE RD,PAULSBORO,NJ,08066,39.844213,-75.2243,Gloucester,324110,,7201411,NEI
110000321189.0,CPI OPERATIONS LLC,4 PARADISE RD,PAULSBORO,NJ,8066,39.840932,-75.226205,GLOUCESTER,324110,,08066SVWLC4PARA,TRI
110000321189.0,CPI Operations LLC,4 PARADISE RD.,PAULSBORO,NJ,8066.0,39.840932,-75.226205,GLOUCESTER COUNTY,324121,,1002103,GHGRP
110000326772.0,TONAWANDA COKE CORP,3875 RIVER RD,TONAWANDA,NY,14150,42.983638,-78.92728,Erie,331110,,7762811,NEI
110000326772.0,TONAWANDA COKE CORP,3875 RIVER RD.,TONAWANDA,NY,14150.0,42.983638,-78.92728,ERIE COUNTY,324199,,1006875,GHGRP
110000336994.0,ATLANTIC REFINING & MARKETING CORP,Unknown,PHILADELPHIA,PA,00000,39.9198,-75.1966,Philadelphia,48811,,12025611,NEI
110000336994.0,PHILA ENERGY SOL REF/ PES,3144 W PASSYUNK AVE,PHILADELPHIA,PA,19145-5208,39.9147,-75.2005,Philadelphia,324110,,6652211,NEI
110000336994.0,PHILADELPHIA ENERGY SOLUTIONS REFINING PHILADELPHIA REFINERY,3144 PASSYUNK AVE,PHILADELPHIA,PA,19145,39.9147,-75.2005,PHILADELPHIA,324110,,19145TLNTC3144P,TRI
110000336994.0,Philadelphia Refinery,3144 PASSYUNK AVENUE,PHILADELPHIA,PA,19145.0,39.9058,-75.2122,Philadelphia,324110,,1001261,GHGRP
110000374087.0,"Valero Refining Co. (Prev. Premcor Refining, Prev. Williams Refining Llc)",543 West Mallory Avenue,Memphis,TN,38109,35.0875,-90.0864,Shelby,32411,,7156111,NEI
110000374087.0,VALERO REFINING CO - TENNESSEE L.L.C.,2385 RIVERPORT ROAD,MEMPHIS,TN,38109,35.085843,-90.083385,SHELBY,324110,,38109MPCPT543WE,TRI
110000374087.0,"VALERO REFINING CO. (PREV. PREMCOR REFINING, PREV. WILLIAMS REFINING LLC)",543 WEST MALLORY AVENUE,MEMPHIS,TN,38109.0,35.085843,-90.083385,SHELBY COUNTY,324110,,1008271,GHGRP
110000377477.0,"CHEVRON TEXACO PRODUCTS COMPANY, PASCAGO",250 INDUSTRIAL ROAD,PASCAGOULA,MS,39581,30.343733,-88.4938,Jackson,32411,,8384311,NEI
110000377477.0,CHEVRON PRODUCTS CO PASCAGOULA REFINERY,250 INDUSTRIAL RD,PASCAGOULA,MS,39581,30.343733,-88.4938,JACKSON,324110,,39567CHVRNPOBOX,TRI
110000377477.0,Chevron Pascagoula Refinery,250 Industrial Road,Pascagoula,MS,39581.0,30.343733,-88.4938,JACKSON COUNTY,324110,,1003286,GHGRP
110000422962.0,SUPERIOR REFINING COMPANY LLC - PETROLEUM BULK STATIONS AND TERMINALS,2407 Stinson Ave,Superior,WI,54880-4486,46.6918,-92.0714,Douglas,424710,,12711911,NEI
110000422962.0,Superior Refining Company LLC,2407 Stinson Ave,Superior,WI,54880-4486,46.6915,-92.072,Douglas,324110,,4864411,NEI
110000422962.0,SUPERIOR REFINING CO LLC,2407 STINSON AVE,SUPERIOR,WI,54880,46.6915,-92.072,DOUGLAS,324110,,54880MRPHY24THA,TRI
110000422962.0,Superior Refining Company LLC,2407 Stinson Ave.,Superior,WI,54880.0,46.6915,-92.072,DOUGLAS COUNTY,324110,,1003472,GHGRP
110000448837.0,Valero Refining - Meraux LLC - Meraux Refinery,2500 E St Bernard Hwy,Meraux,LA,70075,29.93121,-89.94107,St. Bernard,324110,,7355411,NEI
110000448837.0,VALERO REFINING - MERAUX LLC MERAUX REFINERY,2500 E ST BERNARD HWY,MERAUX,LA,70075,29.930517,-89.940643,ST. BERNARD PARISH,324110,,70075MRPHY2500E,TRI
110000448837.0,Valero Terminaling & Distribution Co - Meraux Terminal,2500 E St Bernard Hwy,Meraux,LA,70075,29.9295,-89.94031,St. Bernard,424710,,7204611,NEI
110000448837.0,MERAUX REFINERY,2500 EAST SAINT BERNARD HIGHWAY,MERAUX,LA,70075.0,29.930517,-89.940643,ST. BERNARD PARISH,324110,,1007059,GHGRP
110000464462.0,VALERO PARTNERS THREE RIVERS,301 W LEROY ST,THREE RIVERS,TX,78071,28.459244,-98.189167,Live Oak,424710,,17909311,NEI
110000464462.0,THREE RIVERS REFINERY,301 LEROY ST,THREE RIVERS,TX,78071,28.459956,-98.187578,Live Oak,324110,,6152811,NEI
110000464462.0,VALERO THREE RIVERS REFINERY,301 LEROY ST,THREE RIVERS,TX,78071,28.456667,-98.190277,LIVE OAK,324110,,78071DMNDS301LE,TRI
110000464462.0,DIAMOND SHAMROCK REFINING VALERO,301 LEROY ST.,THREE RIVERS,TX,78071.0,28.456667,-98.190277,LIVE OAK COUNTY,324110,,1008310,GHGRP
110000465103.0,CORPUS CHRISTI WEST PLANT,5900 UP RIVER RD,CORPUS CHRISTI,TX,78412,27.817361,-97.489161,Nueces,324110,,4929811,NEI
110000465103.0,VALERO REFINING-TEXAS LP CORPUS CHRISTI WEST PLANT,5900 UP RIVER RD,CORPUS CHRISTI,TX,78407,27.81775,-97.482552,NUECES,324110,,78469VLRRF5900U,TRI
110000465103.0,VALERO PARTNERS CORPUS CHRISTI WEST,5900 UP RIVER RD,CORPUS CHRISTI,TX,78407,27.817789,-97.487597,Nueces,424710,,17985111,NEI
110000465103.0,VALERO CORPUS CHRISTI REFINERY,5900 UP RIVER ROAD,CORPUS CHRISTI,TX,78407.0,27.81775,-97.482552,NUECES COUNTY,324110,,1008110,GHGRP
110000465719.0,VALERO PARTNERS MCKEE,6701 FM 119,SUNRAY,TX,79086,35.959308,-101.889197,Moore,424710,,17906111,NEI
110000465719.0,VALERO MCKEE REFINERY,6701 FM 119,SUNRAY,TX,79086,35.954514,-101.882525,Moore,324110,,4030511,NEI
110000465719.0,DIAMOND SHAMROCK REFINING CO LP,6701 FM 119,SUNRAY,TX,79086,35.951944,-101.873889,MOORE,324110,,79086DMNDSSTARR,TRI
110000465719.0,"Diamond Shamrock Refining Company, L.P.",6701 FM 119,SUNRAY,TX,79086.0,35.951944,-101.873889,MOORE COUNTY,324110,,1007936,GHGRP
110000469243.0,Tesoro Refining & Marketing Company LLC - Salt Lake City Refinery,474 West 900 North,Salt Lake City,UT,84103,40.791,-111.908,Salt Lake,324110,,7558611,NEI
110000469243.0,TESORO REFINING & MARKETING COMPANY LLC - SLC,474 W 900 N,SALT LAKE CITY,UT,84103,40.791667,-111.902778,SALT LAKE,424710,,84103MCLCM474WE,TRI
110000469243.0,TESORO REFINING & MARKETING COMPANY LLC - SLC,474 W 900 N,SALT LAKE CITY,UT,84103,40.791667,-111.902778,SALT LAKE,324110,,84103MCLCM474WE,TRI
110000469243.0,"Tesoro Refining and Marketing Company, Salt Lake City Refinery",474 West 900 North,Salt Lake City,UT,84103.0,40.791667,-111.902778,SALT LAKE COUNTY,324110,,1006039,GHGRP
110000472630.0,HollyFrontier - Artesia Refinery,501 E Main St,Artesia,NM,88210,32.848593,-104.394383,Eddy,32411,,7399911,NEI
110000472630.0,HOLLYFRONTIER NAVAJO REFINING LLC - ARTESIA REFINERY,501 E MAIN ST,ARTESIA,NM,88210,32.848593,-104.394383,EDDY,324110,,88210NVJRF501EA,TRI
110000472630.0,"NAVAJO REFINING COMPANY, LLC - Artesia Refinery",501 East Main Street,ARTESIA,NM,88210.0,32.848593,-104.394383,EDDY COUNTY,324110,,1007972,GHGRP
110000474353.0,DEMENNO-KERDOON DBA WORLD OIL RECYCLING,2000 N ALAMEDA ST,COMPTON,CA,90222,33.91021,-118.22305,Los Angeles,324191,,6500711,NEI
110000474353.0,DEMENNOKERDOON DBA WORLD OIL RECYCLING,2000 NORTH ALAMEDA STREET,COMPTON,CA,90222,33.910116,-118.221906,LOS ANGELES,324191,,90222DMNNK2000N,TRI
110000474353.0,DEMENNO KERDOON,2000 N. ALAMEDA ST.,COMPTON,CA,90222.0,33.910116,-118.221906,LOS ANGELES COUNTY,324199,,1006861,GHGRP
110000475940.0,PARAMOUNT PETR CORP,14700-08  DOWNEY AVE,PARAMOUNT,CA,90723,33.900113,-118.151406,Los Angeles,324110,,5683611,NEI
110000475940.0,ALTAIR PARAMOUNT LLC,14700 DOWNEY AVE,PARAMOUNT,CA,90723,33.899645,-118.15141,LOS ANGELES,325199,,90723PRMNT14700,TRI
110000475940.0,PARAMOUNT PETROLEUM CORPORATION,14700 DOWNEY AVENUE,PARAMOUNT,CA,90723.0,33.899645,-118.15141,LOS ANGELES COUNTY,324110,,1004362,GHGRP
110000476048.0,VALERO WILMINGTON ASPHALT PLANT,1651  ALAMEDA ST,WILMINGTON,CA,90744,33.79699,-118.23971,Los Angeles,324121,,5682111,NEI
110000476048.0,VALERO WILMINGTON ASPHALT PLANT,1651 ALAMEDA ST,WILMINGTON,CA,90744,33.79699,-118.23971,LOS ANGELES,324110,,90744HNTWY1651A,TRI
110000476048.0,Valero Wilmington Asphalt Plant,1651 Alameda Street,Wilmington,CA,90744.0,33.79699,-118.23971,LOS ANGELES COUNTY,324110,,1010774,GHGRP
110000481611.0,KERN OIL & REFINING COMPANY,VARIOUS UNSPECIFIED LOCATIONS,San Joaquin Unified,CA,00000,35.296607,-118.918384,Kern,238910,,17335611,NEI
110000481611.0,KERN OIL & REFINING CO.,PANAMA LN & WEEDPATCH HWY,BAKERSFIELD,CA,93307,35.2956,-118.9184,Kern,324110,,4196711,NEI
110000481611.0,KERN ENERGY,7724 EAST PANAMA LANE,BAKERSFIELD,CA,93307,35.295278,-118.921111,KERN,324110,,93307KRNLRRR677,TRI
110000481611.0,KERN OIL & REFINING,PANAMA LN  WEEDPATCH HWY,LAMONT,CA,93307,35.26698,-118.92334,Kern,924110,,13866611,NEI
110000481611.0,KERN OIL & REFINING CO.,7724 E PANAMA LN,BAKERSFIELD,CA,93307.0,35.295278,-118.921111,KERN COUNTY,324110,,1004267,GHGRP
110000481611.0,KERN OIL & REFINING COMPANY,TEN SECTION,Placeholder,CA,00000,35.28714,-119.20685,Kern,324110,,10281011,NEI
110000481684.0,SAN JOAQUIN REFINING COMPANY,3542 SHELL ST,BAKERSFIELD,CA,93308,35.3972,-119.0467,Kern,326211,,4195511,NEI
110000481684.0,SAN JOAQUIN REFINING CO INC,3500 SHELL STREET,BAKERSFIELD,CA,93308.0,35.39511,-119.04652,KERN COUNTY,324110,,1002565,GHGRP
110000493555.0,Marathon Petroleum Company LP - Canton Refinery (1576002006),2408 Gambrinus Avenue SW,Canton,OH,44706,40.7736,-81.4146,Stark,324110,,13573011,NEI
110000493555.0,MARATHON PETROLEUM CO LP OHIO REFINING DIV,2408 GAMBRINUS AVE SW,CANTON,OH,44706,40.7736,-81.4146,STARK,324110,,44711SHLND2408G,TRI
110000493555.0,Canton Refinery,2408 GAMBRINUS RD. S.W.,CANTON,OH,44706.0,40.7736,-81.4146,STARK COUNTY,324110,,1005390,GHGRP
110000493555.0,MPLX Terminals LLC - Canton Terminal (1576002007),2419 Gambrinus Avenue SW,Canton,OH,44706,40.77295,-81.42106,Stark,424710,,13436611,NEI
110000499069.0,Silver Eagle Refining - Woods Cross Inc.- Petroleum Products Refining,2355 So. 1100 West,Woods Cross,UT,84087,40.866,-111.911,Davis,32411,,8236511,NEI
110000499069.0,SILVER EAGLE REFINING WOODS CROSS,2355 S 1100 W,WOODS CROSS,UT,84087,40.866389,-111.911389,DAVIS,324110,,84087CRYSN2355S,TRI
110000499069.0,Silver Eagle Refining-Woods Cross,2355 SOUTH 1100 WEST,WOODS CROSS,UT,84087.0,40.86631,-111.91187,DAVIS COUNTY,324110,,1006448,GHGRP
110000503759.0,SAN MARTIN GAS PLANT,20733 LAMM RD,ELMENDORF,TX,78112,29.211481,-98.409136,Bexar,211130,,5616011,NEI
110000503759.0,San Martin Gas Plant,20733 Lamm Road,Elmendorf,TX,78112.0,29.212292,-98.407127,BEXAR COUNTY,211111,,1004666,GHGRP
110000538473.0,XTO Energy Inc - Cotton Valley Gas Plant,1256 Marathon Rd,Cotton Valley,LA,71018,32.78469,-93.37386,Webster,211120,,8019911,NEI
110000538473.0,XTO - Cotton Valley Gas Plant,1256 Marathon Rd,Cotton Valley,LA,71018.0,32.7847,-93.3744,WEBSTER PARISH,211111,,1006270,GHGRP
110000562720.0,San Juan River Gas Plant,1.55 N of Kirtland,Kirtland,NM,87417,36.7573,-108.3672,San Juan,21113,,8091911,NEI
110000562720.0,SAN JUAN RIVER GAS PLANT,99 Road 6500,KIRTLAND,NM,87417.0,36.7592,-108.35967,SAN JUAN COUNTY,211111,,1001812,GHGRP
110000569803.0,Lost Cabin Gas Plant,"11,38N,90W",Fremont,WY,82520,43.27761,-107.60075,Fremont,2111,,4786511,NEI
110000569803.0,ContangoResources_LOST CABIN,165 LOST CABIN Road,Lysite,WY,82642.0,43.28106,-107.60125,FREMONT COUNTY,211111,,1002265,GHGRP
110000597337.0,Equilon Enterprises LLC dba Shell Oil Products US - Convent Refinery,10700 Hwy 44,Convent,LA,70723,30.11845,-90.88311,St. James,324110,,8239611,NEI
110000597337.0,CONVENT REFINERY,FOOT OF SUNSHINE BRIDGE- LA HW Y 44,CONVENT,LA,70723,30.11494,-90.90037,ST. JAMES PARISH,324110,,70723TXCRFFOOTO,TRI
110000597337.0,Equilon Enterprises LLC - Convent Terminal,Hwys 70 & 44 jct,Convent,LA,70723,30.10766,-90.90813,St. James,424710,,5273311,NEI
110000597337.0,CONVENT REFINERY,10700 La. 44,CONVENT,LA,70723.0,30.10712,-90.89616,ST. JAMES PARISH,324110,,1004630,GHGRP
110000600378.0,Evanston Refining,"SW Section 23, T15N, R119W",Uinta County,WY,82930,41.264,-110.804,Uinta,32411,,6981111,NEI
110000600378.0,SILVER EAGLE REFINING-EVANSTON,2990 COUNTY RD 180,EVANSTON,WY,82930,41.2616,-110.807,UINTA,324110,,82931XBWHYI80EX,TRI
110000600378.0,"SILVER EAGLE REFINING, INCORPORATED",2990 COUNTY ROAD 180,EVANSTON,WY,82930.0,41.2616,-110.807,UINTA COUNTY,324110,,1009291,GHGRP
110000869720.0,National Institutes of Health,9000 Rockville Pike,Bethesda,MD,20892,39.003994,-77.102965,Montgomery,541714,,5998311,NEI
110000869720.0,US PUBLIC HEALTH SERVICE NATIONAL INSTITUTES OF HEALTH,9000 ROCKVILLE PIKE BLDG 13,BETHESDA,MD,20892.0,39.003914,-77.099119,MONTGOMERY COUNTY,561210,,1006646,GHGRP
110001148598.0,Delaware City Refinery,4550 WRANGLE HILL RD,DELAWARE CITY,DE,19706,39.588611,-75.635555,New Castle,32411,,588311,NEI
110001148598.0,DELAWARE CITY REFINERY,4550 WRANGLE HILL RD,DELAWARE CITY,DE,19706,39.591,-75.634,NEW CASTLE,324110,,19706TXCDL2000W,TRI
110001148598.0,Delaware City Refinery,4550 WRANGLE HILL ROAD,DELAWARE CITY,DE,19706.0,39.5936,-75.6337,New Castle,324110,,1007322,GHGRP
110001187144.0,LUNDAY-THAGARD CO DBA WORLD OIL REFINING,9301  GARFIELD AVE,SOUTH GATE,CA,90280,33.945022,-118.166085,Los Angeles,324122,,5797411,NEI
110001187144.0,LUNDAY-THAGARD CO DBA WORLD OIL REFINING,9301 GARFIELD AVE,SOUTH GATE,CA,90280,33.946295,-118.16704,LOS ANGELES,324110,,90280LNDYT9301S,TRI
110001187144.0,LUNDAY-THAGARD COMPANY,9301 SOUTH GARFIELD AVENUE,SOUTH GATE,CA,90280.0,33.946295,-118.16704,LOS ANGELES COUNTY,324110,,1002286,GHGRP
110001875686.0,NORTH CROSS COMP STATION4,4.3 M W ON US 67/385,MCCAMEY,TX,79752,31.115864,-102.296497,Upton,2111,,6757611,NEI
110001875686.0,NORTH CROSS COMP STATION 4,4.3 M W ON US 67/385,MCCAMEY,TX,79752.0,31.10944,-102.298058,UPTON COUNTY,211111,,1002868,GHGRP
110002899908.0,CHEVRON REFINERY,Unknown,EL SEGUNDO,CA,00000,33.9142,-118.427,Los Angeles,48811,,11161011,NEI
110002899908.0,CHEVRON PRODUCTS CO.,324 W EL SEGUNDO BLVD,EL SEGUNDO,CA,90245,33.9082,-118.4085,Los Angeles,324110,,4086111,NEI
110002899908.0,CHEVRON PRODUCTS CO. DIV OF CHEVRON USA INC.,324 W EL SEGUNDO BLVD,EL SEGUNDO,CA,90245,33.9082,-118.4085,LOS ANGELES,324110,,90245CHVRN324WE,TRI
110002899908.0,"CHEVRON PRODUCTS, EL SEGUNDO REFINERY",324 W EL SEGUNDO BLVD,EL SEGUNDO,CA,90245.0,33.9082,-118.4085,LOS ANGELES COUNTY,324110,,1007978,GHGRP
110003041994.0,Steelhead Platform,Upper Cook Inlet,Anchorage,AK,99519,60.8305,-151.6,Kenai Peninsula,211120,,680611,NEI
110003041994.0,Steelhead Platform,None,Anchorage,AK,99503.0,60.83125466,-151.6042635,KENAI PENINSULA,211111,,1001948,GHGRP
110007919985.0,King Salmon Platform,Upper Cook Inlet,Anchorage,AK,99503,60.8652,-151.6058,Kenai Peninsula,211120,,680711,NEI
110007919985.0,King Salmon Platform,None,Anchorage,AK,99503.0,60.86483945,-151.6081039,KENAI PENINSULA,211111,,1001944,GHGRP
110007920517.0,Monopod Platform,Upper Cook Inlet,Anchorage,AK,99503,60.8969,-151.5791,Kenai Peninsula,211120,,539811,NEI
110007920517.0,Monopod Platform,None,Anchorage,AK,99503.0,60.89629614,-151.5810013,KENAI PENINSULA,211111,,1006956,GHGRP
110007920884.0,Dolly Varden Platform,Upper Cook Inlet,Anchorage,AK,99503,60.8083,-151.625,Kenai Peninsula,211120,,681311,NEI
110007920884.0,Dolly Varden Platform,None,Anchorage,AK,99503.0,60.80718265,-151.6351154,KENAI PENINSULA,211111,,1001940,GHGRP
110008361263.0,Marathon Petroleum Co LLC - Catlettsburg Refining,11631 US 23,Catlettsburg,KY,41129,38.377246,-82.597162,Boyd,32411,,7331911,NEI
110008361263.0,CATLETTSBURG REFINING LLC,11631 US RT 23,CATLETTSBURG,KY,41129,38.377246,-82.597162,BOYD,324110,,41114CTLTTPOBOX,TRI
110008361263.0,"Catlettsburg Refining, LLC",11631 US Route 23,Catlettsburg,KY,41129.0,38.375,-82.6042,BOYD COUNTY,324110,,1007913,GHGRP
110008972594.0,Endicott Production Facility (END),None,Prudhoe Bay,AK,99734,70.354,-147.9621,North Slope,211120,,1074911,NEI
110008972594.0,ENDICOTT PRODUCTION FACILITY,None,Prudhoe Bay,AK,99734.0,70.356789,-147.959766,NORTH SLOPE BOROUGH,211111,,1001737,GHGRP
110008998709.0,"W&T Offshore, Inc.",Submerged Tracts 74-77; 92-95,Mobile Bay,AL,00000,30.25395,-88.052203,Mobile,211130,,1018111,NEI
110008998709.0,"W&T Offshore, Inc.",6000 Deakle Road,Theodore,AL,36582,30.431388,-88.1817,Mobile,211130,,1061711,NEI
110008998709.0,Onshore Treating Facility,6000 DEAKLE ROAD,THEODORE,AL,36582.0,30.4319,-88.1825,MOBILE COUNTY,211111,,1006148,GHGRP
110010534261.0,"Toledo Refining Company, LLC. (0448010246)",1819 Woodville Road,Oregon,OH,43616,41.6295,-83.4965,Lucas,324110,,7319811,NEI
110010534261.0,TOLEDO REFINING CO LLC,1819 WOODVILLE RD,OREGON,OH,43616,41.6295,-83.4965,LUCAS,324110,,43616SNRFN1819W,TRI
110010534261.0,Toledo Refining Company,1819 WOODVILLE RD.,OREGON,OH,43616.0,41.6295,-83.4965,LUCAS COUNTY,561210,,1001056,GHGRP
110010534261.0,Toledo Refining Company LLC - WWTU (0448020080),1819 Woodville Road,Oregon,OH,43616-0920,41.63565,-83.49897,Lucas,324110,,13431911,NEI
110010534261.0,"Veolia Water North America Operating Services, LLC (0448011640)",1819 Woodville Road,Oregon,OH,43616,41.63389,-83.30122,Lucas,562998,,10722611,NEI
110010681707.0,Prudhoe Bay Operations Center / Main Construction Camp (PBOC/MCC),None,Prudhoe Bay,AK,99734,70.2526,-148.3525,North Slope,211120,,10572311,NEI
110010681707.0,SEAWATER INJECTION PLANT,None,Prudhoe Bay,AK,99734.0,70.260531,-148.446866,NORTH SLOPE BOROUGH,211111,,1001801,GHGRP
110011031052.0,Western Refining - Gallup Refinery,17 miles E of Gallup,Gallup,NM,87301,35.490278,-108.425,McKinley,32411,,8105511,NEI
110011031052.0,WESTERN REFINING SOUTHWEST INC-GALLUP REFINERY,92 GIANT CROSSING ROAD,GALLUP,NM,87301,35.490278,-108.425,MCKINLEY,324110,,87301GNTRFROUTE,TRI
110011031052.0,GALLUP REFINERY,92 Giant Crossing,Jamestown,NM,87347.0,35.490278,-108.425,MCKINLEY COUNTY,324110,,1003355,GHGRP
110012182422.0,WASSON CO2 REMOVAL PLANT,2582 COUNTY RD 355,DENVER CITY,TX,79323,33.011389,-102.754439,Yoakum,211130,,6648811,NEI
110012182422.0,WASSON CO2 REMOVAL PLANT,2582 COUNTY ROAD 355,DENVER CITY,TX,79323.0,33.0108,-102.75033,YOAKUM COUNTY,211111,,1002629,GHGRP
110012566767.0,ArcelorMittal Warren (0278000648),2234 Main Ave SW,Warren,OH,44481,41.20555,-80.81555,Trumbull,331110,,8115611,NEI
110012566767.0,CLEVELAND-CLIFFS CLEVELAND WORKS LLC DBA CLEVELAND-CLIFFS WA,2234 MAIN AVE SW,WARREN,OH,44481,41.211242,-80.81682,TRUMBULL,324199,,44482LTVST2234M,TRI
110012566767.0,Cleveland-Cliffs Warren,2234 MAIN AVE SW,WARREN,OH,44481.0,41.211242,-80.81682,TRUMBULL COUNTY,324199,,1003380,GHGRP
110013831201.0,Shell Chemical LP - Norco Chemical Plant - East Site,15536 River Rd,Norco,LA,70079,30.01594,-90.39639,St. Charles,325110,,8239511,NEI
110013831201.0,SHELL NORCO CHEMICAL PLANT,15536 RIVER RD,NORCO,LA,70079,30.000964,-90.403863,ST. CHARLES PARISH,325110,,70079SHLLL1205R,TRI
110013831201.0,SHELL NORCO CHEMICAL PLANT,15536 RIVER RD,NORCO,LA,70079,30.000964,-90.403863,ST. CHARLES PARISH,324110,,70079SHLLL1205R,TRI
110013831201.0,Norco Manufacturing Complex,15536 River Road,Norco,LA,70079.0,30.000964,-90.403863,ST. CHARLES PARISH,324110,,1005911,GHGRP
110015682830.0,PONCA CITY REFINERY,1000 S PINE,PONCA CITY,OK,74601-7501,36.68541,-97.08541,Kay,324110,,7320011,NEI
110015682830.0,PHILLIPS 66 PONCA CITY SITE,1000 S PINE ST,PONCA CITY,OK,746017501,36.6821,-97.0895,KAY,424710,,74603CNCPN1000S,TRI
110015682830.0,PHILLIPS 66 PONCA CITY SITE,1000 S PINE ST,PONCA CITY,OK,746017501,36.6821,-97.0895,KAY,324110,,74603CNCPN1000S,TRI
110015682830.0,PONCA CITY PIPELINE ACTIVITIES,1000 S PINE ST,PONCA CITY,OK,74601,36.68016,-97.09693,Kay,486110,,10722511,NEI
110015682830.0,Phillips 66 Ponca City Refinery,1000 South Pine,Ponca City,OK,74601.0,36.6821,-97.0895,KAY COUNTY,324110,,1001920,GHGRP
110016678969.0,CHS McPherson Refinery,1391 IRON HORSE ROAD,MCPHERSON,KS,67460,38.347278,-97.673846,McPherson,324110,,8067211,NEI
110016678969.0,CHS MCPHERSON REFINERY - SRU,2000 S MAIN ST,MCPHERSON,KS,67460,38.347278,-97.673846,MCPHERSON,325311,,67460NTNLC2000M,TRI
110016678969.0,CHS MCPHERSON REFINERY - SRU,2000 S MAIN ST,MCPHERSON,KS,67460,38.347278,-97.673846,MCPHERSON,324110,,67460NTNLC2000M,TRI
110016678969.0,CHS MCPHERSON REFINERY INC.,2000 SOUTH MAIN STREET,MCPHERSON,KS,67460.0,38.3468,-97.6745,MCPHERSON COUNTY,324110,,1007942,GHGRP
110017419667.0,LION OIL COMPANY,1000 McHenry Ave,EL DORADO,AR,71730,33.195555,-92.681111,Union,32411,,993611,NEI
110017419667.0,LION OIL CO,1000 MCHENRY AVE,EL DORADO,AR,71730,33.200091,-92.675095,UNION,324110,,71730LNLRF1000M,TRI
110017419667.0,LION OIL CO-EL DORADO REFINERY,1000 MCHENRY,EL DORADO,AR,71730.0,33.200091,-92.675095,UNION COUNTY,324110,,1007861,GHGRP
110017866727.0,Countrymark Refining and Logistics LLC,1200 Refinery Rd,Mount Vernon,IN,47620,37.9419,-87.9109,Posey,32411,,8166011,NEI
110017866727.0,COUNTRYMARK REFINING & LOGISTICS LLC,6701 LOWER NEW HARMONY ROAD,MOUNT VERNON,IN,47620,37.925417,-87.904972,POSEY,324110,,47620NDNFR1200R,TRI
110017866727.0,COUNTRYMARK REFINING & LOGISTICS LLC,1200 REFINERY RD,MT VERNON,IN,47620.0,37.925417,-87.904972,POSEY COUNTY,324110,,1005899,GHGRP
110019744375.0,NYC-DOC - RIKERS ISLAND,17-25 HAZEN ST,EAST ELMHURST,NY,11370,40.791418,-73.885818,Bronx,92214,,8379911,NEI
110019744375.0,NYC-DOC Rikers Island,17-25 HAZEN ST,EAST ELMHURST,NY,11370.0,40.789585,-73.884265,BRONX COUNTY,561210,,1009700,GHGRP
110025336606.0,HENDERSON GAS PLANT,754 CR 425D,HENDERSON,TX,75654,32.158844,-94.87935,Rusk,211130,,13386011,NEI
110025336606.0,HENDERSON GAS PLANT,754 CR 425D,HENDERSON,TX,75654.0,32.158889,-94.878056,RUSK COUNTY,211111,,1006321,GHGRP
110027982565.0,"ERGON - WEST VIRGINIA, INC.",9995 OHIO RIVER BLVD.,NEWELL,WV,26050,40.611,-80.631,Hancock,32411,,4781911,NEI
110027982565.0,ERGON WEST VIRGINIA INC,9995 OHIO RIVER BLVD,NEWELL,WV,26050,40.611414,-80.629099,HANCOCK,324110,,26050RGNWSSTATE,TRI
110027982565.0,ERGON WEST VIRGINIA INC,9995 OHIO RIVER BLVD,NEWELL,WV,26050.0,40.6111,-80.630833,HANCOCK COUNTY,324110,,1007882,GHGRP
110028052675.0,HAWKINS GAS PLANT,FM 1795,HAWKINS,TX,75765,32.609444,-95.196389,Wood,211130,,5795611,NEI
110028052675.0,Hawkins Gas Plant,None,HAWKINS,TX,75765.0,32.6105,-95.1957,WOOD COUNTY,211111,,1002676,GHGRP
110031262489.0,WEATHERFORD PLANT,451 JONES RD WEATHERFORD,WEATHERFORD,TX,76088,32.734592,-97.877572,Parker,211130,,13390311,NEI
110031262489.0,WEATHERFORD PLANT,451 Jones Road,Weatherford,TX,76088.0,32.73335,-97.8744,PARKER COUNTY,211111,,1003317,GHGRP
110031267064.0,SHELL DEER PARK REFINERY,Unknown,DEER PARK,TX,00000,29.7151,-95.144,Harris,48811,,12193311,NEI
110031267064.0,DEER PARK PLANT,HWY 225 W OF BATTLEGROUND RD,DEER PARK,TX,77536,29.721106,-95.125025,Harris,324110,,4168511,NEI
110031267064.0,HEXION DEER PARK,5900 LA PORTE FWY,DEER PARK,TX,77536,29.717558,-95.119908,Harris,325211,,4982011,NEI
110031267064.0,DEER PARK REFINING LP,5900 HWY 225 EAST,DEER PARK,TX,77536,29.722222,-95.126944,HARRIS,324110,,77536DRPRK5900H,TRI
110031267064.0,WESTLAKE EPOXY INC.- DEER PARK SITE,5900 HIGHWAY 225 - GATE 7B,DEER PARK,TX,77536,29.722222,-95.126944,HARRIS,325211,,77536RSLTN5900H,TRI
110031267064.0,SHELL CHEMICAL LP,5900 HWY 225 EAST,DEER PARK,TX,77536,29.722222,-95.126944,HARRIS,325110,,77536SHLLLHIGHW,TRI
110031267064.0,SHELL DEER PARK REFINERY,5900 HIGHWAY 225 EAST,DEER PARK,TX,77536.0,29.722222,-95.126944,HARRIS COUNTY,324110,,1007002,GHGRP
110032911669.0,TEXAS CITY REFINERY,LOOP 197 S  14TH ST,TEXAS CITY,TX,77590,29.366606,-94.913181,Galveston,324110,,4033811,NEI
110032911669.0,VALERO REFINING-TEXAS LP,1301 LOOP 197 S,TEXAS CITY,TX,77590,29.369167,-94.911111,GALVESTON,324110,,77592TXSCTLOOP1,TRI
110032911669.0,VALERO REFINING TEXAS CITY REFINERY,1301 LOOP 197 S,TEXAS CITY,TX,77590.0,29.369167,-94.911111,GALVESTON COUNTY,324110,,1008938,GHGRP
110032911669.0,TEXAS CITY TANK FARM,1301 LOOP 197S,TEXAS CITY,TX,77590,29.370703,-94.898881,Galveston,424710,,13380311,NEI
110037844376.0,GALENA PARK TERMINAL,906 CLINTON DR,GALENA PARK,TX,77547,29.72735,-95.227481,Harris,493110,,3737711,NEI
110037844376.0,Galena Park Terminal,906 Clinton Dr.,Galena Park,TX,77547.0,29.729,-95.227817,HARRIS COUNTY,493190,,1008185,GHGRP
110037901134.0,KRIPPLE KREEK GAS PLANT,1988 BRIAR CREEK RD,BOWIE,TX,76230,33.528897,-97.881944,Montague,211130,,14748011,NEI
110037901134.0,KRIPPLE KREEK GAS PLANT,1988 BRIAR CREEK RD,BOWIE,TX,76230.0,33.52957,-97.87651,MONTAGUE COUNTY,211111,,1005431,GHGRP
110040620600.0,ERGON REFINING INC,2125 HAINING ROAD,VICKSBURG,MS,39183,32.388369,-90.906375,Warren,32411,,6284911,NEI
110040620600.0,ERGON REFINING INC,2125 HAINING RD,VICKSBURG,MS,39183.0,32.388015,-90.900203,WARREN COUNTY,324110,,1008014,GHGRP
110041014568.0,SACROC CO2 FACILITY,ON FM 1611 1.6 MI N OF US 180,SNYDER,TX,79549,32.744978,-100.957392,Scurry,2111,,5679311,NEI
110041014568.0,SACROC CO2 TREATMENT,3775 County Road 226,SNYDER,TX,79549.0,32.74751,-100.95855,SCURRY COUNTY,211111,,1002678,GHGRP
110041023807.0,VALERO REFINING CO,Unknown,KROTZ SPRINGS,LA,00000,30.5331,-91.7501,St. Landry,48811,,12483611,NEI
110041023807.0,Alon Refining Krotz Springs Inc,"256 S Levee Rd, Hwy 105",Krotz Springs,LA,70750,30.52477,-91.75273,St. Landry,324110,,8240011,NEI
110041023807.0,ALON REFINING KROTZ SPRINGS INC,HWY 105 S,KROTZ SPRINGS,LA,70750,30.526504,-91.748383,ST. LANDRY PARISH,324110,,70750HLLPTHWY10,TRI
110041023807.0,ALON REFINING KROTZ SPRINGS INC,356 S. LEVEE RD,KROTZ SPRINGS,LA,70750.0,30.526504,-91.748383,ST. LANDRY PARISH,324110,,1007622,GHGRP
110041031040.0,TERRELL GAS PLANT,FROM THE INTERSECTION OF SH 349 AND FM 3166 GO 3 MILES ON FM RD 3166 TO SITE,SHEFFIELD,TX,79781,30.372189,-101.844536,Terrell,211130,,5022711,NEI
110041031040.0,Terrell Gas Plant,None,Sheffield,TX,79781.0,30.3736,-101.8433,TERRELL COUNTY,211111,,1003128,GHGRP
110041133163.0,BAYWAY REFINERY,Unknown,LINDEN,NJ,00000,40.6362,-74.2343,Union,48811,,12323111,NEI
110041133163.0,Phillips 66 Bayway Refinery,1400 PARK AVE,LINDEN,NJ,07036,40.6365,-74.2199,Union,324110,,7903711,NEI
110041133163.0,PHILLIPS 66 CO-BAYWAY REFINERY,1400 PARK AVE,LINDEN,NJ,7036,40.6365,-74.2199,UNION,324110,,07036XXNXX1400P,TRI
110041133163.0,Phillips 66 BAYWAY REFINERY,1400 PARK AVE,LINDEN,NJ,7036.0,40.6365,-74.2199,UNION COUNTY,324110,,1004305,GHGRP
110041135580.0,Marathon Petroleum Company LP - Louisiana Refining Division - Garyville Refinery,4663 W Airline Hwy,Garyville,LA,70051,30.06213,-90.59537,St. John the Baptist,324110,,8241011,NEI
110041135580.0,MARATHON PETROLEUM CO LP,4663 W AIRLINE HWY,GARYVILLE,LA,70051,30.06132,-90.59353,ST. JOHN THE BAPTIST PARISH,324110,,70051MRTHNHWY61,TRI
110041135580.0,Garyville Refinery,155 Sugarcane Road,Garyville,LA,70051.0,30.06132,-90.59353,ST. JOHN THE BAPTIST PARISH,324110,,1003043,GHGRP
110041135580.0,AIR PRODUCTS AND CHEMICALS INC - GARYVILLE,4663 W AIRLINE HWY,GARYVILLE,LA,70051.0,30.09959,-90.648851,ST. JOHN THE BAPTIST PARISH,325120,,1002727,GHGRP
110041481456.0,DENVER UNIT CO 2 RECOVERY PLANT,1.5 M N OF DENVER CITY ON SH 214,DENVER CITY,TX,79323,32.998333,-102.813611,Yoakum,2111,,13394411,NEI
110041481456.0,DENVER UNIT CO 2 RECOVERY PLANT,1.5 M N OF DENVER CITY ON SH 214,DENVER CITY,TX,79323.0,32.98019,-102.8172,YOAKUM COUNTY,211111,,1005858,GHGRP
110042043384.0,USS/CLAIRTON WORKS,400 STATE ST,CLAIRTON,PA,15025-1855,40.30139,-79.87189,Allegheny,331110,,8204511,NEI
110042043384.0,USS-CLAIRTON PLANT,400 STATE ST MS 71,CLAIRTON,PA,15025,40.305088,-79.876911,ALLEGHENY,324199,,15025SSCLR400ST,TRI
110042043384.0,US Steel (Clairton Coke),400 STATE ST,CLAIRTON,PA,15025.0,40.3097,-79.8819,Allegheny,324199,,1000124,GHGRP
110042081939.0,"MOUNTAIN STATE CARBON, LLC",1851 Main Street,FOLLANSBEE,WV,26037,40.34361,-80.60667,Brooke,324199,,4864311,NEI
110042081939.0,Jupiter Aluminum Corporation - Beech Bottom Plant,2481 River Road,BEECH BOTTOM,WV,26030,40.2156,-80.6577,Brooke,332812,,6234611,NEI
110042081939.0,MOUNTAIN STATE CARBON LLC,1851 MAIN ST,FOLLANSBEE,WV,26037,40.34361,-80.60667,BROOKE,324199,,26037WHLNGROUTE,TRI
110042081939.0,MOUNTAIN STATE CARBON,1851 MAIN ST,FOLLANSBEE,WV,26037.0,40.34361,-80.60667,BROOKE COUNTY,324199,,1001563,GHGRP
110043806851.0,Bison Treating Facility,"2,48N,75W",Campbell,WY,80217,44.16822,-105.84175,Campbell,2111,,15259911,NEI
110043806851.0,Bison Treating Facility,None,Gillette,WY,82716.0,44.1681565735194,-105.842491302271,CAMPBELL COUNTY,211111,,1001742,GHGRP
110043811907.0,Hilight Gas Plant,"SW,26,45N,71W",Campbell,WY,82716,43.84239,-105.36085,Campbell,2111,,6813111,NEI
110043811907.0,Hilight-Reno Junction Gas Plant,None,Gillette,WY,82716.0,43.8414763490387,-105.362308513496,CAMPBELL COUNTY,211111,,1001790,GHGRP
110044359459.0,Converse Central Facility,4513 Hwy 513,Mansfield,LA,71052,31.9608,-93.6493,De Soto,213112,,15642111,NEI
110044359459.0,Converse Central Facility,4513 Hwy 513,Mansfield,LA,71052.0,31.955057,-93.68166,DE SOTO PARISH,211111,,1009181,GHGRP
110046310657.0,Tyonek Platform,Upper Cook Inlet,Kenai,AK,99611,61.0775,-150.9462,Kenai Peninsula,211120,,539911,NEI
110046310657.0,Tyonek,None,Offshore,AK,0.0,61.0767,-150.9478,KENAI PENINSULA,211111,,1005736,GHGRP
110059019235.0,Grayling Platform,Upper Cook Inlet,Anchorage,AK,99503,60.8397,-151.613,Kenai Peninsula,211120,,540111,NEI
110059019235.0,Grayling Platform,None,Anchorage,AK,99503.0,60.83918566,-151.6153143,KENAI PENINSULA,211111,,1001761,GHGRP
110059763536.0,GALVESTON BAY REFINERY,2401 5TH AVE S IN TEXAS CITY,TEXAS CITY,TX,77592,29.374119,-94.9213,Galveston,324110,,4835311,NEI
110059763536.0,BLANCHARD REFINING CO LLC,2401 5TH AVE S,TEXAS CITY,TX,77590,29.374444,-94.925,GALVESTON,324110,,7759WBLNCH2415T,TRI
110059763536.0,BLANCHARD REFINING CO LLC,2401 5TH AVE S,TEXAS CITY,TX,77590,29.374444,-94.925,GALVESTON,221112,,7759WBLNCH2415T,TRI
110059763536.0,Galveston Bay Refinery,2401 5TH AVE S IN TEXAS CITY,TEXAS CITY,TX,77592.0,29.3775,-94.9328,GALVESTON COUNTY,324110,,1005585,GHGRP
110063104670.0,North Kuparuk,Unknown,Kuparuk,AK,00000,70.36222,-149.02833,North Slope,48811,,10567211,NEI
110063104670.0,ConocoPhillips Alaska Inc - KRU CPF2,None,North Slope,AK,0.0,70.2883,-149.8858,NORTH SLOPE BOROUGH,211111,,1004422,GHGRP
110063104670.0,"CPF 2, Kuparuk Central Production Facility #2",None,Prudhoe Bay,AK,99734,70.2892,-149.8852,North Slope,211120,,1073611,NEI
110063104670.0,ConocoPhillips Alaska Inc - KRU CPF1,None,North Slope,AK,0.0,70.3233,-149.605,NORTH SLOPE BOROUGH,211111,,1005789,GHGRP
110064056248.0,NORTHSTAR,Unknown,PRUDHOE BAY/DEADHORSE,AK,00000,70.4921,-148.7036,North Slope,48811,,11658011,NEI
110064056248.0,Northstar Production Facility (NOR),None,Prudhoe Bay,AK,99734,70.4908,-148.6957,North Slope,211120,,863311,NEI
110064056248.0,NORTHSTAR PROD FACILITY,None,Prudhoe Bay,AK,99734.0,70.490882,-148.697704,NORTH SLOPE,211111,,1003023,GHGRP
110064853886.0,Granite Point Ndb,Unknown,Granite Point,AK,00000,60.96167,-151.33167,Kenai Peninsula,48811,,10586411,NEI
110064853886.0,Granite Point Platform,Upper Cook Inlet,Anchorage,AK,99503,60.9583,-151.3313,Kenai Peninsula,211120,,680811,NEI
110064853886.0,Granite Point Platform,None,Anchorage,AK,99503.0,60.958333,-151.331389,KENAI PENINSULA,211111,,1001942,GHGRP
110067215882.0,Central Compressor Plant (CCP),None,Prudhoe Bay,AK,99734,70.3195,-148.4986,North Slope,211120,,1073911,NEI
110067215882.0,CENTRAL COMPRESSOR PLANT,None,Prudhoe Bay,AK,99734.0,70.320033,-148.500179,NORTH SLOPE BOROUGH,211111,,1001649,GHGRP
110070828211.0,Marathon Petroleum Co LLC,400 Marathon Ave,Robinson,IL,62454-3400,38.998676,-87.724781,Crawford,324110,,8222511,NEI
110070828211.0,Robinson Refinery,400 S. Marathon Avenue,Robinson,IL,62454.0,39.0,-87.7222,Crawford,324110,,1000099,GHGRP
110070828211.0,Martin Marietta Materials Inc,400 S Marathon Ave,Robinson,IL,62454-3400,39.003307,-87.726171,Crawford,212312,,2667111,NEI
nan,Charter Waste Landfill,12035 West Murphy Road,Odessa,TX,79764.0,31.745833,-102.546661,ECTOR COUNTY,562212,,1002509,GHGRP
nan,"EPL Oil & Gas, Inc. - SP 77 A",None,Offshore,LA,0.0,28.8308,-89.4061,ORLEANS PARISH,211111,,1010333,GHGRP
nan,CVEA Cogeneration Project,Mile 2.5 Dayville Rd.,Valdez,AK,99686,61.0843,-146.2518,Chugach Census Area,221112,,1025411,NEI
nan,Glennallen Diesel Plant,Mile 187 Glenn Hwy,Glennallen,AK,99588,62.1186,-145.5294,Copper River Census Area,221112,,1025511,NEI
nan,Valdez Diesel Power Plant,West Egan Dr,Valdez,AK,99686,61.1352,-146.3533,Chugach Census Area,221112,,1025611,NEI
nan,ST LABRE MISSION,Unknown,ASHLAND,MT,00000,45.6,-106.2672,None,48811,,11140311,NEI
nan,BONANZA POWER PLANT,Unknown,BONANZA,UT,00000,40.0822,-109.2915,None,48811,,11446411,NEI
nan,ANIMAS AIR PARK HELIPORT,Unknown,DURANGO,CO,00000,37.2031,-107.8678,None,48811,,12014511,NEI
nan,Orca Power Plant,103 Orca Road,Cordova,AK,99574,60.556,-145.7535,Chugach Census Area,221112,,12660911,NEI
nan,HAARP Facility - The High Frequency Active Auroral Research Program,"Milepost 11.3, Tok Cut-Off",Gakona,AK,99586,62.3917,-145.1295,Copper River Census Area,611310,,12662511,NEI
nan,"MARYSVILLE ETHANOL, LLC",2512 BUSHA HIGHWAY,MARYSVILLE,MI,48040,42.8825,-82.4948,St. Clair,325193,,13657811,NEI
nan,Road Runner / Pacific Pride 4-260086,61313 Highway 97 South,Toppenish,WA,98949,46.369727,-120.32017,None,44711,,17310811,NEI
nan,WEST JAMESON TREATING FACILITY,FROM ROBERT LEE TAKE TX-208 N FOR 17.6 MILES. TAKE SLIGHT LEFT ONTO RANCH RD 1672 FOR 0.8 MILES. TAK,SILVER,TX,76949,32.049872,-100.693333,Coke,486210,,17910311,NEI
nan,OZONA GAS PLANT,2 M S OF SH 163,OZONA,TX,76943,30.673311,-101.20485,Crockett,211130,,6475911,NEI
nan,Marathon Petroleum Co LP,4663 W Airline Hwy,Garyville,LA,70051-0000,30.06947,-90.59586,St. John the Baptist,424710,,8018511,NEI
nan,Valdez Marine Terminal,West End of Dayville Road,Valdez,AK,99686,61.0861,-146.3892,Chugach Census Area,488320,,865711,NEI
nan,Pender Muni,Unknown,Pender,NE,00000,42.11389,-96.72893,None,48811,,9410311,NEI
nan,Animas Air Park,Unknown,Durango,CO,00000,37.20389,-107.86861,None,48811,,9811311,NEI
nan,CHEMAID LABORATORIES INC.,100 MAYHILL ST,SADDLE BROOK,NJ,7663,40.89923,-74.08892,BERGEN,325620,,0766WCHMDL1MAYH,TRI
nan,ZEUS CO INC BNJ,134 CHUBB WAY,SOMERVILLE,NJ,8876,40.556792,-74.705768,SOMERSET,326121,,0887WZSNDS134CH,TRI
nan,BLOMMER CHOCOLATE CO/E GREENVILLE PLT,1101 BLOMMER DR,EAST GREENVILLE,PA,18041,40.41568,-75.51236,MONTGOMERY,311351,,1804WBLMMR111BL,TRI
nan,ZEUS CO INC GSC,201 ZEUS LN,GASTON,SC,29053,33.844495,-81.023743,CALHOUN,326121,,2905WZSCMP21ZEU,TRI
nan,OCEANAGOLD HAILE GOLD MINE,6911 SNOWY OWL RD,KERSHAW,SC,29067,34.597431,-80.532552,LANCASTER,212221,,2906WCNGLD6911S,TRI
nan,ZEUS CO INC OSC,646 MAGNOLIA STREET,ORANGEBURG,SC,29115,33.48712,-80.85432,ORANGEBURG,326121,,2911WZSNDS646MA,TRI
nan,GITI TIRE MANUFACTURING CO (USA) LTD,1000 GITI DRIVE,RICHBURG,SC,29729,34.748817,-81.047644,CHESTER,326211,,2972WGTTRM1GITI,TRI
nan,ZEUS CO INC ASC,2499 LEVELS CHURCH RD,AIKEN,SC,29801,33.544633,-81.681224,AIKEN,326121,,2980WZSCMP2499L,TRI
nan,EBROFROST N.A. INC.,2360 PROSPECT,MEMPHIS,TN,38106,35.08205,-90.03704,SHELBY,311212,,3810WBRFRS236PR,TRI
nan,RIVIANA FOODS,2314 S. LAUDERDALE STREET,MEMPHIS,TN,38106,35.08368,-90.04458,SHELBY,311212,,3810WRVNFD2314S,TRI
nan,AMERICAN HOOD SYSTEMS INC.,172 REASER CT,ELYRIA,OH,44035,41.36746,-82.07405,LORAIN,332322,,4403WMRCNH172RE,TRI
nan,MODERN FORGE INDIANA LLC,8757 COLORADO ST,MERRILLVILLE,IN,46410,41.45912,-87.29698,LAKE,332111,,4641WMDRNF8757C,TRI
nan,LGC GENOMICS LLC,2434 BISHOP CIR E,DEXTER,MI,48130,42.32499,-83.877,WASHTENAW,325199,,4813WLGCGN2434B,TRI
nan,GEA FARM TECHNOLOGIES INC.,20903 W GALE AVE,GALESVILLE,WI,54630,44.08239,-91.37045,TREMPEALEAU,333111,,5463WGFRMT293WG,TRI
nan,CITYSERVICEVALCON LLC BILLINGS BULK FACILITY,2100 1ST AVE S,BILLINGS,MT,59101,45.783698,-108.494111,YELLOWSTONE,424710,,5910WCTYSR211ST,TRI
nan,BEN TAYLOR INC BULK FACILITY,2122 W ROOSEVELT HWY,SHELBY,MT,59474,48.516828,-111.88737,TOOLE,424710,,5947WBNTYL2122W,TRI
nan,CITYSERVICEVALCON LLC KALISPELL BULK FACILITY,640 W MONTANA ST,KALISPELL,MT,59901,48.19949,-114.32476,FLATHEAD,424710,,5990WCTYSR64WMN,TRI
nan,LAKESIDE CASTING SOLUTIONS,2 LAKESIDE DR,MONROE CITY,MO,63456,39.654759,-91.715791,MONROE,331523,,6345WLKSDC2LAKE,TRI
nan,YODER SMOKERS INC.,1816 E WASP RD,HUTCHINSON,KS,67501,37.927606,-97.894809,RENO,335220,,6750WYDRSM1816E,TRI
nan,REEVE AGRI ENERGY,5665 S OLD HIGHWAY 83,GARDEN CITY,KS,67846,37.87925,-100.88353,FINNEY,325193,,6784WRVGRN5665S,TRI
nan,MUELLER SUPPLY CO INC.,6914 HWY 2,OAK GROVE,LA,71263,32.858227,-91.411359,WEST CARROLL PARISH,332311,,7126WMLLRN6914H,TRI
nan,SUN COAST RESOURCES- ENID,5110 E OWEN K GARRIOTT RD,ENID,OK,73701,36.39754,-97.80105,GARFIELD,424710,,7370WSNCST511EW,TRI
nan,SUN COAST RESOURCES,2294 S BUFFALO ST,BUFFALO,TX,75831,31.45061,-96.05031,LEON,424710,,7583WSNCST11SBU,TRI
nan,HUNTSMAN BUILDING SOLUTIONS,3315 EAST DIV STREET,ARLINGTON,TX,76011,32.743039,-97.049116,TARRANT,325211,,7601WHNTSM3315E,TRI
nan,SUN COAST RESOURCES,6922 CAVALCADE,HOUSTON,TX,77028,29.800408,-95.302828,HARRIS,424710,,7702WSNCST6922C,TRI
nan,SUN COAST RESOURCES EDNA WAREHOUSE,176 US HIGHWAY 59 S,EDNA,TX,77957,28.97802,-96.66417,JACKSON,424710,,7795WSNCST176US,TRI
nan,SUN COAST RESOURCES,7759 JOHNNY MORRIS RD,AUSTIN,TX,78724,30.311393,-97.636723,TRAVIS,424710,,7872WSNCST7759J,TRI
nan,SUN COAST RESOURCES- MIDLAND,5606 E COUNTY ROAD 128,MIDLAND,TX,79706,31.967052,-101.972818,MIDLAND,424710,,7970WSNCST566EC,TRI
nan,KDC / ONE - THIBIANT INTERNATIONAL,20320 PRAIRIE STREET,CHATSWORTH,CA,91311,34.240923,-118.58636,LOS ANGELES,325620,,9131WTHBNT232PR,TRI
nan,IMPERIAL WESTERN PRODUCTS INC,86600 AVENUE 54,COACHELLA,CA,92236,33.65771,-116.15811,RIVERSIDE,325199,,9223WMPRLW866AB,TRI
nan,BETTS CO,2843 S MAPLE AVE,FRESNO,CA,93725,36.706914,-119.745621,FRESNO,332613,,9372WBTTSC2843S,TRI
nan,GEA FARM TECHNOLOGIES INC.  DBA GEA WS WEST,2717 S 4TH ST,FRESNO,CA,93725,36.70299,-119.76687,FRESNO,325611,,9372WGFRMT2717S,TRI
nan,ECOLUBE RECOVERY LLC,11535 N FORCE AVE,PORTLAND,OR,97217,45.60602,-122.69291,MULTNOMAH,324199,,9721WCLBRC11535,TRI
nan,FARWEST FABRICATORS,7537 POSTMA RD,MOXEE,WA,98936,46.563889,-120.396942,YAKIMA,332322,,9893WFRWST7537P,TRI
110070505773.0,ALON ASPHALT BAKERSFIELD INC,1201 CHINA GRADE LOOP,BAKERSFIELD,CA,93308,35.42679,-119.00636,Kern,324121,,10276811,NEI
110070505773.0,ASPHALT TERMINALS LLC - BAKERSFIELD,1201 CHINA GRADE LOOP,BAKERSFIELD,CA,93308,35.426807,-119.006374,KERN,424710,,93308PRMNT121CH,TRI
110001173337.0,CALMATCOMPANY,6029 VINEYARD AVENUE,SATICOY,CA,93030,34.27119,-119.13966,Ventura,212321,,1205811,NEI
110001173337.0,CALMAT CO.,6029 VINEYARD AVE.,OXNARD,CA,93030,34.27006,-119.15267,Ventura,324121,,13582411,NEI
110020888930.0,"M. ARGUESO & CO., INC. (DBA PARAMELT)",2817 MCCRACKEN ST,MUSKEGON,MI,49441,43.2017,-86.2936,Muskegon,324199,,13655711,NEI
110020888930.0,M. ARGUESO & CO. INC. (D.B.A PARAMELT),2817 MCCRACKEN ST,MUSKEGON,MI,49441,43.2017,-86.2936,MUSKEGON,325998,,49441MRGSC2817M,TRI
110001157872.0,A. TEICHERT & SON,8760 KIEFER BLVD,SACRAMENTO,CA,95826,38.54541,-121.37599,Sacramento,324121,,13842311,NEI
110001157872.0,TEICHERT PERKINS PLANT,8760 KIEFER BLVD,SACRAMENTO,CA,95826,38.544457,-121.381133,Sacramento,212319,,3242211,NEI
110001157872.0,PERKINS PLANT,8760 KIEFER BLVD,SACRAMENTO,CA,95826,38.547084,-121.376044,SACRAMENTO,212321,,95827PRKNS8760K,TRI
110010457950.0,BALDWIN CONTRACTING CO. 22002,2965 HOOPER RD,MARYSVILLE,CA,95901,39.199,-121.505,Yuba,324121,,13843311,NEI
110010457950.0,"BALDWIN CONTRACTING CO., INC",2965 HOOPER RD,MARYSVILLE,CA,95901,39.20145,-121.50712,Yuba,212321,,3697611,NEI
110022861679.0,KENTS OIL SERVICE INC,3310 E MINER AVE,STOCKTON,CA,95205,37.964837,-121.246934,San Joaquin,324121,,14099811,NEI
110022861679.0,KENT'S OIL SERVICE INC.,3310 E MINER AVE,STOCKTON,CA,95205,37.9649,-121.24728,SAN JOAQUIN,424710,,95206KNTSL331EM,TRI
110032885723.0,SPMT / MARCUS HOOK IND COMPLEX,100 GREEN ST,MARCUS HOOK,PA,19061-4800,39.81414,-75.41358,Delaware,493190,,16848711,NEI
110032885723.0,MARCUS HOOK 50 LP/MARCUS HOOK,100 GREEN ST,MARCUS HOOK,PA,19061-4800,39.80991,-75.42749,Delaware,221112,,4724511,NEI
110032885723.0,SUNOCO LLC/MH RACE FUELS,100 GREEN ST,MARCUS HOOK,PA,19061-4800,39.814609,-75.42227,Delaware,324110,,7873611,NEI
110032885723.0,SUNOCO LLC-RACE FUELS,100 GREEN ST,MARCUS HOOK,PA,19061,39.814609,-75.42227,DELAWARE,324110,,19061SNRFNGREEN,TRI
110032885723.0,Marcus Hook Energy Center - MH750,100 Green Street,Marcus Hook,PA,19061.0,39.8083,-75.4225,Delaware,221112,,1000269,GHGRP
110043975115.0,Ralph Rogers and Company - Henrietta Quarry,1385 Ferry Road,Mooresboro,NC,28114,35.244,-81.8126,Rutherford,212313,,17130711,NEI
110043975115.0,Ralph Rogers and Company - Henrietta Plant,1385 Ferry Road,Mooresboro,NC,28114,35.2462,-81.808464,Rutherford,324121,,17685011,NEI
110000476413.0,"CHEMOIL TERMINALS CORP, CARSON TERMINAL",2365 E SEPULVEDA BLVD,CARSON,CA,90810,33.80592,-118.22594,Los Angeles,493190,,18241511,NEI
110000476413.0,OLYMPUS TERMINALS LLC,2365 E SEPULVEDA BLVD,CARSON,CA,90810,33.80542,-118.22565,LOS ANGELES,424710,,90810CRSNT2365E,TRI
110018093757.0,Conmat Inc,W Longhollow Rd & Rte 20,Elizabeth,IL,61028,42.321184,-90.255316,Jo Daviess,324121,,2443911,NEI
110018093757.0,Conmat Inc,1307 W Longhollow Rd,Elizabeth,IL,61028-9487,42.319572,-90.256055,Jo Daviess,212312,,2443811,NEI
110018136300.0,Southern Illinois Materials Co,Route 37N,Buncombe,IL,62912,37.492751,-88.969471,Johnson,324121,,2513611,NEI
110018136300.0,C&H Gravel,Rt 37,Buncombe,IL,62912,37.488068,-88.96819,Johnson,212321,,10817611,NEI
110002428454.0,DUTRA MATERIALS,961 WESTERN DR,RICHMOND,CA,94801,37.933624,-122.404572,Contra Costa,447110,,18217911,NEI
110002428454.0,DUTRA MATERIALS/SAN RAFAEL ROCK QUARRY INC,961 WESTERN DRIVE,RICHMOND,CA,94801,37.92855,-122.39579,Contra Costa,324121,,283911,NEI
110006814386.0,HUBBARD CONSTRUCTION COMPANY,4101 Maritime Blvd,TAMPA,FL,33605-6842,27.910081,-82.438216,Hillsborough,324121,,3449211,NEI
110006814386.0,"MARTIN MARIETTA MATERIALS, INC.",4101 MARITIME BLVD.,TAMPA,FL,33605,27.910278,-82.436944,Hillsborough,42332,,12788811,NEI
110010457987.0,TEICHERT AGGREGATES - ASPHALT,3331 WALNUT AVE,MARYSVILLE,CA,95901,39.19226,-121.49293,Yuba,324121,,3697711,NEI
110010457987.0,HALLWOOD PLANT,3331 WALNUT AVE,MARYSVILLE,CA,95901,39.191954,-121.494534,YUBA,212321,,95901HLLWD3331W,TRI
110020515986.0,MARTIN MARIETTA MTRLS - PLANT 41-246098,18401 W COLFAX AVE,GOLDEN,CO,80401,39.707834,-105.211404,Jefferson,324121,,3835011,NEI
110020515986.0,MARTIN MARIETTA MTRLS-SPEC. AGG. QUARRY,18401 W. COLFAX AVE,GOLDEN,CO,80401,39.707367,-105.210221,Jefferson,212321,,4263811,NEI
110020515986.0,Lafarge West Inc.,18401 W Colfax,Golden,CO,80401,39.69927,-105.23258,Jefferson,324121,,9812611,NEI
110009980770.0,CGS Services Inc,2920 E US Hwy 52,Morristown,IN,46161,39.6878,-85.7225,Shelby,562212,,3953911,NEI
110009980770.0,CGS Services Inc,2920 E US Hwy 52,Morristown,IN,46161,39.6937,-85.7239,Shelby,324121,,3954011,NEI
110060335524.0,Jewell Coke Company LLP,1034 Dismal River Road,Vansant,VA,24656,37.23434,-82.03706,Buchanan,324199,,4034811,NEI
110060335524.0,JEWELL COKE CO LP,1034 DISMAL RIVER RD,OAKWOOD,VA,24631,37.234409,-82.036899,BUCHANAN,331110,,24656JWLLCHWY46,TRI
110017428988.0,"TESORO REFINING & MARKETING CO, LLC",2350 E 223RD ST,CARSON,CA,90810,33.8099,-118.2383,Los Angeles,324110,,4073511,NEI
110017428988.0,TESORO LOS ANGELES REFINERY-CARSON OPERATIONS,24696 S WILMINGTON AVE,CARSON,CA,90745,33.8099,-118.2383,LOS ANGELES,424710,,90749RCPRD1801E,TRI
110017428988.0,TESORO LOS ANGELES REFINERY-CARSON OPERATIONS,24696 S WILMINGTON AVE,CARSON,CA,90745,33.8099,-118.2383,LOS ANGELES,324110,,90749RCPRD1801E,TRI
110017428988.0,TESORO SOCAL PIPELINE COMPANY LLC,1801  SEPULVEDA BLVD,CARSON,CA,90745,33.80885,-118.23624,Los Angeles,424710,,10318211,NEI
110000460885.0,HOUSTON REFINERY,9701 MANCHESTER,HOUSTON,TX,77012,29.721667,-95.253889,Harris,324110,,4182511,NEI
110000460885.0,VALERO REFINING - TEXAS L.P. HOUSTON REFINERY,9701 MANCHESTER,HOUSTON,TX,77012,29.722274,-95.254401,HARRIS,324110,,77012HLLPT9701M,TRI
110000460885.0,VALERO PARTNERS HOUSTON,9701 MANCHESTER ST,HOUSTON,TX,77012,29.716628,-95.251786,Harris,424710,,17907111,NEI
110020680789.0,Plains Marketing LP Yorktown,2201 Goodwin Neck Rd,Grafton,VA,23692-0578,37.21022,-76.45366,York,324110,,4195011,NEI
110020680789.0,PLAINS MARKETING LP YORKTOWN,2201 GOODWIN NECK RD,YORKTOWN,VA,23692,37.21022,-76.45366,YORK,424710,,23692MCLCM2201G,TRI
110001159040.0,"VULCAN MATERIALS CO, WESTERN DIV",8517 PANAMA LANE,BAKERSFIELD,CA,93311,35.296,-119.0968,Kern,324121,,423311,NEI
110001159040.0,CEMEX CONSTRUCTION MATERIALS PACIFIC LLC,8517 PANAMA LANE,BAKERSFIELD,CA,93311,35.29602,-119.09683,Kern,327320,,14038811,NEI
110017887330.0,EQUILON ENTERPRISES LLC,6451 ROSEDALE HWY,BAKERSFIELD,CA,93308,35.38494,-119.07188,Kern,488490,,13857911,NEI
110017887330.0,ALON BAKERSFIELD REFINERY-soil remediation,6451 ROSEDALE HWY,BAKERSFIELD,CA,93308,35.3809,-119.07242,Kern,486910,,18144711,NEI
110017887330.0,ALON BAKERSFIELD REFINING,6451 ROSEDALE HWY,BAKERSFIELD,CA,93308,35.376411,-119.072393,Kern,324110,,4789411,NEI
110017887330.0,BAKERSFIELD RENEWABLE FUELS LLC - AREAS 1 & 2,6451 ROSEDALE HWY,BAKERSFIELD,CA,93308,35.3825,-119.070556,KERN,324110,,93308TXCRF6451R,TRI
110011142566.0,Enterprise Products Operating LLC - Baton Rouge Fractionator & Propylene Concent,2220 N River Rd,Port Allen,LA,70767,30.48102,-91.20434,West Baton Rouge,324199,,5358511,NEI
110011142566.0,ENTERPRISE PRODUCTS OPERATING LLC BATON ROUGE FRACTIONATOR,2220 N RIVER RD,PORT ALLEN,LA,70767,30.480556,-91.202778,WEST BATON ROUGE PARISH,325110,,70767NTRPR2220N,TRI
110010425584.0,Gaddie Shamrock LLC,5045 KY 55 S,Columbia,KY,42728,37.050556,-85.260278,Adair,324121,,5624811,NEI
110010425584.0,Gaddie Shamrock LLC,5045 KY 55 S,Columbia,KY,42728,37.047132,-85.262554,Adair,212312,,5624711,NEI
110000476057.0,ULTRAMAR INC,961  LA PALOMA AVE,WILMINGTON,CA,90744,33.76097,-118.26555,Los Angeles,493190,,5634611,NEI
110000476057.0,ULTRAMAR INC. MARINE TERMINAL,961 LA PALOMA ST,WILMINGTON,CA,90744,33.75828,-118.26676,LOS ANGELES,324110,,90744LTRMR961LA,TRI
110000476315.0,EDGINGTON OIL COMPANY,2400 E ARTESIA BLVD,LONG BEACH,CA,90805,33.874604,-118.163883,Los Angeles,324121,,5683011,NEI
110000476315.0,EDGINGTON OIL CO,2400 E ARTESIA BLVD,LONG BEACH,CA,90805,33.87461,-118.16412,LOS ANGELES,324110,,90805DGNGT2400E,TRI
110012709159.0,AGGREGATE INDUSTRIES NORTHEAST,ROVER AND COMMERCIAL ST,EVERETT,MA,02149-0000,42.390383,-71.055987,Middlesex,324121,,5828311,NEI
110012709159.0,HOLCIM - NER INC.,201B ROVER ST,EVERETT,MA,2149,42.39213,-71.06252,MIDDLESEX,327320,,02149GGRGT201BR,TRI
110013836402.0,Gaddie Shamrock LLC,1344 Burkesville Rd,Albany,KY,42602,36.7025,-85.16,Clinton,324121,,5876311,NEI
110013836402.0,Gaddie Shamrock LLC,KY 1590,Albany,KY,42602,36.704444,-85.158611,Clinton,212312,,5876211,NEI
110006758696.0,Haydon Materials LLC - Lebanon Asphalt Plant,1270 KY 208,Lebanon,KY,40033,37.537952,-85.278379,Marion,324121,,5928411,NEI
110006758696.0,Haydon Materials LLC - Lebanon Quarry,1270 KY 208,Lebanon,KY,40033,37.535556,-85.284722,Marion,212312,,5927711,NEI
110008797828.0,Bowman Construction Co Inc - Nonmetallic,3399 Highway 11 E,International Falls,MN,56649,48.60292,-93.32519,Koochiching,212321,,6200911,NEI
110008797828.0,Bowman Construction Co Inc,3399 Highway 11 E,International Falls,MN,56649,48.60292,-93.32519,Koochiching,324121,,6201011,NEI
110000427119.0,Flint Hills Resources Pine Bend LLC - Marshall,901 7th St N,Marshall,MN,56258,44.45909,-95.79029,Lyon,324199,,6368111,NEI
110000427119.0,FLINT HILLS RESOURCES PINE BEND LLC MARSHALL,901 N 7TH ST,MARSHALL,MN,56258,44.46068,-95.78854,LYON,324121,,56258KCHMT901N7,TRI
110001242977.0,Lexington Quarry Co - Asphalt Plant,2200 Catnip Hill Rd,Nicholasville,KY,40356,37.93,-84.563056,Jessamine,324121,,6411211,NEI
110001242977.0,Lexington Quarry Co,2200 Catnip Hill Rd,Nicholasville,KY,40356,37.932778,-84.555833,Jessamine,212312,,6410811,NEI
110021341332.0,TESORO REFINING AND MARKETING COMPANY LLC,"1750 MARINA VISTA WAY, AMORCO",MARTINEZ,CA,94553,38.02738,-122.11726,Contra Costa,424710,,175011,NEI
110021341332.0,TESORO REFINING & MARKETING COMPANY LLC,150 SOLANO WAY,MARTINEZ,CA,94553,38.0251,-122.0639,Contra Costa,324110,,6480811,NEI
110021341332.0,TESORO REFINING & MARKETING CO LLC,150 SOLANO WAY,MARTINEZ,CA,94553,38.0251,-122.0639,CONTRA COSTA,324110,,94553TSCCRAVONR,TRI
110040906945.0,Sinclair Refinery,"21,21N,86W",Carbon,WY,82301,41.7814,-107.1045,Carbon,324110,,6512311,NEI
110040906945.0,Sinclair Wyoming Pipeline Control Center,"21,21N,86W",Carbon,WY,82301,41.782,-107.11633,Carbon,424710,,18802111,NEI
110000483450.0,USS-POSCO INDUSTRIES,900 LOVERIDGE ROAD,PITTSBURG,CA,94565,38.02284,-121.86034,Contra Costa,324199,,6529211,NEI
110000483450.0,USS-UPI LLC,900 LOVERIDGE RD - MS-67,PITTSBURG,CA,94565,38.02305,-121.85565,CONTRA COSTA,331221,,94565SSPSCPOBOX,TRI
110000483450.0,"USS-UPI, LLC",900 LOVERIDGE ROAD,PITTSBURG,CA,94565.0,38.027981,-121.872765,CONTRA COSTA COUNTY,331221,,1004478,GHGRP
110010480639.0,"GRANITE CONSTRUCTION, COALINGA",38940 HIGHWAY 33,COALINGA,CA,93210,36.167493,-120.36422,Fresno,324121,,6611,NEI
110010480639.0,GRANITE CONSTRUCTION COMPANY,38940 HIGHWAY 33,COALINGA,CA,93210,36.165247,-120.354569,Fresno,327390,,14016111,NEI
110008820099.0,Flint Hills Resources Pine Bend LLC - Savage,12101 Yosemite Ave S,Savage,MN,55378,44.78265,-93.35291,Scott,324199,,6936811,NEI
110008820099.0,FLINT HILLS RESOURCES PINE BEND LLC SAVAGE,12101 YOSEMITE AVE S,SAVAGE,MN,55378,44.78023,-93.35302,SCOTT,324121,,55378KCHMT12101,TRI
110001444884.0,Flint Hills Resources Pine Bend LLC - St Paul,2209 Childs Rd,Saint Paul,MN,55106,44.9293,-93.0464,Ramsey,324199,,7160611,NEI
110001444884.0,FLINT HILLS RESOURCES PINE BEND LLC ST PAUL,2209 CHILDS RD,SAINT PAUL,MN,55106,44.930356,-93.046224,RAMSEY,324121,,55106KCHMT2209C,TRI
110070146459.0,CALMAT CO,2400 W HIGHLAND AVE,SAN BERNARDINO,CA,92407,34.136043,-117.344348,San Bernardino,212321,,18732511,NEI
110070146459.0,CALMAT CO,2340 W HIGHLAND AVE,SAN BERNARDINO,CA,92405,34.1361,-117.34355,San Bernardino,324121,,724511,NEI
110000597248.0,CITGO Petroleum Corp - Lake Charles Manufacturing Complex,4401 Hwy 108 S,Sulphur,LA,70665,30.18091,-93.32122,Calcasieu,324110,,7380411,NEI
110000597248.0,CITGO PETROLEUM CORP,1601 HWY 108 E,SULPHUR,LA,70665,30.18149,-93.324051,CALCASIEU PARISH,324110,,70602CTGPTHIGHW,TRI
110000597248.0,Citgo Petroleum Corp - Lake Charles Truck Loading Facility,4401 Hwy 108 S,Sulphur,LA,70663,30.18337,-93.3275,Calcasieu,424710,,5719311,NEI
110001151636.0,CALMAT DBA VULCAN MATERIALS COMPANY,17041 E KINGS CANYON RD,SANGER,CA,93657,36.7322,-119.4841,Fresno,324121,,7711,NEI
110001151636.0,CALMAT DBA VULCAN MATERIALS COMPANY,17041 E KINGS CANYON RD,SANGER,CA,93657,36.727,-119.486,Fresno,212321,,10399511,NEI
110056968651.0,MARYSVILLE ETHANOL LLC,2512 BUSHA HIGWAY,MARYSVILLE,MI,48040.0,42.88335,-82.491547,ST. CLAIR COUNTY,325193,,1001809,GHGRP
110056968651.0,"Marysville Hydrocarbons, LLC.",2510  Busha Highway,MARYSVILLE,MI,48040,42.883127,-82.494401,St. Clair,493190,,8128011,NEI
110056968651.0,MARYSVILLE ETHANOL LLC,2512 BUSHA HWY,MARYSVILLE,MI,48040,42.88335,-82.491547,ST. CLAIR,325193,,4804WMRYSV251BU,TRI
110066942526.0,ARCELORMITTAL USA LLC,3210 Watling St,East Chicago,IN,46312,41.6619,-87.4418,Lake,331110,,3986511,NEI
110066942526.0,Indiana Harbor Coke Company LP contract,3210 Watling St MC 2 990,East Chicago,IN,46312,41.65611,-87.450828,Lake,324199,,8182811,NEI
110066942526.0,CLEVELAND-CLIFFS STEEL LLC,3210 WATLING ST MAIL CODE (8-130),EAST CHICAGO,IN,46312,41.656321,-87.450142,LAKE,331110,,46312NLNDS3210W,TRI
110066942526.0,Cleveland-Cliffs Steel LLC,3210 WATLING ST,EAST CHICAGO,IN,46312.0,41.68,-87.4264,Lake,331111,,1000156,GHGRP
110000398374.0,US STEEL   GARY WORKS,1 N Broadway,Gary,IN,46402,41.61051,-87.31321,Lake,324199,,8192011,NEI
110000398374.0,USS GARY WORKS,1 N BROADWAY,GARY,IN,46402,41.6125,-87.3114,LAKE,331110,,46402SSGRYONENO,TRI
110000398374.0,US Steel Corp - Gary Works,1 NORTH BROADWAY,GARY,IN,46402.0,41.6133,-87.3281,Lake,331111,,1000418,GHGRP
110000398374.0,"ArcelorMittal Plate, LLC (Gary Plate)",1 N Broadway,Gary,IN,46402,41.608605,-87.337405,Lake,324199,,10697311,NEI
110056963745.0,HESS PORT READING,Unknown,PORT READING,NJ,00000,40.6444,-74.2453,Union,48811,,11560511,NEI
110056963745.0,BUCKEYE PORT READING TERMINAL LLC,750 CLIFF RD,PORT READING,NJ,07064,40.562299,-74.24204,Middlesex,493190,,8237311,NEI
110012709122.0,AGGREGATE INDUSTRIES,1831 BROADWAY,SAUGUS,MA,01906-0000,42.448437,-71.029902,Essex,327320,,7931711,NEI
110012709122.0,HOLCIM - NER INC.,1831 BROADWAY,SAUGUS,MA,1906,42.448437,-71.029902,ESSEX,324121,,01906GGRGT1831B,TRI
110001730609.0,SUZIO YORK HILL COS,975 WESTFIELD RD,MERIDEN,CT,6450,41.55612,-72.75622,NEW HAVEN,324121,,06450SZSPHWESTF,TRI
110001730609.0,SUZIO YORK HILL COS,975 WESTFIELD RD,MERIDEN,CT,6450,41.55612,-72.75622,NEW HAVEN,484110,,06450SZSPHWESTF,TRI
110001730609.0,SUZIO YORK HILL COS,975 WESTFIELD RD,MERIDEN,CT,6450,41.55612,-72.75622,NEW HAVEN,212311,,06450SZSPHWESTF,TRI
110001730609.0,SUZIO YORK HILL COS,975 WESTFIELD RD,MERIDEN,CT,6450,41.55612,-72.75622,NEW HAVEN,327320,,06450SZSPHWESTF,TRI
110001276976.0,BONSAL AMERICAN INC,10300 Pulaski Hwy.,White Marsh,MD,21162,39.36583,-76.44,Baltimore,327999,,5169111,NEI
110001276976.0,OLDCASTLE APG MID-ATLANTIC WHITE MARSH MD,10300 PULASKI HWY,WHITE MARSH,MD,21162,39.36945,-76.43618,BALTIMORE,324199,,21162MRCNS10300,TRI
110001276976.0,OLDCASTLE APG MID-ATLANTIC WHITE MARSH MD,10300 PULASKI HWY,WHITE MARSH,MD,21162,39.36945,-76.43618,BALTIMORE,327999,,21162MRCNS10300,TRI
110000586027.0,KOPPERS FOLLANSBEE,810 KOPPERS ROAD,FOLLANSBEE,WV,26037-0665,40.33917,-80.60556,Brooke,32519,,6234511,NEI
110000586027.0,KOPPERS FOLLANSBEE TAR PLANT,810 KOPPERS RD,FOLLANSBEE,WV,26037,40.339596,-80.606822,BROOKE,324199,,26037KPPRSKOPPE,TRI
110000366817.0,ABC COKE,ONE RAILROAD AVENUE,TARRANT,AL,35217.0,33.580769,-86.781281,JEFFERSON COUNTY,331111,,1004511,GHGRP
110000366817.0,DRUMMOND CO INC ABC COKE DIV,ONE RAILROAD AVE,TARRANT,AL,35217,33.580769,-86.781281,JEFFERSON,324199,,35217BCCKDRAILR,TRI
110000895327.0,ERGON ASPHALT & EMULSIONS INC. - MEMPHIS,1989 CHANNEL AVE,MEMPHIS,TN,38113,35.09173,-90.1111,SHELBY,324121,,38113RGNTR1989C,TRI
110000895327.0,Ergon Terminaling Inc  Memphis,1989 Channel Ave.,Memphis,TN,38113,35.09249,-90.10916,Shelby,45431,,2846711,NEI
110001857866.0,Owens Corning Trumbull Asphalt Plant,2301 Channel Avenue,Memphis,TN,38113,35.0839,-90.1164,Shelby,324122,,4980311,NEI
110001857866.0,OWENS CORNING ROOFING & ASPHALT LLC MEMPHIS TRUMBULL ASPHALT,2301 CHANNEL AVE,MEMPHIS,TN,38109,35.084088,-90.116254,SHELBY,324121,,38113WNSCR2301C,TRI
110000590842.0,HUNT SOUTHLAND REFINING COMPANY,177 HANEY ROAD,SANDERSVILLE,MS,39477,31.8167,-89.0089,Jones,32411,,7139711,NEI
110000590842.0,HUNT SOUTHLAND REFINING CO-SANDERSVILLE,HWY 11 N,SANDERSVILLE,MS,39477,31.8167,-89.0089,JONES,324110,,39477STHLNHIGHW,TRI
110000381113.0,Continental Refining Company LLC,501 Refinery Rd,Somerset,KY,42501,37.0716,-84.6092,Pulaski,32411,,7381911,NEI
110000381113.0,CONTINENTAL REFINING CO LLC,501 REFINERY RD,SOMERSET,KY,42501,37.0716,-84.6092,PULASKI,324110,,42501THSMR501RE,TRI
110000388919.0,"Owens Corning Roofing and Asphalt, LLC (1652050040)",890 W. Smith Road,Medina,OH,44256,41.13438,-81.89095,Medina,324122,,7434311,NEI
110000388919.0,OWENS CORNING - MEDINA,890 W SMITH RD,MEDINA,OH,44256,41.13612,-81.89102,MEDINA,324121,,44256WNSCR890WE,TRI
110000433371.0,Owens-Corning Corp,5824 S Archer Rd,Summit,IL,60501-1410,41.784714,-87.81723,Cook,324122,,559311,NEI
110000433371.0,OWENS CORNING ROOFING & ASPHALT LLC,5824 S  ARCHER RD,SUMMIT,IL,60501,41.784714,-87.81723,COOK,324121,,60501WNSCR5824S,TRI
110012608044.0,LEAD BELT MATERIALS CO INC PARK HILLS,600 MILL STREET,PARK HILLS,MO,63601,37.8429,-90.5412,St. Francois,212312,,7421011,NEI
110012608044.0,LEAD BELT MATERIALS CO INC,600 MILL ST,PARK HILLS,MO,63601,37.8429,-90.5412,ST. FRANCOIS,324121,,63601LDBLT6MILL,TRI
110006533359.0,EAST STORAGE/SPLITTER III FACILITY,316 S MAIN ST,MONT BELVIEU,TX,77580,29.839361,-94.892339,Chambers,325110,,6599811,NEI
110006533359.0,EAST STORAGE / SPLITTER III FACILITY,316 S MAIN ST,MONT BELVIEU,TX,77580,29.840014,-94.892134,CHAMBERS,324110,,77580DMNDS316SO,TRI
110000464140.0,LNVA - NORTH PLANT REGIONAL TREATMENT PLANT,2655 GULF STATES RD; 1 M E OF BEAUMONT FROM SYCAMORE ST,BEAUMONT,TX,77701,30.061506,-94.064839,Jefferson,221310,,7909511,NEI
110000464140.0,LNVA-NORTH REGIONAL TREATMENT PLANT,2655 GULF STATES RD,BEAUMONT,TX,77701,30.063425,-94.061066,JEFFERSON,324110,,77704NCHSRGULFS,TRI
110069291661.0,SEWARD PLANT,11729 HIGHWAY 29,LIBERTY HILL,TX,78642,30.68589,-97.92565,WILLIAMSON,324121,,7864WSWRDP11729,TRI
110069291661.0,SEWARD PLANT,11729 HIGHWAY 29,LIBERTY HILL,TX,78642,30.68589,-97.92565,WILLIAMSON,327320,,7864WSWRDP11729,TRI
110000469136.0,Holly Corp- HRMC and HEP Woods Cross Operations,393 South 800 West,Woods Cross,UT,84087,40.886022,-111.904759,Davis,32411,,7301411,NEI
110000469136.0,HF SINCLAIR WOODS CROSS REFINING LLC,393 S 800 W,WOODS CROSS,UT,84087,40.886022,-111.904759,DAVIS,324110,,84087PHLLP393SO,TRI
110064473396.0,VULCAN MATERIALS CO VAL VISTA,3410 E VIRGINIA ST,MESA,AZ,85213,33.47718,-111.7555,MARICOPA,324121,,85213VLCNM341EV,TRI
110064473396.0,CALPORTLAND CO VAL VISTA PLANT,3410 E. VIRGINIA STREET,MESA,AZ,85213,33.47718,-111.7555,MARICOPA,327320,,8521WCLPRT341EV,TRI
110001187992.0,CALMAT CO,16005  FOOTHILL BLVD,IRWINDALE,CA,91706,34.133759,-117.933128,Los Angeles,212321,,248911,NEI
110001187992.0,VULCAN MATERIALS CO - IRWINDALE,16005 FOOTHILL BLVD,IRWINDALE,CA,91702,34.133441,-117.896711,LOS ANGELES,324121,,9170WRWNDL165FT,TRI
110002414691.0,HOLLIDAY ROCK CO INC,2193 W FOOTHILL BLVD,UPLAND,CA,91786,34.10691,-117.69429,San Bernardino,212321,,4920611,NEI
110002414691.0,HOLLIDAY ROCK - FOOTHILL,2193 W FOOTHILL BLVD,UPLAND,CA,91786,34.106798,-117.693801,SAN BERNARDINO,324121,,91786HLLDY2193W,TRI
110010132533.0,MISSION VALLEY ROCK CO,7999 ATHENOUR WAY,SUNOL,CA,94586,37.573,-121.882,Alameda,423320,,379811,NEI
110010132533.0,MISSION VALLEY ROCK,7999 ATHENOUR WAY,SUNOL,CA,94586,37.575903,-121.880047,ALAMEDA,324121,,9458WSNLXX7999A,TRI
110037149163.0,MDU RESOURCES KNIFE RIVER SUNDIAL ASPHALT,5700 NE SUNDIAL RD,TROUTDALE,OR,97060,45.563343,-122.408729,MULTNOMAH,324121,,97060MDRSR57NES,TRI
110037149163.0,MDU RESOURCES KNIFE RIVER SUNDIAL ASPHALT,5700 NE SUNDIAL RD,TROUTDALE,OR,97060,45.563343,-122.408729,MULTNOMAH,327320,,97060MDRSR57NES,TRI
110037149644.0,COFFEE LAKE CONCRETE,12000 TONQUIN RD,SHERWOOD,OR,97140,45.344997,-122.797827,WASHINGTON,324121,,97140CFFLK12TNQ,TRI
110037149644.0,COFFEE LAKE CONCRETE,12000 TONQUIN RD,SHERWOOD,OR,97140,45.344997,-122.797827,WASHINGTON,327320,,97140CFFLK12TNQ,TRI
110008062210.0,"Owens Corning Roofing and Asphalt, LLC",11910 NW SAINT HELENS RD,PORTLAND,OR,97231-2306,45.6061,-122.7891,Multnomah,221330,,891311,NEI
110008062210.0,OWENS CORNING ROOFING & ASPHALT LLC,11910 NW ST HELENS RD,PORTLAND,OR,97231,45.608484,-122.790595,MULTNOMAH,324121,,97208TRMBL11910,TRI
110037149984.0,EUGENE SAND & GRAVEL--COBURG,90520 COBURG RD,EUGENE,OR,97408,44.121903,-123.063848,LANE,324121,,97408GGSND952CB,TRI
110037149984.0,EUGENE SAND & GRAVEL--COBURG,90520 COBURG RD,EUGENE,OR,97408,44.121903,-123.063848,LANE,327320,,97408GGSND952CB,TRI
110018953532.0,CHEVRON PRODUCTS COMPANY,17881  GOTHARD ST,HUNTINGTON BEACH,CA,92647,33.703025,-117.999913,Orange,424710,,4940211,NEI
110018953532.0,CHEVRON HUNTINGTON BEACH TERMINAL,17881 GOTHARD ST,HUNTINGTON BEACH,CA,92647,33.70264,-117.9999,ORANGE,424710,,92647HNTNG17881,TRI
110018953532.0,Chevron U S A  Inc Unit No 01,14881 Gothard St,Huntington Beach,CA,92647,33.70319,-118.00012,Orange,324199,,391311,NEI
110000476002.0,THE JANKOVICH CO PARAMOUNT FIXED FACILITY,14066 GARFIELD AVE,PARAMOUNT,CA,90723,33.90574,-118.16889,LOS ANGELES,424710,,90723WSTRN14066,TRI
110000476002.0,Western Petroleum Inc,14066 Garfield,Paramount,CA,90723,33.90499,-118.16666,Los Angeles,324199,,7875311,NEI
110001193191.0,RIGHT AWAY REDY MIX,5501 IMHOFF DRIVE,MARTINEZ,CA,94553,37.99997,-122.05926,Contra Costa,327320,,10718911,NEI
110001193191.0,COUNTY ASPHALT,5501 IMHOFF DRIVE,MARTINEZ,CA,94553,37.99949,-122.0633,Contra Costa,324121,,10718811,NEI
