FRS_ID,FacilityName,Address,City,State,Zip,Latitude,Longitude,County,NAICS,SIC,FacilityID,Source
110011904305.0,TGP Station 249 Carlisle,2840 US RT 20 EAST,CARLISLE,NY,12031.0,42.766734,-74.461355,SCHOHARIE COUNTY,486210,,1001661,GHGRP
110011904305.0,COMPRESSOR STATION 249,2840 US RTE 20,CARLISLE,NY,12031,42.755458,-74.40333,Schoharie,48621,,8435311,NEI
110007920116.0,Anna Platform,None,Anchorage,AK,99503.0,60.97640050572,-151.3151066962,KENAI PENINSULA,211111,,1001756,GHGRP
110007920116.0,Anna Platform,Upper Cook Inlet,Anchorage,AK,99503,60.9769,-151.3133,Kenai Peninsula,211120,,681111,NEI
110007647001.0,"TGP Station 63 Batesville, MS",8450 Highway 6 W,Batesville,MS,38606.0,34.296083,-90.073111,PANOLA COUNTY,486210,,1001848,GHGRP
110007647001.0,"TENNESSEE GAS PIPELINE COMPANY LLC, BATE",8450 HIGHWAY 6 WEST,BATESVILLE,MS,38606,34.295856,-90.073064,Panola,22121,,6992711,NEI
110010378830.0,"EPNG Station 6741 Alamo Lake, AZ",None,WENDEN,AZ,85357.0,34.07,-113.6103,LA PAZ COUNTY,486210,,1001997,GHGRP
110010378830.0,EPNG - ALAMO LAKE COMPRESSOR STATION,20 MILES NORTH OF WENDEN,ALAMO LAKE,AZ,85357,34.066136,-113.610247,La Paz,22121,,1040211,NEI
110008170237.0,DOW TEXAS OPERATIONS FREEPORT,2301 N. BRAZOSPORT BLVD. BUILDING B-101,FREEPORT,TX,77541.0,28.9792,-95.3549,BRAZORIA COUNTY,325110,,1002040,GHGRP
110008170237.0,DOW TEXAS OPERATIONS FREEPORT,2301 N BRAZOSPORT BLVD,CLUTE,TX,77541,28.980925,-95.348756,Brazoria,325110,,5632711,NEI
110008170237.0,DOW CHEMICAL CO FREEPORT FACILITY,2301 N BRAZOSPORT BLVD,FREEPORT,TX,775413257,28.9792,-95.3549,BRAZORIA,486990,,77541THDWCBUILD,TRI
110008170237.0,DOW CHEMICAL CO FREEPORT FACILITY,2301 N BRAZOSPORT BLVD,FREEPORT,TX,775413257,28.9792,-95.3549,BRAZORIA,325199,,77541THDWCBUILD,TRI
110010132445.0,"EPNG Station 1775 Mojave Topock, AZ",5499 WEST NEEDLE MOUNTAIN ROAD,TOPOCK,AZ,86436.0,34.725926,-114.463984,MOHAVE COUNTY,486210,,1002060,GHGRP
110010132445.0,EPNG - MOJAVE TOPOCK COMPRESSOR STATION,5255 EAST NEEDLE MOUNTAIN ROAD,TOPOCK,AZ,86436,34.727223,-114.463056,Mohave,48621,,944611,NEI
110010132445.0,ARIZONA LNG,5499 West Needle Mountain Road,Topock,AZ,86436,34.725926,-114.463984,Mohave,486210,,16614111,NEI
110002961572.0,"CIG Station 5950 Watkins, CO",24650 East Smith Road,AURORA,CO,80019.0,39.745283,-104.698908,ADAMS COUNTY,486210,,1002061,GHGRP
110002961572.0,COLORADO INTERSTATE GAS CO - WATKINS C.S,NESE SEC 31 T3S R65W,AURORA  AREA,CO,80019,39.74457,-104.69903,Adams,211130,,3567711,NEI
110067456069.0,Caelus Natural Resources Alaska 890 - Arctic Slope Basin,None,Prudhoe Bay,AK,99734.0,70.4136,-150.0123,NORTH SLOPE,211111,,1002157,GHGRP
110067456069.0,Oooguruk Development Project,East Harrison Bay,Prudhoe Bay,AK,99734,70.4956,-150.2506,North Slope,211120,,12661711,NEI
110067456069.0,OOOGURUK TIE IN PAD,Unknown,NUIQSUT,AK,00000,70.4141,-150.0186,North Slope,48811,,11623111,NEI
110002929813.0,PLATFORM HERMOSA,None,OFFSHORE,CA,0.0,34.454167,-120.646667,None,211111,,1002934,GHGRP
110002929813.0,PLATFORM HERMOSA,"PLATFORM HERMOSA, PT. ARGUELLO OILFIELD (10570)",SANTA BARBARA COUNTY,CA,93117,34.45559,-120.64755,Santa Barbara,211120,,13701511,NEI
110002929822.0,PLATFORM HIDALGO,None,OFFSHORE,CA,0.0,34.486667,-120.703333,None,211111,,1002974,GHGRP
110002929822.0,PLATFORM HIDALGO,Unknown,LOMPOC,CA,00000,34.495017,-120.702344,Santa Barbara,48811,,12506511,NEI
110002929822.0,PLATFORM HIDALGO,"PLATFORM HIDALGO, PT. ARGUELLO OILFIELD",SANTA BARBARA COUNTY,CA,93117,34.469015,-120.682258,Santa Barbara,211120,,13577811,NEI
110001187705.0,Arroyo Grande Production Facility,1821 PRICE CANYON ROAD,SAN LUIS OBISPO,CA,93401.0,35.1814,-120.61965,SAN LUIS OBISPO COUNTY,211111,,1002978,GHGRP
110001187705.0,SENTINEL PEAK RESOURCES CALIFORNIA LLC,1821 PRICE CANYON ROAD,SAN LUIS OBISPO,CA,93401,35.18356,-120.62019,San Luis Obispo,211120,,7126211,NEI
110021083851.0,AVINGER GAS PLANT,2339 Avinger Cut Off Road,Avinger,TX,75630.0,32.872582,-94.584072,MARION COUNTY,211112,,1003082,GHGRP
110021083851.0,AVINGER GAS PROCESSING PLANT,FR AVINGER 155 SW 1.4 & S 2.45,AVINGER,TX,77252,32.860217,-94.586439,Marion,211130,,5613311,NEI
110001371220.0,PATTERSON GAS PROCESSING PLANT,308 Torch Lane,Patterson,LA,70392.0,29.713006,-91.308369,ST. MARY PARISH,211112,,1003094,GHGRP
110001371220.0,Plains Gas Solutions LLC - Patterson Gas Processing Plant,308 Torch Ln,Patterson,LA,70392,29.72528,-91.3397,St. Mary,211130,,5290011,NEI
110062162804.0,Sunray Gas Plant,11571 Texas Beef Road,Sunray,TX,79086.0,36.073028,-101.752385,SHERMAN COUNTY,211112,,1003221,GHGRP
110062162804.0,SUNRAY PLANT,3 M S OF SUNRAY ON FM 119,SUNRAY,TX,79086,35.973317,-101.827453,Moore,486210,,4016311,NEI
110015706128.0,Barracuda Gas Plant,5466 Gulf Beach Hwy,Cameron,LA,70631.0,29.765,-93.637778,CAMERON PARISH,211112,,1004048,GHGRP
110015706128.0,Targa Midstream Services LLC - Mako Station,5466 Gulf Beach Hwy,Johnsons Bayou,LA,70631,29.76334,-93.63866,Cameron,211130,,14667711,NEI
110002426232.0,PG&E KETTLEMAN COMPRESSOR STATION,34453 PLYMOUTH AVENUE,AVENAL,CA,93204.0,36.074286,-120.083221,KINGS COUNTY,221210,,1004068,GHGRP
110002426232.0,PG & E CO -KETTLEMAN COMPRESSOR STATION,34453 PLYMOUTH AVE,AVENAL,CA,93204,36.07416,-120.08308,Kings,486210,,19311,NEI
110041240868.0,Gomez Gas Plant,3238 W. Gomez Road,Fort Stockton,TX,79735.0,30.985001,-102.974442,PECOS COUNTY,211111,,1004248,GHGRP
110041240868.0,GOMEZ COMPRESSOR STATION,6 M N ON SH 18 5.6 M W ON CNTY RD,FORT STOCKTON,TX,79735,30.974908,-102.970958,Pecos,486210,,5677811,NEI
110042061292.0,Gulf Coast Fractionator,9500 FM 1942,Mont Belvieu,TX,77580.0,29.854291,-94.917719,CHAMBERS COUNTY,211112,,1004744,GHGRP
110042061292.0,GULF COAST FRACTIONATORS,1.5 M W OF HWY 146 ON FM 1942,MONT BELVIEU,TX,77580,29.851933,-94.918586,Chambers,211130,,6613911,NEI
110043790092.0,Puget Sound Energy LDC,10885 NE 4th St,Bellevue,WA,98004.0,47.61373,-122.19453,KING COUNTY,221210,,1005387,GHGRP
110043790092.0,Puget Sound Energy T&D,10885 N.E. 4th Street,Bellevue,WA,98004.0,47.61373,-122.19453,KING COUNTY,221122,,1010301,GHGRP
110009555542.0,MIDSTREAM ENERGY PARTNERS NORTH COLES LEVEE GAS PLANT,9224 TUPMAN ROAD,TUPMAN,CA,93276.0,35.280555,-119.311943,KERN COUNTY,211112,,1005446,GHGRP
110009555542.0,CRESTWOOD WEST COAST LLC,"9224 TUPMAN RD, NORTH COLES LEVEE GAS PLANT",Placeholder,CA,00000,35.27327,-119.31212,Kern,211130,,362011,NEI
110041624187.0,Northern Border Pipeline Culbertson CS#3,5444 Road 1016,CULBERTSON,MT,59218.0,48.215615,-104.396623,ROOSEVELT COUNTY,486210,,1005957,GHGRP
110041624187.0,N. BORDER PIPELINE CO STA. 3,COMPRESSOR STATION NO. 3,CULBERTSON,MT,59218,48.214474,-104.394862,Roosevelt,221210,,7619111,NEI
110002690794.0,PLATFORM HARVEST,None,OFFSHORE,CA,0.0,34.468333,-120.680833,None,211111,,1006244,GHGRP
110002690794.0,PLATFORM HARVEST,Unknown,LOMPOC,CA,00000,34.47833,-120.67944,Santa Barbara,48811,,12506611,NEI
110043973153.0,Atmos Energy Corporation - APT Howard,5430 LBJ Freeway,Dallas,TX,75240.0,32.92548,-96.81613,DALLAS COUNTY,486210,,1006523,GHGRP
110043973153.0,Atmos Energy Corporation - Kentucky,5430 LBJ Freeway,Dallas,TX,75240.0,32.92548,-96.81613,DALLAS COUNTY,221210,,1001389,GHGRP
110035783042.0,GORDON GAS PROCESSING PLANT,1160 Hwy. 193 East,GORDON,TX,76453.0,32.538896,-98.338628,PALO PINTO COUNTY,211111,,1006709,GHGRP
110035783042.0,GORDON GAS PROCESSING PLANT,2 MI N ON HWY 193 FROM I 20,GORDON,TX,76453,32.540042,-98.338133,Palo Pinto,211130,,6477411,NEI
110067216079.0,"CRUDE OIL TOPPING UNIT, PRUDHOE BAY OPERATIONS CENTER, TARMAC CAMP",None,Prudhoe Bay,AK,99734.0,70.254036,-148.346077,NORTH SLOPE BOROUGH,211111,,1006838,GHGRP
110067216079.0,Crude Oil Topping Unit (COTU),None,Prudhoe Bay,AK,99734,70.3217,-148.5142,North Slope,211120,,10572811,NEI
110070208531.0,SEAWATER TREATMENT PLANT,None,Prudhoe Bay,AK,99734.0,70.412133,-148.531186,NORTH SLOPE,211111,,1007371,GHGRP
110070208531.0,Prudhoe Seawater Treatment Plant,None,Prudhoe Bay,AK,99734,70.4115,-148.5286,North Slope,211120,,7734011,NEI
110015744569.0,Halley Plant / Compressor Station,10 Mi. S. of Kermit on St. Hwy 18,Kermit,TX,79745.0,31.747395,-102.851484,WINKLER COUNTY,211112,,1007537,GHGRP
110015744569.0,HALLEY COMPRESSOR STATION,"10 MI S OF KERMIT ON ST. HWY 18; 3 MI E, 1 MI N OF KERMIT",KERMIT,TX,79745,31.730175,-102.992539,Winkler,211130,,5764211,NEI
110010381256.0,Hatters Pond Gas Plant,1340 Radcliff Road,Creola,AL,36525.0,30.892209,-88.067121,MOBILE COUNTY,211111,,1007657,GHGRP
110010381256.0,Hilcorp Energy Company,1340 Radcliff Rd,Creola,AL,36525,30.890911,-88.0672,Mobile,211130,,1061511,NEI
110018856950.0,Cashion Gas Plant,12650 S Council Rd,Cashion,OK,73016.0,35.74779,-97.65616,LOGAN COUNTY,211112,,1007821,GHGRP
110018856950.0,CASHION GAS PLT,3 MILES E AND 2 MILES S OF,CASHION,OK,73016,35.74612,-97.63997,Logan,211130,,16362011,NEI
110001602481.0,NFGSC CONCORD STATION,5510 GENESSEE ROAD,SPRINGVILLE,NY,14141.0,42.55486,-78.78338,ERIE COUNTY,486210,,1008315,GHGRP
110001602481.0,CONCORD COMPRESSOR STATION,5510 GENESEE RD,SPRINGVILLE,NY,14141,42.562005,-78.780616,Erie,48621,,8503411,NEI
110007394676.0,"Scissortail Energy Paden Processing Plant Paden, OK",100151 N 3630 Rd,Paden,OK,74860.0,35.55551,-96.54816,OKFUSKEE COUNTY,211112,,1008993,GHGRP
110007394676.0,PADEN PLT,4 MILES N AND 1 MILE E OF,PADEN,OK,74860,35.55551,-96.54816,Okfuskee,211130,,16355811,NEI
110030765875.0,Southern Pines Energy Center,2501 Tung Oil Road,Leakesville,MS,39451.0,31.227075,-88.68313,GREENE COUNTY,486210,,1009033,GHGRP
110030765875.0,"SG RESOURCES MISSISSIPPI LLC, SOUTHERN P",2501 TUNG OIL ROAD,LEAKESVILLE,MS,39451,31.225626,-88.704075,Greene,48621,,12587711,NEI
110007920544.0,"Hilcorp Alaska, LLC 820 Kenai",3800 Centerpoint Drive Ste 1400,Anchorage,AK,99503.0,60.4589,-151.2653,KENAI PENINSULA BOROUGH,211111,,1009332,GHGRP
110007920544.0,Kenai Gas Field 14-6 Pad,35350 Kalifornsky Beach Road,Kenai,AK,99611,60.4589,-151.2653,Kenai Peninsula,211120,,1090411,NEI
110001472727.0,"SNG Station 4132 Louisville, MS",709 Metts Street,Louisville,MS,39339.0,33.133614,-89.068889,WINSTON COUNTY,486210,,1009337,GHGRP
110001472727.0,"SOUTHERN NATURAL GAS COMPANY LLC, LOUISV",945 METTS STREET,LOUISVILLE,MS,39339,33.133614,-89.068889,Winston,48621,,7100711,NEI
110010378741.0,"EPNG Station 6719 Dutch Flat, AZ",None,Yucca,AZ,86438.0,34.5746,-113.9936,MOHAVE COUNTY,486210,,1009341,GHGRP
110010378741.0,EPNG - DUTCH FLAT COMPRESSOR STATION,"From I40, take exit 23, Gem Access Road 19 miles south",Franconia,AZ,86401,34.574708,-113.993518,Mohave,48621,,944811,NEI
110063959097.0,Deadwood Cryo Plant,"31.952174, -101.484553",Garden City,TX,79739.0,31.80809,-101.55907,GLASSCOCK COUNTY,211112,,1010634,GHGRP
110063959097.0,DEADWOOD CRYO PLANT,FROM THE INTERSECTION OF SH158 & FM33 (DOWNTOWN GARDEN CITY) GO N 6.2 MI ON RANCH ROAD 33. LOCATION,GARDEN CITY,TX,79739,31.945828,-101.482778,Glasscock,211130,,16623911,NEI
110019070226.0,"TGP Station 230, Lockport Compressor Station",5186 Lockport Junction Road,Lockport,NY,14094.0,43.159,-78.75462,NIAGARA COUNTY,486210,,1010996,GHGRP
110019070226.0,TENNESSEE GAS PIPELINE CO COMPRESSOR STATION 230-C,5186 LOCKPORT JUNCTION RD,LOCKPORT,NY,14094,43.159474,-78.762558,Niagara,48621,,7417311,NEI
110041058761.0,"EPNG Station 6795 Willcox, AZ",5800 E. Arzberger Rd,Willcox,AZ,85643.0,32.1088,-109.6622,COCHISE COUNTY,486210,,1011003,GHGRP
110041058761.0,EPNG - WILLCOX COMPRESSOR STATION,5800 E Arzberger Road,WILLCOX,AZ,85643,32.1088,-109.6622,Cochise,48621,,1041211,NEI
110070062682.0,Kenedy Gas Plant,None,Kenedy,TX,78119.0,28.7516,-98.0138,KARNES COUNTY,486210,,1011012,GHGRP
110070062682.0,KENEDY GAS PLANT,FROM KENEDY TAKE HWY 72 SW FOR 10.5 MI TURN RIGHT ON FM 626 AND GO 3.0 MI TURN LEFT ON CR 143 FOR 0.,KENEDY,TX,78119,28.754017,-98.0131,Karnes,211130,,17086611,NEI
110070059245.0,Harrison Hub Fractionation Plant,37905 Crimm Rd,Scio,OH,43988.0,40.405983,-81.113211,HARRISON COUNTY,211112,,1011270,GHGRP
110070059245.0,Utica East Ohio Midst. Harrison Hub Fractionation Plant (0634005028),37905 Crimm Rd.,Scio,OH,43988,40.40199,-81.11028,Harrison,211130,,17704011,NEI
110070060755.0,Rebel Gas Plant,None,Garden City,TX,79739.0,31.887547,-101.7019975,GLASSCOCK COUNTY,211112,,1011365,GHGRP
110070060755.0,REBEL GAS PLANT,FROM GARDEN CITY GO W ON HWY 158 13.2 MI TO SITE ON R AT NE CORNER OF HWY 158 AND HWY 137,GARDEN CITY,TX,79739,31.890042,-101.701197,Glasscock,211130,,17726611,NEI
110058932561.0,Point Thomson Production Facility,None,"Point Thomson Unit, North Slope Borough",AK,99734.0,70.1709,-146.2572,NORTH SLOPE BOROUGH,211111,,1011831,GHGRP
110058932561.0,Point Thomson Production Facility,None,Prudhoe Bay,AK,99734,70.1722,-146.2561,North Slope,211130,,17058911,NEI
110058932561.0,CENTRAL PAD,UNKNOWN,ANCHORAGE,AK,00000,70.171285,-146.25856,North Slope,48811,,16091411,NEI
110070059890.0,James Lake Gas Plant,None,Goldsmith,TX,79741.0,31.9636,-102.6018,ECTOR COUNTY,211112,,1011931,GHGRP
110070059890.0,JAMES LAKE GAS PLANT,FROM THE INTERSECTION OF US-385 AND 2ND ST IN ODESSA HEAD NORTHWEST ON US-385 FOR 1.1 MILES GO SLIGH,GOLDSMITH,TX,79741,31.962389,-102.598514,Ector,211130,,17088511,NEI
110037976955.0,BECKVILLE GAS PROCESSING PLANT,329 COUNTY ROAD 257,BECKVILLE,TX,75631.0,32.235649,-94.486066,PANOLA COUNTY,211111,,1012062,GHGRP
110037976955.0,BECKVILLE COMPRESSOR STATION,1.75 MI SE OF BECKVILLE OFF HWY 149,BECKVILLE,TX,75631,32.223389,-94.431667,Panola,486210,,9110611,NEI
110010420062.0,Aera Energy San Joaquin G and B,10000 Ming Avenue,Bakersfield,CA,93311.0,35.1268513,-119.1855785,KERN COUNTY,211120,,1012357,GHGRP
110010420062.0,AERA ENERGY LLC,LIGHT OIL WESTERN,Placeholder,CA,00000,35.45138,-119.71929,Kern,2111,,454011,NEI
110000844631.0,Pacific Gas and Electric Company (PG&E) - SF6 Emissions,77 Beale Street,San Francisco,CA,94105.0,37.79134,-122.39604,SAN FRANCISCO COUNTY,221122,,1009578,GHGRP
110000844631.0,PG&E Transmission Blowdown,77 Beale Street,San Francisco,CA,94105.0,37.7890183,-122.3915063,SAN FRANCISCO COUNTY,221210,,1012662,GHGRP
110000844631.0,PACIFIC GAS & ELECTRIC COMPANY,77 BEALE STREET,SAN FRANCISCO,CA,94105,37.7898,-122.39513,San Francisco,221112,,3335911,NEI
110070082458.0,Berry Petroleum Company 575 Uinta Basin Gathering and Boosting,5201 Truxtun ave.,Bakersfield,CA,93309.0,35.368562,-119.060231,KERN COUNTY,211111,,1012713,GHGRP
110070082458.0,BERRY PETROLEUM COMPANY,5201 TRUXTUN AVENUE,BAKERSFIELD,CA,93309,35.368562,-119.060231,Kern,211120,,18144811,NEI
110070061557.0,Bearkat Cryogenic Plant,None,Garden City,TX,79739.0,31.960698,-101.4902,GLASSCOCK COUNTY,211112,,1012788,GHGRP
110070061557.0,BEARKAT CRYOGENIC PLANT,FROM THE INTX OF TEXAS HWY 158 AND FARM RD 33 DOWNTOWN GARDEN CITY GO N 7 MI ON FM RD RANCH RD 33 LO,GARDEN CITY,TX,79739,31.957681,-101.490522,Glasscock,211130,,17085911,NEI
110070393972.0,Battle Ridge Plant,None,Cushing,OK,74023.0,35.944,-96.8076,PAYNE COUNTY,211111,,1012793,GHGRP
110070393972.0,BATTLE RIDGE PLT,0.1 MI W OF N3480/E0740 RD,CUSHING,OK,74023,35.943,-96.804,Payne,211130,,18000111,NEI
110070209075.0,Alamo Gas Plant,1277 CR 3020,Crockett,TX,75835.0,31.2816037,-95.5197394,HOUSTON COUNTY,486210,,1012815,GHGRP
110070209075.0,ALAMO GAS PLANT,FROM CROCKETT GO W ON TX 7 FOR APPROX 4 MI TURN L ONTO CR 3020 SITE IS APPROX 0.25 MI DOWN ON R,CROCKETT,TX,75835,31.295236,-95.517128,Houston,211130,,17908711,NEI
110070209036.0,Panther Gas Plant,None,Rankin,TX,79778.0,31.641115,-102.193757,UPTON COUNTY,211112,,1012901,GHGRP
110070209036.0,PANTHER GAS PLANT,"FROM ODESSA, TRAVEL SOUTHEAST ON US-385 FOR APPROXIMATELY 12 MILES. TURN LEFT ONTO FM1787 AND TRAVEL",RANKIN,TX,75835,31.6404,-102.193694,Upton,211130,,17909611,NEI
110070394014.0,Newberry Gas Plant,None,Midland,TX,79706.0,31.852716,-101.777816,MIDLAND COUNTY,211112,,1013052,GHGRP
110070394014.0,NEWBERRY GAS PLANT,"FROM THE INT OF I-20 AND HWY 158 IN MIDLAND, GO SE APPROX. 13 MILES ON HWY 158, THEN GO S ON 1379 FO",MIDLAND,TX,79706,31.851964,-101.77555,Midland,211130,,17976111,NEI
110039116462.0,Conroe Gas Processing Plant,12770 Koalstad Road,Conroe,TX,77302.0,30.26364,-95.373801,MONTGOMERY COUNTY,211111,,1013093,GHGRP
110039116462.0,CONROE COMPRESSOR STATION,12770 KOALSTAD RD,CONROE,TX,77301,30.267375,-95.373761,Montgomery,2111,,4179511,NEI
110000846238.0,Texas Gas Transmission - Dillsboro Station,10622 Texas Gas Road,Aurora,IN,47421.0,39.017917,-85.013944,DEARBORN COUNTY,486210,,1013129,GHGRP
110000846238.0,Texas Gas Transmission LLC Dillsboro Co,10622 Texas Gas Rd,Aurora,IN,47001,39.017508,-85.012803,Dearborn,48621,,4748011,NEI
110000433013.0,Equistar Chemicals LP,8805 N Tabler Rd,Morris,IL,60450-9153,41.411031,-88.329265,Grundy,325998,,8209311,NEI
110000433013.0,EQUISTAR CHEMICALS LP,8805 NORTH TABLER RD,MORRIS,IL,60450,41.412897,-88.329773,GRUNDY,325110,,60450QNTMC8805N,TRI
110000433013.0,EQUISTAR CHEMICALS LP,8805 N. TABLER RD.,MORRIS,IL,60450.0,41.412897,-88.329773,GRUNDY COUNTY,325110,,1000342,GHGRP
110000461134.0,HOUSTON PLANT,8600 PARK PLACE,HOUSTON,TX,77017,29.7173,-95.241397,Harris,325110,,4168611,NEI
110000461134.0,TPC GROUP LLC,8600 PARK PL BLVD,HOUSTON,TX,77017,29.69845,-95.254597,HARRIS,325199,,77017TXSPT8600P,TRI
110000461134.0,TPC GROUP LLC,8600 PARK PLACE BOULEVARD,HOUSTON,TX,77017.0,29.69845,-95.254597,HARRIS COUNTY,325110,,1005198,GHGRP
110000463427.0,SI GROUP TX OPERATIONS,702 FM 523,FREEPORT,TX,77541,28.973428,-95.342725,Brazoria,325110,,5861411,NEI
110000463427.0,SI GROUP INC,702 FM 523,FREEPORT,TX,77541,28.9744,-95.34453,BRAZORIA,325194,,77541SCHNC702FM,TRI
110000463427.0,SI GROUP INC TX OPERATIONS,702 FM 523,FREEPORT,TX,77541.0,28.9744,-95.34453,BRAZORIA COUNTY,325110,,1001870,GHGRP
110000463864.0,TEXAS CITY OPERATONS,201 BAY ST S,TEXAS CITY,TX,77590,29.378617,-94.898389,Galveston,325110,,6615111,NEI
110000463864.0,EASTMAN CHEMICAL TEXAS CITY INC,201 BAY ST S,TEXAS CITY,TX,77590,29.380301,-94.894036,GALVESTON,325199,,77592STRLN201BA,TRI
110000463864.0,Eastman Chemical Texas City Operations,201 Bay Street South,Texas City,TX,77590.0,29.380301,-94.894036,GALVESTON COUNTY,325110,,1004957,GHGRP
110000503018.0,WASKOM GAS PROCESSING PLANT,S OF IH 20 & WEST OF FM 9,WASKOM,TX,75692,32.471747,-94.073531,Harrison,211130,,4862811,NEI
110000503018.0,Waskom Gas Processing Plant,155 Private Road 1133,Waskom,TX,75692.0,32.472494,-94.071155,HARRISON COUNTY,211112,,1007399,GHGRP
110000503759.0,SAN MARTIN GAS PLANT,20733 LAMM RD,ELMENDORF,TX,78112,29.211481,-98.409136,Bexar,211130,,5616011,NEI
110000503759.0,San Martin Gas Plant,20733 Lamm Road,Elmendorf,TX,78112.0,29.212292,-98.407127,BEXAR COUNTY,211111,,1004666,GHGRP
110000503928.0,EAST VEALMOOR GAS PLANT,"FROM BIG SPRING AT I-20 & TEXAS 350, GO 24 MILES EAST ON TEXAS 350 TO VINCENT, THEN 8 MILES WEST ON",COAHOMA,TX,79511,32.495072,-101.35125,Howard,2111,,5652011,NEI
110000503928.0,EAST VEALMOOR GAS PLANT,11703 EAST FM. 846,COAHOMA,TX,79511.0,32.494444,-101.35222,HOWARD COUNTY,211112,,1002326,GHGRP
110000505506.0,JAMESON GAS PLANT,SILVER,SILVER,TX,76949,32.048325,-100.684281,Coke,211130,,6614011,NEI
110000505506.0,Jameson Gas Plant,1000 Gas Plant Road,Silver,TX,76949.0,32.0488,-100.6821,COKE COUNTY,211112,,1002334,GHGRP
110000530186.0,Enterprise Gas Processing LLC - Toca Gas Plant,2300 Bayou Rd,St. Bernard,LA,70085,29.8666,-89.83434,St. Bernard,211130,,8019711,NEI
110000530186.0,Toca Gas Processing Plant,2300  Bayou Road,St. Bernard,LA,70085.0,29.86595,-89.83355,ST. BERNARD PARISH,211112,,1004727,GHGRP
110000538473.0,XTO Energy Inc - Cotton Valley Gas Plant,1256 Marathon Rd,Cotton Valley,LA,71018,32.78469,-93.37386,Webster,211120,,8019911,NEI
110000538473.0,XTO - Cotton Valley Gas Plant,1256 Marathon Rd,Cotton Valley,LA,71018.0,32.7847,-93.3744,WEBSTER PARISH,211111,,1006270,GHGRP
110000545269.0,ETC Texas Pipeline Ltd - Minden Gas Plant,323 Angie Rd,Minden,LA,71055,32.78071,-93.25802,Webster,211130,,5357411,NEI
110000545269.0,Minden Gas Processing Plant,323 Angie Road,Minden,LA,71055.0,32.781182,-93.256568,WEBSTER PARISH,211112,,1004642,GHGRP
110000545517.0,Venice Gas Plant,1565 Tidewater Rd,Venice,LA,70091.0,29.23632,-89.38555,PLAQUEMINES PARISH,211112,,1007396,GHGRP
110000545517.0,Targa Midstream Services LLC - Delta Gathering Station,1565 Tidewater Rd,Venice,LA,70091,29.22335,-89.39549,Plaquemines,211130,,5838511,NEI
110000555710.0,Discovery Producer Services LLC - Discovery Paradis Fractionation Plant,15849 Old Spanish Trail,Paradis,LA,70080,29.85764,-90.45262,St. Charles,211130,,9600911,NEI
110000555710.0,DISCOVERY PRODUCER SERVICES LLC - DISCOVERY PARADIS FRACTIONATION PLANT,15849B OLD SPANISH TRAIL,PARADIS,LA,70080.0,29.860523,-90.453429,ST. CHARLES PARISH,211112,,1002235,GHGRP
110000562301.0,EnLink LIG Liquids LLC - Plaquemine Gas Processing Plant,60985 Derrick Rd,Plaquemine,LA,70764,30.2362,-91.23973,Iberville,211130,,5519211,NEI
110000562301.0,PLAQUEMINE GAS PLANT,60995 DERRICK ROAD,PLAQUEMINE,LA,70764.0,30.235504,-91.238382,IBERVILLE PARISH,211112,,1005965,GHGRP
110000562720.0,San Juan River Gas Plant,1.55 N of Kirtland,Kirtland,NM,87417,36.7573,-108.3672,San Juan,21113,,8091911,NEI
110000562720.0,SAN JUAN RIVER GAS PLANT,99 Road 6500,KIRTLAND,NM,87417.0,36.7592,-108.35967,SAN JUAN COUNTY,211111,,1001812,GHGRP
110000569803.0,Lost Cabin Gas Plant,"11,38N,90W",Fremont,WY,82520,43.27761,-107.60075,Fremont,2111,,4786511,NEI
110000569803.0,ContangoResources_LOST CABIN,165 LOST CABIN Road,Lysite,WY,82642.0,43.28106,-107.60125,FREMONT COUNTY,211111,,1002265,GHGRP
110000579525.0,Mid-Continent Fractionation & Storage - Conway Fractionator,1407 5th Ave,McPherson,KS,67460,38.378545,-97.835456,McPherson,211130,,5380311,NEI
110000579525.0,MCFS-CONWAY FRACTIONATOR,1407 5TH AVENUE,MCPHERSON,KS,67460.0,38.3775,-97.833056,MCPHERSON COUNTY,211112,,1002255,GHGRP
110000597131.0,DuPont Specialty Products USA LLC - Pontchartrain Site,586 Hwy 44,Laplace,LA,70068,30.05423,-90.52248,St. John the Baptist,325212,,7204811,NEI
110000597131.0,DUPONT PONTCHARTRAIN WORKS,586 HIGHWAY 44,LA PLACE,LA,70068,30.0589,-90.5241,ST. JOHN THE BAPTIST PARISH,325199,,70069DPNTPHIGHW,TRI
110000597131.0,DU PONT PONTCHARTRAIN WORKS,586 HIGHWAY 44,LA PLACE,LA,70068.0,30.0589,-90.5241,ST. JOHN THE BAPTIST PARISH,325110,,1001715,GHGRP
110000608030.0,COVESTRO - New Martinsville,17595 Energy Road,Proctor,WV,26055,39.72611,-80.82972,Marshall,325998,,4878811,NEI
110000608030.0,COVESTRO,17595 ENERGY RD,PROCTOR,WV,26055,39.719477,-80.827317,MARSHALL,325110,,26155MBYCRSTATE,TRI
110000608030.0,COVESTRO,17595 Energy Road,Proctor,WV,26055.0,39.719477,-80.827317,WETZEL COUNTY,325110,,1006827,GHGRP
110000615335.0,"Transcontinental Gas Pipe Line Company, LLC - Station 150",236 Transco Road,Mooresville,NC,28117,35.52548,-80.85899,Iredell,48621,,8297811,NEI
110000615335.0,TRANSCO STATION 150,236 TRANSCO ROAD,MOORESVILLE,NC,28115.0,35.52548,-80.85899,IREDELL COUNTY,486210,,1006973,GHGRP
110000702730.0,Enterprise Gas Processing LLC - North Terrebonne Gas Plant,449 Shell E&P Ct,Gibson,LA,70356,29.62572,-90.92931,Terrebonne,211120,,7930311,NEI
110000702730.0,North Terrebonne Gas Plant,449 Shell E&P Court,Gibson,LA,70358.0,29.6257,-90.9289,TERREBONNE PARISH,211112,,1005071,GHGRP
110000714889.0,ARMSTRONG GAS PLANT,10 MI S OF YOAKUM ON FM 682,YOAKUM,TX,77995,29.133778,-97.038733,DeWitt,211130,,6494111,NEI
110000714889.0,Armstrong Gas Plant,13072 FM 682,Yoakum,TX,77995.0,29.133889,-97.039161,DEWITT COUNTY,211112,,1004087,GHGRP
110000727697.0,Escambia Operating Company LLC,3888 Sardis Road,Atmore,AL,36502,31.0717,-87.3629,Escambia,211130,,7440211,NEI
110000727697.0,"Big Escambia Creek Gas Production, Treating and Processing Facility (BEC)",3888 Sardis Church Road,Atmore,AL,36502.0,31.0717,-87.3629,ESCAMBIA COUNTY,211112,,1002251,GHGRP
110000727900.0,Enterprise Products Operating LLC - K/D/S Promix LLC,6225 Hwy 996,Belle Rose,LA,70341,30.01233,-91.1061,Assumption,211130,,5986111,NEI
110000727900.0,Promix Fractionation Facility,6225 HIGHWAY 996,Belle Rose,LA,70341.0,30.010358,-91.106768,ASSUMPTION PARISH,211112,,1005080,GHGRP
110000729196.0,Blacks Fork Gas Plant,"10,18N,112W",Sweetwater,WY,82935,41.55484,-110.04925,Sweetwater,21112,,6939711,NEI
110000729196.0,Blacks Fork Gas Plant,None,GRANGER,WY,82934.0,41.554684,-110.048865,SWEETWATER COUNTY,211112,,1004551,GHGRP
110000746337.0,WILLIAM OLEFINS LLC,Unknown,GEISMAR,LA,00000,30.2312,-91.0516,Ascension,48811,,12481011,NEI
110000746337.0,NOVA Chemicals Olefins LLC - Geismar Ethylene Plant,5205 Hwy 3115,Geismar,LA,70734,30.23273,-91.05307,Ascension,325110,,7445911,NEI
110000746337.0,NOVA CHEMICALS OLEFINS LLC,5205 HWY 3115,GEISMAR,LA,70734,30.233183,-91.051,ASCENSION PARISH,325110,,70734NNTXSLAHWY,TRI
110000746337.0,NOVA CHEMICALS OLEFINS LLC,5205 HIGHWAY 3115,GEISMAR,LA,70734.0,30.233183,-91.051,ASCENSION PARISH,325110,,1002046,GHGRP
110000750875.0,MarkWest Hydrocarbon LLC - Siloam Fractionation Facility,2 MarkWest Dr,South Shore,KY,41175,38.733056,-82.928333,Greenup,486210,,6096611,NEI
110000750875.0,Siloam Fractionation,2 MarkWest Drive,South Shore,KY,41175.0,38.733056,-82.928333,GREENUP COUNTY,211112,,1004430,GHGRP
110000751909.0,"GULF SOUTH PIPELINE COMPANY LLC, PETAL C",1382 HIGHWAY 11 NORTH,PETAL,MS,39465,31.379731,-89.260558,Forrest,22121,,7853111,NEI
110000751909.0,Petal Gas Storage Compressor Station,1382 Highway 11 North,Petal,MS,39465.0,31.379731,-89.260558,FORREST COUNTY,486210,,1004764,GHGRP
110000755567.0,Enterprise Gas Processing LLC - Tebone Fractionation Plant,10324 Hwy 75,Geismar,LA,70734,30.21908,-91.0325,Ascension,211130,,7381611,NEI
110000755567.0,Tebone Fractionator,10324 HIGHWAY 75 RIVER ROAD,GEISMAR,LA,70734.0,30.21232,-91.03843,ASCENSION PARISH,211112,,1007410,GHGRP
110000780548.0,NATURAL GAS PIPELINE CO OF AMERICA-#308,138 GAZAWAY ROAD,BIGGERS,AR,72413,36.297777,-90.8375,Randolph,22121,,1084211,NEI
110000780548.0,"NGPL Station 308, Biggers, AR",138 Gazaway Rd,Biggers,AR,72413.0,36.29856,-90.838983,RANDOLPH COUNTY,486210,,1002376,GHGRP
110000792820.0,TRUNKLINE GAS COMPANY   NORTH JUDSON CO,6580 S CR 200 E,Knox,IN,46534,41.20588,-86.657979,Starke,48621,,4911611,NEI
110000792820.0,TRUNKLINE GAS CO - NORTH JUDSON,6580 S 200 E,KNOX,IN,46534.0,41.20588,-86.657979,STARKE COUNTY,486210,,1003074,GHGRP
110000834072.0,PANHANDLE EASTERN PIPE LINE CO   EDGERT,25419 Paulding Rd,Monroeville,IN,46773,41.03739,-84.81011,Allen,48621,,4544011,NEI
110000834072.0,PANHANDLE EASTERN PIPE LINE CO - EDGERTON,25419 PAULDING ROAD,MONROEVILLE,IN,46773.0,41.03844,-84.81051,ALLEN COUNTY,486210,,1003152,GHGRP
110000838292.0,TENNESSEE GAS PIPELINE CO - COMP STA 241,3447 SENTINEL HEIGHTS RD,LAFAYETTE,NY,13084,42.9392,-76.1161,Onondaga,48621,,7436111,NEI
110000838292.0,TGP Station 241 Lafayette,3447 SENTINEL HEIGHTS ROAD,LAFAYETTE,NY,13084.0,42.93948,-76.11411,ONONDAGA COUNTY,486210,,1001652,GHGRP
110000848584.0,TENNESSEE GAS PIPELINE CO COMPRESSOR STATION 229,7586 E EDEN RD,EDEN,NY,14057,42.677344,-78.829698,Erie,48621,,8503511,NEI
110000848584.0,TGP Station 229 Hamburg,7586 EAST EDEN ROAD,EDEN,NY,14057.0,42.67698,-78.82736,ERIE COUNTY,486210,,1001653,GHGRP
110000878998.0,"Petro-Hunt, L.L.C. - Little Knife Gas Plant",813 123rd Avenue SW,Killdeer,ND,58640,47.2975,-103.0975,Billings,211130,,8023811,NEI
110000878998.0,Petro-Hunt L.L.C.,813 123rd Avenue SW,Killdeer,ND,58640.0,47.2975,-103.0975,BILLINGS COUNTY,211112,,1003045,GHGRP
110000879880.0,TIPPETT GAS PLANT,5 M S OF MCCAMEY ON FM 1901,MCCAMEY,TX,79752,31.037211,-102.223175,Crockett,211130,,5846311,NEI
110000879880.0,Tippett Gas Plant,None,McCamey,TX,76943.0,31.037615,-102.222303,CROCKETT COUNTY,211112,,1007779,GHGRP
110000889824.0,PANHANDLE EASTERN PIPELINE COMPANY,9371 Zionsville Rd,Indianapolis,IN,46268,39.9235,-86.256778,Marion,48621,,8238711,NEI
110000889824.0,PANHANDLE EASTERN PIPE LINE CO - ZIONSVILLE,9371 ZIONSVILLE RD,INDIANAPOLIS,IN,46268.0,39.92387,-86.25989,MARION COUNTY,486210,,1003070,GHGRP
110000913138.0,SNYDER GAS PLANT,718 N FM 1611,SNYDER,TX,79549,32.751158,-100.953103,Scurry,211130,,5679511,NEI
110000913138.0,SNYDER GAS PLANT,718 NORTH FM 1611,SNYDER,TX,79549.0,32.747699,-100.923444,SCURRY COUNTY,211112,,1002680,GHGRP
110001306088.0,ANR Pipeline Company St John Station,10313 White Oak Ave,Saint John,IN,46373,41.431695,-87.486111,Lake,48621,,7248011,NEI
110001306088.0,ANR Pipeline St. John CS,10313 WHITE OAK AVE,ST JOHN,IN,46373.0,41.431667,-87.488972,LAKE COUNTY,486210,,1004925,GHGRP
110001310689.0,EnLink Processing Services LLC - Eunice Fractionator,222 Refinery Rd,Eunice,LA,70535,30.45995,-92.53347,Acadia,211130,,7366311,NEI
110001310689.0,EUNICE NATURAL GAS PROCESSING PLANT,222 REFINERY ROAD,EUNICE,LA,70535.0,30.455267,-92.529956,ACADIA PARISH,211112,,1005779,GHGRP
110001471693.0,"SOUTHERN NATURAL GAS COMPANY LLC, MULDON",10156 OLD MAGNOLIA HIGHWAY,PRAIRIE,MS,39756,33.745183,-88.660817,Monroe,48621,,6942611,NEI
110001471693.0,"SNG Station 4310 Muldon Storage, MS",10156 OLD MAGNOLIA HWY,PRAIRIE,MS,39756.0,33.745183,-88.660817,MONROE COUNTY,486210,,1001927,GHGRP
110001471746.0,"TEXAS GAS TRANSMISSION LLC, GREENVILLE C",1012 SOUTH BEAUCHAMP STREET,GREENVILLE,MS,38701,33.392476,-91.017584,Washington,22121,,7083611,NEI
110001471746.0,TEXAS GAS TRANSMISSION - GREENVILLE STATION,1012 BEAUCHAMP ST,GREENVILLE,MS,38701.0,33.392476,-91.017584,WASHINGTON COUNTY,486210,,1003557,GHGRP
110001471844.0,"TENNESSEE GAS PIPELINE COMPANY LLC, COLU",511 CROWE ROAD,COLUMBUS,MS,39702,33.448625,-88.3589,Lowndes,22121,,7070111,NEI
110001471844.0,"TGP Station 546 Columbus, MS",511 Crowe Rd,Columbus,MS,39702.0,33.44875,-88.359,LOWNDES COUNTY,486210,,1009205,GHGRP
110001857358.0,"TEXAS GAS TRANSMISSION, LLC - KENTON COMPRESSOR STATION",3793 TEXAS GAS LANE,KENTON,TN,38233,36.2369,-89.0299,Obion,48621,,3111411,NEI
110001857358.0,Texas Gas Transmission - Kenton Station,3793 TEXAS GAS LN.  HWY 45W,KENTON,TN,38233.0,36.2375,-89.0302,OBION COUNTY,486210,,1003776,GHGRP
110001875686.0,NORTH CROSS COMP STATION4,4.3 M W ON US 67/385,MCCAMEY,TX,79752,31.115864,-102.296497,Upton,2111,,6757611,NEI
110001875686.0,NORTH CROSS COMP STATION 4,4.3 M W ON US 67/385,MCCAMEY,TX,79752.0,31.10944,-102.298058,UPTON COUNTY,211111,,1002868,GHGRP
110002065078.0,PG&E DELEVAN COMPRESSOR STATIO,5001 DELEVAN RD,MAXWELL,CA,95955,39.3691,-122.25703,Colusa,486210,,75211,NEI
110002065078.0,PG&E DELEVAN COMPRESSOR STATION,5001 Delevan Road,Maxwell,CA,95955.0,39.364968,-122.263297,COLUSA COUNTY,221210,,1006434,GHGRP
110002206602.0,"GULF SOUTH PIPELINE COMPANY LLC, MCCOMB",37 ALEXANDER ROAD,JAYESS,MS,39641,31.335,-90.220292,Walthall,48621,,6284611,NEI
110002206602.0,Gulf South Pipeline - McComb Station,37 Alexander Road,Jayess,MS,39641.0,31.335,-90.220292,WALTHALL COUNTY,486210,,1009467,GHGRP
110002324707.0,TRANSCONTINENTAL GAS PIPELINE COMPANY LL,967 HIGHWAY 583 NORTH,TYLERTOWN,MS,39667-9360,31.246394,-90.199739,Walthall,22121,,6284211,NEI
110002324707.0,TRANSCO STATION 70,967 HIGHWAY 583,TYLERTOWN,MS,39667.0,31.246444,-90.199889,WALTHALL COUNTY,486210,,1007016,GHGRP
110002701238.0,CHEVRON BUSINESS AND REAL ESTATE SERVICES,"6001 BOLLINGER CANYON RD, BLDG J",SAN RAMON,CA,94583,37.7575,-121.96096,Contra Costa,237210,,10369811,NEI
110002701238.0,Rangely Gas Plant,100 Chevron Road,Rangely,CO,81648.0,40.1064831,-108.8670246,None,211112,,1009244,GHGRP
110003041994.0,Steelhead Platform,Upper Cook Inlet,Anchorage,AK,99519,60.8305,-151.6,Kenai Peninsula,211120,,680611,NEI
110003041994.0,Steelhead Platform,None,Anchorage,AK,99503.0,60.83125466,-151.6042635,KENAI PENINSULA,211111,,1001948,GHGRP
110006020625.0,EnLink Processing Services LLC - Riverside Fractionation Plant,10280 Hwy 75,Geismar,LA,70734,30.21508,-91.03427,Ascension,211130,,8466311,NEI
110006020625.0,CROSSTEX PROCESSING SERVICES LLC - RIVERSIDE FRACTIONATION,10280 Louisiana HWY 75,GEISMAR,LA,70734.0,30.214123,-91.035113,ASCENSION PARISH,211112,,1003158,GHGRP
110006035361.0,NATURAL GAS PIPELINE CO OF AMERICA-#305,5121 JOEY LANE,TEXARKANA,AR,71854,33.469723,-93.944444,Miller,48621,,7737711,NEI
110006035361.0,"NGPL Station 305, Texarkana, AR",5121 Joey Lane,Texarkana,AR,71854.0,33.470209,-93.944582,MILLER COUNTY,486210,,1009085,GHGRP
110006178331.0,EnLink Pelican LLC - Pelican Gas Plant,3609 Hwy 90 W Lot 1,Patterson,LA,70392,29.69136,-91.34338,St. Mary,211130,,8026911,NEI
110006178331.0,ANR Pipeline Patterson CS,3609 Highway 90,PATTERSON,LA,70392.0,29.691875,-91.342885,ST. MARY PARISH,486210,,1005243,GHGRP
110006765134.0,ANR PIPELINE CO CELESTINE COMPRESSOR ST,146 S Celestine Rd,Celestine,IN,47521,38.378614,-86.777132,Dubois,48621,,4887211,NEI
110006765134.0,ANR Pipeline Celestine CS,146 S. Celestine South,Celestine,IN,47521.0,38.377528,-86.777306,DUBOIS COUNTY,486210,,1005245,GHGRP
110007030275.0,Harvest Pipeline - San Juan Gas Plant,2 mi NE of Bloomfield,Bloomfield,NM,87413,36.731382,-107.967595,San Juan,21113,,7231911,NEI
110007030275.0,SAN JUAN GAS PLANT,1001 ARIZONA,BLOOMFIELD,NM,87413.0,36.732833,-107.976889,SAN JUAN COUNTY,211112,,1002264,GHGRP
110007164512.0,ELMORE CITY GAS PLT,3 MILES W SH29 4 MILES S OF,ELMORE CITY,OK,73433,34.56217,-97.43926,Garvin,211130,,8114711,NEI
110007164512.0,ELMORE CITY GAS PLANT,30191 N. County Rd. 3120,ELMORE CITY,OK,73433.0,34.562281,-97.439572,GARVIN COUNTY,211112,,1005058,GHGRP
110007167500.0,CHANDLER STA,7 MI SW OF,WILBURTON,OK,74578,34.88861,-95.40564,Latimer,486210,,8132411,NEI
110007167500.0,Chandler Compressor Station/Wilburton Compressor Station,1503 SW 1050th Avenue,WILBURTON,OK,74578.0,34.891673,-95.401794,LATIMER COUNTY,213112,,1003211,GHGRP
110007193571.0,KEYSTONE GAS PLANT,7.4 M E ON FM 874; 0.6 M N ON FM 1218 KERMIT,KERMIT,TX,79745,31.947858,-103.044494,Winkler,211130,,4035711,NEI
110007193571.0,Keystone Gas Plant,None,Kermit,TX,79745.0,31.946927,-103.043207,WINKLER COUNTY,211112,,1005181,GHGRP
110007193811.0,FANDANGO TREATING PLANT,FANDANGO PLANT,ZAPATA,TX,78076,27.024914,-98.971389,Zapata,2111,,5129711,NEI
110007193811.0,"KM Tejas Fandango Plant, TX",None,ZAPATA,TX,78076.0,27.03278,-98.96777,ZAPATA COUNTY,486210,,1004109,GHGRP
110007384106.0,TGP COMPRESSOR STATION 245,457 BURROWS RD,WEST WINFIELD,NY,13491,42.873158,-75.167822,Herkimer,48621,,8035411,NEI
110007384106.0,TGP Station 245 West Winfield,457 BURROWS RD,WEST WINFIELD,NY,13491.0,42.874342,-75.171191,HERKIMER COUNTY,486210,,1006042,GHGRP
110007919985.0,King Salmon Platform,Upper Cook Inlet,Anchorage,AK,99503,60.8652,-151.6058,Kenai Peninsula,211120,,680711,NEI
110007919985.0,King Salmon Platform,None,Anchorage,AK,99503.0,60.86483945,-151.6081039,KENAI PENINSULA,211111,,1001944,GHGRP
110007920517.0,Monopod Platform,Upper Cook Inlet,Anchorage,AK,99503,60.8969,-151.5791,Kenai Peninsula,211120,,539811,NEI
110007920517.0,Monopod Platform,None,Anchorage,AK,99503.0,60.89629614,-151.5810013,KENAI PENINSULA,211111,,1006956,GHGRP
110007920884.0,Dolly Varden Platform,Upper Cook Inlet,Anchorage,AK,99503,60.8083,-151.625,Kenai Peninsula,211120,,681311,NEI
110007920884.0,Dolly Varden Platform,None,Anchorage,AK,99503.0,60.80718265,-151.6351154,KENAI PENINSULA,211111,,1001940,GHGRP
110007982861.0,ALGONQUIN GAS SOUTHEAST COMPRESSOR STATION,142 TULIP RD,BREWSTER,NY,10509,41.3844,-73.5446,Putnam,48621,,8474311,NEI
110007982861.0,Southeast,142 Tulip Road,Brewster,NY,10509.0,41.3844,-73.5446,PUTNAM COUNTY,486210,,1006757,GHGRP
110008165939.0,TRINIDAD GAS PLANT,0.25 MI W OF FM 1667,TRINIDAD,TX,75163,32.127506,-96.085517,Henderson,211130,,4861811,NEI
110008165939.0,TRINIDAD GAS PROCESSING PLANT,795 LONE STAR ROAD,TRINIDAD,TX,75163.0,32.127458,-96.085153,HENDERSON COUNTY,211112,,1003097,GHGRP
110008972594.0,Endicott Production Facility (END),None,Prudhoe Bay,AK,99734,70.354,-147.9621,North Slope,211120,,1074911,NEI
110008972594.0,ENDICOTT PRODUCTION FACILITY,None,Prudhoe Bay,AK,99734.0,70.356789,-147.959766,NORTH SLOPE BOROUGH,211111,,1001737,GHGRP
110008998709.0,"W&T Offshore, Inc.",Submerged Tracts 74-77; 92-95,Mobile Bay,AL,00000,30.25395,-88.052203,Mobile,211130,,1018111,NEI
110008998709.0,"W&T Offshore, Inc.",6000 Deakle Road,Theodore,AL,36582,30.431388,-88.1817,Mobile,211130,,1061711,NEI
110008998709.0,Onshore Treating Facility,6000 DEAKLE ROAD,THEODORE,AL,36582.0,30.4319,-88.1825,MOBILE COUNTY,211111,,1006148,GHGRP
110009003078.0,DYNEGY CHICO GAS PLANT,"S OF FM 1810, 5 MI W OF CHICO",CHICO,TX,76431,33.312006,-97.877725,Wise,211130,,5884911,NEI
110009003078.0,Chico Gas Plant,383 County Road 1745,Chico,TX,76431.0,33.305465,-97.883523,WISE COUNTY,211112,,1003764,GHGRP
110009454964.0,Enterprise Gas Processing LLC - Sea Robin Gas Processing Plant,5627 Aristide Rd,Erath,LA,70533,29.89591,-92.06766,Vermilion,211130,,5355011,NEI
110009454964.0,SEA ROBIN GAS PROCESSING PLANT,5627 ARISTIDE ROAD,ERATH,LA,70533.0,29.897429,-92.067346,VERMILION PARISH,211112,,1001805,GHGRP
110009503331.0,SPRINGTOWN GAS PLANT,APPROX 2 MI NE ON HWY 51,SPRINGTOWN,TX,76082,32.984758,-97.683419,Parker,211130,,4180411,NEI
110009503331.0,SPRINGTOWN GAS PROCESSING PLANT,1302 NORTH MAIN STREET,SPRINGTOWN,TX,76082.0,32.982361,-97.687111,PARKER COUNTY,211112,,1003079,GHGRP
110009557470.0,Ignacio Gas Plant,"NW SW SEC 36, T34N, R9W",Durango,CO,81303,37.145278,-107.78444,None,2111,,14939211,NEI
110009557470.0,Ignacio Gas Plant,3746 CR 307,Durango,CO,81301.0,37.145278,-107.78444,LA PLATA COUNTY,211112,,1002532,GHGRP
110009739569.0,ANR Pipeline Company Shelbyville Statio,5500 Smithland Rd,Shelbyville,IN,46176,39.438758,-85.876744,Shelby,48621,,8201211,NEI
110009739569.0,ANR Pipeline Shelbyville CS,5500 Smithland Road,Shelbyville,IN,46176.0,39.439972,-85.876694,SHELBY COUNTY,486210,,1005236,GHGRP
110010570024.0,"Trunkline Gas Company, LLC, Independence Compressor Station",8354 Highway 305,Coldwater,MS,38618,34.74078,-89.80979,Tate,221210,,6952811,NEI
110010570024.0,TRUNKLINE GAS CO - INDEPENDENCE,8354 HIGHWAY 305,COLDWATER,MS,38618.0,34.739917,-89.810833,TATE COUNTY,486210,,1003122,GHGRP
110010681707.0,SEAWATER INJECTION PLANT,None,Prudhoe Bay,AK,99734.0,70.260531,-148.446866,NORTH SLOPE BOROUGH,211111,,1001801,GHGRP
110010681707.0,Prudhoe Bay Operations Center / Main Construction Camp (PBOC/MCC),None,Prudhoe Bay,AK,99734,70.2526,-148.3525,North Slope,211120,,10572311,NEI
110011273004.0,ALLIANCE PIPELINE L.P. - MANCHESTER,1242 220TH ST,MANCHESTER,IA,52057,42.467221,-91.551317,Delaware,48621,,5511311,NEI
110011273004.0,ALLIANCE PIPELINE L.P. - MANCHESTER,1242 220TH STREET,MANCHESTER,IA,52057.0,42.4671,-91.5509,DELAWARE COUNTY,486210,,1001559,GHGRP
110012182422.0,WASSON CO2 REMOVAL PLANT,2582 COUNTY RD 355,DENVER CITY,TX,79323,33.011389,-102.754439,Yoakum,211130,,6648811,NEI
110012182422.0,WASSON CO2 REMOVAL PLANT,2582 COUNTY ROAD 355,DENVER CITY,TX,79323.0,33.0108,-102.75033,YOAKUM COUNTY,211111,,1002629,GHGRP
110012659765.0,TRANSCONTINENTAL GAS PIPE LINE COMPANY L,1666 BONNER ROAD,HEIDELBERG,MS,39439,31.8153,-89.04899,Jones,48621,,7035911,NEI
110012659765.0,TRANSCO STATION 80,1666 BONNER ROAD,HEIDELBERG,MS,39439.0,31.8153,-89.04899,JONES COUNTY,486210,,1007043,GHGRP
110012665400.0,"TEXAS GAS TRANSMISSION LLC, LAKE CORMORA",2672 WILSON MILL ROAD,LAKE CORMORANT,MS,38641,34.899192,-90.166389,DeSoto,22121,,7183811,NEI
110012665400.0,Texas Gas Transmission - Lake Cormorant Station,2672 WILSON MILL ROAD,LAKE CORMORANT,MS,38641.0,34.899192,-90.166389,DESOTO COUNTY,486210,,1003915,GHGRP
110014004273.0,Hess Tioga Gas Plant LLC - Tioga Gas Plant,10340 68th St NW,Tioga,ND,58852,48.3996,-102.9141,Williams,211130,,8013911,NEI
110014004273.0,TIOGA GAS PROCESSING PLANT,10340 68TH STREET NORTHWEST,TIOGA,ND,58852.0,48.394695,-102.91642,WILLIAMS COUNTY,211112,,1001894,GHGRP
110015846094.0,DCP - Linam Ranch Gas Plant,7 mi W of Hobbs,Hobbs,NM,88240,32.695278,-103.285278,Lea,21113,,8241211,NEI
110015846094.0,LINAM RANCH GAS PLANT,None,HOBBS,NM,88240.0,32.6953,-103.2853,LEA COUNTY,211130,,1005641,GHGRP
110017348226.0,BROOKELAND GAS PLANT,N OF BROWNDELL APPROX 6 M ON HWY 96; FAC ON RT SIDE OF RD,BROOKELAND,TX,75931,31.061811,-93.960844,Jasper,211130,,6444611,NEI
110017348226.0,Brookeland Gas Plant,428 County Road 200,Brookeland,TX,75931.0,31.06255,-93.961116,JASPER COUNTY,211112,,1002169,GHGRP
110017761322.0,Sabine Pass LNG LP - Sabine Pass Liquefaction LLC,9243 Gulf Beach Hwy,Cameron,LA,70631,29.74899,-93.87005,Cameron,221210,,13610511,NEI
110017761322.0,TXI-SABINE PASS CBP,9243 GULF BEACH HWY,CAMERON,LA,70631,29.74777,-93.87163,CAMERON PARISH,327320,,7063WTXSBN9243G,TRI
110017761322.0,SABINE PASS LNG TERMINAL,9243 GULF BEACH HWY,JOHNSONS BAYOU,LA,70631.0,29.74777,-93.87163,CAMERON PARISH,221210,,1002259,GHGRP
110020148008.0,PORT ARTHUR PLANT,2001 SOUTH GULFWAY DRIVE (IN THE OLD CHEVRON REFINERY),PORT ARTHUR,TX,77640,29.849267,-93.980592,Jefferson,325110,,6158411,NEI
110020148008.0,CHEVRON PHILLIPS CHEMICAL CO,2001 S GULFWAY DR,PORT ARTHUR,TX,77640,29.850396,-93.977222,JEFFERSON,325110,,77640CHVRN2001S,TRI
110020148008.0,CHEVRON PHILLIPS CHEMICAL CO,2001 S GULFWAY DR,PORT ARTHUR,TX,77640,29.850396,-93.977222,JEFFERSON,325199,,77640CHVRN2001S,TRI
110020148008.0,"CHEVRON PHILLIPS CHEMICAL COMPANY, LP PORT ARTHUR PLANT",2001 SOUTH GULFWAY DRIVE,PORT ARTHUR,TX,77640.0,29.850396,-93.977222,JEFFERSON COUNTY,325110,,1002146,GHGRP
110021174744.0,BARGATH LLC - PARACHUTE,N/2 NE SEC 33 T6S R96W,PARACHUTE 2.9 MI. NW OF,CO,81635,39.488589,-108.113294,Garfield,211130,,4242011,NEI
110021174744.0,"BARGATH, INC.- PARACHUTE",None,"PARACHUTE, 3.4 MI NW OF",CO,81635.0,39.487297,-108.111356,GARFIELD COUNTY,211112,,1002943,GHGRP
110022357251.0,"Alliance Pipeline, L.P. - Fairmount Compressor Station",17950 - 98th Street NE,Fairmount,ND,58030,45.993277,-96.648883,Richland,211130,,10612211,NEI
110022357251.0,"ALLIANCE PIPELINE, L.P.-FAIRMOUNT COMPRESSOR STATION",17950 98TH ST SE,FAIRMOUNT,ND,58030.0,45.993367,-96.648999,RICHLAND COUNTY,486210,,1000245,GHGRP
110022357279.0,"Alliance Pipeline, L.P. - Wimbledon Compressor Station",1540 - 98th Avenue SE,Wimbledon,ND,58492,47.190954,-98.425323,Barnes,211130,,10612411,NEI
110022357279.0,"ALLIANCE PIPELINE, L.P.-WIMBLEDON COMPRESSOR STATION",1540 98TH AVE SE,WIMBLEDON,ND,58492.0,47.191058,-98.42561,BARNES COUNTY,486210,,1001558,GHGRP
110022697312.0,Western Refining - Wingate Facility,6 miles E of Gallup,Gallup,NM,87301,35.536344,-108.639613,McKinley,21113,,13646011,NEI
110022697312.0,WINGATE FRACTIONATING PLANT,68 EL PASO CIRCLE,Gallup,NM,87301.0,35.53516,-108.643971,MCKINLEY COUNTY,211112,,1002233,GHGRP
110025328795.0,BENEDUM GAS PLANT,"7 MILES N ON SH 349, 10 MILES E ON FM 1555, UPTON COUNTY",RANKIN,TX,79778,31.362344,-101.781494,Upton,2111,,5747511,NEI
110025328795.0,BENEDUM GAS PLANT,10501 HIGHWAY 1555,MIDKIFF,TX,79755.0,31.362088,-101.77962,UPTON COUNTY,211112,,1002325,GHGRP
110025336606.0,HENDERSON GAS PLANT,754 CR 425D,HENDERSON,TX,75654,32.158844,-94.87935,Rusk,211130,,13386011,NEI
110025336606.0,HENDERSON GAS PLANT,754 CR 425D,HENDERSON,TX,75654.0,32.158889,-94.878056,RUSK COUNTY,211111,,1006321,GHGRP
110028052354.0,BRIDGEPORT GAS PLANT,3.5 M W OF BRIDGEPORT ON HWY 380,BRIDGEPORT,TX,76426,33.194383,-97.807953,Wise,211130,,5128711,NEI
110028052354.0,BRIDGEPORT GAS PROCESSING PLANT,"415 PRIVATE RD, 3502",BRIDGEPORT,TX,76426.0,33.195661,-97.8037,WISE COUNTY,211112,,1006373,GHGRP
110028052675.0,HAWKINS GAS PLANT,FM 1795,HAWKINS,TX,75765,32.609444,-95.196389,Wood,211130,,5795611,NEI
110028052675.0,Hawkins Gas Plant,None,HAWKINS,TX,75765.0,32.6105,-95.1957,WOOD COUNTY,211111,,1002676,GHGRP
110031262425.0,SILVER CREEK PROCESSING PLANT,FROMHWY 180 & FM 730 X; TAKE FM730 6 M NE TO PEARSON RANCH RD; TURN RT 3 M; TURN ONTO DIRD RD;SITE I,WEATHERFORD,TX,76087,32.800778,-97.675106,Parker,211130,,14747911,NEI
110031262425.0,Silver Creek Processing Plant,None,Weatherford,TX,76087.0,32.800654,-97.674429,PARKER COUNTY,211112,,1003170,GHGRP
110031262489.0,WEATHERFORD PLANT,451 JONES RD WEATHERFORD,WEATHERFORD,TX,76088,32.734592,-97.877572,Parker,211130,,13390311,NEI
110031262489.0,WEATHERFORD PLANT,451 Jones Road,Weatherford,TX,76088.0,32.73335,-97.8744,PARKER COUNTY,211111,,1003317,GHGRP
110033349552.0,SEMINOLE GAS PROCESSING PLANT,3.5 MI NW ON SH 214,SEMINOLE,TX,79360,32.757525,-102.682208,Gaines,211130,,4899711,NEI
110033349552.0,SEMINOLE GAS PROCESSING PLANT,3.5 MI NW ON SH 214,SEMINOLE,TX,79360.0,32.7578,-102.681,GAINES COUNTY,211112,,1001806,GHGRP
110034242077.0,COYANOSA COMPRESSOR STATION,7.2 MI S OF FM 1450 ON FM 1776; 1.6 MI E; N 0.5 MI,COYANOSA,TX,79730,31.183131,-103.036703,Pecos,211130,,4031811,NEI
110034242077.0,COYANOSA GAS PLANT,4259 MOBIL RD; 6 M SE OF COYANOSA OFF FM 1776,COYANOSA,TX,79730,31.190789,-102.991122,Pecos,211130,,5765911,NEI
110034242077.0,Coyanosa Gas Plant,4259 Mobil Road,Coyanosa,TX,79730.0,31.190833,-102.989444,PECOS COUNTY,211112,,1007104,GHGRP
110034641635.0,LA PORTE COMPLEX,1515 MILLER CUT-OFF ROAD,DEER PARK,TX,77536,29.709733,-95.072317,Harris,325110,,4182311,NEI
110034641635.0,EQUISTAR CHEMICALS LP,1515 MILLER CUT OFF RD,LA PORTE,TX,77571,29.717471,-95.068008,HARRIS,325199,,77571QNTMC1515M,TRI
110034641635.0,EQUISTAR CHEMICALS LAPORTE COMPLEX,1515 MILLER CUT- OFF ROAD,LA PORTE,TX,77571.0,29.717471,-95.068008,HARRIS COUNTY,325110,,1002758,GHGRP
110037526157.0,WAHA GAS PLANT,0.5 MI  S OF FM 1450 ON FM 1776 THEN 1 MI W,COYANOSA,TX,79730,31.266867,-103.088267,Pecos,211130,,4031211,NEI
110037526157.0,Waha Gas Plant,2821 Waha Road,Coyanosa,TX,79730.0,31.2684,-103.0862,PECOS COUNTY,486210,,1005691,GHGRP
110037901134.0,KRIPPLE KREEK GAS PLANT,1988 BRIAR CREEK RD,BOWIE,TX,76230,33.528897,-97.881944,Montague,211130,,14748011,NEI
110037901134.0,KRIPPLE KREEK GAS PLANT,1988 BRIAR CREEK RD,BOWIE,TX,76230.0,33.52957,-97.87651,MONTAGUE COUNTY,211111,,1005431,GHGRP
110040835861.0,GOFORTH PROCESSING PLANT,15403 S HWY 377,CRESSON,TX,76035,32.595142,-97.557383,Parker,486210,,13390211,NEI
110040835861.0,GOFORTH PROCESSING PLANT,15403 S HWY 377,CRESSON,TX,76035.0,32.60482,-97.558144,PARKER COUNTY,211112,,1003234,GHGRP
110040898696.0,SAND HILLS PLANT,"STAR RT; BOX 18 CRANE, TX   79731",CRANE,TX,79731,31.501917,-102.640278,Crane,211130,,6492411,NEI
110040898696.0,Sand Hills Gas Plant,5880 FM 1233,Crane,TX,79731.0,31.409312,-102.415134,CRANE COUNTY,211112,,1003767,GHGRP
110041006318.0,KING RANCH PLANT,"FROM THE INTX OF US 77 BUS AND SR 141 IN  KINGSVILLE, GO W ON SR 141 APPROX 7.3 MI TO KING RANCH ENT",KINGSVILLE,TX,78363,27.469806,-98.054722,Kleberg,211130,,5654411,NEI
110041006318.0,King Ranch Gas Plant,None,Kingsville,TX,78375.0,27.4656,-98.0576,KLEBERG COUNTY,211112,,1002521,GHGRP
110041014568.0,SACROC CO2 FACILITY,ON FM 1611 1.6 MI N OF US 180,SNYDER,TX,79549,32.744978,-100.957392,Scurry,2111,,5679311,NEI
110041014568.0,SACROC CO2 TREATMENT,3775 County Road 226,SNYDER,TX,79549.0,32.74751,-100.95855,SCURRY COUNTY,211111,,1002678,GHGRP
110041031040.0,TERRELL GAS PLANT,FROM THE INTERSECTION OF SH 349 AND FM 3166 GO 3 MILES ON FM RD 3166 TO SITE,SHEFFIELD,TX,79781,30.372189,-101.844536,Terrell,211130,,5022711,NEI
110041031040.0,Terrell Gas Plant,None,Sheffield,TX,79781.0,30.3736,-101.8433,TERRELL COUNTY,211111,,1003128,GHGRP
110041184009.0,"Dominion Energy Transmission, Inc. - Gilmore Station (0679000075)",656 Gravel Lick Road,Port Washington,OH,43837,40.28667,-81.46528,Tuscarawas,221210,,7996211,NEI
110041184009.0,Eastern Gas Transmission and Storage - Gilmore Station (Tran),656 Gravel Lick Road,Port Washington,OH,43837.0,40.28667,-81.46528,TUSCARAWAS COUNTY,486210,,1003537,GHGRP
110041481456.0,DENVER UNIT CO 2 RECOVERY PLANT,1.5 M N OF DENVER CITY ON SH 214,DENVER CITY,TX,79323,32.998333,-102.813611,Yoakum,2111,,13394411,NEI
110041481456.0,DENVER UNIT CO 2 RECOVERY PLANT,1.5 M N OF DENVER CITY ON SH 214,DENVER CITY,TX,79323.0,32.98019,-102.8172,YOAKUM COUNTY,211111,,1005858,GHGRP
110043735152.0,Lone Star NGL Refinery Services LLC - Geismar Fractionation Plant,10334 Hwy 75,Geismar,LA,70734,30.21914,-91.03628,Ascension,211130,,6113211,NEI
110043735152.0,GEISMAR FRACTIONATION PLANT,10334 HWY 75 N,GEISMAR,LA,70734.0,30.218917,-91.03775,ASCENSION PARISH,486210,,1005856,GHGRP
110043783625.0,"Williams Mobile Bay Producer Services, LLC",6000 Rock Road,Coden,AL,36523,30.39553,-88.1782,Mobile,211130,,1062711,NEI
110043783625.0,WILLIAMS MOBILE BAY GAS PROCESSING FACILITY,6000 ROCK ROAD,CODEN,AL,36523.0,30.400556,-88.177222,MOBILE COUNTY,211112,,1002214,GHGRP
110043788023.0,NATURAL GAS PIPELINE CO OF AMERICA-#307,2227 HIGHWAY 267 SOUTH,SEARCY,AR,72143,35.206944,-91.769723,White,48621,,1102611,NEI
110043788023.0,"NGPL Station 307, Searcy, AR",2227 HIGHWAY 267 SOUTH,SEARCY,AR,72143.0,35.205472,-91.771111,WHITE COUNTY,486210,,1002918,GHGRP
110043799752.0,AERA ENERGY LLC,BELRIDGE GAS PLANT,Placeholder,CA,00000,35.45138,-119.71929,Kern,211130,,453811,NEI
110043799752.0,Aera Energy Belridge,59231 Main Camp Road,McKittrick,CA,93251.0,35.45306,-119.719337,KERN COUNTY,211120,,1006845,GHGRP
110043800802.0,LONGVIEW GAS PLANT,2 MI THEN E 0.25 MI,LAKEPORT,TX,75601,32.413319,-94.700617,Gregg,211130,,4020811,NEI
110043800802.0,LONGVIEW GAS PLANT,268 Milam Road,Longview,TX,75603.0,32.410556,-94.701667,GREGG COUNTY,211112,,1006795,GHGRP
110043804096.0,Artesia Gas Plant,1925 Illinois Camp Road,Artesia,NM,88210,32.75676,-104.21012,Eddy,21112,,7411811,NEI
110043804096.0,ARTESIA GAS PLANT,None,ARTESIA,NM,88210.0,32.7564,-104.2111,EDDY COUNTY,211130,,1002515,GHGRP
110043806851.0,Bison Treating Facility,"2,48N,75W",Campbell,WY,80217,44.16822,-105.84175,Campbell,2111,,15259911,NEI
110043806851.0,Bison Treating Facility,None,Gillette,WY,82716.0,44.1681565735194,-105.842491302271,CAMPBELL COUNTY,211111,,1001742,GHGRP
110043811168.0,HEMPHILL GAS PLANT,4 MI S OF CANADIAN,CANADIAN,TX,79014,35.841389,-100.354392,Hemphill,211130,,4926011,NEI
110043811168.0,Hemphill Gas Plant,"4 MI S. OF CANADIAN, TX on Brown Road",Canadian,TX,79014.0,35.838846,-100.353122,HEMPHILL COUNTY,211112,,1003220,GHGRP
110043811907.0,Hilight Gas Plant,"SW,26,45N,71W",Campbell,WY,82716,43.84239,-105.36085,Campbell,2111,,6813111,NEI
110043811907.0,Hilight-Reno Junction Gas Plant,None,Gillette,WY,82716.0,43.8414763490387,-105.362308513496,CAMPBELL COUNTY,211111,,1001790,GHGRP
110043974081.0,PG & E GERBER COMPRESSOR STA,CHARD AVE. & INTERSTATE 5,GERBER,CA,00000,40.063121,-122.214293,Tehama,486210,,1457611,NEI
110043974081.0,PG&E GERBER COMPRESSOR STATION,22169 Chard Ave,GERBER,CA,96035.0,40.069493,-122.213818,TEHAMA COUNTY,221210,,1006265,GHGRP
110044359459.0,Converse Central Facility,4513 Hwy 513,Mansfield,LA,71052,31.9608,-93.6493,De Soto,213112,,15642111,NEI
110044359459.0,Converse Central Facility,4513 Hwy 513,Mansfield,LA,71052.0,31.955057,-93.68166,DE SOTO PARISH,211111,,1009181,GHGRP
110046310657.0,Tyonek Platform,Upper Cook Inlet,Kenai,AK,99611,61.0775,-150.9462,Kenai Peninsula,211120,,539911,NEI
110046310657.0,Tyonek,None,Offshore,AK,0.0,61.0767,-150.9478,KENAI PENINSULA,211111,,1005736,GHGRP
110046383677.0,CARTHAGE EAST GAS PLANT,3.5 MI E OF CARTHAGE ON CR 401,CARTHAGE,TX,75633,32.159014,-94.271853,Panola,2111,,16634811,NEI
110046383677.0,Carthage East Gas Plant,1423 CR 401,Carthage,TX,75633.0,32.148066,-94.274363,PANOLA COUNTY,211112,,1010251,GHGRP
110055499991.0,DCP - Eunice Gas Plant,7 mi NW,Eunice,NM,88231,32.513937,-103.286101,Lea,21113,,5228911,NEI
110055499991.0,DCP MIDSTREAM - EUNICE GAS PLANT,None,EUNICE,NM,88231.0,32.5144,-103.2819,LEA COUNTY,211130,,1005740,GHGRP
110056961417.0,Indorama Ventures Xylenes & PTA LLC,1401 Finley Island Rd,Decatur,AL,35609,34.64421,-87.06001,Morgan,325199,,999411,NEI
110056961417.0,INDORAMA VENTURES,1401 FINLEY ISLAND RD,DECATUR,AL,35601,34.6415,-87.0589,MORGAN,325110,,35601MCCHMFINLE,TRI
110056961417.0,INDORAMA VENTURES,1401 FINLEY ISLAND RD,DECATUR,AL,35601,34.6415,-87.0589,MORGAN,325211,,35601MCCHMFINLE,TRI
110056961417.0,"Indorama Ventures, Xylenes and PTA, LLC",1401 FINLEY ISLAND ROAD,DECATUR,AL,35601.0,34.64,-87.0583,Morgan,325110,,1000325,GHGRP
110056961480.0,ENTERPRISE PRODUCTS MONT BELVIEU COMPLEX,10207 FM 1942,MONT BELVIEU,TX,77580,29.861431,-94.911667,Chambers,325110,,6600111,NEI
110056961480.0,ENTERPRISE PRODUCTS OPERATING LLC,10207 FM 1942,MONT BELVIEU,TX,77580,29.857573,-94.912893,CHAMBERS,211130,,77580NTRPR10207,TRI
110056961480.0,Mont Belvieu Complex,10207 FM 1942,Mont Belvieu,TX,77580.0,29.857573,-94.912893,CHAMBERS COUNTY,211112,,1006386,GHGRP
110059019235.0,Grayling Platform,Upper Cook Inlet,Anchorage,AK,99503,60.8397,-151.613,Kenai Peninsula,211120,,540111,NEI
110059019235.0,Grayling Platform,None,Anchorage,AK,99503.0,60.83918566,-151.6153143,KENAI PENINSULA,211111,,1001761,GHGRP
110063104670.0,ConocoPhillips Alaska Inc - KRU CPF2,None,North Slope,AK,0.0,70.2883,-149.8858,NORTH SLOPE BOROUGH,211111,,1004422,GHGRP
110063104670.0,North Kuparuk,Unknown,Kuparuk,AK,00000,70.36222,-149.02833,North Slope,48811,,10567211,NEI
110063104670.0,"CPF 2, Kuparuk Central Production Facility #2",None,Prudhoe Bay,AK,99734,70.2892,-149.8852,North Slope,211120,,1073611,NEI
110063104670.0,ConocoPhillips Alaska Inc - KRU CPF1,None,North Slope,AK,0.0,70.3233,-149.605,NORTH SLOPE BOROUGH,211111,,1005789,GHGRP
110063951228.0,YOAKUM CRYOGENIC PLANT,SITE IS LOCATED SE OF THE INTERX OF US 77 & CR 394 APPROX 4.0 MILES NW OF YOAKUM,YOAKUM,TX,77995,29.339833,-97.111606,Lavaca,211130,,16624911,NEI
110063951228.0,Yoakum Cryogenic Plant,None,Yoakum,TX,77995.0,29.3421,-97.11,LAVACA COUNTY,211112,,1009093,GHGRP
110064056248.0,NORTHSTAR,Unknown,PRUDHOE BAY/DEADHORSE,AK,00000,70.4921,-148.7036,North Slope,48811,,11658011,NEI
110064056248.0,Northstar Production Facility (NOR),None,Prudhoe Bay,AK,99734,70.4908,-148.6957,North Slope,211120,,863311,NEI
110064056248.0,NORTHSTAR PROD FACILITY,None,Prudhoe Bay,AK,99734.0,70.490882,-148.697704,NORTH SLOPE,211111,,1003023,GHGRP
110064538326.0,"Alliance Pipeline, L.P. - Towner Compressor Station",5792 Seventh Avenue NE,Towner,ND,58788,48.251647,-100.428564,McHenry,211130,,10612311,NEI
110064538326.0,TOWNER COMPRESSOR STATION,5792 SEVENTH AVENUE NE,TOWNER,ND,58788.0,48.253069,-100.431591,MCHENRY COUNTY,486210,,1006505,GHGRP
110064853886.0,Granite Point Ndb,Unknown,Granite Point,AK,00000,60.96167,-151.33167,Kenai Peninsula,48811,,10586411,NEI
110064853886.0,Granite Point Platform,Upper Cook Inlet,Anchorage,AK,99503,60.9583,-151.3313,Kenai Peninsula,211120,,680811,NEI
110064853886.0,Granite Point Platform,None,Anchorage,AK,99503.0,60.958333,-151.331389,KENAI PENINSULA,211111,,1001942,GHGRP
110067215882.0,Central Compressor Plant (CCP),None,Prudhoe Bay,AK,99734,70.3195,-148.4986,North Slope,211120,,1073911,NEI
110067215882.0,CENTRAL COMPRESSOR PLANT,None,Prudhoe Bay,AK,99734.0,70.320033,-148.500179,NORTH SLOPE BOROUGH,211111,,1001649,GHGRP
110067040703.0,CLEAR LAKE PLANT,9502 BAYPORT BLVD,PASADENA,TX,77507,29.625769,-95.063564,Harris,325120,,10679911,NEI
110067040703.0,CLEAR LAKE OPERATIONS,9502 B BAYPORT BLVD B,PASADENA,TX,77501,29.623028,-95.06155,Harris,325110,,13411211,NEI
110067040703.0,CLEAR LAKE PLANT,9502 BAYPORT BLVD,PASADENA,TX,77507,29.622964,-95.065828,Harris,325110,,4057911,NEI
110067040703.0,ARKEMA INC CLEAR LAKE,9502 B BAYPORT BLVD,PASADENA,TX,77507,29.62139,-95.06389,HARRIS,325110,,77507DWCHM952BB,TRI
110067040703.0,CLARIANT CORP CLEAR LAKE PLANT,9502 BAYPORT BLVD - ETOX UNIT,PASADENA,TX,77507,29.625819,-95.061592,HARRIS,325613,,7750WCLRNT952BA,TRI
110067040703.0,"LINDE GAS NORTH AMERICA LLC, CLEARLAKE PLANT",9502 BAYPORT DRIVE,PASADENA,TX,77507.0,29.625819,-95.061592,HARRIS COUNTY,325120,,1003049,GHGRP
110067040703.0,ARKEMA INC CLEAR LAKE,9502 BAYPORT BLVD STE B,PASADENA,TX,77507.0,29.625819,-95.061592,HARRIS COUNTY,325110,,1006797,GHGRP
nan,Charter Waste Landfill,12035 West Murphy Road,Odessa,TX,79764.0,31.745833,-102.546661,ECTOR COUNTY,562212,,1002509,GHGRP
nan,"EPL Oil & Gas, Inc. - SP 77 A",None,Offshore,LA,0.0,28.8308,-89.4061,ORLEANS PARISH,211111,,1010333,GHGRP
nan,CVEA Cogeneration Project,Mile 2.5 Dayville Rd.,Valdez,AK,99686,61.0843,-146.2518,Chugach Census Area,221112,,1025411,NEI
nan,Glennallen Diesel Plant,Mile 187 Glenn Hwy,Glennallen,AK,99588,62.1186,-145.5294,Copper River Census Area,221112,,1025511,NEI
nan,Valdez Diesel Power Plant,West Egan Dr,Valdez,AK,99686,61.1352,-146.3533,Chugach Census Area,221112,,1025611,NEI
nan,ST LABRE MISSION,Unknown,ASHLAND,MT,00000,45.6,-106.2672,None,48811,,11140311,NEI
nan,BONANZA POWER PLANT,Unknown,BONANZA,UT,00000,40.0822,-109.2915,None,48811,,11446411,NEI
nan,ANIMAS AIR PARK HELIPORT,Unknown,DURANGO,CO,00000,37.2031,-107.8678,None,48811,,12014511,NEI
nan,Orca Power Plant,103 Orca Road,Cordova,AK,99574,60.556,-145.7535,Chugach Census Area,221112,,12660911,NEI
nan,HAARP Facility - The High Frequency Active Auroral Research Program,"Milepost 11.3, Tok Cut-Off",Gakona,AK,99586,62.3917,-145.1295,Copper River Census Area,611310,,12662511,NEI
nan,"MARYSVILLE ETHANOL, LLC",2512 BUSHA HIGHWAY,MARYSVILLE,MI,48040,42.8825,-82.4948,St. Clair,325193,,13657811,NEI
nan,Road Runner / Pacific Pride 4-260086,61313 Highway 97 South,Toppenish,WA,98949,46.369727,-120.32017,None,44711,,17310811,NEI
nan,WEST JAMESON TREATING FACILITY,FROM ROBERT LEE TAKE TX-208 N FOR 17.6 MILES. TAKE SLIGHT LEFT ONTO RANCH RD 1672 FOR 0.8 MILES. TAK,SILVER,TX,76949,32.049872,-100.693333,Coke,486210,,17910311,NEI
nan,OZONA GAS PLANT,2 M S OF SH 163,OZONA,TX,76943,30.673311,-101.20485,Crockett,211130,,6475911,NEI
nan,Marathon Petroleum Co LP,4663 W Airline Hwy,Garyville,LA,70051-0000,30.06947,-90.59586,St. John the Baptist,424710,,8018511,NEI
nan,Valdez Marine Terminal,West End of Dayville Road,Valdez,AK,99686,61.0861,-146.3892,Chugach Census Area,488320,,865711,NEI
nan,Pender Muni,Unknown,Pender,NE,00000,42.11389,-96.72893,None,48811,,9410311,NEI
nan,Animas Air Park,Unknown,Durango,CO,00000,37.20389,-107.86861,None,48811,,9811311,NEI
nan,CHEMAID LABORATORIES INC.,100 MAYHILL ST,SADDLE BROOK,NJ,7663,40.89923,-74.08892,BERGEN,325620,,0766WCHMDL1MAYH,TRI
nan,ZEUS CO INC BNJ,134 CHUBB WAY,SOMERVILLE,NJ,8876,40.556792,-74.705768,SOMERSET,326121,,0887WZSNDS134CH,TRI
nan,BLOMMER CHOCOLATE CO/E GREENVILLE PLT,1101 BLOMMER DR,EAST GREENVILLE,PA,18041,40.41568,-75.51236,MONTGOMERY,311351,,1804WBLMMR111BL,TRI
nan,ZEUS CO INC GSC,201 ZEUS LN,GASTON,SC,29053,33.844495,-81.023743,CALHOUN,326121,,2905WZSCMP21ZEU,TRI
nan,OCEANAGOLD HAILE GOLD MINE,6911 SNOWY OWL RD,KERSHAW,SC,29067,34.597431,-80.532552,LANCASTER,212221,,2906WCNGLD6911S,TRI
nan,ZEUS CO INC OSC,646 MAGNOLIA STREET,ORANGEBURG,SC,29115,33.48712,-80.85432,ORANGEBURG,326121,,2911WZSNDS646MA,TRI
nan,GITI TIRE MANUFACTURING CO (USA) LTD,1000 GITI DRIVE,RICHBURG,SC,29729,34.748817,-81.047644,CHESTER,326211,,2972WGTTRM1GITI,TRI
nan,ZEUS CO INC ASC,2499 LEVELS CHURCH RD,AIKEN,SC,29801,33.544633,-81.681224,AIKEN,326121,,2980WZSCMP2499L,TRI
nan,EBROFROST N.A. INC.,2360 PROSPECT,MEMPHIS,TN,38106,35.08205,-90.03704,SHELBY,311212,,3810WBRFRS236PR,TRI
nan,RIVIANA FOODS,2314 S. LAUDERDALE STREET,MEMPHIS,TN,38106,35.08368,-90.04458,SHELBY,311212,,3810WRVNFD2314S,TRI
nan,AMERICAN HOOD SYSTEMS INC.,172 REASER CT,ELYRIA,OH,44035,41.36746,-82.07405,LORAIN,332322,,4403WMRCNH172RE,TRI
nan,MODERN FORGE INDIANA LLC,8757 COLORADO ST,MERRILLVILLE,IN,46410,41.45912,-87.29698,LAKE,332111,,4641WMDRNF8757C,TRI
nan,LGC GENOMICS LLC,2434 BISHOP CIR E,DEXTER,MI,48130,42.32499,-83.877,WASHTENAW,325199,,4813WLGCGN2434B,TRI
nan,GEA FARM TECHNOLOGIES INC.,20903 W GALE AVE,GALESVILLE,WI,54630,44.08239,-91.37045,TREMPEALEAU,333111,,5463WGFRMT293WG,TRI
nan,CITYSERVICEVALCON LLC BILLINGS BULK FACILITY,2100 1ST AVE S,BILLINGS,MT,59101,45.783698,-108.494111,YELLOWSTONE,424710,,5910WCTYSR211ST,TRI
nan,BEN TAYLOR INC BULK FACILITY,2122 W ROOSEVELT HWY,SHELBY,MT,59474,48.516828,-111.88737,TOOLE,424710,,5947WBNTYL2122W,TRI
nan,CITYSERVICEVALCON LLC KALISPELL BULK FACILITY,640 W MONTANA ST,KALISPELL,MT,59901,48.19949,-114.32476,FLATHEAD,424710,,5990WCTYSR64WMN,TRI
nan,LAKESIDE CASTING SOLUTIONS,2 LAKESIDE DR,MONROE CITY,MO,63456,39.654759,-91.715791,MONROE,331523,,6345WLKSDC2LAKE,TRI
nan,YODER SMOKERS INC.,1816 E WASP RD,HUTCHINSON,KS,67501,37.927606,-97.894809,RENO,335220,,6750WYDRSM1816E,TRI
nan,REEVE AGRI ENERGY,5665 S OLD HIGHWAY 83,GARDEN CITY,KS,67846,37.87925,-100.88353,FINNEY,325193,,6784WRVGRN5665S,TRI
nan,MUELLER SUPPLY CO INC.,6914 HWY 2,OAK GROVE,LA,71263,32.858227,-91.411359,WEST CARROLL PARISH,332311,,7126WMLLRN6914H,TRI
nan,SUN COAST RESOURCES- ENID,5110 E OWEN K GARRIOTT RD,ENID,OK,73701,36.39754,-97.80105,GARFIELD,424710,,7370WSNCST511EW,TRI
nan,SUN COAST RESOURCES,2294 S BUFFALO ST,BUFFALO,TX,75831,31.45061,-96.05031,LEON,424710,,7583WSNCST11SBU,TRI
nan,HUNTSMAN BUILDING SOLUTIONS,3315 EAST DIV STREET,ARLINGTON,TX,76011,32.743039,-97.049116,TARRANT,325211,,7601WHNTSM3315E,TRI
nan,SUN COAST RESOURCES,6922 CAVALCADE,HOUSTON,TX,77028,29.800408,-95.302828,HARRIS,424710,,7702WSNCST6922C,TRI
nan,SUN COAST RESOURCES EDNA WAREHOUSE,176 US HIGHWAY 59 S,EDNA,TX,77957,28.97802,-96.66417,JACKSON,424710,,7795WSNCST176US,TRI
nan,SUN COAST RESOURCES,7759 JOHNNY MORRIS RD,AUSTIN,TX,78724,30.311393,-97.636723,TRAVIS,424710,,7872WSNCST7759J,TRI
nan,SUN COAST RESOURCES- MIDLAND,5606 E COUNTY ROAD 128,MIDLAND,TX,79706,31.967052,-101.972818,MIDLAND,424710,,7970WSNCST566EC,TRI
nan,KDC / ONE - THIBIANT INTERNATIONAL,20320 PRAIRIE STREET,CHATSWORTH,CA,91311,34.240923,-118.58636,LOS ANGELES,325620,,9131WTHBNT232PR,TRI
nan,IMPERIAL WESTERN PRODUCTS INC,86600 AVENUE 54,COACHELLA,CA,92236,33.65771,-116.15811,RIVERSIDE,325199,,9223WMPRLW866AB,TRI
nan,BETTS CO,2843 S MAPLE AVE,FRESNO,CA,93725,36.706914,-119.745621,FRESNO,332613,,9372WBTTSC2843S,TRI
nan,GEA FARM TECHNOLOGIES INC.  DBA GEA WS WEST,2717 S 4TH ST,FRESNO,CA,93725,36.70299,-119.76687,FRESNO,325611,,9372WGFRMT2717S,TRI
nan,ECOLUBE RECOVERY LLC,11535 N FORCE AVE,PORTLAND,OR,97217,45.60602,-122.69291,MULTNOMAH,324199,,9721WCLBRC11535,TRI
nan,FARWEST FABRICATORS,7537 POSTMA RD,MOXEE,WA,98936,46.563889,-120.396942,YAKIMA,332322,,9893WFRWST7537P,TRI
110022523982.0,INVISTA SARL SABINE RIVER SITE,3055A FM 100,ORANGE,TX,77631,30.051661,-93.759072,Orange,325110,,10678011,NEI
110022523982.0,INV NYLON CHEMICALS AMERICAS ORANGE SITE,3055A FM 1006,ORANGE,TX,77630,30.054167,-93.752208,ORANGE,325199,,77630NVSTS355AF,TRI
110035195614.0,WE HEREFORD,3748 S PROGRESSIVE RD,HEREFORD,TX,79045,34.830719,-102.362242,Deaf Smith,325110,,13378311,NEI
110035195614.0,WE HEREFORD LLC,3748 S PROGRESSIVE ROAD,HEREFORD,TX,79045.0,34.821895,-102.370362,DEAF SMITH COUNTY,325193,,1004799,GHGRP
110000464042.0,KMTEX,2450 S GULFWAY DR PORT ARTHUR,PORT ARTHUR,TX,77640,29.827856,-93.962925,Jefferson,325110,,13381911,NEI
110000464042.0,MONUMENT CHEMICAL PORT ARTHUR LLC,2450 S GULFWAY DR,PORT ARTHUR,TX,77641,29.825641,-93.965034,JEFFERSON,325199,,77641KMCNC2450S,TRI
110031389192.0,OXEA BAY CITY PLANT,2001 FM 3057 ADMIN BLDG,BAY CITY,TX,77414,28.859336,-96.021167,Matagorda,325110,,13411911,NEI
110031389192.0,OQ CHEMICALS CORP BAY CITY PLANT,2001 FM 3057,BAY CITY,TX,77414,28.861921,-96.020763,MATAGORDA,325199,,77414XCRPB21FM3,TRI
110031389192.0,CELANESE LTD BAY CITY PLANT,2001 FM 3057,BAY CITY,TX,77414,28.861921,-96.020763,MATAGORDA,325199,,77414HCHSTPOBOX,TRI
110040452676.0,New England Power Company,40 Sylvan Road,Waltham,MA,2451.0,42.396463,-71.271237,MIDDLESEX COUNTY,221121,,1009741,GHGRP
110040452676.0,NATIONAL GRID USA SERVICE COMPANY INC,40 SYLVAN RD,WALTHAM,MA,02451-0000,42.395761,-71.272608,Middlesex,221210,,15078511,NEI
110010382629.0,Beluga River Power Plant,40 miles W of Anchorage,Anchorage,AK,99519,61.1853,-151.0366,Kenai Peninsula,221112,,12661111,NEI
110010382629.0,Beluga River Unit,Upper Cook Inlet,Anchorage,AK,99519,61.185,-151.0394,Kenai Peninsula,211120,,15558911,NEI
110058297301.0,Nikaitchuq Development,None,Prudhoe Bay,AK,99734,70.5089,-149.8624,North Slope,211120,,15559011,NEI
110058297301.0,NIKAITCHUQ OPERATIONS CENTER,UNKNOWN,ANCHORAGE,AK,00000,70.48248,-149.85323,North Slope,48811,,16092611,NEI
110000522738.0,GAVIOTA PUMP STATION,17100 CALLE MARIPOSA REINA,GOLETA,CA,93117,34.474352,-120.202482,Santa Barbara,486110,,13584711,NEI
110000522738.0,GAVIOTA OIL HEATING FACILITY,17100 CALLE MARIPOSA REINA,GOLETA,CA,93117,34.473593,-120.213717,Santa Barbara,211120,,1562611,NEI
110043997137.0,ALLISON GAS PLANT,FROM INTX OF CR EE AND FM 277 N IN ALLISON GO 2.3 MI W ON CR EE TO SITE ON S SIDE OF RD,ALLISON,TX,79003,35.616603,-100.143953,Wheeler,211130,,16629211,NEI
110043997137.0,ALLISON COMPRESSOR STATION,APPX 4 MILES WEST OF ALLISON,ALLISON,TX,79003,35.605417,-100.173858,Wheeler,2111,,13393211,NEI
110063957641.0,Guernsey Crude Station,"17,26N,65W",Platte,WY,82214,42.2264,-104.6857,Platte,486210,,16686811,NEI
110063957641.0,Guernsey Station,"17,26N,65W",Platte,WY,84102,42.22846,-104.69078,Platte,424710,,18807711,NEI
110066943605.0,BLUE CUBE OPERATIONS FREEPORT,2301 N BRAZOSPORT BLVD,FREEPORT,TX,77541,28.989642,-95.411392,Brazoria,325110,,17735411,NEI
110066943605.0,FREEPORT_OLIN BC,2301 N BRAZOSPORT BLVD,FREEPORT,TX,77541,28.969389,-95.379528,BRAZORIA,325199,,7754WBLCBP231NB,TRI
110066943605.0,"Olin Blue Cube, Freeport, TX","2301 N. Brazosport Blvd., OC-1120",Freeport,TX,77541.0,28.969389,-95.379528,BRAZORIA COUNTY,325199,,1011834,GHGRP
110070060886.0,SOLVAY Specialty Polymers USA - LLC,600 Spur 119 North,Borger,TX,79007.0,35.697861,-101.355306,HUTCHINSON COUNTY,325211,,1011974,GHGRP
110070060886.0,SOLVAY SPECIALTY POLYMERS USA,600 SPUR 119 N,BORGER,TX,79007,35.700911,-101.354386,Hutchinson,325110,,17737011,NEI
110000599291.0,SHELL TECHNOLOGY CENTER HOUSTON,3333 HWY 6 SOUTH,HOUSTON,TX,77082,29.724592,-95.639567,Harris,325110,,3736811,NEI
110000599291.0,WESTHOLLOW TECHNOLOGY CENTER,3333 HWY. 6 S.,HOUSTON,TX,77082.0,29.72644,-95.64394,HARRIS COUNTY,541712,,1004492,GHGRP
110028187049.0,TEXAS CITY CHEMICAL PLANT,2800 FM 519 E,TEXAS CITY,TX,77590,29.363614,-94.904519,Galveston,325110,,3930711,NEI
110028187049.0,BP AMOCO CHEMICAL COMPANY,2800 FM 519 EAST,TEXAS CITY,TX,77590,29.361045,-94.930351,GALVESTON,325110,,77590MCLCM24015,TRI
110028187049.0,INEOS NOVA LLC Texas City Site,2800 FM 519 E,TEXAS CITY,TX,77592.0,29.361045,-94.930351,GALVESTON COUNTY,325199,,1003429,GHGRP
110028187049.0,INEOS STYROLUTION TEXAS CITY PLANT,2800 FM 519 E,TEXAS CITY,TX,77592,29.358958,-94.931444,Galveston,325110,,10722911,NEI
110000463542.0,LA PORTE PLANT,12501 STRANG RD,LA PORTE,TX,77571,29.696944,-95.027778,Harris,325110,,4018511,NEI
110000463542.0,E I DU PONT DE NEMOURS LA PORTE PLANT,12501 STRANG RD.,LA PORTE,TX,77571.0,29.700264,-95.036967,HARRIS COUNTY,325199,,1002003,GHGRP
110000463258.0,CROSBY FACILITY,18000 CROSBY EASTGATE ROAD,CROSBY,TX,77532,29.948444,-95.022472,Harris,325110,,4018611,NEI
110000463258.0,ARKEMA INC,18000 CROSBY EASTGATE RD,CROSBY,TX,77532,29.948842,-95.021864,HARRIS,325199,,77532PNNWL18000,TRI
110008160337.0,LAPORTE PAO FACILITY,1230 MILLER CUT OFF RD GATE 10,LA PORTE,TX,77571,29.710594,-95.064147,Harris,325110,,4033911,NEI
110008160337.0,INEOS OLIGOMERS USA LLC,1230 MILLER CUT-OFF RD GATE 10,LA PORTE,TX,77571,29.710851,-95.065571,HARRIS,325199,,77536QNTMC1515M,TRI
110043788719.0,LYONDELLBASELL METHANOL,11603 STRANG RD,LA PORTE,TX,77572,29.706044,-95.055725,Harris,325110,,4055111,NEI
110043788719.0,LA PORTE METHANOL PLANT,11603 STRANG RD,LA PORTE,TX,77571,29.706291,-95.057016,HARRIS,325199,,77571LPRTM11603,TRI
110043788719.0,"LYONDELLBASELL ACETYLS LLC, LA PORTE METHANOL PLANT",11603 STRANG ROAD,LA PORTE,TX,77571.0,29.70231,-95.05492,HARRIS COUNTY,325199,,1004807,GHGRP
110000462856.0,BAYPORT CHEMICAL PLANT,13441 BAY AREA BLVD,PASADENA,TX,77501,29.649192,-95.048314,Harris,325110,,4055511,NEI
110000462856.0,THE GOODYEAR TIRE & RUBBER CO BAYPORT CHEMICAL PLANT,13441 BAY AREA BLVD,PASADENA,TX,77507,29.6469,-95.0479,HARRIS,325199,,77507GDYRB13441,TRI
110000462856.0,GOODYEAR TIRE & RUBBER CO BAYPORT CHEMICAL PLANT,13441 BAY AREA BOULEVARD,PASADENA,TX,77507.0,29.6469,-95.0479,HARRIS COUNTY,325998,,1002991,GHGRP
110017769734.0,LA PORTE VCM PLANT,2400 MILLER CUT OFF RD,LA PORTE,TX,77571,29.727647,-95.074931,Harris,325110,,4057611,NEI
110017769734.0,OXY VINYLS LP LA PORTE VCM PLANT,2400 MILLER CUTOFF RD,LA PORTE,TX,77571,29.72376,-95.07422,HARRIS,325199,,77571LPRTC2400M,TRI
110017769734.0,OXY VINYLS LP - LA PORTE VCM PLANT,2400 MILLER CUT-OFF ROAD,LA PORTE,TX,77571.0,29.72376,-95.07422,HARRIS COUNTY,325181,,1001713,GHGRP
110017769734.0,ETHYLENE PIPELINE EQUIPMENT,2400 MILLER CUT OFF RD,LA PORTE,TX,77571,29.728044,-95.07775,Harris,486910,,17728311,NEI
110044232773.0,PASADENA SITE,12900 BAY PARK RD,PASADENA,TX,77058,29.641153,-95.060644,Harris,325110,,4057711,NEI
110044232773.0,NOURYON FUNCTIONAL CHEMICALS LLC,12900 BAY PARK RD,PASADENA,TX,77507,29.639444,-95.062778,HARRIS,325199,,77507KZCHM13000,TRI
110067426672.0,SI GROUP INC ORANGEBURG,725 CANNON BRIDGE RD,ORANGEBURG,SC,29115,33.4675,-80.881111,Orangeburg,325110,,4143511,NEI
110067426672.0,SI GROUP INC,725 CANNON BRIDGE RD,ORANGEBURG,SC,29115,33.4675,-80.881111,ORANGEBURG,325412,,29116THYLCCANNO,TRI
110067426672.0,"SI Group, Inc.",725 Cannon Bridge Road,Orangeburg,SC,29116.0,33.4675,-80.881111,ORANGEBURG COUNTY,325412,,1011740,GHGRP
110067263071.0,LUBE ADDITIVES PLANT,1000 N SOUTH ST,PASADENA,TX,77501,29.733028,-95.170017,Harris,325110,,4166811,NEI
110067263071.0,PASADENA PLANT,1000 N SOUTH AVE,PASADENA,TX,77503,29.736694,-95.167253,Harris,325110,,6421611,NEI
110067263071.0,AFTON CHEMICAL CORP,1000 N. SOUTH STREET,PASADENA,TX,77503,29.734056,-95.17,HARRIS,325199,,7750WFTNCH1NSUT,TRI
110000463249.0,CROSBY FACILITY,16503 RAMSEY RD,CROSBY,TX,77532,29.921794,-95.055133,Harris,325110,,4167811,NEI
110000463249.0,ALTIVIA CROSBY FACILITY,16503 RAMSEY RD,CROSBY,TX,77532,29.9222,-95.0544,HARRIS,325199,,77532KMCNC16503,TRI
110000462936.0,BAYPORT PLANT,12801 BAY AREA BLVD,LA PORTE,TX,77571,29.637778,-95.053333,Harris,325110,,4168911,NEI
110000462936.0,LUBRIZOL CORP BAYPORT FACILITY,12801 BAY AREA BLVD,PASADENA,TX,77507,29.638475,-95.052814,HARRIS,325199,,77507LBRZL12801,TRI
110000462936.0,LUBRIZOL BAYPORT PLANT,12801 BAY AREA BOULEVARD,PASADENA,TX,77507.0,29.638475,-95.052814,HARRIS COUNTY,325199,,1000619,GHGRP
110000460983.0,JACINTOPORT PLANT,16717 JACINTOPORT BOULEVARD,CHANNELVIEW,TX,77530,29.754969,-95.099425,Harris,325110,,4182411,NEI
110000460983.0,MONUMENT CHEMICAL HOUSTON LLC,16717 JACINTOPORT BLVD,HOUSTON,TX,77015,29.75487,-95.10327,HARRIS,325199,,77015JHNNH16717,TRI
110000460983.0,"MONUMENT CHEMICAL HOUSTON, LLC",16717 JACINTOPORT BOULEVARD,HOUSTON,TX,77015.0,29.75487,-95.10327,HARRIS COUNTY,325199,,1004018,GHGRP
110017746368.0,SABINE RIVER WORKS,FM 1006,ORANGE,TX,77630,30.052211,-93.756314,Orange,325110,,4190211,NEI
110017746368.0,DOW SABINE RIVER OPERATIONS,FARM RD 1006,ORANGE,TX,77630,30.054796,-93.753863,ORANGE,325110,,77631DPNTSFARMR,TRI
110017746368.0,SABINE RIVER OPERATIONS,3055 FARM RD. 1006,ORANGE,TX,77631.0,30.054796,-93.753863,ORANGE COUNTY,325199,,1003382,GHGRP
110043782788.0,DEER PARK VCM PLANT,1000 TIDAL RD INSIDE SHELL DEER PARK MFG COMPLEX,DEER PARK,TX,77536,29.716181,-95.123392,Harris,325110,,4778211,NEI
110043782788.0,DEER PARK PVC CAUSTIC PLANT HOUSTON,1000 TIDAL RD,DEER PARK,TX,77536,29.732558,-95.108347,Harris,325180,,4981011,NEI
110043782788.0,OXY VINYLS LP - Deer Park PVC,1000 TIDAL ROAD,DEER PARK,TX,77536.0,29.72613,-95.10802,HARRIS COUNTY,325211,,1001712,GHGRP
110031409973.0,BAYPORT FACILITY,10601 BAY AREA BLVD,LA PORTE,TX,77571,29.610903,-95.051231,Harris,325110,,4862611,NEI
110031409973.0,DIXIE CHEMICAL CO INC,10601 BAY AREA BLVD,PASADENA,TX,77507,29.612017,-95.050481,HARRIS,325199,,77507DXCHM10701,TRI
110031409973.0,Dixie Chemical Company,10601 Bay Area Blvd,Pasadena,TX,77507.0,29.612017,-95.050481,HARRIS COUNTY,325199,,1005947,GHGRP
110000463392.0,FREEPORT SITE,602 COPPER RD,FREEPORT,TX,77541,28.999242,-95.394117,Brazoria,325110,,4897511,NEI
110000463392.0,BASF CORP - FREEPORT SITE,602 COPPER RD,FREEPORT,TX,77541,29.002075,-95.399777,BRAZORIA,325199,,77541BSFCR602CO,TRI
110000463392.0,BASF FREEPORT SITE,602 COPPER ROAD,FREEPORT,TX,77541.0,29.002075,-95.399777,BRAZORIA COUNTY,325199,,1001934,GHGRP
110000461009.0,MERISOL GREENS BAYOU PLANT,1914 HADEN RD,HOUSTON,TX,77015,29.761714,-95.176444,Harris,325110,,4924711,NEI
110000461009.0,SASOL CHEMICALS (USA) LLC,1914 HADEN RD,HOUSTON,TX,77015,29.760745,-95.176749,HARRIS,325194,,77015MRCHM1914H,TRI
110000461009.0,Sasol Chemicals (USA) LLC,1914 HADEN ROAD,HOUSTON,TX,77015.0,29.760745,-95.176749,HARRIS COUNTY,325192,,1007074,GHGRP
110000506079.0,BAYPORT UNDERWOOD PLANT,5761 UNDERWOOD RD,PASADENA,TX,77507,29.630833,-95.079714,Harris,325110,,4926611,NEI
110000506079.0,EQUISTAR CHEMICALS BAYPORT CHEMICALS PLANT,5761 UNDERWOOD RD,PASADENA,TX,77507,29.627167,-95.080194,HARRIS,325199,,77507QSTRC5761U,TRI
110000506079.0,EQUISTAR CHEMICALS LIMITED PARTNERSHIP BAYPORT PLANT,5761 UNDERWOOD ROAD,PASADENA,TX,77507.0,29.627167,-95.080194,HARRIS COUNTY,325199,,1006656,GHGRP
110000463374.0,BATTLEGROUND SITE,730 BATTLEGROUND RD,DEER PARK,TX,77536,29.713133,-95.087614,Harris,325110,,4927011,NEI
110000463374.0,NOURYON FUNCTIONAL CHEMICALS LLC,730 INDEPENDENCE PKWY S,LA PORTE,TX,77571,29.687314,-95.12114,HARRIS,325199,,77536TXSLK730BA,TRI
110031352649.0,TICONA POLYMERS BISHOP FACILITY,1 M S OF BISHOP ON US HWY 77 BUS,BISHOP,TX,78343,27.572089,-97.821236,Nueces,325110,,4929511,NEI
110031352649.0,OQ CHEMICALS BISHOP LLC,5738 COUNTY ROAD 4 - BISHOP,BISHOP,TX,78343,27.5672,-97.8254,NUECES,325199,,78343XBSHPUSHWY,TRI
110031352649.0,TICONA POLYMERS INCORPORATED,5738 COUNTY ROAD 4,BISHOP,TX,78343.0,27.5672,-97.8254,NUECES COUNTY,325211,,1007868,GHGRP
110031352649.0,BISHOP PLANT,FROM BISHOP TX NORTH CITY LIMITS TAKE BUS HWY 77 SOUTH TO FM 4 TURN RIGHT TO PLANT ENTRANCE,BISHOP,TX,78343,27.567964,-97.826,Nueces,325110,,13389511,NEI
110000743704.0,Eastman Chemical - Texas Operations,300 KODAK BLVD,LONGVIEW,TX,75602.0,32.4472,-94.6917,Harrison,325199,,1007438,GHGRP
110000743704.0,TEXAS OPERATIONS,HWY 149 KODAK BLVD,LONGVIEW,TX,75607,32.441244,-94.690367,Harrison,325110,,4941511,NEI
110000743704.0,EASTMAN COGENERATION FACILITY,CALLAHAN RD,LONGVIEW,TX,75602,32.447853,-94.690706,Harrison,221121,,7908711,NEI
110000743704.0,EASTMAN CHEMICAL CO TEXAS OPERATIONS,300 KODAK BLVD,LONGVIEW,TX,75602,32.438056,-94.69,HARRISON,325199,,75607TXSSTOFFHI,TRI
110000463034.0,BAYPORT PLANT,11200 BAY AREA BLVD,PASADENA,TX,77507,29.616878,-95.043042,Harris,325110,,4941911,NEI
110000463034.0,MULTI-CHEM GROUP BAYPORT TX FACILITY,11200 BAY AREA BLVD,PASADENA,TX,77507,29.61813,-95.0439,HARRIS,325199,,77507WLCHM11200,TRI
110000504801.0,PORT NECHES PLANT,2102 SPUR 136,PORT NECHES,TX,77651,29.967542,-93.928719,Jefferson,325110,,4945211,NEI
110000504801.0,TPC GROUP,2102 SPUR 136,PORT NECHES,TX,77651,29.964146,-93.930138,JEFFERSON,325199,,77651TXSPT212SP,TRI
110000748095.0,CONROE FACILITY,5451 JEFFERSON CHEMICAL RD,CONROE,TX,77305,30.313056,-95.38605,Montgomery,325110,,4945611,NEI
110000748095.0,HUNTSMAN PETROCHEMICAL LLC,5451 JEFFERSON CHEMICAL RD,CONROE,TX,77301,30.311361,-95.387083,MONTGOMERY,325199,,77301TXCCHJEFFE,TRI
110000748095.0,HUNTSMAN PETROCHEMICAL LLC,5451 JEFFERSON CHEMICAL ROAD,CONROE,TX,77301.0,30.311361,-95.387083,MONTGOMERY COUNTY,325199,,1002993,GHGRP
110041921034.0,SWEENY OLD OCEAN FACILITIES,21441 LOOP 419,OLD OCEAN,TX,77463,29.076181,-95.747578,Brazoria,325110,,5019011,NEI
110041921034.0,PHILLIPS 66 CO FREEPORT I TERMINAL,FM 1495,FREEPORT,TX,77541,29.072278,-95.744703,BRAZORIA,424710,,77480PHLLPFM14A,TRI
110017724186.0,Trunkline Gas Co LLC - Patterson Compressor Station,3635 Hwy 90,Patterson,LA,70392,29.69472,-91.35626,St. Mary,486210,,5060511,NEI
110017724186.0,Kinetica Deepwater Express LLC - Patterson Terminal,309 Torch Ln,Patterson,LA,70392,29.72528,-91.3426,St. Mary,488999,,5060311,NEI
110012169517.0,"EQUISTAR CHEMICALS, LP",3400 ANAMOSA RD,CLINTON,IA,52732,41.807131,-90.297267,Clinton,325110,,5509711,NEI
110012169517.0,EQUISTAR CHEMICALS CLINTON PLANT,3400 ANAMOSA RD HWY 30 W,CLINTON,IA,52732,41.807,-90.296,CLINTON,325211,,52732QNTMCUSHWY,TRI
110012169517.0,EQUISTAR CHEMICALS CLINTON PLANT,3400 ANAMOSA RD HWY 30 W,CLINTON,IA,52732,41.807,-90.296,CLINTON,325199,,52732QNTMCUSHWY,TRI
110012169517.0,EQUISTAR CHEMICALS LP,3400 ANAMOSA ROAD,CLINTON,IA,52732.0,41.807,-90.296,CLINTON COUNTY,325199,,1002927,GHGRP
110012256076.0,HUNTSMAN ETHYLENEAMINES,307 CR 624 AT GATE A 38 BLOCK,FREEPORT,TX,77541,28.952539,-95.312589,Brazoria,325110,,5632011,NEI
110012256076.0,HUNTSMAN ETHYLENEAMINES PLANT,307 COUNTY RD 624 A1 A38 BLOCK,FREEPORT,TX,77541,28.9525,-95.313,BRAZORIA,325199,,77541HNTSM307CO,TRI
110000503722.0,CHOCOLATE BAYOU PLANT,3 M S OF FM 2004 & FM 2917 INTERX,ALVIN,TX,77512,29.226603,-95.200497,Brazoria,325110,,5632411,NEI
110000503722.0,ASCEND PERFORMANCE MATERIALS CHOCOLATE BAYOU PLANT,FM 2917; 8 MI S OF INTX OF HWY 35 & FM 2917,ALVIN,TX,77511,29.250686,-95.211072,Brazoria,325110,,5633311,NEI
110000503722.0,ASCEND PERFORMANCE MATERIALS-CHOCOLATE BAYOU PLANT,1 MONSANTO RD FM 2917,ALVIN,TX,775110000,29.231225,-95.196088,BRAZORIA,325199,,77511SLTNCFM291,TRI
110000503722.0,ASCEND PERFORMANCE MATERIALS-CHOCOLATE BAYOU PLANT,1 MONSANTO RD FM 2917,ALVIN,TX,775110000,29.231225,-95.196088,BRAZORIA,325180,,77511SLTNCFM291,TRI
110000503722.0,ASCEND PERFORMANCE MATERIALS CHOCOLATE BAYOU FACILITY,None,ALVIN,TX,77512.0,29.2567,-95.2144,BRAZORIA COUNTY,325199,,1002190,GHGRP
110000503722.0,CHOCOLATE BAYOU PLANT,ON FM 2917 8 MILES SOUTH OF INTERSECTION OF HWY 35 AND FM 2917,ALVIN,TX,77512,29.251911,-95.210289,Brazoria,325110,,16871811,NEI
110000502867.0,GREEN LAKE PLANT,6.5 M S ON SH 185 FROM BLOOMINGTON,PORT LAVACA,TX,77979,28.571967,-96.835972,Calhoun,325110,,5632511,NEI
110000502867.0,INEOS NITRILES USA LLC           GREEN LAKE PLANT,TEXAS HWY 185,PORT LAVACA,TX,77979,28.570964,-96.83341,CALHOUN,325998,,77979BPCHMTEXAS,TRI
110000746532.0,CHEMOURS FC INGLESIDE PLANT,"ON HWY 361, 1 M W OF INGLESIDE",INGLESIDE,TX,78362,27.876167,-97.246694,San Patricio,325110,,5677911,NEI
110000746532.0,THE CHEMOURS CO,HWY 361,GREGORY,TX,78359,27.875556,-97.244722,SAN PATRICIO,325120,,78362DPNTCHIGHW,TRI
110000464391.0,VICTORIA SITE,8.5 MI SE OFF FM 404,VICTORIA,TX,77901,28.676111,-96.95,Victoria,325110,,5679711,NEI
110000464391.0,INV NYLON CHEMICALS AMERICAS VICTORIA SITE,2695 OLD BLOOMINGTON RD NORTH,VICTORIA,TX,77905,28.673056,-96.953611,VICTORIA,325199,,77905NVSTS2695L,TRI
110000463098.0,COVESTRO INDUSTRIAL PARK BAYTOWN,8500 W BAY RD,BAYTOWN,TX,77520,29.754294,-94.906944,Chambers,325110,,5729211,NEI
110000463098.0,LANXESS CORP BAYTOWN,"W SIDE OF CHAMBER COUNTY NEXT TO CHAMBER/HARRIS CTY LINE, ON CEDAR BAYOU TAKE ST HWY 146 S FROM I-10",BAYTOWN,TX,77520,29.756808,-94.903483,Chambers,325110,,9175811,NEI
110000463098.0,COVESTRO LLC,8500 W BAY RD MS-21,BAYTOWN,TX,77523,29.759767,-94.907294,CHAMBERS,325199,,77520MBYCR8500W,TRI
110000463098.0,LANXESS CORPORATION,8500 WEST BAY RD,BAYTOWN,TX,77520.0,29.759767,-94.907294,CHAMBERS COUNTY,325192,,1004234,GHGRP
110000599807.0,INGLESIDE PLANT,"ON F.M. 361, S. OF S.H. 35",INGLESIDE,TX,78362,27.881392,-97.242439,San Patricio,325110,,5746611,NEI
110000599807.0,OCCIDENTAL CHEMICAL CORP,4133 HWY 361,GREGORY,TX,78359,27.883611,-97.241383,SAN PATRICIO,325199,,78359CCDNTHWY36,TRI
110007175154.0,SEADRIFT PLANT,HIGHWAY 185,SEADRIFT,TX,77983,28.510567,-96.770508,Calhoun,325110,,5846511,NEI
110007175154.0,UNION CARBIDE CORP SEADRIFT PLANT,7501 N HWY 185,SEADRIFT,TX,77983,28.510636,-96.771527,CALHOUN,325199,,77979NNCRBPOBOX,TRI
110007175154.0,UCC SEADRIFT OPERATIONS,7501 HIGHWAY 185 NORTH,SEADRIFT,TX,77983.0,28.510636,-96.771527,CALHOUN COUNTY,325199,,1002967,GHGRP
110000339303.0,GenOn Dickerson Generating Station,40741 Consolidated Ln,Dickerson,MD,20842,39.207304,-77.464762,Montgomery,486210,,5998011,NEI
110000339303.0,GENON MID ATLANTIC LLC DICKERSON GENERATING STATION,21200 MARTINSBURG RD,DICKERSON,MD,20842,39.207304,-77.464762,MONTGOMERY,221112,,20842DCKRS21200,TRI
110034393378.0,CHEMOURS BEAUMONT ANILINE FACILITY,HWY 347 .5 MI S OF INTERX OF HWYS 69 & 347,BEAUMONT,TX,77701,30.014167,-94.027222,Jefferson,325110,,6362111,NEI
110034393378.0,THE DOW CHEMICAL CO - BEAUMONT ANILINE,5470 N TWIN CITY HWY,NEDERLAND,TX,77627,30.014764,-94.028837,JEFFERSON,325194,,77704DPNTBSTATE,TRI
110034393378.0,DUPONT PERFORMANCE ELASTOMERS,5470 N TWIN CITY HWY,NEDERLAND,TX,77701,30.011597,-94.025289,Jefferson,325212,,6386311,NEI
110000463917.0,BEAUMONT PLANT,LOCATED IN THE LUCITE BEAUMONT INDUSTRIAL PARK;  6350 N TWIN CITY HWY,BEAUMONT,TX,77701,30.016106,-94.028661,Jefferson,325110,,6385211,NEI
110000463917.0,JEFFERSON TERMINAL SOUTH LLC,6350 N TWIN CITY HWY,NEDERLAND,TX,77627,30.013916,-94.029616,JEFFERSON,325199,,77627CCRYL6350N,TRI
110000462623.0,PASADENA PLANT,3503 PASADENA FWY,PASADENA,TX,77503,29.731319,-95.154725,Harris,325110,,6421511,NEI
110000462623.0,INEOS PHENOL,3503 PASADENA FWY,PASADENA,TX,77503,29.73,-95.154722,HARRIS,325194,,77501GRGGL3503P,TRI
110000462623.0,"INEOS Americas, LLC",3503 PASADENA FWY.,PASADENA,TX,77503.0,29.73,-95.154722,HARRIS COUNTY,325192,,1003186,GHGRP
110000464168.0,ARKEMA BEAUMONT PLANT,2810 GULF STATES RD,BEAUMONT,TX,77701,30.060128,-94.056614,Jefferson,325110,,6430011,NEI
110000464168.0,ARKEMA INC,2810 GULF STATE RD,BEAUMONT,TX,77701,30.060226,-94.058976,JEFFERSON,325199,,77704PNNWL2052G,TRI
110000464168.0,ARKEMA BEAUMONT PLANT,2810 GULF STATES ROAD,BEAUMONT,TX,77701.0,30.060226,-94.058976,JEFFERSON COUNTY,325199,,1006644,GHGRP
110000861862.0,PORT ARTHUR CHEMICALS,4241 SAVANNAH AVE,PORT ARTHUR,TX,77640,29.891217,-93.968014,Jefferson,325110,,6430411,NEI
110000861862.0,MOTIVA - PORT ARTHUR CHEMICALS,4241 SAVANNAH AVE,PORT ARTHUR,TX,77640,29.892778,-93.973333,JEFFERSON,325110,,77641TXCCHGATE2,TRI
110000861862.0,Motiva Chemicals LLC,4241 SAVANNAH AVE,PORT ARTHUR,TX,77640.0,29.892778,-93.973333,JEFFERSON COUNTY,325199,,1006891,GHGRP
110000583663.0,BORCHERS AMERICAS FRANKLIN FAC,TWO MILE RUN RD,SUGARCREEK BORO,PA,16323,41.41245,-79.79753,Venango,325110,,6516711,NEI
110000583663.0,BORCHERS AMERICAS INC.,240 TWO MILE RUN RD,FRANKLIN,PA,16323,41.412453,-79.797531,VENANGO,325199,,16323MNYCHTWOMI,TRI
110056955987.0,ALBEMARLE CORP,2500 N SOUTH ST,PASADENA,TX,77503,29.736667,-95.168056,Harris,325110,,6536811,NEI
110056955987.0,ALBEMARLE CORP PASADENA PLANT,2500 N SOUTH ST,PASADENA,TX,77503,29.742498,-95.165513,HARRIS,325199,,77503LBMRL2500N,TRI
110056955987.0,ALBEMARLE CORPORATION HOUSTON PLANT,2500 N. SOUTH ST.,PASADENA,TX,77503.0,29.742498,-95.165513,HARRIS COUNTY,325199,,1003402,GHGRP
110006533359.0,EAST STORAGE/SPLITTER III FACILITY,316 S MAIN ST,MONT BELVIEU,TX,77580,29.839361,-94.892339,Chambers,325110,,6599811,NEI
110006533359.0,EAST STORAGE / SPLITTER III FACILITY,316 S MAIN ST,MONT BELVIEU,TX,77580,29.840014,-94.892134,CHAMBERS,324110,,77580DMNDS316SO,TRI
110000599451.0,FREEPORT PLANT,6213 HWY 332 EAST,FREEPORT,TX,77541,28.988492,-95.361403,Brazoria,325110,,6614511,NEI
110000599451.0,VENCOREX US INC,6213 HWY 332 E,FREEPORT,TX,77541,28.991019,-95.36107,BRAZORIA,325199,,77541RHNPL6213H,TRI
110000462945.0,MFG CHEMICAL PASADENA,9700 BAYPORT BLVD,PASADENA,TX,77507,29.615497,-95.060825,Harris,325110,,6671611,NEI
110000462945.0,SOLENIS LLC,9700 BAYPORT BLVD,PASADENA,TX,77507,29.615556,-95.061389,HARRIS,325199,,77507LNZBY9700B,TRI
110000463597.0,LYONDELLBASELL ACETYLS,1350 MILLER CUT OFF RD,LA PORTE,TX,77571,29.714058,-95.061267,Harris,325110,,6671911,NEI
110000463597.0,LYONDELLBASELL ACETYLS LLC,1350 MILLER CUT OFF RD,LA PORTE,TX,77571,29.712222,-95.066667,HARRIS,325199,,77571QNTMC11603,TRI
110000458424.0,PERGAN MARSHALL,710 BUSSEY RD,MARSHALL,TX,75670,32.60815,-94.351322,Harrison,325110,,6809411,NEI
110000458424.0,PERGAN MARSHALL LLC,710 B BUSSEY RD,MARSHALL,TX,75670,32.60748,-94.35046,HARRISON,325199,,75670WTCCROFFHW,TRI
110002039847.0,Muddy Gap Station,"NE,26,28N,89W",Carbon,WY,82301,42.37579,-107.42631,Carbon,486210,,6827111,NEI
110002039847.0,Paradise Compressor Station,"SW,2,31N,109W",Sublette,WY,82941,42.68435,-109.80913,Sublette,211130,,14410311,NEI
110000597104.0,Union Carbide Corp - St Charles Operations Site,355 Hwy 3142,Hahnville,LA,70057,29.98792,-90.44442,St. Charles,325110,,7202911,NEI
110000597104.0,ST CHARLES OPERATIONS (TAFT/STAR) UNION CARBIDE CORP,355 LA HWY 3142 (GATE 1),HAHNVILLE,LA,70057,29.9829,-90.4437,ST. CHARLES PARISH,325199,,70057NNCRBHWY31,TRI
110000597104.0,ST CHARLES OPERATIONS (TAFT/STAR) UNION CARBIDE CORP,355 LA HWY 3142 (GATE 1),HAHNVILLE,LA,70057,29.9829,-90.4437,ST. CHARLES PARISH,325211,,70057NNCRBHWY31,TRI
110000597104.0,St Charles Operations (Taft/Star) Union Carbide Corp,355 LA HWY 3142 (GATE 1),TAFT,LA,70057.0,29.9829,-90.4437,ST. CHARLES PARISH,325199,,1007031,GHGRP
110000450002.0,Deltech Corp - Baton Rouge Facility,11911 Scenic Hwy,Baton Rouge,LA,70807,30.55411,-91.20369,East Baton Rouge,325110,,7226311,NEI
110000450002.0,DELTECH MONOMERS OPCO LLC,11911 SCENIC HWY,BATON ROUGE,LA,70807,30.553364,-91.202428,EAST BATON ROUGE PARISH,325199,,70807HCHST11911,TRI
110000450002.0,Deltech Monomers OpCo,11911 SCENIC HIGHWAY,BATON ROUGE,LA,70807.0,30.553364,-91.202428,EAST BATON ROUGE PARISH,325199,,1002789,GHGRP
110043973509.0,Westlake Chemical OpCo LP - Westlake Petrochemical Complex,900 Hwy 108,Sulphur,LA,70665,30.17871,-93.36135,Calcasieu,325110,,7929111,NEI
110043973509.0,WESTLAKE PETROCHEMICALS ETHYLENE,900 E HIGHWAY 108,SULPHUR,LA,70665,30.177,-93.357,CALCASIEU PARISH,325211,,70663WSTLK900HA,TRI
110043973509.0,WESTLAKE PETROCHEMICALS ETHYLENE,900 E HIGHWAY 108,SULPHUR,LA,70665,30.177,-93.357,CALCASIEU PARISH,325110,,70663WSTLK900HA,TRI
110043973509.0,Westlake Petrochemicals LLC - Poly III,900 Hwy 108,Sulphur,LA,70663,30.17373,-93.3608,Calcasieu,325211,,7928911,NEI
110067216060.0,Badami,UNKNOWN,Deadhorse,AK,00000,70.1375,-147.03056,North Slope,48811,,16091011,NEI
110067216060.0,Badami Development Facility,None,Prudhoe Bay,AK,99734,70.1523,-147.0981,North Slope,211120,,7950011,NEI
110000446679.0,Evonik Corp. - Haysville,6601 S Ridge Rd,Haysville,KS,67060,37.573379,-97.427004,Sedgwick,325110,,8066811,NEI
110000446679.0,EVONIK CORP,6601 S RIDGE RD,HAYSVILLE,KS,67060,37.574167,-97.426111,SEDGWICK,325199,,67231RPRDC6601S,TRI
110013831201.0,Shell Chemical LP - Norco Chemical Plant - East Site,15536 River Rd,Norco,LA,70079,30.01594,-90.39639,St. Charles,325110,,8239511,NEI
110013831201.0,SHELL NORCO CHEMICAL PLANT,15536 RIVER RD,NORCO,LA,70079,30.000964,-90.403863,ST. CHARLES PARISH,325110,,70079SHLLL1205R,TRI
110013831201.0,SHELL NORCO CHEMICAL PLANT,15536 RIVER RD,NORCO,LA,70079,30.000964,-90.403863,ST. CHARLES PARISH,324110,,70079SHLLL1205R,TRI
110013831201.0,Norco Manufacturing Complex,15536 River Road,Norco,LA,70079.0,30.000964,-90.403863,ST. CHARLES PARISH,324110,,1005911,GHGRP
110017418061.0,Sasol Chemicals (USA) LLC - Lake Charles Chemical Complex,2201 Old Spanish Trail,Westlake,LA,70669,30.25171,-93.27232,Calcasieu,325110,,8468011,NEI
110017418061.0,SASOL CHEMICALS (USA) LLC-LAKE CHARLES CHEMICAL COMPLEX,2201 OLD SPANISH TRAIL,WESTLAKE,LA,70669,30.2588,-93.2937,CALCASIEU PARISH,325199,,70669VSTCHOLDSP,TRI
110017418061.0,Sasol Chemicals (USA) LLC - LAKE CHARLES CHEMICAL COMPLEX,2201 OLD SPANISH TRAIL,WESTLAKE,LA,70669.0,30.2588,-93.2937,CALCASIEU PARISH,325199,,1005823,GHGRP
110017874736.0,LA PORTE PLANT,12455 STRANGE RD,LA PORTE,TX,77571,29.703111,-95.033653,Harris,325110,,9103411,NEI
110017874736.0,THE LYCRA CO LA PORTE PLANT (PREVIOUSLY INVISTA SARL,12455  STRANG RD,LA PORTE,TX,77571,29.69797,-95.03339,HARRIS,325199,,77571NVSTS12455,TRI
110034422578.0,CLEBURNE COMPRESSOR STATION,1/2 M S OF CR 902 & WINDMILL RD,CLEBURNE,TX,76031,32.416764,-97.430042,Johnson,2111,,9096411,NEI
110034422578.0,CLEBURNE COMPRESSOR STATION,CLEBURNE COMPRESSOR STATION,CLEBURNE,TX,76031,32.296886,-97.555875,Johnson,486210,,9147611,NEI
110046292677.0,ALBEMARLE/TYRONE QUALITY CHEM,2858 BACK VAIL RD,TYRONE,PA,16686-8100,40.69323,-78.23045,Blair,325199,,4701311,NEI
110046292677.0,W R GRACE & CO,2858 BACK VAIL ROAD,TYRONE,PA,16686,40.693119,-78.230157,BLAIR,325110,,16686QLTYCINDUS,TRI
110038495768.0,ADVANSIX INC,4700 BERMUDA ST,PHILADELPHIA,PA,19137,40.00648,-75.07145,Philadelphia,325199,,4950811,NEI
110038495768.0,ADVANSIX RESINS & CHEMICALS LLC,2501 MARGARET,PHILADELPHIA,PA,19137,40.005901,-75.072103,PHILADELPHIA,325110,,19137LLDSGMARGA,TRI
110038495768.0,AdvanSix Resins & Chemicals LLC,2501 MARGARET STREET,PHILADELPHIA,PA,19137.0,40.0067,-75.0686,Philadelphia,325192,,1000089,GHGRP
110027373045.0,ASCEND PERFORMANCE MATERIALS OPERATIONS,3000 OLD CHEMSTRAND RD,CANTONMENT,FL,32533,30.59903,-87.25021,Escambia,325220,,751411,NEI
110027373045.0,ASCEND PERFORMANCE MATERIALS OPERATIONS LLC,3000 OLD CHEMSTRAND RD,CANTONMENT,FL,325338926,30.596678,-87.251977,ESCAMBIA,325211,,32533MNSNT3000O,TRI
110027373045.0,ASCEND PERFORMANCE MATERIALS OPERATIONS LLC,3000 OLD CHEMSTRAND RD,CANTONMENT,FL,325338926,30.596678,-87.251977,ESCAMBIA,325110,,32533MNSNT3000O,TRI
110027373045.0,Ascend Performance Materials LLC,3000 Old Chemstrand Road,Cantonment,FL,32533.0,30.596678,-87.251977,ESCAMBIA COUNTY,325211,,1004962,GHGRP
110014329994.0,FIRST CHEMICAL CORPORATION,1001 INDUSTRIAL ROAD,PASCAGOULA,MS,39581,30.355278,-88.494944,Jackson,325998,,8384911,NEI
110014329994.0,FIRST CHEMICAL CORP,1001 IND US TRIAL RD,PASCAGOULA,MS,39581,30.355278,-88.494944,JACKSON,325110,,39567FRSTC1001I,TRI
110014329994.0,FIRST CHEMICAL CORP,1001 INDUSTRIAL ROAD,PASCAGOULA,MS,39581.0,30.355278,-88.494944,JACKSON COUNTY,325199,,1002589,GHGRP
110039073962.0,FLOWCHEM TECHNOLOGIES LLC,289 CUTLASS LP,RAYNE,LA,70578,30.24864,-92.19911,ACADIA PARISH,213112,,7057WFLWCH289CU,TRI
110039073962.0,FLOWCHEM TECHNOLOGIES LLC,289 CUTLASS LP,RAYNE,LA,70578,30.24864,-92.19911,ACADIA PARISH,325199,,7057WFLWCH289CU,TRI
110011142566.0,Enterprise Products Operating LLC - Baton Rouge Fractionator & Propylene Concent,2220 N River Rd,Port Allen,LA,70767,30.48102,-91.20434,West Baton Rouge,324199,,5358511,NEI
110011142566.0,ENTERPRISE PRODUCTS OPERATING LLC BATON ROUGE FRACTIONATOR,2220 N RIVER RD,PORT ALLEN,LA,70767,30.480556,-91.202778,WEST BATON ROUGE PARISH,325110,,70767NTRPR2220N,TRI
110000449970.0,ExxonMobil Baton Rouge Chemical Plant,4999 Scenic Hwy,Baton Rouge,LA,70805,30.49456,-91.17459,East Baton Rouge,325211,,7226611,NEI
110000449970.0,EXXONMOBIL BATON ROUGE CHEMICAL PLANT (PART),4999 SCENIC HWY,BATON ROUGE,LA,70805,30.495769,-91.173111,EAST BATON ROUGE PARISH,325110,,70805XXNCH4999S,TRI
110000460910.0,HUNTSMAN INTERNATIONAL LLC,101 CONCRETE ST,HOUSTON,TX,77012,29.72061,-95.27017,HARRIS,325110,,77012XDNCR101CO,TRI
110000460910.0,HOUSTON PLANT,101 CONCRETE ST,HOUSTON,TX,77001,29.723919,-95.264239,Harris,325998,,4862911,NEI
110031267064.0,SHELL DEER PARK REFINERY,Unknown,DEER PARK,TX,00000,29.7151,-95.144,Harris,48811,,12193311,NEI
110031267064.0,DEER PARK PLANT,HWY 225 W OF BATTLEGROUND RD,DEER PARK,TX,77536,29.721106,-95.125025,Harris,324110,,4168511,NEI
110031267064.0,HEXION DEER PARK,5900 LA PORTE FWY,DEER PARK,TX,77536,29.717558,-95.119908,Harris,325211,,4982011,NEI
110031267064.0,DEER PARK REFINING LP,5900 HWY 225 EAST,DEER PARK,TX,77536,29.722222,-95.126944,HARRIS,324110,,77536DRPRK5900H,TRI
110031267064.0,WESTLAKE EPOXY INC.- DEER PARK SITE,5900 HIGHWAY 225 - GATE 7B,DEER PARK,TX,77536,29.722222,-95.126944,HARRIS,325211,,77536RSLTN5900H,TRI
110031267064.0,SHELL CHEMICAL LP,5900 HWY 225 EAST,DEER PARK,TX,77536,29.722222,-95.126944,HARRIS,325110,,77536SHLLLHIGHW,TRI
110031267064.0,SHELL DEER PARK REFINERY,5900 HIGHWAY 225 EAST,DEER PARK,TX,77536.0,29.722222,-95.126944,HARRIS COUNTY,324110,,1007002,GHGRP
110043790591.0,SUNRAY GAS PLANT,"FROM SUNRAY  3 1/4 M S FROM FM 119, THEN 1 M E ON DIRT RD",SUNRAY,TX,79086,35.961986,-101.81675,Moore,2111,,3961711,NEI
110043790591.0,ETC TEXAS PIPELINE LTD. SUNRAY GAS PLANT,11571 TEXAS BEEF RD,SUNRAY,TX,79086,35.962099,-101.815592,MOORE,211130,,7908WSNRYG11571,TRI
110000501341.0,ALTIVIA SPECIALTY CHEMICALS LLC,1901 W H ST,LA PORTE,TX,77571,29.654833,-95.036528,HARRIS,325199,,77571PPGND1901A,TRI
110000501341.0,ALTIVIA CHEMICAL COMPLEX,1901 AVENUE H AT ITS INTERSECTION WITH 16TH STREET,LA PORTE,TX,77571,29.655092,-95.037442,Harris,325110,,6510211,NEI
110000354955.0,CPJ TECHNOLOGIES,200 TANNER DR,TAYLORS,SC,29687,34.91386,-82.33265,GREENVILLE,325520,,29687CHPTRTANNE,TRI
110000354955.0,Cpj Technologies,200 Tanner Drive,Taylors,SC,29687,34.91284,-82.33428,Greenville,325110,,3176111,NEI
110050813958.0,GABRIEL PHENOXIES INC,808 CELRIVER RD,ROCK HILL,SC,29730,34.974353,-80.978266,YORK,325211,,2973WGBRLP812CE,TRI
110050813958.0,Inchem Corp,800 Celriver Rd,Rock Hill,SC,29730,34.97472,-80.985,York,325110,,4797211,NEI
110000353206.0,SYNTHOMER USA LLC,200 RAILROAD ST,ROEBUCK,SC,29376,34.876111,-81.971667,SPARTANBURG,325211,,29376BCNDSPOBOX,TRI
110000353206.0,Eastman Chemical Company,200 Railroad St,Roebuck,SC,29376,34.87611,-81.97166,Spartanburg,325110,,4040711,NEI
