FACILITY_ID,STKHGT,STKDIAM,STKTEMP,STKFLOW,STKVEL,FacilityID,FacilityName,Address,City,State,Zip,Latitude,Longitude,County,NAICS,SIC,UrbanRural
1011011,20,3,70,500.0,70.77,1011011,Legacy Cabinets,Talladega Industrial Park,Eastaboga,AL,36260,33.58356,-86.04212,Talladega,337110,,
1011011,20,1,200,25.0,31.84,1011011,Legacy Cabinets,Talladega Industrial Park,Eastaboga,AL,36260,33.58356,-86.04212,Talladega,337110,,
1011011,20,3,68,200.0,28.3,1011011,Legacy Cabinets,Talladega Industrial Park,Eastaboga,AL,36260,33.58356,-86.04212,Talladega,337110,,
1011011,30,2,70,166.6668,53.07,1011011,Legacy Cabinets,Talladega Industrial Park,Eastaboga,AL,36260,33.58356,-86.04212,Talladega,337110,,
1011011,30,2,70,200.0,63.69,1011011,Legacy Cabinets,Talladega Industrial Park,Eastaboga,AL,36260,33.58356,-86.04212,Talladega,337110,,
1011011,30,2,68,200.0,63.69,1011011,Legacy Cabinets,Talladega Industrial Park,Eastaboga,AL,36260,33.58356,-86.04212,Talladega,337110,,
1011011,20,1.01,68,23.3333,29.1,1011011,Legacy Cabinets,Talladega Industrial Park,Eastaboga,AL,36260,33.58356,-86.04212,Talladega,337110,,
1011011,30,3,68,200.0,28.3,1011011,Legacy Cabinets,Talladega Industrial Park,Eastaboga,AL,36260,33.58356,-86.04212,Talladega,337110,,
1018111,2,40,.83,1002.0,58.2,1018111,"W&T Offshore, Inc.",Submerged Tracts 74-77; 92-95,Mobile Bay,AL,00000,30.25395,-88.052203,Mobile,211130,,
1018111,2,63,.83,1002.0,58.2,1018111,"W&T Offshore, Inc.",Submerged Tracts 74-77; 92-95,Mobile Bay,AL,00000,30.25395,-88.052203,Mobile,211130,,
1018111,2,74,.67,535.0,.245,1018111,"W&T Offshore, Inc.",Submerged Tracts 74-77; 92-95,Mobile Bay,AL,00000,30.25395,-88.052203,Mobile,211130,,
1018111,2,66,1,1009.0,61.2333,1018111,"W&T Offshore, Inc.",Submerged Tracts 74-77; 92-95,Mobile Bay,AL,00000,30.25395,-88.052203,Mobile,211130,,
1018111,2,102,1,1832.0,138.8666,1018111,"W&T Offshore, Inc.",Submerged Tracts 74-77; 92-95,Mobile Bay,AL,00000,30.25395,-88.052203,Mobile,211130,,
1018111,2,163,1,1832.0,138.8666,1018111,"W&T Offshore, Inc.",Submerged Tracts 74-77; 92-95,Mobile Bay,AL,00000,30.25395,-88.052203,Mobile,211130,,
1018111,2,124,1,1832.0,138.8666,1018111,"W&T Offshore, Inc.",Submerged Tracts 74-77; 92-95,Mobile Bay,AL,00000,30.25395,-88.052203,Mobile,211130,,
1018111,2,52,.67,535.0,.245,1018111,"W&T Offshore, Inc.",Submerged Tracts 74-77; 92-95,Mobile Bay,AL,00000,30.25395,-88.052203,Mobile,211130,,
1018111,2,40,1,800.0,25,1018111,"W&T Offshore, Inc.",Submerged Tracts 74-77; 92-95,Mobile Bay,AL,00000,30.25395,-88.052203,Mobile,211130,,
1018111,2,70,1,1832.0,138.8666,1018111,"W&T Offshore, Inc.",Submerged Tracts 74-77; 92-95,Mobile Bay,AL,00000,30.25395,-88.052203,Mobile,211130,,
1018111,1,,,,,1018111,"W&T Offshore, Inc.",Submerged Tracts 74-77; 92-95,Mobile Bay,AL,00000,30.25395,-88.052203,Mobile,211130,,
1018111,2,8.7,.83,1002.0,58.2,1018111,"W&T Offshore, Inc.",Submerged Tracts 74-77; 92-95,Mobile Bay,AL,00000,30.25395,-88.052203,Mobile,211130,,
1061511,135,5.3,1800,1324.8166,60.05,1061511,Hilcorp Energy Company,1340 Radcliff Rd,Creola,AL,36525,30.890911,-88.0672,Mobile,211130,,
1061511,60.7,5.5,650,310.0,13.05,1061511,Hilcorp Energy Company,1340 Radcliff Rd,Creola,AL,36525,30.890911,-88.0672,Mobile,211130,,
1061511,159,3.5,900,137.1,14.25,1061511,Hilcorp Energy Company,1340 Radcliff Rd,Creola,AL,36525,30.890911,-88.0672,Mobile,211130,,
1061511,60.7,5.5,650,310.0,13.1,1061511,Hilcorp Energy Company,1340 Radcliff Rd,Creola,AL,36525,30.890911,-88.0672,Mobile,211130,,
1061511,18,1,700,45.2666,57.64,1061511,Hilcorp Energy Company,1340 Radcliff Rd,Creola,AL,36525,30.890911,-88.0672,Mobile,211130,,
1061511,38,1.46,1200,186.9833,111.69,1061511,Hilcorp Energy Company,1340 Radcliff Rd,Creola,AL,36525,30.890911,-88.0672,Mobile,211130,,
1061511,26,1.46,1250,101.0,60.33,1061511,Hilcorp Energy Company,1340 Radcliff Rd,Creola,AL,36525,30.890911,-88.0672,Mobile,211130,,
1061511,6.3,.3,500,0.8666,12.26,1061511,Hilcorp Energy Company,1340 Radcliff Rd,Creola,AL,36525,30.890911,-88.0672,Mobile,211130,,
1061511,26,1.46,1000,130.6333,78,1061511,Hilcorp Energy Company,1340 Radcliff Rd,Creola,AL,36525,30.890911,-88.0672,Mobile,211130,,
1061511,14,.3,500,5.45,77.1,1061511,Hilcorp Energy Company,1340 Radcliff Rd,Creola,AL,36525,30.890911,-88.0672,Mobile,211130,,
1061511,25,1.12,1350,139.5333,141.63,1061511,Hilcorp Energy Company,1340 Radcliff Rd,Creola,AL,36525,30.890911,-88.0672,Mobile,211130,,
1061511,26,1.5,1250,128.05,72.46,1061511,Hilcorp Energy Company,1340 Radcliff Rd,Creola,AL,36525,30.890911,-88.0672,Mobile,211130,,
1061511,26,1.5,900,102.8666,58.21,1061511,Hilcorp Energy Company,1340 Radcliff Rd,Creola,AL,36525,30.890911,-88.0672,Mobile,211130,,
1061511,,,,,,1061511,Hilcorp Energy Company,1340 Radcliff Rd,Creola,AL,36525,30.890911,-88.0672,Mobile,211130,,
1061511,30,1.46,1200,156.7833,93.65,1061511,Hilcorp Energy Company,1340 Radcliff Rd,Creola,AL,36525,30.890911,-88.0672,Mobile,211130,,
1061511,11,1.2,1000,25.8666,22.87,1061511,Hilcorp Energy Company,1340 Radcliff Rd,Creola,AL,36525,30.890911,-88.0672,Mobile,211130,,
1061711,2,250,3.5,571.0,298.1333,1061711,"W&T Offshore, Inc.",6000 Deakle Road,Theodore,AL,36582,30.431388,-88.1817,Mobile,211130,,
1061711,2,228,3,1000.0,20.65,1061711,"W&T Offshore, Inc.",6000 Deakle Road,Theodore,AL,36582,30.431388,-88.1817,Mobile,211130,,
1061711,2,35,4,420.0,378.3333,1061711,"W&T Offshore, Inc.",6000 Deakle Road,Theodore,AL,36582,30.431388,-88.1817,Mobile,211130,,
1061711,2,250,3.5,571.0,298.2666,1061711,"W&T Offshore, Inc.",6000 Deakle Road,Theodore,AL,36582,30.431388,-88.1817,Mobile,211130,,
1061711,2,38,3,420.0,719.7,1061711,"W&T Offshore, Inc.",6000 Deakle Road,Theodore,AL,36582,30.431388,-88.1817,Mobile,211130,,
1061711,2,160,4,1000.0,9.6833,1061711,"W&T Offshore, Inc.",6000 Deakle Road,Theodore,AL,36582,30.431388,-88.1817,Mobile,211130,,
1061711,1,,,,,1061711,"W&T Offshore, Inc.",6000 Deakle Road,Theodore,AL,36582,30.431388,-88.1817,Mobile,211130,,
13386011,40,3,400,,15,13386011,HENDERSON GAS PLANT,754 CR 425D,HENDERSON,TX,75654,32.158844,-94.87935,Rusk,211130,,
13386011,,,,,,13386011,HENDERSON GAS PLANT,754 CR 425D,HENDERSON,TX,75654,32.158844,-94.87935,Rusk,211130,,
13386011,25,.5,500,0.2833,1.4424,13386011,HENDERSON GAS PLANT,754 CR 425D,HENDERSON,TX,75654,32.158844,-94.87935,Rusk,211130,,
13386011,30,1.5,250,,20,13386011,HENDERSON GAS PLANT,754 CR 425D,HENDERSON,TX,75654,32.158844,-94.87935,Rusk,211130,,
13386011,14,.83,700,,75,13386011,HENDERSON GAS PLANT,754 CR 425D,HENDERSON,TX,75654,32.158844,-94.87935,Rusk,211130,,
13386011,1,.1,30,,.1,13386011,HENDERSON GAS PLANT,754 CR 425D,HENDERSON,TX,75654,32.158844,-94.87935,Rusk,211130,,
13390211,24,2,100,,10,13390211,GOFORTH PROCESSING PLANT,15403 S HWY 377,CRESSON,TX,76035,32.595142,-97.557383,Parker,486210,,
13390211,20,1,1000,0.3333,.4242,13390211,GOFORTH PROCESSING PLANT,15403 S HWY 377,CRESSON,TX,76035,32.595142,-97.557383,Parker,486210,,
13390211,23,1.5,110,,10,13390211,GOFORTH PROCESSING PLANT,15403 S HWY 377,CRESSON,TX,76035,32.595142,-97.557383,Parker,486210,,
13390211,6,.1,70,,.1,13390211,GOFORTH PROCESSING PLANT,15403 S HWY 377,CRESSON,TX,76035,32.595142,-97.557383,Parker,486210,,
13390211,,,,,,13390211,GOFORTH PROCESSING PLANT,15403 S HWY 377,CRESSON,TX,76035,32.595142,-97.557383,Parker,486210,,
13390211,10,2,100,,10,13390211,GOFORTH PROCESSING PLANT,15403 S HWY 377,CRESSON,TX,76035,32.595142,-97.557383,Parker,486210,,
13390211,9,.5,95,,.1,13390211,GOFORTH PROCESSING PLANT,15403 S HWY 377,CRESSON,TX,76035,32.595142,-97.557383,Parker,486210,,
13390211,24,2,100,,5,13390211,GOFORTH PROCESSING PLANT,15403 S HWY 377,CRESSON,TX,76035,32.595142,-97.557383,Parker,486210,,
13390211,20,.67,860,,9,13390211,GOFORTH PROCESSING PLANT,15403 S HWY 377,CRESSON,TX,76035,32.595142,-97.557383,Parker,486210,,
13390211,20,.67,860,,90,13390211,GOFORTH PROCESSING PLANT,15403 S HWY 377,CRESSON,TX,76035,32.595142,-97.557383,Parker,486210,,
13390211,16,.67,750,,83,13390211,GOFORTH PROCESSING PLANT,15403 S HWY 377,CRESSON,TX,76035,32.595142,-97.557383,Parker,486210,,
13390211,16,.67,860,,83,13390211,GOFORTH PROCESSING PLANT,15403 S HWY 377,CRESSON,TX,76035,32.595142,-97.557383,Parker,486210,,
13390211,23,.83,855,,79,13390211,GOFORTH PROCESSING PLANT,15403 S HWY 377,CRESSON,TX,76035,32.595142,-97.557383,Parker,486210,,
13390211,20,1.33,750,,76,13390211,GOFORTH PROCESSING PLANT,15403 S HWY 377,CRESSON,TX,76035,32.595142,-97.557383,Parker,486210,,
13390311,80,.17,65,,29.4,13390311,WEATHERFORD PLANT,451 JONES RD WEATHERFORD,WEATHERFORD,TX,76088,32.734592,-97.877572,Parker,211130,,
13390311,,,,,,13390311,WEATHERFORD PLANT,451 JONES RD WEATHERFORD,WEATHERFORD,TX,76088,32.734592,-97.877572,Parker,211130,,
13390311,24,1,750,,136,13390311,WEATHERFORD PLANT,451 JONES RD WEATHERFORD,WEATHERFORD,TX,76088,32.734592,-97.877572,Parker,211130,,
13390311,15,.67,550,,2.5,13390311,WEATHERFORD PLANT,451 JONES RD WEATHERFORD,WEATHERFORD,TX,76088,32.734592,-97.877572,Parker,211130,,
13390311,35,.67,550,,3.2,13390311,WEATHERFORD PLANT,451 JONES RD WEATHERFORD,WEATHERFORD,TX,76088,32.734592,-97.877572,Parker,211130,,
13390311,20,.67,550,,1.8,13390311,WEATHERFORD PLANT,451 JONES RD WEATHERFORD,WEATHERFORD,TX,76088,32.734592,-97.877572,Parker,211130,,
13390311,3,3,65,,.1,13390311,WEATHERFORD PLANT,451 JONES RD WEATHERFORD,WEATHERFORD,TX,76088,32.734592,-97.877572,Parker,211130,,
13390311,17,.83,700,,54,13390311,WEATHERFORD PLANT,451 JONES RD WEATHERFORD,WEATHERFORD,TX,76088,32.734592,-97.877572,Parker,211130,,
13390311,20,1,800,,112,13390311,WEATHERFORD PLANT,451 JONES RD WEATHERFORD,WEATHERFORD,TX,76088,32.734592,-97.877572,Parker,211130,,
13390311,9,.1,1200,1.6666,212.1212,13390311,WEATHERFORD PLANT,451 JONES RD WEATHERFORD,WEATHERFORD,TX,76088,32.734592,-97.877572,Parker,211130,,
13390311,24,1.2,750,,136,13390311,WEATHERFORD PLANT,451 JONES RD WEATHERFORD,WEATHERFORD,TX,76088,32.734592,-97.877572,Parker,211130,,
13390311,22,1,750,,8.1,13390311,WEATHERFORD PLANT,451 JONES RD WEATHERFORD,WEATHERFORD,TX,76088,32.734592,-97.877572,Parker,211130,,
13390311,16,3,65,,.1,13390311,WEATHERFORD PLANT,451 JONES RD WEATHERFORD,WEATHERFORD,TX,76088,32.734592,-97.877572,Parker,211130,,
13394411,175,3,1000,0.1666,.0235,13394411,DENVER UNIT CO 2 RECOVERY PLANT,1.5 M N OF DENVER CITY ON SH 214,DENVER CITY,TX,79323,32.998333,-102.813611,Yoakum,2111,,
13394411,59,3,504,,44,13394411,DENVER UNIT CO 2 RECOVERY PLANT,1.5 M N OF DENVER CITY ON SH 214,DENVER CITY,TX,79323,32.998333,-102.813611,Yoakum,2111,,
13394411,10,.83,700,,49,13394411,DENVER UNIT CO 2 RECOVERY PLANT,1.5 M N OF DENVER CITY ON SH 214,DENVER CITY,TX,79323,32.998333,-102.813611,Yoakum,2111,,
13394411,52,3,85,,15,13394411,DENVER UNIT CO 2 RECOVERY PLANT,1.5 M N OF DENVER CITY ON SH 214,DENVER CITY,TX,79323,32.998333,-102.813611,Yoakum,2111,,
13394411,120,1.5,80,,15,13394411,DENVER UNIT CO 2 RECOVERY PLANT,1.5 M N OF DENVER CITY ON SH 214,DENVER CITY,TX,79323,32.998333,-102.813611,Yoakum,2111,,
13394411,161,6.84,472,,28,13394411,DENVER UNIT CO 2 RECOVERY PLANT,1.5 M N OF DENVER CITY ON SH 214,DENVER CITY,TX,79323,32.998333,-102.813611,Yoakum,2111,,
13394411,,,,,,13394411,DENVER UNIT CO 2 RECOVERY PLANT,1.5 M N OF DENVER CITY ON SH 214,DENVER CITY,TX,79323,32.998333,-102.813611,Yoakum,2111,,
13394411,160,.83,300,,10.7,13394411,DENVER UNIT CO 2 RECOVERY PLANT,1.5 M N OF DENVER CITY ON SH 214,DENVER CITY,TX,79323,32.998333,-102.813611,Yoakum,2111,,
13413911,25,.6,1200,14.1666,50.1,13413911,SPRAGUE CMPSR STA,0.2 MI S OF N3840/E1628 RDS,COALGATE,OK,74538,34.65138,-96.18033,Coal,486210,,
13413911,25,.6,1200,14.1666,50.104,13413911,SPRAGUE CMPSR STA,0.2 MI S OF N3840/E1628 RDS,COALGATE,OK,74538,34.65138,-96.18033,Coal,486210,,
13413911,,,,,,13413911,SPRAGUE CMPSR STA,0.2 MI S OF N3840/E1628 RDS,COALGATE,OK,74538,34.65138,-96.18033,Coal,486210,,
13413911,14,.67,212,0.8,2.269,13413911,SPRAGUE CMPSR STA,0.2 MI S OF N3840/E1628 RDS,COALGATE,OK,74538,34.65138,-96.18033,Coal,486210,,
13413911,22,1.5,855,128.0833,72.48,13413911,SPRAGUE CMPSR STA,0.2 MI S OF N3840/E1628 RDS,COALGATE,OK,74538,34.65138,-96.18033,Coal,486210,,
13413911,21,.8,350,0.4166,.8285,13413911,SPRAGUE CMPSR STA,0.2 MI S OF N3840/E1628 RDS,COALGATE,OK,74538,34.65138,-96.18033,Coal,486210,,
13413911,14,.67,212,0.8,2.27,13413911,SPRAGUE CMPSR STA,0.2 MI S OF N3840/E1628 RDS,COALGATE,OK,74538,34.65138,-96.18033,Coal,486210,,
13413911,14,.6,212,0.8,2.829,13413911,SPRAGUE CMPSR STA,0.2 MI S OF N3840/E1628 RDS,COALGATE,OK,74538,34.65138,-96.18033,Coal,486210,,
13413911,22,2,878,259.2166,82.511,13413911,SPRAGUE CMPSR STA,0.2 MI S OF N3840/E1628 RDS,COALGATE,OK,74538,34.65138,-96.18033,Coal,486210,,
13413911,20,1.5,855,128.0833,72.48,13413911,SPRAGUE CMPSR STA,0.2 MI S OF N3840/E1628 RDS,COALGATE,OK,74538,34.65138,-96.18033,Coal,486210,,
13413911,22,2,878,259.2166,82.5,13413911,SPRAGUE CMPSR STA,0.2 MI S OF N3840/E1628 RDS,COALGATE,OK,74538,34.65138,-96.18033,Coal,486210,,
14747911,90,3.83,150,0.1666,.0144,14747911,SILVER CREEK PROCESSING PLANT,FROMHWY 180 & FM 730 X; TAKE FM730 6 M NE TO PEARSON RANCH RD; TURN RT 3 M; TURN ONTO DIRD RD;SITE I,WEATHERFORD,TX,76087,32.800778,-97.675106,Parker,211130,,
14747911,3,1,68,,.1,14747911,SILVER CREEK PROCESSING PLANT,FROMHWY 180 & FM 730 X; TAKE FM730 6 M NE TO PEARSON RANCH RD; TURN RT 3 M; TURN ONTO DIRD RD;SITE I,WEATHERFORD,TX,76087,32.800778,-97.675106,Parker,211130,,
14747911,,,,,,14747911,SILVER CREEK PROCESSING PLANT,FROMHWY 180 & FM 730 X; TAKE FM730 6 M NE TO PEARSON RANCH RD; TURN RT 3 M; TURN ONTO DIRD RD;SITE I,WEATHERFORD,TX,76087,32.800778,-97.675106,Parker,211130,,
14747911,40,.5,90,,10,14747911,SILVER CREEK PROCESSING PLANT,FROMHWY 180 & FM 730 X; TAKE FM730 6 M NE TO PEARSON RANCH RD; TURN RT 3 M; TURN ONTO DIRD RD;SITE I,WEATHERFORD,TX,76087,32.800778,-97.675106,Parker,211130,,
14747911,20,.5,550,,30,14747911,SILVER CREEK PROCESSING PLANT,FROMHWY 180 & FM 730 X; TAKE FM730 6 M NE TO PEARSON RANCH RD; TURN RT 3 M; TURN ONTO DIRD RD;SITE I,WEATHERFORD,TX,76087,32.800778,-97.675106,Parker,211130,,
14747911,40,3.5,950,,100,14747911,SILVER CREEK PROCESSING PLANT,FROMHWY 180 & FM 730 X; TAKE FM730 6 M NE TO PEARSON RANCH RD; TURN RT 3 M; TURN ONTO DIRD RD;SITE I,WEATHERFORD,TX,76087,32.800778,-97.675106,Parker,211130,,
14747911,6,.1,80,,.1,14747911,SILVER CREEK PROCESSING PLANT,FROMHWY 180 & FM 730 X; TAKE FM730 6 M NE TO PEARSON RANCH RD; TURN RT 3 M; TURN ONTO DIRD RD;SITE I,WEATHERFORD,TX,76087,32.800778,-97.675106,Parker,211130,,
14747911,15,.1,68,,.1,14747911,SILVER CREEK PROCESSING PLANT,FROMHWY 180 & FM 730 X; TAKE FM730 6 M NE TO PEARSON RANCH RD; TURN RT 3 M; TURN ONTO DIRD RD;SITE I,WEATHERFORD,TX,76087,32.800778,-97.675106,Parker,211130,,
14747911,20,.5,65,,30,14747911,SILVER CREEK PROCESSING PLANT,FROMHWY 180 & FM 730 X; TAKE FM730 6 M NE TO PEARSON RANCH RD; TURN RT 3 M; TURN ONTO DIRD RD;SITE I,WEATHERFORD,TX,76087,32.800778,-97.675106,Parker,211130,,
14747911,30,.5,550,,30,14747911,SILVER CREEK PROCESSING PLANT,FROMHWY 180 & FM 730 X; TAKE FM730 6 M NE TO PEARSON RANCH RD; TURN RT 3 M; TURN ONTO DIRD RD;SITE I,WEATHERFORD,TX,76087,32.800778,-97.675106,Parker,211130,,
14747911,15,2,65,,5,14747911,SILVER CREEK PROCESSING PLANT,FROMHWY 180 & FM 730 X; TAKE FM730 6 M NE TO PEARSON RANCH RD; TURN RT 3 M; TURN ONTO DIRD RD;SITE I,WEATHERFORD,TX,76087,32.800778,-97.675106,Parker,211130,,
14748011,40,2.5,839,,82,14748011,KRIPPLE KREEK GAS PLANT,1988 BRIAR CREEK RD,BOWIE,TX,76230,33.528897,-97.881944,Montague,211130,,
14748011,35,2,500,,53,14748011,KRIPPLE KREEK GAS PLANT,1988 BRIAR CREEK RD,BOWIE,TX,76230,33.528897,-97.881944,Montague,211130,,
14748011,25,1.67,500,,30.1,14748011,KRIPPLE KREEK GAS PLANT,1988 BRIAR CREEK RD,BOWIE,TX,76230,33.528897,-97.881944,Montague,211130,,
14748011,25,1.5,867,,112,14748011,KRIPPLE KREEK GAS PLANT,1988 BRIAR CREEK RD,BOWIE,TX,76230,33.528897,-97.881944,Montague,211130,,
14748011,15.8,2.5,500,,13,14748011,KRIPPLE KREEK GAS PLANT,1988 BRIAR CREEK RD,BOWIE,TX,76230,33.528897,-97.881944,Montague,211130,,
14748011,20,1.5,855,,87,14748011,KRIPPLE KREEK GAS PLANT,1988 BRIAR CREEK RD,BOWIE,TX,76230,33.528897,-97.881944,Montague,211130,,
14748011,35,2,500,,66.3,14748011,KRIPPLE KREEK GAS PLANT,1988 BRIAR CREEK RD,BOWIE,TX,76230,33.528897,-97.881944,Montague,211130,,
14748011,35,2,500,,6.26,14748011,KRIPPLE KREEK GAS PLANT,1988 BRIAR CREEK RD,BOWIE,TX,76230,33.528897,-97.881944,Montague,211130,,
14748011,105,2.5,1832,0.0333,.0067,14748011,KRIPPLE KREEK GAS PLANT,1988 BRIAR CREEK RD,BOWIE,TX,76230,33.528897,-97.881944,Montague,211130,,
14748011,35,2,500,,6.3,14748011,KRIPPLE KREEK GAS PLANT,1988 BRIAR CREEK RD,BOWIE,TX,76230,33.528897,-97.881944,Montague,211130,,
14748011,35,2,500,,11.4,14748011,KRIPPLE KREEK GAS PLANT,1988 BRIAR CREEK RD,BOWIE,TX,76230,33.528897,-97.881944,Montague,211130,,
14748011,20,1.5,854,,71.3,14748011,KRIPPLE KREEK GAS PLANT,1988 BRIAR CREEK RD,BOWIE,TX,76230,33.528897,-97.881944,Montague,211130,,
14748011,,,,,,14748011,KRIPPLE KREEK GAS PLANT,1988 BRIAR CREEK RD,BOWIE,TX,76230,33.528897,-97.881944,Montague,211130,,
14748011,15.8,2.5,500,,11,14748011,KRIPPLE KREEK GAS PLANT,1988 BRIAR CREEK RD,BOWIE,TX,76230,33.528897,-97.881944,Montague,211130,,
14767011,100,5,1000,150.0,7.6394,14767011,DCP Operating - National Helium Gas Plant,S23-T33S-R32W,Liberal,KS,67901,37.159495,-100.763176,Seward,211130,,
14767011,,,,,,14767011,DCP Operating - National Helium Gas Plant,S23-T33S-R32W,Liberal,KS,67901,37.159495,-100.763176,Seward,211130,,
14767011,15,.5,60,0.0166,.0848,14767011,DCP Operating - National Helium Gas Plant,S23-T33S-R32W,Liberal,KS,67901,37.159495,-100.763176,Seward,211130,,
14767011,76,5,625,151.3333,8,14767011,DCP Operating - National Helium Gas Plant,S23-T33S-R32W,Liberal,KS,67901,37.159495,-100.763176,Seward,211130,,
14767011,10,.5,60,0.0166,.0848,14767011,DCP Operating - National Helium Gas Plant,S23-T33S-R32W,Liberal,KS,67901,37.159495,-100.763176,Seward,211130,,
14767011,20,.5,60,0.0166,.0848,14767011,DCP Operating - National Helium Gas Plant,S23-T33S-R32W,Liberal,KS,67901,37.159495,-100.763176,Seward,211130,,
14767011,30,1,100,16.6666,21.2206,14767011,DCP Operating - National Helium Gas Plant,S23-T33S-R32W,Liberal,KS,67901,37.159495,-100.763176,Seward,211130,,
14939211,100,2,1000,433.0,137.8,14939211,Ignacio Gas Plant,"NW SW SEC 36, T34N, R9W",Durango,CO,81303,37.145278,-107.78444,None,2111,,
14939211,,,,,,14939211,Ignacio Gas Plant,"NW SW SEC 36, T34N, R9W",Durango,CO,81303,37.145278,-107.78444,None,2111,,
15259911,46.2,1.3,986,,163,15259911,Bison Treating Facility,"2,48N,75W",Campbell,WY,80217,44.16822,-105.84175,Campbell,2111,,
15259911,1,1,1,0.7853,1,15259911,Bison Treating Facility,"2,48N,75W",Campbell,WY,80217,44.16822,-105.84175,Campbell,2111,,
15259911,44.4,1.3,986,216.3536,163,15259911,Bison Treating Facility,"2,48N,75W",Campbell,WY,80217,44.16822,-105.84175,Campbell,2111,,
15259911,44.3,1.3,986,216.3536,163,15259911,Bison Treating Facility,"2,48N,75W",Campbell,WY,80217,44.16822,-105.84175,Campbell,2111,,
15259911,32.8,1,1350,33.7721,43,15259911,Bison Treating Facility,"2,48N,75W",Campbell,WY,80217,44.16822,-105.84175,Campbell,2111,,
15259911,32.8,1.67,867,200.8593,91.7,15259911,Bison Treating Facility,"2,48N,75W",Campbell,WY,80217,44.16822,-105.84175,Campbell,2111,,
15259911,46.2,1.3,986,216.3536,163,15259911,Bison Treating Facility,"2,48N,75W",Campbell,WY,80217,44.16822,-105.84175,Campbell,2111,,
15259911,49.2,1.25,986,199.982,162.96,15259911,Bison Treating Facility,"2,48N,75W",Campbell,WY,80217,44.16822,-105.84175,Campbell,2111,,
15642111,105,.5,1200,8.44,43,15642111,Converse Central Facility,4513 Hwy 513,Mansfield,LA,71052,31.9608,-93.6493,De Soto,213112,,
15642111,19,4,700,269.0,21.4,15642111,Converse Central Facility,4513 Hwy 513,Mansfield,LA,71052,31.9608,-93.6493,De Soto,213112,,
15642111,13,.5,1382,25.0,127.1,15642111,Converse Central Facility,4513 Hwy 513,Mansfield,LA,71052,31.9608,-93.6493,De Soto,213112,,
15642111,25.5,2,700,13.08,4.2,15642111,Converse Central Facility,4513 Hwy 513,Mansfield,LA,71052,31.9608,-93.6493,De Soto,213112,,
15642111,40,1.33,1200,81.8,58.9,15642111,Converse Central Facility,4513 Hwy 513,Mansfield,LA,71052,31.9608,-93.6493,De Soto,213112,,
15642111,6,.4,70,0.1,.7954,15642111,Converse Central Facility,4513 Hwy 513,Mansfield,LA,71052,31.9608,-93.6493,De Soto,213112,,
15642111,,,,,,15642111,Converse Central Facility,4513 Hwy 513,Mansfield,LA,71052,31.9608,-93.6493,De Soto,213112,,
15642111,12,.17,200,0.33,15,15642111,Converse Central Facility,4513 Hwy 513,Mansfield,LA,71052,31.9608,-93.6493,De Soto,213112,,
15642111,105,4,1200,223.0,17.8,15642111,Converse Central Facility,4513 Hwy 513,Mansfield,LA,71052,31.9608,-93.6493,De Soto,213112,,
16355811,,,,,,16355811,PADEN PLT,4 MILES N AND 1 MILE E OF,PADEN,OK,74860,35.55551,-96.54816,Okfuskee,211130,,
16355811,15,.83,900,59.2833,109.6,16355811,PADEN PLT,4 MILES N AND 1 MILE E OF,PADEN,OK,74860,35.55551,-96.54816,Okfuskee,211130,,
16355811,10,.5,120,13.2833,68,16355811,PADEN PLT,4 MILES N AND 1 MILE E OF,PADEN,OK,74860,35.55551,-96.54816,Okfuskee,211130,,
16355811,15,.8,900,59.2833,117.94,16355811,PADEN PLT,4 MILES N AND 1 MILE E OF,PADEN,OK,74860,35.55551,-96.54816,Okfuskee,211130,,
16355811,25,2,1000,75.0,23.873,16355811,PADEN PLT,4 MILES N AND 1 MILE E OF,PADEN,OK,74860,35.55551,-96.54816,Okfuskee,211130,,
16355811,15,.83,90,59.2833,109.6,16355811,PADEN PLT,4 MILES N AND 1 MILE E OF,PADEN,OK,74860,35.55551,-96.54816,Okfuskee,211130,,
16355811,15,1,1170,128.0833,163,16355811,PADEN PLT,4 MILES N AND 1 MILE E OF,PADEN,OK,74860,35.55551,-96.54816,Okfuskee,211130,,
16623911,10,.1,66,,.1,16623911,DEADWOOD CRYO PLANT,FROM THE INTERSECTION OF SH158 & FM33 (DOWNTOWN GARDEN CITY) GO N 6.2 MI ON RANCH ROAD 33. LOCATION,GARDEN CITY,TX,79739,31.945828,-101.482778,Glasscock,211130,,
16623911,15,.1,66,,.1,16623911,DEADWOOD CRYO PLANT,FROM THE INTERSECTION OF SH158 & FM33 (DOWNTOWN GARDEN CITY) GO N 6.2 MI ON RANCH ROAD 33. LOCATION,GARDEN CITY,TX,79739,31.945828,-101.482778,Glasscock,211130,,
16623911,5,.1,66,,.1,16623911,DEADWOOD CRYO PLANT,FROM THE INTERSECTION OF SH158 & FM33 (DOWNTOWN GARDEN CITY) GO N 6.2 MI ON RANCH ROAD 33. LOCATION,GARDEN CITY,TX,79739,31.945828,-101.482778,Glasscock,211130,,
16623911,40,1.5,1000,10.1666,5.7508,16623911,DEADWOOD CRYO PLANT,FROM THE INTERSECTION OF SH158 & FM33 (DOWNTOWN GARDEN CITY) GO N 6.2 MI ON RANCH ROAD 33. LOCATION,GARDEN CITY,TX,79739,31.945828,-101.482778,Glasscock,211130,,
16623911,10,1,97,,.1,16623911,DEADWOOD CRYO PLANT,FROM THE INTERSECTION OF SH158 & FM33 (DOWNTOWN GARDEN CITY) GO N 6.2 MI ON RANCH ROAD 33. LOCATION,GARDEN CITY,TX,79739,31.945828,-101.482778,Glasscock,211130,,
16623911,20,1.5,500,,12.57,16623911,DEADWOOD CRYO PLANT,FROM THE INTERSECTION OF SH158 & FM33 (DOWNTOWN GARDEN CITY) GO N 6.2 MI ON RANCH ROAD 33. LOCATION,GARDEN CITY,TX,79739,31.945828,-101.482778,Glasscock,211130,,
16623911,20,1.5,500,,17,16623911,DEADWOOD CRYO PLANT,FROM THE INTERSECTION OF SH158 & FM33 (DOWNTOWN GARDEN CITY) GO N 6.2 MI ON RANCH ROAD 33. LOCATION,GARDEN CITY,TX,79739,31.945828,-101.482778,Glasscock,211130,,
16623911,20,1.5,500,,4.34,16623911,DEADWOOD CRYO PLANT,FROM THE INTERSECTION OF SH158 & FM33 (DOWNTOWN GARDEN CITY) GO N 6.2 MI ON RANCH ROAD 33. LOCATION,GARDEN CITY,TX,79739,31.945828,-101.482778,Glasscock,211130,,
16623911,,,,,,16623911,DEADWOOD CRYO PLANT,FROM THE INTERSECTION OF SH158 & FM33 (DOWNTOWN GARDEN CITY) GO N 6.2 MI ON RANCH ROAD 33. LOCATION,GARDEN CITY,TX,79739,31.945828,-101.482778,Glasscock,211130,,
16623911,20,1,978,,169.6,16623911,DEADWOOD CRYO PLANT,FROM THE INTERSECTION OF SH158 & FM33 (DOWNTOWN GARDEN CITY) GO N 6.2 MI ON RANCH ROAD 33. LOCATION,GARDEN CITY,TX,79739,31.945828,-101.482778,Glasscock,211130,,
16623911,20,1.5,858,,224.7,16623911,DEADWOOD CRYO PLANT,FROM THE INTERSECTION OF SH158 & FM33 (DOWNTOWN GARDEN CITY) GO N 6.2 MI ON RANCH ROAD 33. LOCATION,GARDEN CITY,TX,79739,31.945828,-101.482778,Glasscock,211130,,
16623911,20,1,207,,.1,16623911,DEADWOOD CRYO PLANT,FROM THE INTERSECTION OF SH158 & FM33 (DOWNTOWN GARDEN CITY) GO N 6.2 MI ON RANCH ROAD 33. LOCATION,GARDEN CITY,TX,79739,31.945828,-101.482778,Glasscock,211130,,
16623911,12,.1,66,,.1,16623911,DEADWOOD CRYO PLANT,FROM THE INTERSECTION OF SH158 & FM33 (DOWNTOWN GARDEN CITY) GO N 6.2 MI ON RANCH ROAD 33. LOCATION,GARDEN CITY,TX,79739,31.945828,-101.482778,Glasscock,211130,,
16623911,20,1.5,500,,7.62,16623911,DEADWOOD CRYO PLANT,FROM THE INTERSECTION OF SH158 & FM33 (DOWNTOWN GARDEN CITY) GO N 6.2 MI ON RANCH ROAD 33. LOCATION,GARDEN CITY,TX,79739,31.945828,-101.482778,Glasscock,211130,,
16623911,20,1.5,500,,11.34,16623911,DEADWOOD CRYO PLANT,FROM THE INTERSECTION OF SH158 & FM33 (DOWNTOWN GARDEN CITY) GO N 6.2 MI ON RANCH ROAD 33. LOCATION,GARDEN CITY,TX,79739,31.945828,-101.482778,Glasscock,211130,,
16623911,25,1.5,500,,.28,16623911,DEADWOOD CRYO PLANT,FROM THE INTERSECTION OF SH158 & FM33 (DOWNTOWN GARDEN CITY) GO N 6.2 MI ON RANCH ROAD 33. LOCATION,GARDEN CITY,TX,79739,31.945828,-101.482778,Glasscock,211130,,
16623911,20,1,66,,169.6,16623911,DEADWOOD CRYO PLANT,FROM THE INTERSECTION OF SH158 & FM33 (DOWNTOWN GARDEN CITY) GO N 6.2 MI ON RANCH ROAD 33. LOCATION,GARDEN CITY,TX,79739,31.945828,-101.482778,Glasscock,211130,,
16623911,20,1.5,882,,124,16623911,DEADWOOD CRYO PLANT,FROM THE INTERSECTION OF SH158 & FM33 (DOWNTOWN GARDEN CITY) GO N 6.2 MI ON RANCH ROAD 33. LOCATION,GARDEN CITY,TX,79739,31.945828,-101.482778,Glasscock,211130,,
16623911,20,1,247,,.26,16623911,DEADWOOD CRYO PLANT,FROM THE INTERSECTION OF SH158 & FM33 (DOWNTOWN GARDEN CITY) GO N 6.2 MI ON RANCH ROAD 33. LOCATION,GARDEN CITY,TX,79739,31.945828,-101.482778,Glasscock,211130,,
16624911,165,4.5,800,83.0,5.2166,16624911,YOAKUM CRYOGENIC PLANT,SITE IS LOCATED SE OF THE INTERX OF US 77 & CR 394 APPROX 4.0 MILES NW OF YOAKUM,YOAKUM,TX,77995,29.339833,-97.111606,Lavaca,211130,,
16624911,,,,,,16624911,YOAKUM CRYOGENIC PLANT,SITE IS LOCATED SE OF THE INTERX OF US 77 & CR 394 APPROX 4.0 MILES NW OF YOAKUM,YOAKUM,TX,77995,29.339833,-97.111606,Lavaca,211130,,
16624911,32,8.5,911,,33,16624911,YOAKUM CRYOGENIC PLANT,SITE IS LOCATED SE OF THE INTERX OF US 77 & CR 394 APPROX 4.0 MILES NW OF YOAKUM,YOAKUM,TX,77995,29.339833,-97.111606,Lavaca,211130,,
16624911,54,7.83,1650,,30.5,16624911,YOAKUM CRYOGENIC PLANT,SITE IS LOCATED SE OF THE INTERX OF US 77 & CR 394 APPROX 4.0 MILES NW OF YOAKUM,YOAKUM,TX,77995,29.339833,-97.111606,Lavaca,211130,,
16624911,25,25,350,,20,16624911,YOAKUM CRYOGENIC PLANT,SITE IS LOCATED SE OF THE INTERX OF US 77 & CR 394 APPROX 4.0 MILES NW OF YOAKUM,YOAKUM,TX,77995,29.339833,-97.111606,Lavaca,211130,,
16866411,71,5.5,300,,13.9,16866411,EAGLE 1 GAS PLANT,FROM THE INTERCHANGE OF US59 AND FM710 3RD ST ON THE N SIDE OF GANADO TX GO 5.7 MI SW ON US59 TO FM5,EDNA,TX,77957,29.138894,-96.6541,Jackson,211130,,
16866411,10,.25,72,,.1,16866411,EAGLE 1 GAS PLANT,FROM THE INTERCHANGE OF US59 AND FM710 3RD ST ON THE N SIDE OF GANADO TX GO 5.7 MI SW ON US59 TO FM5,EDNA,TX,77957,29.138894,-96.6541,Jackson,211130,,
16866411,30,3.5,750,,1.4,16866411,EAGLE 1 GAS PLANT,FROM THE INTERCHANGE OF US59 AND FM710 3RD ST ON THE N SIDE OF GANADO TX GO 5.7 MI SW ON US59 TO FM5,EDNA,TX,77957,29.138894,-96.6541,Jackson,211130,,
16866411,38,2.5,856,,109,16866411,EAGLE 1 GAS PLANT,FROM THE INTERCHANGE OF US59 AND FM710 3RD ST ON THE N SIDE OF GANADO TX GO 5.7 MI SW ON US59 TO FM5,EDNA,TX,77957,29.138894,-96.6541,Jackson,211130,,
16866411,30,2.3,750,,36,16866411,EAGLE 1 GAS PLANT,FROM THE INTERCHANGE OF US59 AND FM710 3RD ST ON THE N SIDE OF GANADO TX GO 5.7 MI SW ON US59 TO FM5,EDNA,TX,77957,29.138894,-96.6541,Jackson,211130,,
16866411,10,3,68,,.1,16866411,EAGLE 1 GAS PLANT,FROM THE INTERCHANGE OF US59 AND FM710 3RD ST ON THE N SIDE OF GANADO TX GO 5.7 MI SW ON US59 TO FM5,EDNA,TX,77957,29.138894,-96.6541,Jackson,211130,,
16866411,,,,,,16866411,EAGLE 1 GAS PLANT,FROM THE INTERCHANGE OF US59 AND FM710 3RD ST ON THE N SIDE OF GANADO TX GO 5.7 MI SW ON US59 TO FM5,EDNA,TX,77957,29.138894,-96.6541,Jackson,211130,,
16866411,30,.25,1832,0.3333,6.7878,16866411,EAGLE 1 GAS PLANT,FROM THE INTERCHANGE OF US59 AND FM710 3RD ST ON THE N SIDE OF GANADO TX GO 5.7 MI SW ON US59 TO FM5,EDNA,TX,77957,29.138894,-96.6541,Jackson,211130,,
16866411,30,2.3,750,,35.5,16866411,EAGLE 1 GAS PLANT,FROM THE INTERCHANGE OF US59 AND FM710 3RD ST ON THE N SIDE OF GANADO TX GO 5.7 MI SW ON US59 TO FM5,EDNA,TX,77957,29.138894,-96.6541,Jackson,211130,,
16866411,16,2.5,300,,9.94,16866411,EAGLE 1 GAS PLANT,FROM THE INTERCHANGE OF US59 AND FM710 3RD ST ON THE N SIDE OF GANADO TX GO 5.7 MI SW ON US59 TO FM5,EDNA,TX,77957,29.138894,-96.6541,Jackson,211130,,
16875211,60,6.5,1500,,28.3,16875211,MONT BELVIEU GAS PLANT,10030 A FM 1942,MONT BELVIEU,TX,77580,29.851975,-94.908308,Chambers,211130,,
16875211,110,7.5,555,,27.4,16875211,MONT BELVIEU GAS PLANT,10030 A FM 1942,MONT BELVIEU,TX,77580,29.851975,-94.908308,Chambers,211130,,
16875211,,,,,,16875211,MONT BELVIEU GAS PLANT,10030 A FM 1942,MONT BELVIEU,TX,77580,29.851975,-94.908308,Chambers,211130,,
16875211,25,14,85,,15,16875211,MONT BELVIEU GAS PLANT,10030 A FM 1942,MONT BELVIEU,TX,77580,29.851975,-94.908308,Chambers,211130,,
16875211,30,3,70,,.1,16875211,MONT BELVIEU GAS PLANT,10030 A FM 1942,MONT BELVIEU,TX,77580,29.851975,-94.908308,Chambers,211130,,
16875211,225,3,1401,0.8333,.1178,16875211,MONT BELVIEU GAS PLANT,10030 A FM 1942,MONT BELVIEU,TX,77580,29.851975,-94.908308,Chambers,211130,,
16875211,100,7.6,555,,44.1,16875211,MONT BELVIEU GAS PLANT,10030 A FM 1942,MONT BELVIEU,TX,77580,29.851975,-94.908308,Chambers,211130,,
16875211,20,.67,950,,150.33,16875211,MONT BELVIEU GAS PLANT,10030 A FM 1942,MONT BELVIEU,TX,77580,29.851975,-94.908308,Chambers,211130,,
16875211,17,3,68,,.1,16875211,MONT BELVIEU GAS PLANT,10030 A FM 1942,MONT BELVIEU,TX,77580,29.851975,-94.908308,Chambers,211130,,
16875211,1,1,68,,.1,16875211,MONT BELVIEU GAS PLANT,10030 A FM 1942,MONT BELVIEU,TX,77580,29.851975,-94.908308,Chambers,211130,,
16875211,28,3,68,,.1,16875211,MONT BELVIEU GAS PLANT,10030 A FM 1942,MONT BELVIEU,TX,77580,29.851975,-94.908308,Chambers,211130,,
16875211,15,1,806,,54,16875211,MONT BELVIEU GAS PLANT,10030 A FM 1942,MONT BELVIEU,TX,77580,29.851975,-94.908308,Chambers,211130,,
16875211,10,.1,70,,.1,16875211,MONT BELVIEU GAS PLANT,10030 A FM 1942,MONT BELVIEU,TX,77580,29.851975,-94.908308,Chambers,211130,,
16875211,110,4.25,555,,20.9,16875211,MONT BELVIEU GAS PLANT,10030 A FM 1942,MONT BELVIEU,TX,77580,29.851975,-94.908308,Chambers,211130,,
16875211,15,3,68,,.1,16875211,MONT BELVIEU GAS PLANT,10030 A FM 1942,MONT BELVIEU,TX,77580,29.851975,-94.908308,Chambers,211130,,
16875211,4,3,68,,.1,16875211,MONT BELVIEU GAS PLANT,10030 A FM 1942,MONT BELVIEU,TX,77580,29.851975,-94.908308,Chambers,211130,,
17085911,20,1,1000,15.0,19.0909,17085911,BEARKAT CRYOGENIC PLANT,FROM THE INTX OF TEXAS HWY 158 AND FARM RD 33 DOWNTOWN GARDEN CITY GO N 7 MI ON FM RD RANCH RD 33 LO,GARDEN CITY,TX,79739,31.957681,-101.490522,Glasscock,211130,,
17085911,21,1.17,990,,169.9,17085911,BEARKAT CRYOGENIC PLANT,FROM THE INTX OF TEXAS HWY 158 AND FARM RD 33 DOWNTOWN GARDEN CITY GO N 7 MI ON FM RD RANCH RD 33 LO,GARDEN CITY,TX,79739,31.957681,-101.490522,Glasscock,211130,,
17085911,250,100,70,,2,17085911,BEARKAT CRYOGENIC PLANT,FROM THE INTX OF TEXAS HWY 158 AND FARM RD 33 DOWNTOWN GARDEN CITY GO N 7 MI ON FM RD RANCH RD 33 LO,GARDEN CITY,TX,79739,31.957681,-101.490522,Glasscock,211130,,
17085911,,,,,,17085911,BEARKAT CRYOGENIC PLANT,FROM THE INTX OF TEXAS HWY 158 AND FARM RD 33 DOWNTOWN GARDEN CITY GO N 7 MI ON FM RD RANCH RD 33 LO,GARDEN CITY,TX,79739,31.957681,-101.490522,Glasscock,211130,,
17085911,20,.5,800,,102.79,17085911,BEARKAT CRYOGENIC PLANT,FROM THE INTX OF TEXAS HWY 158 AND FARM RD 33 DOWNTOWN GARDEN CITY GO N 7 MI ON FM RD RANCH RD 33 LO,GARDEN CITY,TX,79739,31.957681,-101.490522,Glasscock,211130,,
17085911,20,.5,800,,30,17085911,BEARKAT CRYOGENIC PLANT,FROM THE INTX OF TEXAS HWY 158 AND FARM RD 33 DOWNTOWN GARDEN CITY GO N 7 MI ON FM RD RANCH RD 33 LO,GARDEN CITY,TX,79739,31.957681,-101.490522,Glasscock,211130,,
17085911,20,.5,800,,227.86,17085911,BEARKAT CRYOGENIC PLANT,FROM THE INTX OF TEXAS HWY 158 AND FARM RD 33 DOWNTOWN GARDEN CITY GO N 7 MI ON FM RD RANCH RD 33 LO,GARDEN CITY,TX,79739,31.957681,-101.490522,Glasscock,211130,,
17085911,20,1,978,,169.9,17085911,BEARKAT CRYOGENIC PLANT,FROM THE INTX OF TEXAS HWY 158 AND FARM RD 33 DOWNTOWN GARDEN CITY GO N 7 MI ON FM RD RANCH RD 33 LO,GARDEN CITY,TX,79739,31.957681,-101.490522,Glasscock,211130,,
17085911,20,1,70,,40,17085911,BEARKAT CRYOGENIC PLANT,FROM THE INTX OF TEXAS HWY 158 AND FARM RD 33 DOWNTOWN GARDEN CITY GO N 7 MI ON FM RD RANCH RD 33 LO,GARDEN CITY,TX,79739,31.957681,-101.490522,Glasscock,211130,,
17085911,20,1,1000,3.3333,4.2424,17085911,BEARKAT CRYOGENIC PLANT,FROM THE INTX OF TEXAS HWY 158 AND FARM RD 33 DOWNTOWN GARDEN CITY GO N 7 MI ON FM RD RANCH RD 33 LO,GARDEN CITY,TX,79739,31.957681,-101.490522,Glasscock,211130,,
17086611,,,,,,17086611,KENEDY GAS PLANT,FROM KENEDY TAKE HWY 72 SW FOR 10.5 MI TURN RIGHT ON FM 626 AND GO 3.0 MI TURN LEFT ON CR 143 FOR 0.,KENEDY,TX,78119,28.754017,-98.0131,Karnes,211130,,
17086611,12,.5,600,,18.69,17086611,KENEDY GAS PLANT,FROM KENEDY TAKE HWY 72 SW FOR 10.5 MI TURN RIGHT ON FM 626 AND GO 3.0 MI TURN LEFT ON CR 143 FOR 0.,KENEDY,TX,78119,28.754017,-98.0131,Karnes,211130,,
17086611,70,2,1831,40.5,12.8863,17086611,KENEDY GAS PLANT,FROM KENEDY TAKE HWY 72 SW FOR 10.5 MI TURN RIGHT ON FM 626 AND GO 3.0 MI TURN LEFT ON CR 143 FOR 0.,KENEDY,TX,78119,28.754017,-98.0131,Karnes,211130,,
17086611,120,.29,1831,40.5,612.9067,17086611,KENEDY GAS PLANT,FROM KENEDY TAKE HWY 72 SW FOR 10.5 MI TURN RIGHT ON FM 626 AND GO 3.0 MI TURN LEFT ON CR 143 FOR 0.,KENEDY,TX,78119,28.754017,-98.0131,Karnes,211130,,
17086611,20,2.5,750,,.1,17086611,KENEDY GAS PLANT,FROM KENEDY TAKE HWY 72 SW FOR 10.5 MI TURN RIGHT ON FM 626 AND GO 3.0 MI TURN LEFT ON CR 143 FOR 0.,KENEDY,TX,78119,28.754017,-98.0131,Karnes,211130,,
17086611,20,2.5,854,,93.5,17086611,KENEDY GAS PLANT,FROM KENEDY TAKE HWY 72 SW FOR 10.5 MI TURN RIGHT ON FM 626 AND GO 3.0 MI TURN LEFT ON CR 143 FOR 0.,KENEDY,TX,78119,28.754017,-98.0131,Karnes,211130,,
17086611,10,3,100,,50,17086611,KENEDY GAS PLANT,FROM KENEDY TAKE HWY 72 SW FOR 10.5 MI TURN RIGHT ON FM 626 AND GO 3.0 MI TURN LEFT ON CR 143 FOR 0.,KENEDY,TX,78119,28.754017,-98.0131,Karnes,211130,,
17088511,15,2,750,,15,17088511,JAMES LAKE GAS PLANT,FROM THE INTERSECTION OF US-385 AND 2ND ST IN ODESSA HEAD NORTHWEST ON US-385 FOR 1.1 MILES GO SLIGH,GOLDSMITH,TX,79741,31.962389,-102.598514,Ector,211130,,
17088511,25,5,70,,15,17088511,JAMES LAKE GAS PLANT,FROM THE INTERSECTION OF US-385 AND 2ND ST IN ODESSA HEAD NORTHWEST ON US-385 FOR 1.1 MILES GO SLIGH,GOLDSMITH,TX,79741,31.962389,-102.598514,Ector,211130,,
17088511,25,1,982,,192,17088511,JAMES LAKE GAS PLANT,FROM THE INTERSECTION OF US-385 AND 2ND ST IN ODESSA HEAD NORTHWEST ON US-385 FOR 1.1 MILES GO SLIGH,GOLDSMITH,TX,79741,31.962389,-102.598514,Ector,211130,,
17088511,,,,,,17088511,JAMES LAKE GAS PLANT,FROM THE INTERSECTION OF US-385 AND 2ND ST IN ODESSA HEAD NORTHWEST ON US-385 FOR 1.1 MILES GO SLIGH,GOLDSMITH,TX,79741,31.962389,-102.598514,Ector,211130,,
17088511,35,2,1832,16.6666,5.303,17088511,JAMES LAKE GAS PLANT,FROM THE INTERSECTION OF US-385 AND 2ND ST IN ODESSA HEAD NORTHWEST ON US-385 FOR 1.1 MILES GO SLIGH,GOLDSMITH,TX,79741,31.962389,-102.598514,Ector,211130,,
17088511,125,2,1000,69.5,22.1136,17088511,JAMES LAKE GAS PLANT,FROM THE INTERSECTION OF US-385 AND 2ND ST IN ODESSA HEAD NORTHWEST ON US-385 FOR 1.1 MILES GO SLIGH,GOLDSMITH,TX,79741,31.962389,-102.598514,Ector,211130,,
17088511,1,.9,873,,162.61,17088511,JAMES LAKE GAS PLANT,FROM THE INTERSECTION OF US-385 AND 2ND ST IN ODESSA HEAD NORTHWEST ON US-385 FOR 1.1 MILES GO SLIGH,GOLDSMITH,TX,79741,31.962389,-102.598514,Ector,211130,,
17088511,25,1,702,,102.98,17088511,JAMES LAKE GAS PLANT,FROM THE INTERSECTION OF US-385 AND 2ND ST IN ODESSA HEAD NORTHWEST ON US-385 FOR 1.1 MILES GO SLIGH,GOLDSMITH,TX,79741,31.962389,-102.598514,Ector,211130,,
17088511,20,2,350,,35,17088511,JAMES LAKE GAS PLANT,FROM THE INTERSECTION OF US-385 AND 2ND ST IN ODESSA HEAD NORTHWEST ON US-385 FOR 1.1 MILES GO SLIGH,GOLDSMITH,TX,79741,31.962389,-102.598514,Ector,211130,,
17088511,15,2,400,,35,17088511,JAMES LAKE GAS PLANT,FROM THE INTERSECTION OF US-385 AND 2ND ST IN ODESSA HEAD NORTHWEST ON US-385 FOR 1.1 MILES GO SLIGH,GOLDSMITH,TX,79741,31.962389,-102.598514,Ector,211130,,
17088511,25,1,992,,152,17088511,JAMES LAKE GAS PLANT,FROM THE INTERSECTION OF US-385 AND 2ND ST IN ODESSA HEAD NORTHWEST ON US-385 FOR 1.1 MILES GO SLIGH,GOLDSMITH,TX,79741,31.962389,-102.598514,Ector,211130,,
17088511,15,2,750,,35,17088511,JAMES LAKE GAS PLANT,FROM THE INTERSECTION OF US-385 AND 2ND ST IN ODESSA HEAD NORTHWEST ON US-385 FOR 1.1 MILES GO SLIGH,GOLDSMITH,TX,79741,31.962389,-102.598514,Ector,211130,,
17088511,20,2,750,,35,17088511,JAMES LAKE GAS PLANT,FROM THE INTERSECTION OF US-385 AND 2ND ST IN ODESSA HEAD NORTHWEST ON US-385 FOR 1.1 MILES GO SLIGH,GOLDSMITH,TX,79741,31.962389,-102.598514,Ector,211130,,
17088511,30,2,750,,35,17088511,JAMES LAKE GAS PLANT,FROM THE INTERSECTION OF US-385 AND 2ND ST IN ODESSA HEAD NORTHWEST ON US-385 FOR 1.1 MILES GO SLIGH,GOLDSMITH,TX,79741,31.962389,-102.598514,Ector,211130,,
17088511,25,1,512,,60.43,17088511,JAMES LAKE GAS PLANT,FROM THE INTERSECTION OF US-385 AND 2ND ST IN ODESSA HEAD NORTHWEST ON US-385 FOR 1.1 MILES GO SLIGH,GOLDSMITH,TX,79741,31.962389,-102.598514,Ector,211130,,
17088511,10,1,992,,152,17088511,JAMES LAKE GAS PLANT,FROM THE INTERSECTION OF US-385 AND 2ND ST IN ODESSA HEAD NORTHWEST ON US-385 FOR 1.1 MILES GO SLIGH,GOLDSMITH,TX,79741,31.962389,-102.598514,Ector,211130,,
17726611,30,1.17,990,,135.1,17726611,REBEL GAS PLANT,FROM GARDEN CITY GO W ON HWY 158 13.2 MI TO SITE ON R AT NE CORNER OF HWY 158 AND HWY 137,GARDEN CITY,TX,79739,31.890042,-101.701197,Glasscock,211130,,
17726611,21,1,800,1.6666,2.1212,17726611,REBEL GAS PLANT,FROM GARDEN CITY GO W ON HWY 158 13.2 MI TO SITE ON R AT NE CORNER OF HWY 158 AND HWY 137,GARDEN CITY,TX,79739,31.890042,-101.701197,Glasscock,211130,,
17726611,,,,,,17726611,REBEL GAS PLANT,FROM GARDEN CITY GO W ON HWY 158 13.2 MI TO SITE ON R AT NE CORNER OF HWY 158 AND HWY 137,GARDEN CITY,TX,79739,31.890042,-101.701197,Glasscock,211130,,
17726611,21,1.17,990,,135.1,17726611,REBEL GAS PLANT,FROM GARDEN CITY GO W ON HWY 158 13.2 MI TO SITE ON R AT NE CORNER OF HWY 158 AND HWY 137,GARDEN CITY,TX,79739,31.890042,-101.701197,Glasscock,211130,,
17726611,25,1.25,1800,264.0,215.04,17726611,REBEL GAS PLANT,FROM GARDEN CITY GO W ON HWY 158 13.2 MI TO SITE ON R AT NE CORNER OF HWY 158 AND HWY 137,GARDEN CITY,TX,79739,31.890042,-101.701197,Glasscock,211130,,
17726611,21,1,990,,135.1,17726611,REBEL GAS PLANT,FROM GARDEN CITY GO W ON HWY 158 13.2 MI TO SITE ON R AT NE CORNER OF HWY 158 AND HWY 137,GARDEN CITY,TX,79739,31.890042,-101.701197,Glasscock,211130,,
17726611,21,1.17,30,,135.1,17726611,REBEL GAS PLANT,FROM GARDEN CITY GO W ON HWY 158 13.2 MI TO SITE ON R AT NE CORNER OF HWY 158 AND HWY 137,GARDEN CITY,TX,79739,31.890042,-101.701197,Glasscock,211130,,
17908711,58,4.17,1600,,60,17908711,ALAMO GAS PLANT,FROM CROCKETT GO W ON TX 7 FOR APPROX 4 MI TURN L ONTO CR 3020 SITE IS APPROX 0.25 MI DOWN ON R,CROCKETT,TX,75835,31.295236,-95.517128,Houston,211130,,
17908711,12,.5,600,,18.69,17908711,ALAMO GAS PLANT,FROM CROCKETT GO W ON TX 7 FOR APPROX 4 MI TURN L ONTO CR 3020 SITE IS APPROX 0.25 MI DOWN ON R,CROCKETT,TX,75835,31.295236,-95.517128,Houston,211130,,
17908711,10,3,100,,50,17908711,ALAMO GAS PLANT,FROM CROCKETT GO W ON TX 7 FOR APPROX 4 MI TURN L ONTO CR 3020 SITE IS APPROX 0.25 MI DOWN ON R,CROCKETT,TX,75835,31.295236,-95.517128,Houston,211130,,
17908711,,,,,,17908711,ALAMO GAS PLANT,FROM CROCKETT GO W ON TX 7 FOR APPROX 4 MI TURN L ONTO CR 3020 SITE IS APPROX 0.25 MI DOWN ON R,CROCKETT,TX,75835,31.295236,-95.517128,Houston,211130,,
17908711,50,.2,530,0.1,3.1818,17908711,ALAMO GAS PLANT,FROM CROCKETT GO W ON TX 7 FOR APPROX 4 MI TURN L ONTO CR 3020 SITE IS APPROX 0.25 MI DOWN ON R,CROCKETT,TX,75835,31.295236,-95.517128,Houston,211130,,
17908711,30,1,530,0.025,.0318,17908711,ALAMO GAS PLANT,FROM CROCKETT GO W ON TX 7 FOR APPROX 4 MI TURN L ONTO CR 3020 SITE IS APPROX 0.25 MI DOWN ON R,CROCKETT,TX,75835,31.295236,-95.517128,Houston,211130,,
17908711,40,2.5,856,,109,17908711,ALAMO GAS PLANT,FROM CROCKETT GO W ON TX 7 FOR APPROX 4 MI TURN L ONTO CR 3020 SITE IS APPROX 0.25 MI DOWN ON R,CROCKETT,TX,75835,31.295236,-95.517128,Houston,211130,,
17909611,57,4.83,413,,11.5,17909611,PANTHER GAS PLANT,"FROM ODESSA, TRAVEL SOUTHEAST ON US-385 FOR APPROXIMATELY 12 MILES. TURN LEFT ONTO FM1787 AND TRAVEL",RANKIN,TX,75835,31.6404,-102.193694,Upton,211130,,
17909611,25,1,413,,11.5,17909611,PANTHER GAS PLANT,"FROM ODESSA, TRAVEL SOUTHEAST ON US-385 FOR APPROXIMATELY 12 MILES. TURN LEFT ONTO FM1787 AND TRAVEL",RANKIN,TX,75835,31.6404,-102.193694,Upton,211130,,
17909611,50,2,200,,15,17909611,PANTHER GAS PLANT,"FROM ODESSA, TRAVEL SOUTHEAST ON US-385 FOR APPROXIMATELY 12 MILES. TURN LEFT ONTO FM1787 AND TRAVEL",RANKIN,TX,75835,31.6404,-102.193694,Upton,211130,,
17909611,,,,,,17909611,PANTHER GAS PLANT,"FROM ODESSA, TRAVEL SOUTHEAST ON US-385 FOR APPROXIMATELY 12 MILES. TURN LEFT ONTO FM1787 AND TRAVEL",RANKIN,TX,75835,31.6404,-102.193694,Upton,211130,,
17909611,40,2.5,856,,109,17909611,PANTHER GAS PLANT,"FROM ODESSA, TRAVEL SOUTHEAST ON US-385 FOR APPROXIMATELY 12 MILES. TURN LEFT ONTO FM1787 AND TRAVEL",RANKIN,TX,75835,31.6404,-102.193694,Upton,211130,,
17909611,100,.5,2300,1.6666,8.488,17909611,PANTHER GAS PLANT,"FROM ODESSA, TRAVEL SOUTHEAST ON US-385 FOR APPROXIMATELY 12 MILES. TURN LEFT ONTO FM1787 AND TRAVEL",RANKIN,TX,75835,31.6404,-102.193694,Upton,211130,,
17909611,58,7,1600,,60,17909611,PANTHER GAS PLANT,"FROM ODESSA, TRAVEL SOUTHEAST ON US-385 FOR APPROXIMATELY 12 MILES. TURN LEFT ONTO FM1787 AND TRAVEL",RANKIN,TX,75835,31.6404,-102.193694,Upton,211130,,
17976111,,,,,,17976111,NEWBERRY GAS PLANT,"FROM THE INT OF I-20 AND HWY 158 IN MIDLAND, GO SE APPROX. 13 MILES ON HWY 158, THEN GO S ON 1379 FO",MIDLAND,TX,79706,31.851964,-101.77555,Midland,211130,,
17976111,15,3,750,,23.58,17976111,NEWBERRY GAS PLANT,"FROM THE INT OF I-20 AND HWY 158 IN MIDLAND, GO SE APPROX. 13 MILES ON HWY 158, THEN GO S ON 1379 FO",MIDLAND,TX,79706,31.851964,-101.77555,Midland,211130,,
17976111,25,3,750,,23.58,17976111,NEWBERRY GAS PLANT,"FROM THE INT OF I-20 AND HWY 158 IN MIDLAND, GO SE APPROX. 13 MILES ON HWY 158, THEN GO S ON 1379 FO",MIDLAND,TX,79706,31.851964,-101.77555,Midland,211130,,
17976111,75,1.13,1000,2.0,1.9934,17976111,NEWBERRY GAS PLANT,"FROM THE INT OF I-20 AND HWY 158 IN MIDLAND, GO SE APPROX. 13 MILES ON HWY 158, THEN GO S ON 1379 FO",MIDLAND,TX,79706,31.851964,-101.77555,Midland,211130,,
17976111,20,1,847,,25.75,17976111,NEWBERRY GAS PLANT,"FROM THE INT OF I-20 AND HWY 158 IN MIDLAND, GO SE APPROX. 13 MILES ON HWY 158, THEN GO S ON 1379 FO",MIDLAND,TX,79706,31.851964,-101.77555,Midland,211130,,
17976111,20,1,847,,257.75,17976111,NEWBERRY GAS PLANT,"FROM THE INT OF I-20 AND HWY 158 IN MIDLAND, GO SE APPROX. 13 MILES ON HWY 158, THEN GO S ON 1379 FO",MIDLAND,TX,79706,31.851964,-101.77555,Midland,211130,,
17976111,20,1,992,,193.13,17976111,NEWBERRY GAS PLANT,"FROM THE INT OF I-20 AND HWY 158 IN MIDLAND, GO SE APPROX. 13 MILES ON HWY 158, THEN GO S ON 1379 FO",MIDLAND,TX,79706,31.851964,-101.77555,Midland,211130,,
17976111,30,3,600,,30.18,17976111,NEWBERRY GAS PLANT,"FROM THE INT OF I-20 AND HWY 158 IN MIDLAND, GO SE APPROX. 13 MILES ON HWY 158, THEN GO S ON 1379 FO",MIDLAND,TX,79706,31.851964,-101.77555,Midland,211130,,
17976111,25,3,600,83.3333,11.7845,17976111,NEWBERRY GAS PLANT,"FROM THE INT OF I-20 AND HWY 158 IN MIDLAND, GO SE APPROX. 13 MILES ON HWY 158, THEN GO S ON 1379 FO",MIDLAND,TX,79706,31.851964,-101.77555,Midland,211130,,
17983111,29,1.33,500,,15,17983111,BLACK DIAMOND GAS PLANT,6201 RUFF COUNTRY COURT,GRANBURY,TX,76048,32.479161,-97.898333,Hood,211130,,
17983111,53,.167,72,,52,17983111,BLACK DIAMOND GAS PLANT,6201 RUFF COUNTRY COURT,GRANBURY,TX,76048,32.479161,-97.898333,Hood,211130,,
17983111,29,3.5,1500,,14.29,17983111,BLACK DIAMOND GAS PLANT,6201 RUFF COUNTRY COURT,GRANBURY,TX,76048,32.479161,-97.898333,Hood,211130,,
17983111,,,,,,17983111,BLACK DIAMOND GAS PLANT,6201 RUFF COUNTRY COURT,GRANBURY,TX,76048,32.479161,-97.898333,Hood,211130,,
17983111,24,1.2,867,,186.5,17983111,BLACK DIAMOND GAS PLANT,6201 RUFF COUNTRY COURT,GRANBURY,TX,76048,32.479161,-97.898333,Hood,211130,,
17983111,24,1.2,867,,187,17983111,BLACK DIAMOND GAS PLANT,6201 RUFF COUNTRY COURT,GRANBURY,TX,76048,32.479161,-97.898333,Hood,211130,,
17983111,23,1,840,,135.6,17983111,BLACK DIAMOND GAS PLANT,6201 RUFF COUNTRY COURT,GRANBURY,TX,76048,32.479161,-97.898333,Hood,211130,,
17983111,23,1,840,,136,17983111,BLACK DIAMOND GAS PLANT,6201 RUFF COUNTRY COURT,GRANBURY,TX,76048,32.479161,-97.898333,Hood,211130,,
17983111,8,3,72,,.1,17983111,BLACK DIAMOND GAS PLANT,6201 RUFF COUNTRY COURT,GRANBURY,TX,76048,32.479161,-97.898333,Hood,211130,,
18000111,21,1.33,900,0.2016,.145,18000111,BATTLE RIDGE PLT,0.1 MI W OF N3480/E0740 RD,CUSHING,OK,74023,35.943,-96.804,Payne,211130,,
18000111,,,,,,18000111,BATTLE RIDGE PLT,0.1 MI W OF N3480/E0740 RD,CUSHING,OK,74023,35.943,-96.804,Payne,211130,,
18000111,21,2.67,311,,26.71,18000111,BATTLE RIDGE PLT,0.1 MI W OF N3480/E0740 RD,CUSHING,OK,74023,35.943,-96.804,Payne,211130,,
18000111,25,1,1179,136.8666,174.1939,18000111,BATTLE RIDGE PLT,0.1 MI W OF N3480/E0740 RD,CUSHING,OK,74023,35.943,-96.804,Payne,211130,,
18000111,20,1.33,990,145.2666,104.5196,18000111,BATTLE RIDGE PLT,0.1 MI W OF N3480/E0740 RD,CUSHING,OK,74023,35.943,-96.804,Payne,211130,,
18000111,20,1.33,975,112.2833,80.788,18000111,BATTLE RIDGE PLT,0.1 MI W OF N3480/E0740 RD,CUSHING,OK,74023,35.943,-96.804,Payne,211130,,
18000111,20,1.5,847,202.4333,114.5077,18000111,BATTLE RIDGE PLT,0.1 MI W OF N3480/E0740 RD,CUSHING,OK,74023,35.943,-96.804,Payne,211130,,
18000111,15,1,600,16.6666,21.2,18000111,BATTLE RIDGE PLT,0.1 MI W OF N3480/E0740 RD,CUSHING,OK,74023,35.943,-96.804,Payne,211130,,
18000111,20,1.5,847,202.4333,114.6,18000111,BATTLE RIDGE PLT,0.1 MI W OF N3480/E0740 RD,CUSHING,OK,74023,35.943,-96.804,Payne,211130,,
2567411,23,1,1055,,114.1,2567411,DCP OPERATING CO - LUCERNE,31495 WELD COUNTY ROAD 43,LUCERNE,CO,00000,40.45717,-104.664357,Weld,211130,,
2567411,40,1,1127,,114.1,2567411,DCP OPERATING CO - LUCERNE,31495 WELD COUNTY ROAD 43,LUCERNE,CO,00000,40.45717,-104.664357,Weld,211130,,
2567411,40,1,1055,,114.1,2567411,DCP OPERATING CO - LUCERNE,31495 WELD COUNTY ROAD 43,LUCERNE,CO,00000,40.45717,-104.664357,Weld,211130,,
2567411,45,4,941,,169,2567411,DCP OPERATING CO - LUCERNE,31495 WELD COUNTY ROAD 43,LUCERNE,CO,00000,40.45717,-104.664357,Weld,211130,,
2567411,150,4.5,30,1.5904,.0999,2567411,DCP OPERATING CO - LUCERNE,31495 WELD COUNTY ROAD 43,LUCERNE,CO,00000,40.45717,-104.664357,Weld,211130,,
2567411,40,1,1135,,2.2,2567411,DCP OPERATING CO - LUCERNE,31495 WELD COUNTY ROAD 43,LUCERNE,CO,00000,40.45717,-104.664357,Weld,211130,,
2567411,40,1.33,1127,,38.2,2567411,DCP OPERATING CO - LUCERNE,31495 WELD COUNTY ROAD 43,LUCERNE,CO,00000,40.45717,-104.664357,Weld,211130,,
2567411,37,2,650,,26.2,2567411,DCP OPERATING CO - LUCERNE,31495 WELD COUNTY ROAD 43,LUCERNE,CO,00000,40.45717,-104.664357,Weld,211130,,
2567411,20,4,550,136.9666,10.895,2567411,DCP OPERATING CO - LUCERNE,31495 WELD COUNTY ROAD 43,LUCERNE,CO,00000,40.45717,-104.664357,Weld,211130,,
2567411,,,,,,2567411,DCP OPERATING CO - LUCERNE,31495 WELD COUNTY ROAD 43,LUCERNE,CO,00000,40.45717,-104.664357,Weld,211130,,
2567411,40,5,327,1.9634,.0999,2567411,DCP OPERATING CO - LUCERNE,31495 WELD COUNTY ROAD 43,LUCERNE,CO,00000,40.45717,-104.664357,Weld,211130,,
2567411,19,.1,30,0.0016,.2121,2567411,DCP OPERATING CO - LUCERNE,31495 WELD COUNTY ROAD 43,LUCERNE,CO,00000,40.45717,-104.664357,Weld,211130,,
2567411,16,2,700,,10,2567411,DCP OPERATING CO - LUCERNE,31495 WELD COUNTY ROAD 43,LUCERNE,CO,00000,40.45717,-104.664357,Weld,211130,,
2567411,1,.1,30,0.0016,.2121,2567411,DCP OPERATING CO - LUCERNE,31495 WELD COUNTY ROAD 43,LUCERNE,CO,00000,40.45717,-104.664357,Weld,211130,,
2567411,40,2,400,,23.3,2567411,DCP OPERATING CO - LUCERNE,31495 WELD COUNTY ROAD 43,LUCERNE,CO,00000,40.45717,-104.664357,Weld,211130,,
2670411,107,2.5,600,83.3333,16.98,2670411,Natural Gas Pipeline Co,RR 2 Box 142b,St Elmo,IL,62458,39.10241,-88.859551,Fayette,486210,,
2670411,29,1.35,420,33.0,23.0452,2670411,Natural Gas Pipeline Co,RR 2 Box 142b,St Elmo,IL,62458,39.10241,-88.859551,Fayette,486210,,
2670411,37,1.84,430,55.0,20.6758,2670411,Natural Gas Pipeline Co,RR 2 Box 142b,St Elmo,IL,62458,39.10241,-88.859551,Fayette,486210,,
2670411,30,1.6,77,10.45,5.1953,2670411,Natural Gas Pipeline Co,RR 2 Box 142b,St Elmo,IL,62458,39.10241,-88.859551,Fayette,486210,,
2670411,25,.25,1800,0.9666,19.6848,2670411,Natural Gas Pipeline Co,RR 2 Box 142b,St Elmo,IL,62458,39.10241,-88.859551,Fayette,486210,,
2670411,38,1.8,800,216.6666,85.1103,2670411,Natural Gas Pipeline Co,RR 2 Box 142b,St Elmo,IL,62458,39.10241,-88.859551,Fayette,486210,,
2670411,29,2,750,275.0,87.5,2670411,Natural Gas Pipeline Co,RR 2 Box 142b,St Elmo,IL,62458,39.10241,-88.859551,Fayette,486210,,
2670411,29,1.3,550,97.25,73.2383,2670411,Natural Gas Pipeline Co,RR 2 Box 142b,St Elmo,IL,62458,39.10241,-88.859551,Fayette,486210,,
2670411,38,2.5,600,38.6666,7.8739,2670411,Natural Gas Pipeline Co,RR 2 Box 142b,St Elmo,IL,62458,39.10241,-88.859551,Fayette,486210,,
2670411,31,2.5,600,141.6666,28.8484,2670411,Natural Gas Pipeline Co,RR 2 Box 142b,St Elmo,IL,62458,39.10241,-88.859551,Fayette,486210,,
2670411,49,2,350,147.65,46.9795,2670411,Natural Gas Pipeline Co,RR 2 Box 142b,St Elmo,IL,62458,39.10241,-88.859551,Fayette,486210,,
2670411,60,2.8,600,83.3333,13.5281,2670411,Natural Gas Pipeline Co,RR 2 Box 142b,St Elmo,IL,62458,39.10241,-88.859551,Fayette,486210,,
2670411,41,2,750,158.3333,50.3787,2670411,Natural Gas Pipeline Co,RR 2 Box 142b,St Elmo,IL,62458,39.10241,-88.859551,Fayette,486210,,
2670411,33,2.8,800,55.0,8.9285,2670411,Natural Gas Pipeline Co,RR 2 Box 142b,St Elmo,IL,62458,39.10241,-88.859551,Fayette,486210,,
2670411,46,2.37,1800,182.0,41.2391,2670411,Natural Gas Pipeline Co,RR 2 Box 142b,St Elmo,IL,62458,39.10241,-88.859551,Fayette,486210,,
2670411,25,1.34,425,60.0,42.5282,2670411,Natural Gas Pipeline Co,RR 2 Box 142b,St Elmo,IL,62458,39.10241,-88.859551,Fayette,486210,,
2904911,100,1,60,,99.9,2904911,SHERHAN GAS PLANT,20 M N OF GRUVER ON TX 136,GRUVER,TX,79040,36.492506,-101.466558,Hansford,211130,,
2904911,18,.83,948,,90.76,2904911,SHERHAN GAS PLANT,20 M N OF GRUVER ON TX 136,GRUVER,TX,79040,36.492506,-101.466558,Hansford,211130,,
2904911,18,.83,702,,110.2,2904911,SHERHAN GAS PLANT,20 M N OF GRUVER ON TX 136,GRUVER,TX,79040,36.492506,-101.466558,Hansford,211130,,
2904911,15,.83,948,,90.8,2904911,SHERHAN GAS PLANT,20 M N OF GRUVER ON TX 136,GRUVER,TX,79040,36.492506,-101.466558,Hansford,211130,,
2904911,18,.83,702,,87.2,2904911,SHERHAN GAS PLANT,20 M N OF GRUVER ON TX 136,GRUVER,TX,79040,36.492506,-101.466558,Hansford,211130,,
2904911,12,.83,702,,87.2,2904911,SHERHAN GAS PLANT,20 M N OF GRUVER ON TX 136,GRUVER,TX,79040,36.492506,-101.466558,Hansford,211130,,
2904911,18,.83,702,,134.5,2904911,SHERHAN GAS PLANT,20 M N OF GRUVER ON TX 136,GRUVER,TX,79040,36.492506,-101.466558,Hansford,211130,,
2904911,30,1.5,800,,83.3,2904911,SHERHAN GAS PLANT,20 M N OF GRUVER ON TX 136,GRUVER,TX,79040,36.492506,-101.466558,Hansford,211130,,
2904911,30,.83,800,,116.6,2904911,SHERHAN GAS PLANT,20 M N OF GRUVER ON TX 136,GRUVER,TX,79040,36.492506,-101.466558,Hansford,211130,,
2904911,10,.5,920,,40,2904911,SHERHAN GAS PLANT,20 M N OF GRUVER ON TX 136,GRUVER,TX,79040,36.492506,-101.466558,Hansford,211130,,
2904911,20,3,72,,.1,2904911,SHERHAN GAS PLANT,20 M N OF GRUVER ON TX 136,GRUVER,TX,79040,36.492506,-101.466558,Hansford,211130,,
2904911,,,,,,2904911,SHERHAN GAS PLANT,20 M N OF GRUVER ON TX 136,GRUVER,TX,79040,36.492506,-101.466558,Hansford,211130,,
2904911,15,1.17,702,,12.4,2904911,SHERHAN GAS PLANT,20 M N OF GRUVER ON TX 136,GRUVER,TX,79040,36.492506,-101.466558,Hansford,211130,,
2904911,8,3,70,,.1,2904911,SHERHAN GAS PLANT,20 M N OF GRUVER ON TX 136,GRUVER,TX,79040,36.492506,-101.466558,Hansford,211130,,
2904911,50,4.5,1350,,6.81,2904911,SHERHAN GAS PLANT,20 M N OF GRUVER ON TX 136,GRUVER,TX,79040,36.492506,-101.466558,Hansford,211130,,
2904911,50,3,68,,.1,2904911,SHERHAN GAS PLANT,20 M N OF GRUVER ON TX 136,GRUVER,TX,79040,36.492506,-101.466558,Hansford,211130,,
2904911,25,.83,702,,134.5,2904911,SHERHAN GAS PLANT,20 M N OF GRUVER ON TX 136,GRUVER,TX,79040,36.492506,-101.466558,Hansford,211130,,
2904911,1,.1,30,,.1,2904911,SHERHAN GAS PLANT,20 M N OF GRUVER ON TX 136,GRUVER,TX,79040,36.492506,-101.466558,Hansford,211130,,
2904911,50,2.8,375,,28.89,2904911,SHERHAN GAS PLANT,20 M N OF GRUVER ON TX 136,GRUVER,TX,79040,36.492506,-101.466558,Hansford,211130,,
2904911,50,2.83,360,,28.89,2904911,SHERHAN GAS PLANT,20 M N OF GRUVER ON TX 136,GRUVER,TX,79040,36.492506,-101.466558,Hansford,211130,,
2904911,15,.83,948,,90.76,2904911,SHERHAN GAS PLANT,20 M N OF GRUVER ON TX 136,GRUVER,TX,79040,36.492506,-101.466558,Hansford,211130,,
2904911,30,6,68,,10,2904911,SHERHAN GAS PLANT,20 M N OF GRUVER ON TX 136,GRUVER,TX,79040,36.492506,-101.466558,Hansford,211130,,
2904911,60,3.33,800,,123,2904911,SHERHAN GAS PLANT,20 M N OF GRUVER ON TX 136,GRUVER,TX,79040,36.492506,-101.466558,Hansford,211130,,
2904911,18,.83,702,,68,2904911,SHERHAN GAS PLANT,20 M N OF GRUVER ON TX 136,GRUVER,TX,79040,36.492506,-101.466558,Hansford,211130,,
2904911,18,.83,948,,90.8,2904911,SHERHAN GAS PLANT,20 M N OF GRUVER ON TX 136,GRUVER,TX,79040,36.492506,-101.466558,Hansford,211130,,
2904911,60,2.07,950,3.3333,.99,2904911,SHERHAN GAS PLANT,20 M N OF GRUVER ON TX 136,GRUVER,TX,79040,36.492506,-101.466558,Hansford,211130,,
2904911,17,.67,851,,111.2,2904911,SHERHAN GAS PLANT,20 M N OF GRUVER ON TX 136,GRUVER,TX,79040,36.492506,-101.466558,Hansford,211130,,
4016311,28,1.67,800,,8.84,4016311,SUNRAY PLANT,3 M S OF SUNRAY ON FM 119,SUNRAY,TX,79086,35.973317,-101.827453,Moore,486210,,
4016311,28,1.67,800,,9.86,4016311,SUNRAY PLANT,3 M S OF SUNRAY ON FM 119,SUNRAY,TX,79086,35.973317,-101.827453,Moore,486210,,
4016311,28,1.67,800,,7.73,4016311,SUNRAY PLANT,3 M S OF SUNRAY ON FM 119,SUNRAY,TX,79086,35.973317,-101.827453,Moore,486210,,
4016311,15,.83,650,,43,4016311,SUNRAY PLANT,3 M S OF SUNRAY ON FM 119,SUNRAY,TX,79086,35.973317,-101.827453,Moore,486210,,
4016311,,,,,,4016311,SUNRAY PLANT,3 M S OF SUNRAY ON FM 119,SUNRAY,TX,79086,35.973317,-101.827453,Moore,486210,,
4016311,28,1.67,800,,10.58,4016311,SUNRAY PLANT,3 M S OF SUNRAY ON FM 119,SUNRAY,TX,79086,35.973317,-101.827453,Moore,486210,,
4016311,28,1.67,800,,10.37,4016311,SUNRAY PLANT,3 M S OF SUNRAY ON FM 119,SUNRAY,TX,79086,35.973317,-101.827453,Moore,486210,,
4016311,28,1.67,800,,10.43,4016311,SUNRAY PLANT,3 M S OF SUNRAY ON FM 119,SUNRAY,TX,79086,35.973317,-101.827453,Moore,486210,,
4016311,28,1.67,800,,13.58,4016311,SUNRAY PLANT,3 M S OF SUNRAY ON FM 119,SUNRAY,TX,79086,35.973317,-101.827453,Moore,486210,,
4020811,99,2.5,1000,1.6666,.3393,4020811,LONGVIEW GAS PLANT,2 MI THEN E 0.25 MI,LAKEPORT,TX,75601,32.413319,-94.700617,Gregg,211130,,
4020811,20,1,413,,40,4020811,LONGVIEW GAS PLANT,2 MI THEN E 0.25 MI,LAKEPORT,TX,75601,32.413319,-94.700617,Gregg,211130,,
4020811,15,14.9,95,,72,4020811,LONGVIEW GAS PLANT,2 MI THEN E 0.25 MI,LAKEPORT,TX,75601,32.413319,-94.700617,Gregg,211130,,
4020811,,,,,,4020811,LONGVIEW GAS PLANT,2 MI THEN E 0.25 MI,LAKEPORT,TX,75601,32.413319,-94.700617,Gregg,211130,,
4020811,20,3,70,,.1,4020811,LONGVIEW GAS PLANT,2 MI THEN E 0.25 MI,LAKEPORT,TX,75601,32.413319,-94.700617,Gregg,211130,,
4020811,25,2.5,816,,50,4020811,LONGVIEW GAS PLANT,2 MI THEN E 0.25 MI,LAKEPORT,TX,75601,32.413319,-94.700617,Gregg,211130,,
4020811,25,2.5,400,,20,4020811,LONGVIEW GAS PLANT,2 MI THEN E 0.25 MI,LAKEPORT,TX,75601,32.413319,-94.700617,Gregg,211130,,
4020811,16,2,700,,81,4020811,LONGVIEW GAS PLANT,2 MI THEN E 0.25 MI,LAKEPORT,TX,75601,32.413319,-94.700617,Gregg,211130,,
4020811,15,.67,400,,10,4020811,LONGVIEW GAS PLANT,2 MI THEN E 0.25 MI,LAKEPORT,TX,75601,32.413319,-94.700617,Gregg,211130,,
4020811,15,.33,400,,15,4020811,LONGVIEW GAS PLANT,2 MI THEN E 0.25 MI,LAKEPORT,TX,75601,32.413319,-94.700617,Gregg,211130,,
4031211,150,2,1832,0.3333,.106,4031211,WAHA GAS PLANT,0.5 MI  S OF FM 1450 ON FM 1776 THEN 1 MI W,COYANOSA,TX,79730,31.266867,-103.088267,Pecos,211130,,
4031211,20.2,1,907,,167,4031211,WAHA GAS PLANT,0.5 MI  S OF FM 1450 ON FM 1776 THEN 1 MI W,COYANOSA,TX,79730,31.266867,-103.088267,Pecos,211130,,
4031211,13,1.5,700,,73,4031211,WAHA GAS PLANT,0.5 MI  S OF FM 1450 ON FM 1776 THEN 1 MI W,COYANOSA,TX,79730,31.266867,-103.088267,Pecos,211130,,
4031211,10,.1,70,,.1,4031211,WAHA GAS PLANT,0.5 MI  S OF FM 1450 ON FM 1776 THEN 1 MI W,COYANOSA,TX,79730,31.266867,-103.088267,Pecos,211130,,
4031211,16,3,80,,.1,4031211,WAHA GAS PLANT,0.5 MI  S OF FM 1450 ON FM 1776 THEN 1 MI W,COYANOSA,TX,79730,31.266867,-103.088267,Pecos,211130,,
4031211,25,1.5,867,,21.45,4031211,WAHA GAS PLANT,0.5 MI  S OF FM 1450 ON FM 1776 THEN 1 MI W,COYANOSA,TX,79730,31.266867,-103.088267,Pecos,211130,,
4031211,20,1,907,,167,4031211,WAHA GAS PLANT,0.5 MI  S OF FM 1450 ON FM 1776 THEN 1 MI W,COYANOSA,TX,79730,31.266867,-103.088267,Pecos,211130,,
4031211,100,.833,1500,24.5,44.9377,4031211,WAHA GAS PLANT,0.5 MI  S OF FM 1450 ON FM 1776 THEN 1 MI W,COYANOSA,TX,79730,31.266867,-103.088267,Pecos,211130,,
4031211,12,.33,851,,70,4031211,WAHA GAS PLANT,0.5 MI  S OF FM 1450 ON FM 1776 THEN 1 MI W,COYANOSA,TX,79730,31.266867,-103.088267,Pecos,211130,,
4031211,35,1,700,,95.12,4031211,WAHA GAS PLANT,0.5 MI  S OF FM 1450 ON FM 1776 THEN 1 MI W,COYANOSA,TX,79730,31.266867,-103.088267,Pecos,211130,,
4031211,17,.83,700,,58.2,4031211,WAHA GAS PLANT,0.5 MI  S OF FM 1450 ON FM 1776 THEN 1 MI W,COYANOSA,TX,79730,31.266867,-103.088267,Pecos,211130,,
4031211,20,1.5,550,,1,4031211,WAHA GAS PLANT,0.5 MI  S OF FM 1450 ON FM 1776 THEN 1 MI W,COYANOSA,TX,79730,31.266867,-103.088267,Pecos,211130,,
4031211,26,2.5,850,,78,4031211,WAHA GAS PLANT,0.5 MI  S OF FM 1450 ON FM 1776 THEN 1 MI W,COYANOSA,TX,79730,31.266867,-103.088267,Pecos,211130,,
4031211,,,,,,4031211,WAHA GAS PLANT,0.5 MI  S OF FM 1450 ON FM 1776 THEN 1 MI W,COYANOSA,TX,79730,31.266867,-103.088267,Pecos,211130,,
4031211,23.6,1.5,867,,112,4031211,WAHA GAS PLANT,0.5 MI  S OF FM 1450 ON FM 1776 THEN 1 MI W,COYANOSA,TX,79730,31.266867,-103.088267,Pecos,211130,,
4031211,104,6,800,,6.1,4031211,WAHA GAS PLANT,0.5 MI  S OF FM 1450 ON FM 1776 THEN 1 MI W,COYANOSA,TX,79730,31.266867,-103.088267,Pecos,211130,,
4031211,45,2.5,700,,64,4031211,WAHA GAS PLANT,0.5 MI  S OF FM 1450 ON FM 1776 THEN 1 MI W,COYANOSA,TX,79730,31.266867,-103.088267,Pecos,211130,,
4031211,33,.7,150,,5.06,4031211,WAHA GAS PLANT,0.5 MI  S OF FM 1450 ON FM 1776 THEN 1 MI W,COYANOSA,TX,79730,31.266867,-103.088267,Pecos,211130,,
4031811,,,,,,4031811,COYANOSA COMPRESSOR STATION,7.2 MI S OF FM 1450 ON FM 1776; 1.6 MI E; N 0.5 MI,COYANOSA,TX,79730,31.183131,-103.036703,Pecos,211130,,
4031811,150,1.958,650,2.1666,.7192,4031811,COYANOSA COMPRESSOR STATION,7.2 MI S OF FM 1450 ON FM 1776; 1.6 MI E; N 0.5 MI,COYANOSA,TX,79730,31.183131,-103.036703,Pecos,211130,,
4031811,40,1,750,,70,4031811,COYANOSA COMPRESSOR STATION,7.2 MI S OF FM 1450 ON FM 1776; 1.6 MI E; N 0.5 MI,COYANOSA,TX,79730,31.183131,-103.036703,Pecos,211130,,
4031811,30,1.5,700,,51.18,4031811,COYANOSA COMPRESSOR STATION,7.2 MI S OF FM 1450 ON FM 1776; 1.6 MI E; N 0.5 MI,COYANOSA,TX,79730,31.183131,-103.036703,Pecos,211130,,
4035711,100,1.5,577,,30,4035711,KEYSTONE GAS PLANT,7.4 M E ON FM 874; 0.6 M N ON FM 1218 KERMIT,KERMIT,TX,79745,31.947858,-103.044494,Winkler,211130,,
4035711,26,1,873,,100.2,4035711,KEYSTONE GAS PLANT,7.4 M E ON FM 874; 0.6 M N ON FM 1218 KERMIT,KERMIT,TX,79745,31.947858,-103.044494,Winkler,211130,,
4035711,100,2.5,60,0.005,.001,4035711,KEYSTONE GAS PLANT,7.4 M E ON FM 874; 0.6 M N ON FM 1218 KERMIT,KERMIT,TX,79745,31.947858,-103.044494,Winkler,211130,,
4035711,26,2,650,,64.8,4035711,KEYSTONE GAS PLANT,7.4 M E ON FM 874; 0.6 M N ON FM 1218 KERMIT,KERMIT,TX,79745,31.947858,-103.044494,Winkler,211130,,
4035711,20,1,650,,93.5,4035711,KEYSTONE GAS PLANT,7.4 M E ON FM 874; 0.6 M N ON FM 1218 KERMIT,KERMIT,TX,79745,31.947858,-103.044494,Winkler,211130,,
4035711,15,1.5,630,,14.8,4035711,KEYSTONE GAS PLANT,7.4 M E ON FM 874; 0.6 M N ON FM 1218 KERMIT,KERMIT,TX,79745,31.947858,-103.044494,Winkler,211130,,
4035711,25,1,413,,11.5,4035711,KEYSTONE GAS PLANT,7.4 M E ON FM 874; 0.6 M N ON FM 1218 KERMIT,KERMIT,TX,79745,31.947858,-103.044494,Winkler,211130,,
4035711,100,.8,631,0.1183,.2353,4035711,KEYSTONE GAS PLANT,7.4 M E ON FM 874; 0.6 M N ON FM 1218 KERMIT,KERMIT,TX,79745,31.947858,-103.044494,Winkler,211130,,
4035711,20,1,650,,86.5,4035711,KEYSTONE GAS PLANT,7.4 M E ON FM 874; 0.6 M N ON FM 1218 KERMIT,KERMIT,TX,79745,31.947858,-103.044494,Winkler,211130,,
4035711,20,1,650,,70,4035711,KEYSTONE GAS PLANT,7.4 M E ON FM 874; 0.6 M N ON FM 1218 KERMIT,KERMIT,TX,79745,31.947858,-103.044494,Winkler,211130,,
4035711,10,.5,70,,15,4035711,KEYSTONE GAS PLANT,7.4 M E ON FM 874; 0.6 M N ON FM 1218 KERMIT,KERMIT,TX,79745,31.947858,-103.044494,Winkler,211130,,
4035711,26,2,650,,51.7,4035711,KEYSTONE GAS PLANT,7.4 M E ON FM 874; 0.6 M N ON FM 1218 KERMIT,KERMIT,TX,79745,31.947858,-103.044494,Winkler,211130,,
4035711,61,3,575,,15.8,4035711,KEYSTONE GAS PLANT,7.4 M E ON FM 874; 0.6 M N ON FM 1218 KERMIT,KERMIT,TX,79745,31.947858,-103.044494,Winkler,211130,,
4035711,80,.6,1000,0.0316,.1119,4035711,KEYSTONE GAS PLANT,7.4 M E ON FM 874; 0.6 M N ON FM 1218 KERMIT,KERMIT,TX,79745,31.947858,-103.044494,Winkler,211130,,
4035711,,,,,,4035711,KEYSTONE GAS PLANT,7.4 M E ON FM 874; 0.6 M N ON FM 1218 KERMIT,KERMIT,TX,79745,31.947858,-103.044494,Winkler,211130,,
4035711,20,1.5,575,,.1,4035711,KEYSTONE GAS PLANT,7.4 M E ON FM 874; 0.6 M N ON FM 1218 KERMIT,KERMIT,TX,79745,31.947858,-103.044494,Winkler,211130,,
4179511,15,3,70,,.1,4179511,CONROE COMPRESSOR STATION,12770 KOALSTAD RD,CONROE,TX,77301,30.267375,-95.373761,Montgomery,2111,,
4179511,26,1.65,600,,2.11,4179511,CONROE COMPRESSOR STATION,12770 KOALSTAD RD,CONROE,TX,77301,30.267375,-95.373761,Montgomery,2111,,
4179511,,,,,,4179511,CONROE COMPRESSOR STATION,12770 KOALSTAD RD,CONROE,TX,77301,30.267375,-95.373761,Montgomery,2111,,
4179511,26,1.65,600,,1.4,4179511,CONROE COMPRESSOR STATION,12770 KOALSTAD RD,CONROE,TX,77301,30.267375,-95.373761,Montgomery,2111,,
4179511,25,.5,1000,0.1666,.8484,4179511,CONROE COMPRESSOR STATION,12770 KOALSTAD RD,CONROE,TX,77301,30.267375,-95.373761,Montgomery,2111,,
4179511,35,.5,1000,0.1666,.8484,4179511,CONROE COMPRESSOR STATION,12770 KOALSTAD RD,CONROE,TX,77301,30.267375,-95.373761,Montgomery,2111,,
4179511,23,1,70,,20,4179511,CONROE COMPRESSOR STATION,12770 KOALSTAD RD,CONROE,TX,77301,30.267375,-95.373761,Montgomery,2111,,
4179511,23,1,985,,192.49,4179511,CONROE COMPRESSOR STATION,12770 KOALSTAD RD,CONROE,TX,77301,30.267375,-95.373761,Montgomery,2111,,
4179511,10,.5,450,,5.24,4179511,CONROE COMPRESSOR STATION,12770 KOALSTAD RD,CONROE,TX,77301,30.267375,-95.373761,Montgomery,2111,,
4179511,26,1.67,600,,3.78,4179511,CONROE COMPRESSOR STATION,12770 KOALSTAD RD,CONROE,TX,77301,30.267375,-95.373761,Montgomery,2111,,
4179511,19,1,650,,5.99,4179511,CONROE COMPRESSOR STATION,12770 KOALSTAD RD,CONROE,TX,77301,30.267375,-95.373761,Montgomery,2111,,
4242011,119,6.2,500,,12.8,4242011,BARGATH LLC - PARACHUTE,N/2 NE SEC 33 T6S R96W,PARACHUTE 2.9 MI. NW OF,CO,81635,39.488589,-108.113294,Garfield,211130,,
4242011,25,1.5,858,,112.1,4242011,BARGATH LLC - PARACHUTE,N/2 NE SEC 33 T6S R96W,PARACHUTE 2.9 MI. NW OF,CO,81635,39.488589,-108.113294,Garfield,211130,,
4242011,25,1.42,858,,125.1,4242011,BARGATH LLC - PARACHUTE,N/2 NE SEC 33 T6S R96W,PARACHUTE 2.9 MI. NW OF,CO,81635,39.488589,-108.113294,Garfield,211130,,
4242011,24,1.42,482,,64.2,4242011,BARGATH LLC - PARACHUTE,N/2 NE SEC 33 T6S R96W,PARACHUTE 2.9 MI. NW OF,CO,81635,39.488589,-108.113294,Garfield,211130,,
4242011,23,1.17,435,,44.9,4242011,BARGATH LLC - PARACHUTE,N/2 NE SEC 33 T6S R96W,PARACHUTE 2.9 MI. NW OF,CO,81635,39.488589,-108.113294,Garfield,211130,,
4242011,,,,,,4242011,BARGATH LLC - PARACHUTE,N/2 NE SEC 33 T6S R96W,PARACHUTE 2.9 MI. NW OF,CO,81635,39.488589,-108.113294,Garfield,211130,,
4242011,23,1,855,,163,4242011,BARGATH LLC - PARACHUTE,N/2 NE SEC 33 T6S R96W,PARACHUTE 2.9 MI. NW OF,CO,81635,39.488589,-108.113294,Garfield,211130,,
4242011,108,6.25,500,,12.8,4242011,BARGATH LLC - PARACHUTE,N/2 NE SEC 33 T6S R96W,PARACHUTE 2.9 MI. NW OF,CO,81635,39.488589,-108.113294,Garfield,211130,,
4242011,28,1.5,858,,112.1,4242011,BARGATH LLC - PARACHUTE,N/2 NE SEC 33 T6S R96W,PARACHUTE 2.9 MI. NW OF,CO,81635,39.488589,-108.113294,Garfield,211130,,
4242011,83,1.5,1832,,65.6,4242011,BARGATH LLC - PARACHUTE,N/2 NE SEC 33 T6S R96W,PARACHUTE 2.9 MI. NW OF,CO,81635,39.488589,-108.113294,Garfield,211130,,
4242011,123,1.17,1000,,9.5,4242011,BARGATH LLC - PARACHUTE,N/2 NE SEC 33 T6S R96W,PARACHUTE 2.9 MI. NW OF,CO,81635,39.488589,-108.113294,Garfield,211130,,
4242011,21,3.08,500,,20.2,4242011,BARGATH LLC - PARACHUTE,N/2 NE SEC 33 T6S R96W,PARACHUTE 2.9 MI. NW OF,CO,81635,39.488589,-108.113294,Garfield,211130,,
4242011,75,3,1600,,26.2,4242011,BARGATH LLC - PARACHUTE,N/2 NE SEC 33 T6S R96W,PARACHUTE 2.9 MI. NW OF,CO,81635,39.488589,-108.113294,Garfield,211130,,
4242011,21,6.08,500,,10.8,4242011,BARGATH LLC - PARACHUTE,N/2 NE SEC 33 T6S R96W,PARACHUTE 2.9 MI. NW OF,CO,81635,39.488589,-108.113294,Garfield,211130,,
4242011,75,4,355,,17.9,4242011,BARGATH LLC - PARACHUTE,N/2 NE SEC 33 T6S R96W,PARACHUTE 2.9 MI. NW OF,CO,81635,39.488589,-108.113294,Garfield,211130,,
4242011,12,.62,350,,7.2,4242011,BARGATH LLC - PARACHUTE,N/2 NE SEC 33 T6S R96W,PARACHUTE 2.9 MI. NW OF,CO,81635,39.488589,-108.113294,Garfield,211130,,
4242011,75,3,355,,26.2,4242011,BARGATH LLC - PARACHUTE,N/2 NE SEC 33 T6S R96W,PARACHUTE 2.9 MI. NW OF,CO,81635,39.488589,-108.113294,Garfield,211130,,
4242011,139,9.75,1832,,65.6,4242011,BARGATH LLC - PARACHUTE,N/2 NE SEC 33 T6S R96W,PARACHUTE 2.9 MI. NW OF,CO,81635,39.488589,-108.113294,Garfield,211130,,
453811,2.5,22,425,141.6666,.3725,453811,AERA ENERGY LLC,BELRIDGE GAS PLANT,Placeholder,CA,00000,35.45138,-119.71929,Kern,211130,,
453811,,,,,,453811,AERA ENERGY LLC,BELRIDGE GAS PLANT,Placeholder,CA,00000,35.45138,-119.71929,Kern,211130,,
4786511,160,2.5,30,,.1,4786511,Lost Cabin Gas Plant,"11,38N,90W",Fremont,WY,82520,43.27761,-107.60075,Fremont,2111,,
4786511,25,4,826,1413.0666,112.45,4786511,Lost Cabin Gas Plant,"11,38N,90W",Fremont,WY,82520,43.27761,-107.60075,Fremont,2111,,
4786511,75,3,350,1473.3,208.43,4786511,Lost Cabin Gas Plant,"11,38N,90W",Fremont,WY,82520,43.27761,-107.60075,Fremont,2111,,
4786511,35,2.5,350,134.65,27.43,4786511,Lost Cabin Gas Plant,"11,38N,90W",Fremont,WY,82520,43.27761,-107.60075,Fremont,2111,,
4786511,13.2,.13,1150,7.7333,582.63,4786511,Lost Cabin Gas Plant,"11,38N,90W",Fremont,WY,82520,43.27761,-107.60075,Fremont,2111,,
4786511,8.2,.33,976,8.2288,96.21,4786511,Lost Cabin Gas Plant,"11,38N,90W",Fremont,WY,82520,43.27761,-107.60075,Fremont,2111,,
4786511,9.8,.5,873,18.9833,96.66,4786511,Lost Cabin Gas Plant,"11,38N,90W",Fremont,WY,82520,43.27761,-107.60075,Fremont,2111,,
4786511,125,3.5,1000,972.7666,101.11,4786511,Lost Cabin Gas Plant,"11,38N,90W",Fremont,WY,82520,43.27761,-107.60075,Fremont,2111,,
4786511,200,1.75,385,271.8,113,4786511,Lost Cabin Gas Plant,"11,38N,90W",Fremont,WY,82520,43.27761,-107.60075,Fremont,2111,,
4786511,160,2.5,1832,322.1,65.62,4786511,Lost Cabin Gas Plant,"11,38N,90W",Fremont,WY,82520,43.27761,-107.60075,Fremont,2111,,
4786511,19.7,.83,944,134.6666,246.91,4786511,Lost Cabin Gas Plant,"11,38N,90W",Fremont,WY,82520,43.27761,-107.60075,Fremont,2111,,
4786511,35,.83,266,3.8166,6.99,4786511,Lost Cabin Gas Plant,"11,38N,90W",Fremont,WY,82520,43.27761,-107.60075,Fremont,2111,,
4786511,200,6,1000,3659.75,129.44,4786511,Lost Cabin Gas Plant,"11,38N,90W",Fremont,WY,82520,43.27761,-107.60075,Fremont,2111,,
4786511,213,3,385,798.75,113,4786511,Lost Cabin Gas Plant,"11,38N,90W",Fremont,WY,82520,43.27761,-107.60075,Fremont,2111,,
4786511,190,4,1832,824.5666,65.62,4786511,Lost Cabin Gas Plant,"11,38N,90W",Fremont,WY,82520,43.27761,-107.60075,Fremont,2111,,
4786511,60,2.58,1500,154.9556,29.64,4786511,Lost Cabin Gas Plant,"11,38N,90W",Fremont,WY,82520,43.27761,-107.60075,Fremont,2111,,
4786511,,,,,,4786511,Lost Cabin Gas Plant,"11,38N,90W",Fremont,WY,82520,43.27761,-107.60075,Fremont,2111,,
4861811,55,.5,100,,33.5,4861811,TRINIDAD GAS PLANT,0.25 MI W OF FM 1667,TRINIDAD,TX,75163,32.127506,-96.085517,Henderson,211130,,
4861811,30,1.33,80,,20,4861811,TRINIDAD GAS PLANT,0.25 MI W OF FM 1667,TRINIDAD,TX,75163,32.127506,-96.085517,Henderson,211130,,
4861811,15,10,70,,.1,4861811,TRINIDAD GAS PLANT,0.25 MI W OF FM 1667,TRINIDAD,TX,75163,32.127506,-96.085517,Henderson,211130,,
4861811,30,1.33,95,,72,4861811,TRINIDAD GAS PLANT,0.25 MI W OF FM 1667,TRINIDAD,TX,75163,32.127506,-96.085517,Henderson,211130,,
4861811,27,1.96,413,,12,4861811,TRINIDAD GAS PLANT,0.25 MI W OF FM 1667,TRINIDAD,TX,75163,32.127506,-96.085517,Henderson,211130,,
4861811,15,.17,90,,20,4861811,TRINIDAD GAS PLANT,0.25 MI W OF FM 1667,TRINIDAD,TX,75163,32.127506,-96.085517,Henderson,211130,,
4861811,,,,,,4861811,TRINIDAD GAS PLANT,0.25 MI W OF FM 1667,TRINIDAD,TX,75163,32.127506,-96.085517,Henderson,211130,,
4861811,80,1,1832,2.8333,3.606,4861811,TRINIDAD GAS PLANT,0.25 MI W OF FM 1667,TRINIDAD,TX,75163,32.127506,-96.085517,Henderson,211130,,
4861811,33,4.26,466,,40,4861811,TRINIDAD GAS PLANT,0.25 MI W OF FM 1667,TRINIDAD,TX,75163,32.127506,-96.085517,Henderson,211130,,
4861811,3,3,66,,.1,4861811,TRINIDAD GAS PLANT,0.25 MI W OF FM 1667,TRINIDAD,TX,75163,32.127506,-96.085517,Henderson,211130,,
4861811,15,3,68,,.1,4861811,TRINIDAD GAS PLANT,0.25 MI W OF FM 1667,TRINIDAD,TX,75163,32.127506,-96.085517,Henderson,211130,,
4861811,19,.83,854,,137,4861811,TRINIDAD GAS PLANT,0.25 MI W OF FM 1667,TRINIDAD,TX,75163,32.127506,-96.085517,Henderson,211130,,
4861811,40,3.5,1000,,23.05,4861811,TRINIDAD GAS PLANT,0.25 MI W OF FM 1667,TRINIDAD,TX,75163,32.127506,-96.085517,Henderson,211130,,
4898411,215,3.17,900,,9.75,4898411,FULLERTON GAS PLANT,5 M N OF THE INTX OF HWYS 181 & 176,ANDREWS,TX,79714,32.428333,-102.806853,Andrews,211130,,
4898411,15,.67,702,,173,4898411,FULLERTON GAS PLANT,5 M N OF THE INTX OF HWYS 181 & 176,ANDREWS,TX,79714,32.428333,-102.806853,Andrews,211130,,
4898411,16,3,77,,.1,4898411,FULLERTON GAS PLANT,5 M N OF THE INTX OF HWYS 181 & 176,ANDREWS,TX,79714,32.428333,-102.806853,Andrews,211130,,
4898411,,,,,,4898411,FULLERTON GAS PLANT,5 M N OF THE INTX OF HWYS 181 & 176,ANDREWS,TX,79714,32.428333,-102.806853,Andrews,211130,,
4898411,10,3,68,,.1,4898411,FULLERTON GAS PLANT,5 M N OF THE INTX OF HWYS 181 & 176,ANDREWS,TX,79714,32.428333,-102.806853,Andrews,211130,,
4898411,16,3,70,,.1,4898411,FULLERTON GAS PLANT,5 M N OF THE INTX OF HWYS 181 & 176,ANDREWS,TX,79714,32.428333,-102.806853,Andrews,211130,,
4898411,20,3.66,575,,39.9,4898411,FULLERTON GAS PLANT,5 M N OF THE INTX OF HWYS 181 & 176,ANDREWS,TX,79714,32.428333,-102.806853,Andrews,211130,,
4898411,24,3,72,,.1,4898411,FULLERTON GAS PLANT,5 M N OF THE INTX OF HWYS 181 & 176,ANDREWS,TX,79714,32.428333,-102.806853,Andrews,211130,,
4898411,16,3,68,,.1,4898411,FULLERTON GAS PLANT,5 M N OF THE INTX OF HWYS 181 & 176,ANDREWS,TX,79714,32.428333,-102.806853,Andrews,211130,,
4898411,20,.67,952,,148,4898411,FULLERTON GAS PLANT,5 M N OF THE INTX OF HWYS 181 & 176,ANDREWS,TX,79714,32.428333,-102.806853,Andrews,211130,,
4898411,19,1,855,,163,4898411,FULLERTON GAS PLANT,5 M N OF THE INTX OF HWYS 181 & 176,ANDREWS,TX,79714,32.428333,-102.806853,Andrews,211130,,
4898411,15,3,70,,.1,4898411,FULLERTON GAS PLANT,5 M N OF THE INTX OF HWYS 181 & 176,ANDREWS,TX,79714,32.428333,-102.806853,Andrews,211130,,
4898411,27,5,400,,40,4898411,FULLERTON GAS PLANT,5 M N OF THE INTX OF HWYS 181 & 176,ANDREWS,TX,79714,32.428333,-102.806853,Andrews,211130,,
4898411,22,.83,212,,10,4898411,FULLERTON GAS PLANT,5 M N OF THE INTX OF HWYS 181 & 176,ANDREWS,TX,79714,32.428333,-102.806853,Andrews,211130,,
4898411,20,.67,1000,,140.69,4898411,FULLERTON GAS PLANT,5 M N OF THE INTX OF HWYS 181 & 176,ANDREWS,TX,79714,32.428333,-102.806853,Andrews,211130,,
4898411,15,.83,550,,38.5,4898411,FULLERTON GAS PLANT,5 M N OF THE INTX OF HWYS 181 & 176,ANDREWS,TX,79714,32.428333,-102.806853,Andrews,211130,,
4898411,30,.83,550,,40.6,4898411,FULLERTON GAS PLANT,5 M N OF THE INTX OF HWYS 181 & 176,ANDREWS,TX,79714,32.428333,-102.806853,Andrews,211130,,
4898411,10,3,72,,.1,4898411,FULLERTON GAS PLANT,5 M N OF THE INTX OF HWYS 181 & 176,ANDREWS,TX,79714,32.428333,-102.806853,Andrews,211130,,
4898411,60,.25,900,2.0166,41.083,4898411,FULLERTON GAS PLANT,5 M N OF THE INTX OF HWYS 181 & 176,ANDREWS,TX,79714,32.428333,-102.806853,Andrews,211130,,
4898411,20,1,700,,82,4898411,FULLERTON GAS PLANT,5 M N OF THE INTX OF HWYS 181 & 176,ANDREWS,TX,79714,32.428333,-102.806853,Andrews,211130,,
4898411,20,.5,550,,38.5,4898411,FULLERTON GAS PLANT,5 M N OF THE INTX OF HWYS 181 & 176,ANDREWS,TX,79714,32.428333,-102.806853,Andrews,211130,,
4898411,20,.67,1000,,38.5,4898411,FULLERTON GAS PLANT,5 M N OF THE INTX OF HWYS 181 & 176,ANDREWS,TX,79714,32.428333,-102.806853,Andrews,211130,,
4898411,30,.83,550,,38.5,4898411,FULLERTON GAS PLANT,5 M N OF THE INTX OF HWYS 181 & 176,ANDREWS,TX,79714,32.428333,-102.806853,Andrews,211130,,
4898411,20,2,500,,5.1,4898411,FULLERTON GAS PLANT,5 M N OF THE INTX OF HWYS 181 & 176,ANDREWS,TX,79714,32.428333,-102.806853,Andrews,211130,,
4898411,24,2,675,,38.5,4898411,FULLERTON GAS PLANT,5 M N OF THE INTX OF HWYS 181 & 176,ANDREWS,TX,79714,32.428333,-102.806853,Andrews,211130,,
4898411,75,4,750,,11.5,4898411,FULLERTON GAS PLANT,5 M N OF THE INTX OF HWYS 181 & 176,ANDREWS,TX,79714,32.428333,-102.806853,Andrews,211130,,
4898411,60,3,1000,55.0,7.7777,4898411,FULLERTON GAS PLANT,5 M N OF THE INTX OF HWYS 181 & 176,ANDREWS,TX,79714,32.428333,-102.806853,Andrews,211130,,
4898411,50,.83,702,,118.55,4898411,FULLERTON GAS PLANT,5 M N OF THE INTX OF HWYS 181 & 176,ANDREWS,TX,79714,32.428333,-102.806853,Andrews,211130,,
4898411,25,1.17,702,,108,4898411,FULLERTON GAS PLANT,5 M N OF THE INTX OF HWYS 181 & 176,ANDREWS,TX,79714,32.428333,-102.806853,Andrews,211130,,
4899711,150,7,1000,5.0,.1298,4899711,SEMINOLE GAS PROCESSING PLANT,3.5 MI NW ON SH 214,SEMINOLE,TX,79360,32.757525,-102.682208,Gaines,211130,,
4899711,100,1.44,530,,50,4899711,SEMINOLE GAS PROCESSING PLANT,3.5 MI NW ON SH 214,SEMINOLE,TX,79360,32.757525,-102.682208,Gaines,211130,,
4899711,80,8,350,,50,4899711,SEMINOLE GAS PROCESSING PLANT,3.5 MI NW ON SH 214,SEMINOLE,TX,79360,32.757525,-102.682208,Gaines,211130,,
4899711,,,,,,4899711,SEMINOLE GAS PROCESSING PLANT,3.5 MI NW ON SH 214,SEMINOLE,TX,79360,32.757525,-102.682208,Gaines,211130,,
4899711,75,3.17,265,,37.5,4899711,SEMINOLE GAS PROCESSING PLANT,3.5 MI NW ON SH 214,SEMINOLE,TX,79360,32.757525,-102.682208,Gaines,211130,,
4899711,70,3.5,350,,70,4899711,SEMINOLE GAS PROCESSING PLANT,3.5 MI NW ON SH 214,SEMINOLE,TX,79360,32.757525,-102.682208,Gaines,211130,,
4899711,40,1.67,1200,0.01,.0045,4899711,SEMINOLE GAS PROCESSING PLANT,3.5 MI NW ON SH 214,SEMINOLE,TX,79360,32.757525,-102.682208,Gaines,211130,,
4899711,70,3.5,350,,78,4899711,SEMINOLE GAS PROCESSING PLANT,3.5 MI NW ON SH 214,SEMINOLE,TX,79360,32.757525,-102.682208,Gaines,211130,,
4899711,150,6,1000,5.0,.1767,4899711,SEMINOLE GAS PROCESSING PLANT,3.5 MI NW ON SH 214,SEMINOLE,TX,79360,32.757525,-102.682208,Gaines,211130,,
4899711,37,3.5,350,,.1,4899711,SEMINOLE GAS PROCESSING PLANT,3.5 MI NW ON SH 214,SEMINOLE,TX,79360,32.757525,-102.682208,Gaines,211130,,
4899711,50,32,75,,25,4899711,SEMINOLE GAS PROCESSING PLANT,3.5 MI NW ON SH 214,SEMINOLE,TX,79360,32.757525,-102.682208,Gaines,211130,,
4914711,104,1,1831,32.3333,41.1515,4914711,GIDDINGS PLANT,3002 FM 448,LA GRANGE,TX,78945,30.035369,-96.988103,Fayette,211130,,
4914711,75,3.5,600,,99,4914711,GIDDINGS PLANT,3002 FM 448,LA GRANGE,TX,78945,30.035369,-96.988103,Fayette,211130,,
4914711,,,,,,4914711,GIDDINGS PLANT,3002 FM 448,LA GRANGE,TX,78945,30.035369,-96.988103,Fayette,211130,,
4914711,22,2,775,,33.6,4914711,GIDDINGS PLANT,3002 FM 448,LA GRANGE,TX,78945,30.035369,-96.988103,Fayette,211130,,
4914711,20,1,100,,15,4914711,GIDDINGS PLANT,3002 FM 448,LA GRANGE,TX,78945,30.035369,-96.988103,Fayette,211130,,
4914711,10,1,72,,.1,4914711,GIDDINGS PLANT,3002 FM 448,LA GRANGE,TX,78945,30.035369,-96.988103,Fayette,211130,,
4914711,75,1.33,60,,10,4914711,GIDDINGS PLANT,3002 FM 448,LA GRANGE,TX,78945,30.035369,-96.988103,Fayette,211130,,
4914711,28,1.67,930,,50,4914711,GIDDINGS PLANT,3002 FM 448,LA GRANGE,TX,78945,30.035369,-96.988103,Fayette,211130,,
4914711,5,3,69,,.1,4914711,GIDDINGS PLANT,3002 FM 448,LA GRANGE,TX,78945,30.035369,-96.988103,Fayette,211130,,
4914711,4,3,69,,.1,4914711,GIDDINGS PLANT,3002 FM 448,LA GRANGE,TX,78945,30.035369,-96.988103,Fayette,211130,,
4914711,15,3,69,,.1,4914711,GIDDINGS PLANT,3002 FM 448,LA GRANGE,TX,78945,30.035369,-96.988103,Fayette,211130,,
4914711,20,3,68,,.1,4914711,GIDDINGS PLANT,3002 FM 448,LA GRANGE,TX,78945,30.035369,-96.988103,Fayette,211130,,
4914711,20,3,69,,.1,4914711,GIDDINGS PLANT,3002 FM 448,LA GRANGE,TX,78945,30.035369,-96.988103,Fayette,211130,,
4914711,75,1.33,700,,103,4914711,GIDDINGS PLANT,3002 FM 448,LA GRANGE,TX,78945,30.035369,-96.988103,Fayette,211130,,
4914711,75,1.5,700,,81,4914711,GIDDINGS PLANT,3002 FM 448,LA GRANGE,TX,78945,30.035369,-96.988103,Fayette,211130,,
4914711,40,1.5,595,,26,4914711,GIDDINGS PLANT,3002 FM 448,LA GRANGE,TX,78945,30.035369,-96.988103,Fayette,211130,,
4914711,25,.67,80,,.1,4914711,GIDDINGS PLANT,3002 FM 448,LA GRANGE,TX,78945,30.035369,-96.988103,Fayette,211130,,
4914711,75,1,800,,44.7,4914711,GIDDINGS PLANT,3002 FM 448,LA GRANGE,TX,78945,30.035369,-96.988103,Fayette,211130,,
4914711,79,2.83,720,,50,4914711,GIDDINGS PLANT,3002 FM 448,LA GRANGE,TX,78945,30.035369,-96.988103,Fayette,211130,,
4914711,10,3,69,,.1,4914711,GIDDINGS PLANT,3002 FM 448,LA GRANGE,TX,78945,30.035369,-96.988103,Fayette,211130,,
4914711,15,3,68,,.1,4914711,GIDDINGS PLANT,3002 FM 448,LA GRANGE,TX,78945,30.035369,-96.988103,Fayette,211130,,
4914711,20,3,77,,.1,4914711,GIDDINGS PLANT,3002 FM 448,LA GRANGE,TX,78945,30.035369,-96.988103,Fayette,211130,,
4914711,77,4.5,380,,24.65,4914711,GIDDINGS PLANT,3002 FM 448,LA GRANGE,TX,78945,30.035369,-96.988103,Fayette,211130,,
4914711,28,1,930,,50,4914711,GIDDINGS PLANT,3002 FM 448,LA GRANGE,TX,78945,30.035369,-96.988103,Fayette,211130,,
4914711,75,1.5,702,,81,4914711,GIDDINGS PLANT,3002 FM 448,LA GRANGE,TX,78945,30.035369,-96.988103,Fayette,211130,,
5022711,100,3.5,70,,48.12,5022711,TERRELL GAS PLANT,FROM THE INTERSECTION OF SH 349 AND FM 3166 GO 3 MILES ON FM RD 3166 TO SITE,SHEFFIELD,TX,79781,30.372189,-101.844536,Terrell,211130,,
5022711,,,,,,5022711,TERRELL GAS PLANT,FROM THE INTERSECTION OF SH 349 AND FM 3166 GO 3 MILES ON FM RD 3166 TO SITE,SHEFFIELD,TX,79781,30.372189,-101.844536,Terrell,211130,,
5022711,20,.83,700,,71.6,5022711,TERRELL GAS PLANT,FROM THE INTERSECTION OF SH 349 AND FM 3166 GO 3 MILES ON FM RD 3166 TO SITE,SHEFFIELD,TX,79781,30.372189,-101.844536,Terrell,211130,,
5022711,20,.16,700,,50,5022711,TERRELL GAS PLANT,FROM THE INTERSECTION OF SH 349 AND FM 3166 GO 3 MILES ON FM RD 3166 TO SITE,SHEFFIELD,TX,79781,30.372189,-101.844536,Terrell,211130,,
5022711,1,.9,30,,5,5022711,TERRELL GAS PLANT,FROM THE INTERSECTION OF SH 349 AND FM 3166 GO 3 MILES ON FM RD 3166 TO SITE,SHEFFIELD,TX,79781,30.372189,-101.844536,Terrell,211130,,
5022711,45,2.5,839,,82,5022711,TERRELL GAS PLANT,FROM THE INTERSECTION OF SH 349 AND FM 3166 GO 3 MILES ON FM RD 3166 TO SITE,SHEFFIELD,TX,79781,30.372189,-101.844536,Terrell,211130,,
5022711,14,.42,750,,141,5022711,TERRELL GAS PLANT,FROM THE INTERSECTION OF SH 349 AND FM 3166 GO 3 MILES ON FM RD 3166 TO SITE,SHEFFIELD,TX,79781,30.372189,-101.844536,Terrell,211130,,
5022711,21.6,.667,847,,70,5022711,TERRELL GAS PLANT,FROM THE INTERSECTION OF SH 349 AND FM 3166 GO 3 MILES ON FM RD 3166 TO SITE,SHEFFIELD,TX,79781,30.372189,-101.844536,Terrell,211130,,
5022711,20,2,859,,126,5022711,TERRELL GAS PLANT,FROM THE INTERSECTION OF SH 349 AND FM 3166 GO 3 MILES ON FM RD 3166 TO SITE,SHEFFIELD,TX,79781,30.372189,-101.844536,Terrell,211130,,
5022711,18,.667,725,,9,5022711,TERRELL GAS PLANT,FROM THE INTERSECTION OF SH 349 AND FM 3166 GO 3 MILES ON FM RD 3166 TO SITE,SHEFFIELD,TX,79781,30.372189,-101.844536,Terrell,211130,,
5022711,20,1,912,,40,5022711,TERRELL GAS PLANT,FROM THE INTERSECTION OF SH 349 AND FM 3166 GO 3 MILES ON FM RD 3166 TO SITE,SHEFFIELD,TX,79781,30.372189,-101.844536,Terrell,211130,,
5022711,20,2,839,,126,5022711,TERRELL GAS PLANT,FROM THE INTERSECTION OF SH 349 AND FM 3166 GO 3 MILES ON FM RD 3166 TO SITE,SHEFFIELD,TX,79781,30.372189,-101.844536,Terrell,211130,,
5022711,20,1.16,700,,48.79,5022711,TERRELL GAS PLANT,FROM THE INTERSECTION OF SH 349 AND FM 3166 GO 3 MILES ON FM RD 3166 TO SITE,SHEFFIELD,TX,79781,30.372189,-101.844536,Terrell,211130,,
5128711,199,3,1832,0.1666,.0235,5128711,BRIDGEPORT GAS PLANT,3.5 M W OF BRIDGEPORT ON HWY 380,BRIDGEPORT,TX,76426,33.194383,-97.807953,Wise,211130,,
5128711,38,2.5,600,,30,5128711,BRIDGEPORT GAS PLANT,3.5 M W OF BRIDGEPORT ON HWY 380,BRIDGEPORT,TX,76426,33.194383,-97.807953,Wise,211130,,
5128711,20,3,68,,.1,5128711,BRIDGEPORT GAS PLANT,3.5 M W OF BRIDGEPORT ON HWY 380,BRIDGEPORT,TX,76426,33.194383,-97.807953,Wise,211130,,
5128711,25,3.22,500,,9.33,5128711,BRIDGEPORT GAS PLANT,3.5 M W OF BRIDGEPORT ON HWY 380,BRIDGEPORT,TX,76426,33.194383,-97.807953,Wise,211130,,
5128711,25,3,700,,117.9,5128711,BRIDGEPORT GAS PLANT,3.5 M W OF BRIDGEPORT ON HWY 380,BRIDGEPORT,TX,76426,33.194383,-97.807953,Wise,211130,,
5128711,30,4.84,710,,7.93,5128711,BRIDGEPORT GAS PLANT,3.5 M W OF BRIDGEPORT ON HWY 380,BRIDGEPORT,TX,76426,33.194383,-97.807953,Wise,211130,,
5128711,,,,,,5128711,BRIDGEPORT GAS PLANT,3.5 M W OF BRIDGEPORT ON HWY 380,BRIDGEPORT,TX,76426,33.194383,-97.807953,Wise,211130,,
5128711,20,1,842,,126,5128711,BRIDGEPORT GAS PLANT,3.5 M W OF BRIDGEPORT ON HWY 380,BRIDGEPORT,TX,76426,33.194383,-97.807953,Wise,211130,,
5128711,25,1.6,983,,35.2,5128711,BRIDGEPORT GAS PLANT,3.5 M W OF BRIDGEPORT ON HWY 380,BRIDGEPORT,TX,76426,33.194383,-97.807953,Wise,211130,,
5128711,25,3.17,857,,35.5,5128711,BRIDGEPORT GAS PLANT,3.5 M W OF BRIDGEPORT ON HWY 380,BRIDGEPORT,TX,76426,33.194383,-97.807953,Wise,211130,,
5128711,25,1.5,989,,104,5128711,BRIDGEPORT GAS PLANT,3.5 M W OF BRIDGEPORT ON HWY 380,BRIDGEPORT,TX,76426,33.194383,-97.807953,Wise,211130,,
5128711,25,3.17,857,,66.3,5128711,BRIDGEPORT GAS PLANT,3.5 M W OF BRIDGEPORT ON HWY 380,BRIDGEPORT,TX,76426,33.194383,-97.807953,Wise,211130,,
5128711,35,3,838,,45,5128711,BRIDGEPORT GAS PLANT,3.5 M W OF BRIDGEPORT ON HWY 380,BRIDGEPORT,TX,76426,33.194383,-97.807953,Wise,211130,,
5128711,25,2,843,,70,5128711,BRIDGEPORT GAS PLANT,3.5 M W OF BRIDGEPORT ON HWY 380,BRIDGEPORT,TX,76426,33.194383,-97.807953,Wise,211130,,
5128711,3,3,80,,.1,5128711,BRIDGEPORT GAS PLANT,3.5 M W OF BRIDGEPORT ON HWY 380,BRIDGEPORT,TX,76426,33.194383,-97.807953,Wise,211130,,
5128711,100,2,600,0.3333,.106,5128711,BRIDGEPORT GAS PLANT,3.5 M W OF BRIDGEPORT ON HWY 380,BRIDGEPORT,TX,76426,33.194383,-97.807953,Wise,211130,,
5128711,20,3,80,,.1,5128711,BRIDGEPORT GAS PLANT,3.5 M W OF BRIDGEPORT ON HWY 380,BRIDGEPORT,TX,76426,33.194383,-97.807953,Wise,211130,,
5128711,20,1,650,,15,5128711,BRIDGEPORT GAS PLANT,3.5 M W OF BRIDGEPORT ON HWY 380,BRIDGEPORT,TX,76426,33.194383,-97.807953,Wise,211130,,
5128711,35,1.8,858,,79,5128711,BRIDGEPORT GAS PLANT,3.5 M W OF BRIDGEPORT ON HWY 380,BRIDGEPORT,TX,76426,33.194383,-97.807953,Wise,211130,,
5128711,20,1,750,,64,5128711,BRIDGEPORT GAS PLANT,3.5 M W OF BRIDGEPORT ON HWY 380,BRIDGEPORT,TX,76426,33.194383,-97.807953,Wise,211130,,
5128711,20,3.5,443,,85,5128711,BRIDGEPORT GAS PLANT,3.5 M W OF BRIDGEPORT ON HWY 380,BRIDGEPORT,TX,76426,33.194383,-97.807953,Wise,211130,,
5128711,15,3,70,,.1,5128711,BRIDGEPORT GAS PLANT,3.5 M W OF BRIDGEPORT ON HWY 380,BRIDGEPORT,TX,76426,33.194383,-97.807953,Wise,211130,,
5128711,25,3,70,,.1,5128711,BRIDGEPORT GAS PLANT,3.5 M W OF BRIDGEPORT ON HWY 380,BRIDGEPORT,TX,76426,33.194383,-97.807953,Wise,211130,,
5128711,15,3,80,,.1,5128711,BRIDGEPORT GAS PLANT,3.5 M W OF BRIDGEPORT ON HWY 380,BRIDGEPORT,TX,76426,33.194383,-97.807953,Wise,211130,,
5128711,50,8,1400,,18.9,5128711,BRIDGEPORT GAS PLANT,3.5 M W OF BRIDGEPORT ON HWY 380,BRIDGEPORT,TX,76426,33.194383,-97.807953,Wise,211130,,
5128711,35,3,847,,28.3,5128711,BRIDGEPORT GAS PLANT,3.5 M W OF BRIDGEPORT ON HWY 380,BRIDGEPORT,TX,76426,33.194383,-97.807953,Wise,211130,,
5128711,70,6.25,560,,15,5128711,BRIDGEPORT GAS PLANT,3.5 M W OF BRIDGEPORT ON HWY 380,BRIDGEPORT,TX,76426,33.194383,-97.807953,Wise,211130,,
5128711,110,1.33,600,0.0016,.0011,5128711,BRIDGEPORT GAS PLANT,3.5 M W OF BRIDGEPORT ON HWY 380,BRIDGEPORT,TX,76426,33.194383,-97.807953,Wise,211130,,
5128711,25,2,990,,61,5128711,BRIDGEPORT GAS PLANT,3.5 M W OF BRIDGEPORT ON HWY 380,BRIDGEPORT,TX,76426,33.194383,-97.807953,Wise,211130,,
5128711,40,2.5,814,,28.4,5128711,BRIDGEPORT GAS PLANT,3.5 M W OF BRIDGEPORT ON HWY 380,BRIDGEPORT,TX,76426,33.194383,-97.807953,Wise,211130,,
5128711,20,1.33,700,,70,5128711,BRIDGEPORT GAS PLANT,3.5 M W OF BRIDGEPORT ON HWY 380,BRIDGEPORT,TX,76426,33.194383,-97.807953,Wise,211130,,
5128711,20,3,400,,27.19,5128711,BRIDGEPORT GAS PLANT,3.5 M W OF BRIDGEPORT ON HWY 380,BRIDGEPORT,TX,76426,33.194383,-97.807953,Wise,211130,,
5128711,26,3.5,443,,70,5128711,BRIDGEPORT GAS PLANT,3.5 M W OF BRIDGEPORT ON HWY 380,BRIDGEPORT,TX,76426,33.194383,-97.807953,Wise,211130,,
5128711,3,3,70,,.1,5128711,BRIDGEPORT GAS PLANT,3.5 M W OF BRIDGEPORT ON HWY 380,BRIDGEPORT,TX,76426,33.194383,-97.807953,Wise,211130,,
5128711,19,13,100,,15,5128711,BRIDGEPORT GAS PLANT,3.5 M W OF BRIDGEPORT ON HWY 380,BRIDGEPORT,TX,76426,33.194383,-97.807953,Wise,211130,,
5128711,20,1,700,,70,5128711,BRIDGEPORT GAS PLANT,3.5 M W OF BRIDGEPORT ON HWY 380,BRIDGEPORT,TX,76426,33.194383,-97.807953,Wise,211130,,
5128711,45,1.33,700,,86.68,5128711,BRIDGEPORT GAS PLANT,3.5 M W OF BRIDGEPORT ON HWY 380,BRIDGEPORT,TX,76426,33.194383,-97.807953,Wise,211130,,
5128711,45,1.33,700,,86.88,5128711,BRIDGEPORT GAS PLANT,3.5 M W OF BRIDGEPORT ON HWY 380,BRIDGEPORT,TX,76426,33.194383,-97.807953,Wise,211130,,
5128711,20,2.52,838,,70,5128711,BRIDGEPORT GAS PLANT,3.5 M W OF BRIDGEPORT ON HWY 380,BRIDGEPORT,TX,76426,33.194383,-97.807953,Wise,211130,,
5128711,35,3,847,,70,5128711,BRIDGEPORT GAS PLANT,3.5 M W OF BRIDGEPORT ON HWY 380,BRIDGEPORT,TX,76426,33.194383,-97.807953,Wise,211130,,
5128711,25,3,80,,.1,5128711,BRIDGEPORT GAS PLANT,3.5 M W OF BRIDGEPORT ON HWY 380,BRIDGEPORT,TX,76426,33.194383,-97.807953,Wise,211130,,
5128711,20,.5,900,,120,5128711,BRIDGEPORT GAS PLANT,3.5 M W OF BRIDGEPORT ON HWY 380,BRIDGEPORT,TX,76426,33.194383,-97.807953,Wise,211130,,
5128711,77,5.25,560,,15.57,5128711,BRIDGEPORT GAS PLANT,3.5 M W OF BRIDGEPORT ON HWY 380,BRIDGEPORT,TX,76426,33.194383,-97.807953,Wise,211130,,
5128711,26,3.5,443,,78,5128711,BRIDGEPORT GAS PLANT,3.5 M W OF BRIDGEPORT ON HWY 380,BRIDGEPORT,TX,76426,33.194383,-97.807953,Wise,211130,,
5128711,20,.83,700,,70,5128711,BRIDGEPORT GAS PLANT,3.5 M W OF BRIDGEPORT ON HWY 380,BRIDGEPORT,TX,76426,33.194383,-97.807953,Wise,211130,,
5128711,38,2.5,600,,40,5128711,BRIDGEPORT GAS PLANT,3.5 M W OF BRIDGEPORT ON HWY 380,BRIDGEPORT,TX,76426,33.194383,-97.807953,Wise,211130,,
5128711,25,1.33,700,,50,5128711,BRIDGEPORT GAS PLANT,3.5 M W OF BRIDGEPORT ON HWY 380,BRIDGEPORT,TX,76426,33.194383,-97.807953,Wise,211130,,
5128711,40,16,100,,15,5128711,BRIDGEPORT GAS PLANT,3.5 M W OF BRIDGEPORT ON HWY 380,BRIDGEPORT,TX,76426,33.194383,-97.807953,Wise,211130,,
5128711,35,3,876,,74.5,5128711,BRIDGEPORT GAS PLANT,3.5 M W OF BRIDGEPORT ON HWY 380,BRIDGEPORT,TX,76426,33.194383,-97.807953,Wise,211130,,
5128711,20,1,912,,70,5128711,BRIDGEPORT GAS PLANT,3.5 M W OF BRIDGEPORT ON HWY 380,BRIDGEPORT,TX,76426,33.194383,-97.807953,Wise,211130,,
5129711,120,.8,72,,.1,5129711,FANDANGO TREATING PLANT,FANDANGO PLANT,ZAPATA,TX,78076,27.024914,-98.971389,Zapata,2111,,
5129711,25,2,490,,10,5129711,FANDANGO TREATING PLANT,FANDANGO PLANT,ZAPATA,TX,78076,27.024914,-98.971389,Zapata,2111,,
5129711,25,.66,750,,80,5129711,FANDANGO TREATING PLANT,FANDANGO PLANT,ZAPATA,TX,78076,27.024914,-98.971389,Zapata,2111,,
5129711,27,1,781,,91,5129711,FANDANGO TREATING PLANT,FANDANGO PLANT,ZAPATA,TX,78076,27.024914,-98.971389,Zapata,2111,,
5129711,100,1,500,,25,5129711,FANDANGO TREATING PLANT,FANDANGO PLANT,ZAPATA,TX,78076,27.024914,-98.971389,Zapata,2111,,
5228911,160,5,1200,176.7,9,5228911,DCP - Eunice Gas Plant,7 mi NW,Eunice,NM,88231,32.513937,-103.286101,Lea,21113,,
5228911,,,,,,5228911,DCP - Eunice Gas Plant,7 mi NW,Eunice,NM,88231,32.513937,-103.286101,Lea,21113,,
5228911,44,2.5,375,,206.4,5228911,DCP - Eunice Gas Plant,7 mi NW,Eunice,NM,88231,32.513937,-103.286101,Lea,21113,,
5228911,84,1.1,1832,,65.6,5228911,DCP - Eunice Gas Plant,7 mi NW,Eunice,NM,88231,32.513937,-103.286101,Lea,21113,,
5228911,16,.67,1100,,136.54,5228911,DCP - Eunice Gas Plant,7 mi NW,Eunice,NM,88231,32.513937,-103.286101,Lea,21113,,
5228911,160,3,1200,,8.7,5228911,DCP - Eunice Gas Plant,7 mi NW,Eunice,NM,88231,32.513937,-103.286101,Lea,21113,,
5228911,30,1.94,750,,31.8,5228911,DCP - Eunice Gas Plant,7 mi NW,Eunice,NM,88231,32.513937,-103.286101,Lea,21113,,
5228911,42,.83,900,,150.92,5228911,DCP - Eunice Gas Plant,7 mi NW,Eunice,NM,88231,32.513937,-103.286101,Lea,21113,,
5228911,25,1,781,,28.9,5228911,DCP - Eunice Gas Plant,7 mi NW,Eunice,NM,88231,32.513937,-103.286101,Lea,21113,,
5228911,17,.67,1100,,136.54,5228911,DCP - Eunice Gas Plant,7 mi NW,Eunice,NM,88231,32.513937,-103.286101,Lea,21113,,
5228911,21,1.2,600,,8.2,5228911,DCP - Eunice Gas Plant,7 mi NW,Eunice,NM,88231,32.513937,-103.286101,Lea,21113,,
5228911,30,2,900,,9.43,5228911,DCP - Eunice Gas Plant,7 mi NW,Eunice,NM,88231,32.513937,-103.286101,Lea,21113,,
5228911,32,4,1150,,139.56,5228911,DCP - Eunice Gas Plant,7 mi NW,Eunice,NM,88231,32.513937,-103.286101,Lea,21113,,
5228911,44,2.5,1150,,357.3,5228911,DCP - Eunice Gas Plant,7 mi NW,Eunice,NM,88231,32.513937,-103.286101,Lea,21113,,
5228911,20,.5,212,,.1,5228911,DCP - Eunice Gas Plant,7 mi NW,Eunice,NM,88231,32.513937,-103.286101,Lea,21113,,
5519211,89,1.5,1832,140.9,79.8,5519211,EnLink LIG Liquids LLC - Plaquemine Gas Processing Plant,60985 Derrick Rd,Plaquemine,LA,70764,30.2362,-91.23973,Iberville,211130,,
5519211,48.3,44.5,417,9.1,.0058,5519211,EnLink LIG Liquids LLC - Plaquemine Gas Processing Plant,60985 Derrick Rd,Plaquemine,LA,70764,30.2362,-91.23973,Iberville,211130,,
5519211,48.2,7.5,417,9.1,.2058,5519211,EnLink LIG Liquids LLC - Plaquemine Gas Processing Plant,60985 Derrick Rd,Plaquemine,LA,70764,30.2362,-91.23973,Iberville,211130,,
5519211,50,5,373,1611.7,82,5519211,EnLink LIG Liquids LLC - Plaquemine Gas Processing Plant,60985 Derrick Rd,Plaquemine,LA,70764,30.2362,-91.23973,Iberville,211130,,
5519211,3.8,.16,851,,5.527,5519211,EnLink LIG Liquids LLC - Plaquemine Gas Processing Plant,60985 Derrick Rd,Plaquemine,LA,70764,30.2362,-91.23973,Iberville,211130,,
5519211,15,.33,77,0.0003,.0035,5519211,EnLink LIG Liquids LLC - Plaquemine Gas Processing Plant,60985 Derrick Rd,Plaquemine,LA,70764,30.2362,-91.23973,Iberville,211130,,
5519211,,,,,,5519211,EnLink LIG Liquids LLC - Plaquemine Gas Processing Plant,60985 Derrick Rd,Plaquemine,LA,70764,30.2362,-91.23973,Iberville,211130,,
5519211,11,.2,77,0.0001,.0038,5519211,EnLink LIG Liquids LLC - Plaquemine Gas Processing Plant,60985 Derrick Rd,Plaquemine,LA,70764,30.2362,-91.23973,Iberville,211130,,
5519211,50,1.5,77,130.18,73.6371,5519211,EnLink LIG Liquids LLC - Plaquemine Gas Processing Plant,60985 Derrick Rd,Plaquemine,LA,70764,30.2362,-91.23973,Iberville,211130,,
5611811,150,2,1000,1.3333,.4242,5611811,GULF PLAINS GAS PLANT,13 MI W OF BISHOP NEAR FM 70  CR 16,BISHOP,TX,78343,27.686914,-97.904658,Nueces,211130,,
5611811,10,3,72,,.1,5611811,GULF PLAINS GAS PLANT,13 MI W OF BISHOP NEAR FM 70  CR 16,BISHOP,TX,78343,27.686914,-97.904658,Nueces,211130,,
5611811,25,1.5,1000,0.1666,.0942,5611811,GULF PLAINS GAS PLANT,13 MI W OF BISHOP NEAR FM 70  CR 16,BISHOP,TX,78343,27.686914,-97.904658,Nueces,211130,,
5611811,15,3,72,,.1,5611811,GULF PLAINS GAS PLANT,13 MI W OF BISHOP NEAR FM 70  CR 16,BISHOP,TX,78343,27.686914,-97.904658,Nueces,211130,,
5611811,16,3,72,,.1,5611811,GULF PLAINS GAS PLANT,13 MI W OF BISHOP NEAR FM 70  CR 16,BISHOP,TX,78343,27.686914,-97.904658,Nueces,211130,,
5611811,50,3.4,360,,100,5611811,GULF PLAINS GAS PLANT,13 MI W OF BISHOP NEAR FM 70  CR 16,BISHOP,TX,78343,27.686914,-97.904658,Nueces,211130,,
5611811,20,.83,998,,82.36,5611811,GULF PLAINS GAS PLANT,13 MI W OF BISHOP NEAR FM 70  CR 16,BISHOP,TX,78343,27.686914,-97.904658,Nueces,211130,,
5611811,15,1,72,,.1,5611811,GULF PLAINS GAS PLANT,13 MI W OF BISHOP NEAR FM 70  CR 16,BISHOP,TX,78343,27.686914,-97.904658,Nueces,211130,,
5611811,30,1.25,625,,11.7,5611811,GULF PLAINS GAS PLANT,13 MI W OF BISHOP NEAR FM 70  CR 16,BISHOP,TX,78343,27.686914,-97.904658,Nueces,211130,,
5611811,,,,,,5611811,GULF PLAINS GAS PLANT,13 MI W OF BISHOP NEAR FM 70  CR 16,BISHOP,TX,78343,27.686914,-97.904658,Nueces,211130,,
5611811,26,1.2,851,,79,5611811,GULF PLAINS GAS PLANT,13 MI W OF BISHOP NEAR FM 70  CR 16,BISHOP,TX,78343,27.686914,-97.904658,Nueces,211130,,
5611811,10,.25,72,,.1,5611811,GULF PLAINS GAS PLANT,13 MI W OF BISHOP NEAR FM 70  CR 16,BISHOP,TX,78343,27.686914,-97.904658,Nueces,211130,,
5611811,35,2.5,465,,26.3,5611811,GULF PLAINS GAS PLANT,13 MI W OF BISHOP NEAR FM 70  CR 16,BISHOP,TX,78343,27.686914,-97.904658,Nueces,211130,,
5611811,16,3,74,,.1,5611811,GULF PLAINS GAS PLANT,13 MI W OF BISHOP NEAR FM 70  CR 16,BISHOP,TX,78343,27.686914,-97.904658,Nueces,211130,,
5611811,8,3,72,,.1,5611811,GULF PLAINS GAS PLANT,13 MI W OF BISHOP NEAR FM 70  CR 16,BISHOP,TX,78343,27.686914,-97.904658,Nueces,211130,,
5611811,30,2,900,,20,5611811,GULF PLAINS GAS PLANT,13 MI W OF BISHOP NEAR FM 70  CR 16,BISHOP,TX,78343,27.686914,-97.904658,Nueces,211130,,
5611811,30,1.2,846,,142.5,5611811,GULF PLAINS GAS PLANT,13 MI W OF BISHOP NEAR FM 70  CR 16,BISHOP,TX,78343,27.686914,-97.904658,Nueces,211130,,
5611811,30,1.2,847,,95.7,5611811,GULF PLAINS GAS PLANT,13 MI W OF BISHOP NEAR FM 70  CR 16,BISHOP,TX,78343,27.686914,-97.904658,Nueces,211130,,
5611811,88,4,590,,6.6,5611811,GULF PLAINS GAS PLANT,13 MI W OF BISHOP NEAR FM 70  CR 16,BISHOP,TX,78343,27.686914,-97.904658,Nueces,211130,,
5611811,30,1.5,872,,106,5611811,GULF PLAINS GAS PLANT,13 MI W OF BISHOP NEAR FM 70  CR 16,BISHOP,TX,78343,27.686914,-97.904658,Nueces,211130,,
5611811,45,1,891,,137,5611811,GULF PLAINS GAS PLANT,13 MI W OF BISHOP NEAR FM 70  CR 16,BISHOP,TX,78343,27.686914,-97.904658,Nueces,211130,,
5611811,15,.67,708,,127.29,5611811,GULF PLAINS GAS PLANT,13 MI W OF BISHOP NEAR FM 70  CR 16,BISHOP,TX,78343,27.686914,-97.904658,Nueces,211130,,
5611811,35,2.5,465,,26.27,5611811,GULF PLAINS GAS PLANT,13 MI W OF BISHOP NEAR FM 70  CR 16,BISHOP,TX,78343,27.686914,-97.904658,Nueces,211130,,
5611811,22,.67,950,,40,5611811,GULF PLAINS GAS PLANT,13 MI W OF BISHOP NEAR FM 70  CR 16,BISHOP,TX,78343,27.686914,-97.904658,Nueces,211130,,
5611811,35,2.58,465,,28.65,5611811,GULF PLAINS GAS PLANT,13 MI W OF BISHOP NEAR FM 70  CR 16,BISHOP,TX,78343,27.686914,-97.904658,Nueces,211130,,
5611811,12,3,72,,.1,5611811,GULF PLAINS GAS PLANT,13 MI W OF BISHOP NEAR FM 70  CR 16,BISHOP,TX,78343,27.686914,-97.904658,Nueces,211130,,
5611811,20,3,72,,.1,5611811,GULF PLAINS GAS PLANT,13 MI W OF BISHOP NEAR FM 70  CR 16,BISHOP,TX,78343,27.686914,-97.904658,Nueces,211130,,
5611811,36,1.67,625,,11.45,5611811,GULF PLAINS GAS PLANT,13 MI W OF BISHOP NEAR FM 70  CR 16,BISHOP,TX,78343,27.686914,-97.904658,Nueces,211130,,
5611811,20,10,85,,15,5611811,GULF PLAINS GAS PLANT,13 MI W OF BISHOP NEAR FM 70  CR 16,BISHOP,TX,78343,27.686914,-97.904658,Nueces,211130,,
5611811,30,1.5,860,,106,5611811,GULF PLAINS GAS PLANT,13 MI W OF BISHOP NEAR FM 70  CR 16,BISHOP,TX,78343,27.686914,-97.904658,Nueces,211130,,
5611811,25,1,891,,40,5611811,GULF PLAINS GAS PLANT,13 MI W OF BISHOP NEAR FM 70  CR 16,BISHOP,TX,78343,27.686914,-97.904658,Nueces,211130,,
5611811,20,.83,708,,144,5611811,GULF PLAINS GAS PLANT,13 MI W OF BISHOP NEAR FM 70  CR 16,BISHOP,TX,78343,27.686914,-97.904658,Nueces,211130,,
5611811,37,1.46,847,,120.9,5611811,GULF PLAINS GAS PLANT,13 MI W OF BISHOP NEAR FM 70  CR 16,BISHOP,TX,78343,27.686914,-97.904658,Nueces,211130,,
5613311,,,,,,5613311,AVINGER GAS PROCESSING PLANT,FR AVINGER 155 SW 1.4 & S 2.45,AVINGER,TX,77252,32.860217,-94.586439,Marion,211130,,
5613311,90,2,1200,0.0833,.0265,5613311,AVINGER GAS PROCESSING PLANT,FR AVINGER 155 SW 1.4 & S 2.45,AVINGER,TX,77252,32.860217,-94.586439,Marion,211130,,
5613311,30.2,3.33,1000,,1.3,5613311,AVINGER GAS PROCESSING PLANT,FR AVINGER 155 SW 1.4 & S 2.45,AVINGER,TX,77252,32.860217,-94.586439,Marion,211130,,
5613311,25,.83,700,,89,5613311,AVINGER GAS PROCESSING PLANT,FR AVINGER 155 SW 1.4 & S 2.45,AVINGER,TX,77252,32.860217,-94.586439,Marion,211130,,
5613311,20,1,700,,95,5613311,AVINGER GAS PROCESSING PLANT,FR AVINGER 155 SW 1.4 & S 2.45,AVINGER,TX,77252,32.860217,-94.586439,Marion,211130,,
5613311,20,.67,700,,70,5613311,AVINGER GAS PROCESSING PLANT,FR AVINGER 155 SW 1.4 & S 2.45,AVINGER,TX,77252,32.860217,-94.586439,Marion,211130,,
5613311,21,1,750,,2.4,5613311,AVINGER GAS PROCESSING PLANT,FR AVINGER 155 SW 1.4 & S 2.45,AVINGER,TX,77252,32.860217,-94.586439,Marion,211130,,
5613311,18,1,700,,90,5613311,AVINGER GAS PROCESSING PLANT,FR AVINGER 155 SW 1.4 & S 2.45,AVINGER,TX,77252,32.860217,-94.586439,Marion,211130,,
5613311,35,2.5,500,,25,5613311,AVINGER GAS PROCESSING PLANT,FR AVINGER 155 SW 1.4 & S 2.45,AVINGER,TX,77252,32.860217,-94.586439,Marion,211130,,
5613311,25,3,70,,.1,5613311,AVINGER GAS PROCESSING PLANT,FR AVINGER 155 SW 1.4 & S 2.45,AVINGER,TX,77252,32.860217,-94.586439,Marion,211130,,
5613311,30.2,3.33,1000,,1.33,5613311,AVINGER GAS PROCESSING PLANT,FR AVINGER 155 SW 1.4 & S 2.45,AVINGER,TX,77252,32.860217,-94.586439,Marion,211130,,
5613311,35,2.5,925,,45.8,5613311,AVINGER GAS PROCESSING PLANT,FR AVINGER 155 SW 1.4 & S 2.45,AVINGER,TX,77252,32.860217,-94.586439,Marion,211130,,
5652011,100,2,500,,50,5652011,EAST VEALMOOR GAS PLANT,"FROM BIG SPRING AT I-20 & TEXAS 350, GO 24 MILES EAST ON TEXAS 350 TO VINCENT, THEN 8 MILES WEST ON",COAHOMA,TX,79511,32.495072,-101.35125,Howard,2111,,
5652011,28,.83,800,,80.96,5652011,EAST VEALMOOR GAS PLANT,"FROM BIG SPRING AT I-20 & TEXAS 350, GO 24 MILES EAST ON TEXAS 350 TO VINCENT, THEN 8 MILES WEST ON",COAHOMA,TX,79511,32.495072,-101.35125,Howard,2111,,
5652011,24,.5,800,,79.4,5652011,EAST VEALMOOR GAS PLANT,"FROM BIG SPRING AT I-20 & TEXAS 350, GO 24 MILES EAST ON TEXAS 350 TO VINCENT, THEN 8 MILES WEST ON",COAHOMA,TX,79511,32.495072,-101.35125,Howard,2111,,
5652011,40,1,700,,90.18,5652011,EAST VEALMOOR GAS PLANT,"FROM BIG SPRING AT I-20 & TEXAS 350, GO 24 MILES EAST ON TEXAS 350 TO VINCENT, THEN 8 MILES WEST ON",COAHOMA,TX,79511,32.495072,-101.35125,Howard,2111,,
5652011,22,.67,800,,90.23,5652011,EAST VEALMOOR GAS PLANT,"FROM BIG SPRING AT I-20 & TEXAS 350, GO 24 MILES EAST ON TEXAS 350 TO VINCENT, THEN 8 MILES WEST ON",COAHOMA,TX,79511,32.495072,-101.35125,Howard,2111,,
5652011,30,1,846,,137.09,5652011,EAST VEALMOOR GAS PLANT,"FROM BIG SPRING AT I-20 & TEXAS 350, GO 24 MILES EAST ON TEXAS 350 TO VINCENT, THEN 8 MILES WEST ON",COAHOMA,TX,79511,32.495072,-101.35125,Howard,2111,,
5652011,30,1.75,380,,53.93,5652011,EAST VEALMOOR GAS PLANT,"FROM BIG SPRING AT I-20 & TEXAS 350, GO 24 MILES EAST ON TEXAS 350 TO VINCENT, THEN 8 MILES WEST ON",COAHOMA,TX,79511,32.495072,-101.35125,Howard,2111,,
5652011,30,1,952,,166.58,5652011,EAST VEALMOOR GAS PLANT,"FROM BIG SPRING AT I-20 & TEXAS 350, GO 24 MILES EAST ON TEXAS 350 TO VINCENT, THEN 8 MILES WEST ON",COAHOMA,TX,79511,32.495072,-101.35125,Howard,2111,,
5652011,30,.83,750,,166.42,5652011,EAST VEALMOOR GAS PLANT,"FROM BIG SPRING AT I-20 & TEXAS 350, GO 24 MILES EAST ON TEXAS 350 TO VINCENT, THEN 8 MILES WEST ON",COAHOMA,TX,79511,32.495072,-101.35125,Howard,2111,,
5652011,30,1,750,,120.39,5652011,EAST VEALMOOR GAS PLANT,"FROM BIG SPRING AT I-20 & TEXAS 350, GO 24 MILES EAST ON TEXAS 350 TO VINCENT, THEN 8 MILES WEST ON",COAHOMA,TX,79511,32.495072,-101.35125,Howard,2111,,
5652011,40,.833,750,,70,5652011,EAST VEALMOOR GAS PLANT,"FROM BIG SPRING AT I-20 & TEXAS 350, GO 24 MILES EAST ON TEXAS 350 TO VINCENT, THEN 8 MILES WEST ON",COAHOMA,TX,79511,32.495072,-101.35125,Howard,2111,,
5652011,40,1,750,,70,5652011,EAST VEALMOOR GAS PLANT,"FROM BIG SPRING AT I-20 & TEXAS 350, GO 24 MILES EAST ON TEXAS 350 TO VINCENT, THEN 8 MILES WEST ON",COAHOMA,TX,79511,32.495072,-101.35125,Howard,2111,,
5652011,,,,,,5652011,EAST VEALMOOR GAS PLANT,"FROM BIG SPRING AT I-20 & TEXAS 350, GO 24 MILES EAST ON TEXAS 350 TO VINCENT, THEN 8 MILES WEST ON",COAHOMA,TX,79511,32.495072,-101.35125,Howard,2111,,
5652011,57,2,1000,5.0,1.5909,5652011,EAST VEALMOOR GAS PLANT,"FROM BIG SPRING AT I-20 & TEXAS 350, GO 24 MILES EAST ON TEXAS 350 TO VINCENT, THEN 8 MILES WEST ON",COAHOMA,TX,79511,32.495072,-101.35125,Howard,2111,,
5652011,40,.83,700,,70,5652011,EAST VEALMOOR GAS PLANT,"FROM BIG SPRING AT I-20 & TEXAS 350, GO 24 MILES EAST ON TEXAS 350 TO VINCENT, THEN 8 MILES WEST ON",COAHOMA,TX,79511,32.495072,-101.35125,Howard,2111,,
5652011,24,1.4,814,,82,5652011,EAST VEALMOOR GAS PLANT,"FROM BIG SPRING AT I-20 & TEXAS 350, GO 24 MILES EAST ON TEXAS 350 TO VINCENT, THEN 8 MILES WEST ON",COAHOMA,TX,79511,32.495072,-101.35125,Howard,2111,,
5652011,24,.83,977,,89.96,5652011,EAST VEALMOOR GAS PLANT,"FROM BIG SPRING AT I-20 & TEXAS 350, GO 24 MILES EAST ON TEXAS 350 TO VINCENT, THEN 8 MILES WEST ON",COAHOMA,TX,79511,32.495072,-101.35125,Howard,2111,,
5652011,40,3.5,650,,9.9,5652011,EAST VEALMOOR GAS PLANT,"FROM BIG SPRING AT I-20 & TEXAS 350, GO 24 MILES EAST ON TEXAS 350 TO VINCENT, THEN 8 MILES WEST ON",COAHOMA,TX,79511,32.495072,-101.35125,Howard,2111,,
5652011,60,3,550,,40.85,5652011,EAST VEALMOOR GAS PLANT,"FROM BIG SPRING AT I-20 & TEXAS 350, GO 24 MILES EAST ON TEXAS 350 TO VINCENT, THEN 8 MILES WEST ON",COAHOMA,TX,79511,32.495072,-101.35125,Howard,2111,,
5652011,8,.33,700,,75,5652011,EAST VEALMOOR GAS PLANT,"FROM BIG SPRING AT I-20 & TEXAS 350, GO 24 MILES EAST ON TEXAS 350 TO VINCENT, THEN 8 MILES WEST ON",COAHOMA,TX,79511,32.495072,-101.35125,Howard,2111,,
5652011,30,1,840,,132,5652011,EAST VEALMOOR GAS PLANT,"FROM BIG SPRING AT I-20 & TEXAS 350, GO 24 MILES EAST ON TEXAS 350 TO VINCENT, THEN 8 MILES WEST ON",COAHOMA,TX,79511,32.495072,-101.35125,Howard,2111,,
5654411,63,7.19,548,,64,5654411,KING RANCH PLANT,"FROM THE INTX OF US 77 BUS AND SR 141 IN  KINGSVILLE, GO W ON SR 141 APPROX 7.3 MI TO KING RANCH ENT",KINGSVILLE,TX,78363,27.469806,-98.054722,Kleberg,211130,,
5654411,28,1.35,548,,43.8,5654411,KING RANCH PLANT,"FROM THE INTX OF US 77 BUS AND SR 141 IN  KINGSVILLE, GO W ON SR 141 APPROX 7.3 MI TO KING RANCH ENT",KINGSVILLE,TX,78363,27.469806,-98.054722,Kleberg,211130,,
5654411,47,6.17,350,,11.92,5654411,KING RANCH PLANT,"FROM THE INTX OF US 77 BUS AND SR 141 IN  KINGSVILLE, GO W ON SR 141 APPROX 7.3 MI TO KING RANCH ENT",KINGSVILLE,TX,78363,27.469806,-98.054722,Kleberg,211130,,
5654411,,,,,,5654411,KING RANCH PLANT,"FROM THE INTX OF US 77 BUS AND SR 141 IN  KINGSVILLE, GO W ON SR 141 APPROX 7.3 MI TO KING RANCH ENT",KINGSVILLE,TX,78363,27.469806,-98.054722,Kleberg,211130,,
5654411,20,3,67,,.1,5654411,KING RANCH PLANT,"FROM THE INTX OF US 77 BUS AND SR 141 IN  KINGSVILLE, GO W ON SR 141 APPROX 7.3 MI TO KING RANCH ENT",KINGSVILLE,TX,78363,27.469806,-98.054722,Kleberg,211130,,
5654411,5,2,650,21.15,6.7295,5654411,KING RANCH PLANT,"FROM THE INTX OF US 77 BUS AND SR 141 IN  KINGSVILLE, GO W ON SR 141 APPROX 7.3 MI TO KING RANCH ENT",KINGSVILLE,TX,78363,27.469806,-98.054722,Kleberg,211130,,
5654411,5,2.5,650,21.15,4.3069,5654411,KING RANCH PLANT,"FROM THE INTX OF US 77 BUS AND SR 141 IN  KINGSVILLE, GO W ON SR 141 APPROX 7.3 MI TO KING RANCH ENT",KINGSVILLE,TX,78363,27.469806,-98.054722,Kleberg,211130,,
5654411,60,1,650,7.95,10.1181,5654411,KING RANCH PLANT,"FROM THE INTX OF US 77 BUS AND SR 141 IN  KINGSVILLE, GO W ON SR 141 APPROX 7.3 MI TO KING RANCH ENT",KINGSVILLE,TX,78363,27.469806,-98.054722,Kleberg,211130,,
5654411,20,1,212,,58,5654411,KING RANCH PLANT,"FROM THE INTX OF US 77 BUS AND SR 141 IN  KINGSVILLE, GO W ON SR 141 APPROX 7.3 MI TO KING RANCH ENT",KINGSVILLE,TX,78363,27.469806,-98.054722,Kleberg,211130,,
5654411,40,3,80,,.1,5654411,KING RANCH PLANT,"FROM THE INTX OF US 77 BUS AND SR 141 IN  KINGSVILLE, GO W ON SR 141 APPROX 7.3 MI TO KING RANCH ENT",KINGSVILLE,TX,78363,27.469806,-98.054722,Kleberg,211130,,
5654411,5,1.33,650,21.15,15.2174,5654411,KING RANCH PLANT,"FROM THE INTX OF US 77 BUS AND SR 141 IN  KINGSVILLE, GO W ON SR 141 APPROX 7.3 MI TO KING RANCH ENT",KINGSVILLE,TX,78363,27.469806,-98.054722,Kleberg,211130,,
5654411,47,1,212,,21.47,5654411,KING RANCH PLANT,"FROM THE INTX OF US 77 BUS AND SR 141 IN  KINGSVILLE, GO W ON SR 141 APPROX 7.3 MI TO KING RANCH ENT",KINGSVILLE,TX,78363,27.469806,-98.054722,Kleberg,211130,,
5654411,63,7.19,548,,11.91,5654411,KING RANCH PLANT,"FROM THE INTX OF US 77 BUS AND SR 141 IN  KINGSVILLE, GO W ON SR 141 APPROX 7.3 MI TO KING RANCH ENT",KINGSVILLE,TX,78363,27.469806,-98.054722,Kleberg,211130,,
5654411,28,1.35,100,,43.8,5654411,KING RANCH PLANT,"FROM THE INTX OF US 77 BUS AND SR 141 IN  KINGSVILLE, GO W ON SR 141 APPROX 7.3 MI TO KING RANCH ENT",KINGSVILLE,TX,78363,27.469806,-98.054722,Kleberg,211130,,
5654411,39,2,548,,28.2,5654411,KING RANCH PLANT,"FROM THE INTX OF US 77 BUS AND SR 141 IN  KINGSVILLE, GO W ON SR 141 APPROX 7.3 MI TO KING RANCH ENT",KINGSVILLE,TX,78363,27.469806,-98.054722,Kleberg,211130,,
5654411,30,3,67,,.1,5654411,KING RANCH PLANT,"FROM THE INTX OF US 77 BUS AND SR 141 IN  KINGSVILLE, GO W ON SR 141 APPROX 7.3 MI TO KING RANCH ENT",KINGSVILLE,TX,78363,27.469806,-98.054722,Kleberg,211130,,
5654411,39,2,548,,24.31,5654411,KING RANCH PLANT,"FROM THE INTX OF US 77 BUS AND SR 141 IN  KINGSVILLE, GO W ON SR 141 APPROX 7.3 MI TO KING RANCH ENT",KINGSVILLE,TX,78363,27.469806,-98.054722,Kleberg,211130,,
5654411,28,1.35,548,,50.73,5654411,KING RANCH PLANT,"FROM THE INTX OF US 77 BUS AND SR 141 IN  KINGSVILLE, GO W ON SR 141 APPROX 7.3 MI TO KING RANCH ENT",KINGSVILLE,TX,78363,27.469806,-98.054722,Kleberg,211130,,
5654411,28,1.35,548,,33.26,5654411,KING RANCH PLANT,"FROM THE INTX OF US 77 BUS AND SR 141 IN  KINGSVILLE, GO W ON SR 141 APPROX 7.3 MI TO KING RANCH ENT",KINGSVILLE,TX,78363,27.469806,-98.054722,Kleberg,211130,,
5654411,39,2,548,,29.9,5654411,KING RANCH PLANT,"FROM THE INTX OF US 77 BUS AND SR 141 IN  KINGSVILLE, GO W ON SR 141 APPROX 7.3 MI TO KING RANCH ENT",KINGSVILLE,TX,78363,27.469806,-98.054722,Kleberg,211130,,
5654411,39,2,548,,24.73,5654411,KING RANCH PLANT,"FROM THE INTX OF US 77 BUS AND SR 141 IN  KINGSVILLE, GO W ON SR 141 APPROX 7.3 MI TO KING RANCH ENT",KINGSVILLE,TX,78363,27.469806,-98.054722,Kleberg,211130,,
5654411,28,1.35,548,,46.37,5654411,KING RANCH PLANT,"FROM THE INTX OF US 77 BUS AND SR 141 IN  KINGSVILLE, GO W ON SR 141 APPROX 7.3 MI TO KING RANCH ENT",KINGSVILLE,TX,78363,27.469806,-98.054722,Kleberg,211130,,
5654411,39,2,548,,29.65,5654411,KING RANCH PLANT,"FROM THE INTX OF US 77 BUS AND SR 141 IN  KINGSVILLE, GO W ON SR 141 APPROX 7.3 MI TO KING RANCH ENT",KINGSVILLE,TX,78363,27.469806,-98.054722,Kleberg,211130,,
5654411,47,6.17,350,,20.12,5654411,KING RANCH PLANT,"FROM THE INTX OF US 77 BUS AND SR 141 IN  KINGSVILLE, GO W ON SR 141 APPROX 7.3 MI TO KING RANCH ENT",KINGSVILLE,TX,78363,27.469806,-98.054722,Kleberg,211130,,
5654411,39,2,548,,33.06,5654411,KING RANCH PLANT,"FROM THE INTX OF US 77 BUS AND SR 141 IN  KINGSVILLE, GO W ON SR 141 APPROX 7.3 MI TO KING RANCH ENT",KINGSVILLE,TX,78363,27.469806,-98.054722,Kleberg,211130,,
5654411,57,2.92,548,,45,5654411,KING RANCH PLANT,"FROM THE INTX OF US 77 BUS AND SR 141 IN  KINGSVILLE, GO W ON SR 141 APPROX 7.3 MI TO KING RANCH ENT",KINGSVILLE,TX,78363,27.469806,-98.054722,Kleberg,211130,,
5654411,39,2,548,,30.24,5654411,KING RANCH PLANT,"FROM THE INTX OF US 77 BUS AND SR 141 IN  KINGSVILLE, GO W ON SR 141 APPROX 7.3 MI TO KING RANCH ENT",KINGSVILLE,TX,78363,27.469806,-98.054722,Kleberg,211130,,
5654411,39,2,548,,29.73,5654411,KING RANCH PLANT,"FROM THE INTX OF US 77 BUS AND SR 141 IN  KINGSVILLE, GO W ON SR 141 APPROX 7.3 MI TO KING RANCH ENT",KINGSVILLE,TX,78363,27.469806,-98.054722,Kleberg,211130,,
5654411,28,1.35,548,,37.94,5654411,KING RANCH PLANT,"FROM THE INTX OF US 77 BUS AND SR 141 IN  KINGSVILLE, GO W ON SR 141 APPROX 7.3 MI TO KING RANCH ENT",KINGSVILLE,TX,78363,27.469806,-98.054722,Kleberg,211130,,
5654411,14,.33,212,,6,5654411,KING RANCH PLANT,"FROM THE INTX OF US 77 BUS AND SR 141 IN  KINGSVILLE, GO W ON SR 141 APPROX 7.3 MI TO KING RANCH ENT",KINGSVILLE,TX,78363,27.469806,-98.054722,Kleberg,211130,,
5677811,20,.83,100,,20,5677811,GOMEZ COMPRESSOR STATION,6 M N ON SH 18 5.6 M W ON CNTY RD,FORT STOCKTON,TX,79735,30.974908,-102.970958,Pecos,486210,,
5677811,26,.17,70,,.1,5677811,GOMEZ COMPRESSOR STATION,6 M N ON SH 18 5.6 M W ON CNTY RD,FORT STOCKTON,TX,79735,30.974908,-102.970958,Pecos,486210,,
5677811,21,1.33,842,,70,5677811,GOMEZ COMPRESSOR STATION,6 M N ON SH 18 5.6 M W ON CNTY RD,FORT STOCKTON,TX,79735,30.974908,-102.970958,Pecos,486210,,
5677811,16,3,72,,.1,5677811,GOMEZ COMPRESSOR STATION,6 M N ON SH 18 5.6 M W ON CNTY RD,FORT STOCKTON,TX,79735,30.974908,-102.970958,Pecos,486210,,
5677811,30,.83,700,,77.37,5677811,GOMEZ COMPRESSOR STATION,6 M N ON SH 18 5.6 M W ON CNTY RD,FORT STOCKTON,TX,79735,30.974908,-102.970958,Pecos,486210,,
5677811,,,,,,5677811,GOMEZ COMPRESSOR STATION,6 M N ON SH 18 5.6 M W ON CNTY RD,FORT STOCKTON,TX,79735,30.974908,-102.970958,Pecos,486210,,
5747511,110,.25,1000,0.1666,3.3939,5747511,BENEDUM GAS PLANT,"7 MILES N ON SH 349, 10 MILES E ON FM 1555, UPTON COUNTY",RANKIN,TX,79778,31.362344,-101.781494,Upton,2111,,
5747511,,,,,,5747511,BENEDUM GAS PLANT,"7 MILES N ON SH 349, 10 MILES E ON FM 1555, UPTON COUNTY",RANKIN,TX,79778,31.362344,-101.781494,Upton,2111,,
5747511,110,1,1000,36.3333,46.2424,5747511,BENEDUM GAS PLANT,"7 MILES N ON SH 349, 10 MILES E ON FM 1555, UPTON COUNTY",RANKIN,TX,79778,31.362344,-101.781494,Upton,2111,,
5747511,30,1,750,,143,5747511,BENEDUM GAS PLANT,"7 MILES N ON SH 349, 10 MILES E ON FM 1555, UPTON COUNTY",RANKIN,TX,79778,31.362344,-101.781494,Upton,2111,,
5747511,30,1.6,385,,1.51,5747511,BENEDUM GAS PLANT,"7 MILES N ON SH 349, 10 MILES E ON FM 1555, UPTON COUNTY",RANKIN,TX,79778,31.362344,-101.781494,Upton,2111,,
5747511,20.3,1,800,,91,5747511,BENEDUM GAS PLANT,"7 MILES N ON SH 349, 10 MILES E ON FM 1555, UPTON COUNTY",RANKIN,TX,79778,31.362344,-101.781494,Upton,2111,,
5747511,4,3,74,,.1,5747511,BENEDUM GAS PLANT,"7 MILES N ON SH 349, 10 MILES E ON FM 1555, UPTON COUNTY",RANKIN,TX,79778,31.362344,-101.781494,Upton,2111,,
5747511,15,3,73,,.1,5747511,BENEDUM GAS PLANT,"7 MILES N ON SH 349, 10 MILES E ON FM 1555, UPTON COUNTY",RANKIN,TX,79778,31.362344,-101.781494,Upton,2111,,
5747511,4,3,75,,.1,5747511,BENEDUM GAS PLANT,"7 MILES N ON SH 349, 10 MILES E ON FM 1555, UPTON COUNTY",RANKIN,TX,79778,31.362344,-101.781494,Upton,2111,,
5747511,15,3,75,,.1,5747511,BENEDUM GAS PLANT,"7 MILES N ON SH 349, 10 MILES E ON FM 1555, UPTON COUNTY",RANKIN,TX,79778,31.362344,-101.781494,Upton,2111,,
5747511,24,3,75,,.1,5747511,BENEDUM GAS PLANT,"7 MILES N ON SH 349, 10 MILES E ON FM 1555, UPTON COUNTY",RANKIN,TX,79778,31.362344,-101.781494,Upton,2111,,
5747511,4,3,73,,.1,5747511,BENEDUM GAS PLANT,"7 MILES N ON SH 349, 10 MILES E ON FM 1555, UPTON COUNTY",RANKIN,TX,79778,31.362344,-101.781494,Upton,2111,,
5747511,23.1,1,700,,93.22,5747511,BENEDUM GAS PLANT,"7 MILES N ON SH 349, 10 MILES E ON FM 1555, UPTON COUNTY",RANKIN,TX,79778,31.362344,-101.781494,Upton,2111,,
5747511,18,3,75,,.1,5747511,BENEDUM GAS PLANT,"7 MILES N ON SH 349, 10 MILES E ON FM 1555, UPTON COUNTY",RANKIN,TX,79778,31.362344,-101.781494,Upton,2111,,
5747511,20,2.83,600,,4.32,5747511,BENEDUM GAS PLANT,"7 MILES N ON SH 349, 10 MILES E ON FM 1555, UPTON COUNTY",RANKIN,TX,79778,31.362344,-101.781494,Upton,2111,,
5747511,60,1,750,,144,5747511,BENEDUM GAS PLANT,"7 MILES N ON SH 349, 10 MILES E ON FM 1555, UPTON COUNTY",RANKIN,TX,79778,31.362344,-101.781494,Upton,2111,,
5747511,15,3,72,,.1,5747511,BENEDUM GAS PLANT,"7 MILES N ON SH 349, 10 MILES E ON FM 1555, UPTON COUNTY",RANKIN,TX,79778,31.362344,-101.781494,Upton,2111,,
5747511,6,3,72,,.1,5747511,BENEDUM GAS PLANT,"7 MILES N ON SH 349, 10 MILES E ON FM 1555, UPTON COUNTY",RANKIN,TX,79778,31.362344,-101.781494,Upton,2111,,
5747511,60,1.17,650,,41.65,5747511,BENEDUM GAS PLANT,"7 MILES N ON SH 349, 10 MILES E ON FM 1555, UPTON COUNTY",RANKIN,TX,79778,31.362344,-101.781494,Upton,2111,,
5747511,115,1,1832,2.5,3.183,5747511,BENEDUM GAS PLANT,"7 MILES N ON SH 349, 10 MILES E ON FM 1555, UPTON COUNTY",RANKIN,TX,79778,31.362344,-101.781494,Upton,2111,,
5747511,10,3,70,,.1,5747511,BENEDUM GAS PLANT,"7 MILES N ON SH 349, 10 MILES E ON FM 1555, UPTON COUNTY",RANKIN,TX,79778,31.362344,-101.781494,Upton,2111,,
5747511,60,1.83,650,,52.36,5747511,BENEDUM GAS PLANT,"7 MILES N ON SH 349, 10 MILES E ON FM 1555, UPTON COUNTY",RANKIN,TX,79778,31.362344,-101.781494,Upton,2111,,
5747511,60,1,992,,193.7,5747511,BENEDUM GAS PLANT,"7 MILES N ON SH 349, 10 MILES E ON FM 1555, UPTON COUNTY",RANKIN,TX,79778,31.362344,-101.781494,Upton,2111,,
5747511,60,.83,992,,193.66,5747511,BENEDUM GAS PLANT,"7 MILES N ON SH 349, 10 MILES E ON FM 1555, UPTON COUNTY",RANKIN,TX,79778,31.362344,-101.781494,Upton,2111,,
5747511,60,1,992,,193.66,5747511,BENEDUM GAS PLANT,"7 MILES N ON SH 349, 10 MILES E ON FM 1555, UPTON COUNTY",RANKIN,TX,79778,31.362344,-101.781494,Upton,2111,,
5747511,20,1,400,,3.56,5747511,BENEDUM GAS PLANT,"7 MILES N ON SH 349, 10 MILES E ON FM 1555, UPTON COUNTY",RANKIN,TX,79778,31.362344,-101.781494,Upton,2111,,
5747511,60,1,993,,193.7,5747511,BENEDUM GAS PLANT,"7 MILES N ON SH 349, 10 MILES E ON FM 1555, UPTON COUNTY",RANKIN,TX,79778,31.362344,-101.781494,Upton,2111,,
5747511,60,.83,972,,232.61,5747511,BENEDUM GAS PLANT,"7 MILES N ON SH 349, 10 MILES E ON FM 1555, UPTON COUNTY",RANKIN,TX,79778,31.362344,-101.781494,Upton,2111,,
5747511,60,.8,952,,258.9,5747511,BENEDUM GAS PLANT,"7 MILES N ON SH 349, 10 MILES E ON FM 1555, UPTON COUNTY",RANKIN,TX,79778,31.362344,-101.781494,Upton,2111,,
5747511,60,.8,972,,232.6,5747511,BENEDUM GAS PLANT,"7 MILES N ON SH 349, 10 MILES E ON FM 1555, UPTON COUNTY",RANKIN,TX,79778,31.362344,-101.781494,Upton,2111,,
5747511,30,1,650,,20,5747511,BENEDUM GAS PLANT,"7 MILES N ON SH 349, 10 MILES E ON FM 1555, UPTON COUNTY",RANKIN,TX,79778,31.362344,-101.781494,Upton,2111,,
5747511,60,1,702,,186.08,5747511,BENEDUM GAS PLANT,"7 MILES N ON SH 349, 10 MILES E ON FM 1555, UPTON COUNTY",RANKIN,TX,79778,31.362344,-101.781494,Upton,2111,,
5747511,60,1,702,,42.36,5747511,BENEDUM GAS PLANT,"7 MILES N ON SH 349, 10 MILES E ON FM 1555, UPTON COUNTY",RANKIN,TX,79778,31.362344,-101.781494,Upton,2111,,
5747511,60,1,702,,141.2,5747511,BENEDUM GAS PLANT,"7 MILES N ON SH 349, 10 MILES E ON FM 1555, UPTON COUNTY",RANKIN,TX,79778,31.362344,-101.781494,Upton,2111,,
5747511,60,1,952,,197.8,5747511,BENEDUM GAS PLANT,"7 MILES N ON SH 349, 10 MILES E ON FM 1555, UPTON COUNTY",RANKIN,TX,79778,31.362344,-101.781494,Upton,2111,,
5747511,60,1,702,,143.71,5747511,BENEDUM GAS PLANT,"7 MILES N ON SH 349, 10 MILES E ON FM 1555, UPTON COUNTY",RANKIN,TX,79778,31.362344,-101.781494,Upton,2111,,
5747511,40,1.17,650,,45.15,5747511,BENEDUM GAS PLANT,"7 MILES N ON SH 349, 10 MILES E ON FM 1555, UPTON COUNTY",RANKIN,TX,79778,31.362344,-101.781494,Upton,2111,,
5764211,,,,,,5764211,HALLEY COMPRESSOR STATION,"10 MI S OF KERMIT ON ST. HWY 18; 3 MI E, 1 MI N OF KERMIT",KERMIT,TX,79745,31.730175,-102.992539,Winkler,211130,,
5764211,15,.69,806,,112,5764211,HALLEY COMPRESSOR STATION,"10 MI S OF KERMIT ON ST. HWY 18; 3 MI E, 1 MI N OF KERMIT",KERMIT,TX,79745,31.730175,-102.992539,Winkler,211130,,
5764211,25,4,1000,11.0,.875,5764211,HALLEY COMPRESSOR STATION,"10 MI S OF KERMIT ON ST. HWY 18; 3 MI E, 1 MI N OF KERMIT",KERMIT,TX,79745,31.730175,-102.992539,Winkler,211130,,
5764211,1,.1,30,,.1,5764211,HALLEY COMPRESSOR STATION,"10 MI S OF KERMIT ON ST. HWY 18; 3 MI E, 1 MI N OF KERMIT",KERMIT,TX,79745,31.730175,-102.992539,Winkler,211130,,
5764211,15,.83,929,,105.8,5764211,HALLEY COMPRESSOR STATION,"10 MI S OF KERMIT ON ST. HWY 18; 3 MI E, 1 MI N OF KERMIT",KERMIT,TX,79745,31.730175,-102.992539,Winkler,211130,,
5764211,2,.5,70,,15,5764211,HALLEY COMPRESSOR STATION,"10 MI S OF KERMIT ON ST. HWY 18; 3 MI E, 1 MI N OF KERMIT",KERMIT,TX,79745,31.730175,-102.992539,Winkler,211130,,
5764211,25,1,750,,9,5764211,HALLEY COMPRESSOR STATION,"10 MI S OF KERMIT ON ST. HWY 18; 3 MI E, 1 MI N OF KERMIT",KERMIT,TX,79745,31.730175,-102.992539,Winkler,211130,,
5764211,40,1.5,124,,15,5764211,HALLEY COMPRESSOR STATION,"10 MI S OF KERMIT ON ST. HWY 18; 3 MI E, 1 MI N OF KERMIT",KERMIT,TX,79745,31.730175,-102.992539,Winkler,211130,,
5764211,12,3,70,,.1,5764211,HALLEY COMPRESSOR STATION,"10 MI S OF KERMIT ON ST. HWY 18; 3 MI E, 1 MI N OF KERMIT",KERMIT,TX,79745,31.730175,-102.992539,Winkler,211130,,
5764211,15,1,750,,8.75,5764211,HALLEY COMPRESSOR STATION,"10 MI S OF KERMIT ON ST. HWY 18; 3 MI E, 1 MI N OF KERMIT",KERMIT,TX,79745,31.730175,-102.992539,Winkler,211130,,
5764211,15,1,1400,,.1,5764211,HALLEY COMPRESSOR STATION,"10 MI S OF KERMIT ON ST. HWY 18; 3 MI E, 1 MI N OF KERMIT",KERMIT,TX,79745,31.730175,-102.992539,Winkler,211130,,
5764211,21,.3,850,,100,5764211,HALLEY COMPRESSOR STATION,"10 MI S OF KERMIT ON ST. HWY 18; 3 MI E, 1 MI N OF KERMIT",KERMIT,TX,79745,31.730175,-102.992539,Winkler,211130,,
5764211,15,1.5,992,,86,5764211,HALLEY COMPRESSOR STATION,"10 MI S OF KERMIT ON ST. HWY 18; 3 MI E, 1 MI N OF KERMIT",KERMIT,TX,79745,31.730175,-102.992539,Winkler,211130,,
5765911,160,4.5,1000,,22,5765911,COYANOSA GAS PLANT,4259 MOBIL RD; 6 M SE OF COYANOSA OFF FM 1776,COYANOSA,TX,79730,31.190789,-102.991122,Pecos,211130,,
5765911,20,1,400,,53.59,5765911,COYANOSA GAS PLANT,4259 MOBIL RD; 6 M SE OF COYANOSA OFF FM 1776,COYANOSA,TX,79730,31.190789,-102.991122,Pecos,211130,,
5765911,40,2,500,,18,5765911,COYANOSA GAS PLANT,4259 MOBIL RD; 6 M SE OF COYANOSA OFF FM 1776,COYANOSA,TX,79730,31.190789,-102.991122,Pecos,211130,,
5765911,100,1.2,1000,0.0011,.001,5765911,COYANOSA GAS PLANT,4259 MOBIL RD; 6 M SE OF COYANOSA OFF FM 1776,COYANOSA,TX,79730,31.190789,-102.991122,Pecos,211130,,
5765911,,,,,,5765911,COYANOSA GAS PLANT,4259 MOBIL RD; 6 M SE OF COYANOSA OFF FM 1776,COYANOSA,TX,79730,31.190789,-102.991122,Pecos,211130,,
5765911,30,3,842,,70,5765911,COYANOSA GAS PLANT,4259 MOBIL RD; 6 M SE OF COYANOSA OFF FM 1776,COYANOSA,TX,79730,31.190789,-102.991122,Pecos,211130,,
5765911,20,.83,700,,70,5765911,COYANOSA GAS PLANT,4259 MOBIL RD; 6 M SE OF COYANOSA OFF FM 1776,COYANOSA,TX,79730,31.190789,-102.991122,Pecos,211130,,
5765911,30,3,842,,50,5765911,COYANOSA GAS PLANT,4259 MOBIL RD; 6 M SE OF COYANOSA OFF FM 1776,COYANOSA,TX,79730,31.190789,-102.991122,Pecos,211130,,
5765911,20,.5,70,,45,5765911,COYANOSA GAS PLANT,4259 MOBIL RD; 6 M SE OF COYANOSA OFF FM 1776,COYANOSA,TX,79730,31.190789,-102.991122,Pecos,211130,,
5765911,100,.8,1000,308.3333,613.1628,5765911,COYANOSA GAS PLANT,4259 MOBIL RD; 6 M SE OF COYANOSA OFF FM 1776,COYANOSA,TX,79730,31.190789,-102.991122,Pecos,211130,,
5765911,30,3,834,,41,5765911,COYANOSA GAS PLANT,4259 MOBIL RD; 6 M SE OF COYANOSA OFF FM 1776,COYANOSA,TX,79730,31.190789,-102.991122,Pecos,211130,,
5765911,20,.5,500,,28.7,5765911,COYANOSA GAS PLANT,4259 MOBIL RD; 6 M SE OF COYANOSA OFF FM 1776,COYANOSA,TX,79730,31.190789,-102.991122,Pecos,211130,,
5765911,20,1,1000,,21,5765911,COYANOSA GAS PLANT,4259 MOBIL RD; 6 M SE OF COYANOSA OFF FM 1776,COYANOSA,TX,79730,31.190789,-102.991122,Pecos,211130,,
5765911,20,1.5,977,,63,5765911,COYANOSA GAS PLANT,4259 MOBIL RD; 6 M SE OF COYANOSA OFF FM 1776,COYANOSA,TX,79730,31.190789,-102.991122,Pecos,211130,,
5795611,195,3,350,1.5,.2121,5795611,HAWKINS GAS PLANT,FM 1795,HAWKINS,TX,75765,32.609444,-95.196389,Wood,211130,,
5795611,8,.33,652,,81,5795611,HAWKINS GAS PLANT,FM 1795,HAWKINS,TX,75765,32.609444,-95.196389,Wood,211130,,
5795611,4,1,212,,15,5795611,HAWKINS GAS PLANT,FM 1795,HAWKINS,TX,75765,32.609444,-95.196389,Wood,211130,,
5795611,25,.5,85,,50,5795611,HAWKINS GAS PLANT,FM 1795,HAWKINS,TX,75765,32.609444,-95.196389,Wood,211130,,
5795611,69,30.5,100,,10,5795611,HAWKINS GAS PLANT,FM 1795,HAWKINS,TX,75765,32.609444,-95.196389,Wood,211130,,
5795611,130,4,400,,11.5,5795611,HAWKINS GAS PLANT,FM 1795,HAWKINS,TX,75765,32.609444,-95.196389,Wood,211130,,
5795611,130,5,400,,18.1,5795611,HAWKINS GAS PLANT,FM 1795,HAWKINS,TX,75765,32.609444,-95.196389,Wood,211130,,
5795611,,,,,,5795611,HAWKINS GAS PLANT,FM 1795,HAWKINS,TX,75765,32.609444,-95.196389,Wood,211130,,
5795611,130,5,400,,4.4,5795611,HAWKINS GAS PLANT,FM 1795,HAWKINS,TX,75765,32.609444,-95.196389,Wood,211130,,
5846311,60,1.2,1000,0.159,.1405,5846311,TIPPETT GAS PLANT,5 M S OF MCCAMEY ON FM 1901,MCCAMEY,TX,79752,31.037211,-102.223175,Crockett,211130,,
5846311,18,1.17,750,,35.44,5846311,TIPPETT GAS PLANT,5 M S OF MCCAMEY ON FM 1901,MCCAMEY,TX,79752,31.037211,-102.223175,Crockett,211130,,
5846311,,,,,,5846311,TIPPETT GAS PLANT,5 M S OF MCCAMEY ON FM 1901,MCCAMEY,TX,79752,31.037211,-102.223175,Crockett,211130,,
5846311,32,.83,700,,82,5846311,TIPPETT GAS PLANT,5 M S OF MCCAMEY ON FM 1901,MCCAMEY,TX,79752,31.037211,-102.223175,Crockett,211130,,
5846311,20,.8,846,,214,5846311,TIPPETT GAS PLANT,5 M S OF MCCAMEY ON FM 1901,MCCAMEY,TX,79752,31.037211,-102.223175,Crockett,211130,,
5846311,30,1.67,400,,8.07,5846311,TIPPETT GAS PLANT,5 M S OF MCCAMEY ON FM 1901,MCCAMEY,TX,79752,31.037211,-102.223175,Crockett,211130,,
5846311,21,.5,700,,82,5846311,TIPPETT GAS PLANT,5 M S OF MCCAMEY ON FM 1901,MCCAMEY,TX,79752,31.037211,-102.223175,Crockett,211130,,
5846311,21,.66,700,,92.5,5846311,TIPPETT GAS PLANT,5 M S OF MCCAMEY ON FM 1901,MCCAMEY,TX,79752,31.037211,-102.223175,Crockett,211130,,
5846311,24,15.5,70,,.1,5846311,TIPPETT GAS PLANT,5 M S OF MCCAMEY ON FM 1901,MCCAMEY,TX,79752,31.037211,-102.223175,Crockett,211130,,
5846311,15,1,900,,60,5846311,TIPPETT GAS PLANT,5 M S OF MCCAMEY ON FM 1901,MCCAMEY,TX,79752,31.037211,-102.223175,Crockett,211130,,
5846311,30,.56,400,,38.5,5846311,TIPPETT GAS PLANT,5 M S OF MCCAMEY ON FM 1901,MCCAMEY,TX,79752,31.037211,-102.223175,Crockett,211130,,
5846311,32,.83,700,,70,5846311,TIPPETT GAS PLANT,5 M S OF MCCAMEY ON FM 1901,MCCAMEY,TX,79752,31.037211,-102.223175,Crockett,211130,,
5846311,30,1.67,400,,1.89,5846311,TIPPETT GAS PLANT,5 M S OF MCCAMEY ON FM 1901,MCCAMEY,TX,79752,31.037211,-102.223175,Crockett,211130,,
5846311,21,.66,700,,82,5846311,TIPPETT GAS PLANT,5 M S OF MCCAMEY ON FM 1901,MCCAMEY,TX,79752,31.037211,-102.223175,Crockett,211130,,
5884911,78,.5,107,,23,5884911,DYNEGY CHICO GAS PLANT,"S OF FM 1810, 5 MI W OF CHICO",CHICO,TX,76431,33.312006,-97.877725,Wise,211130,,
5884911,35,6,400,,61.3,5884911,DYNEGY CHICO GAS PLANT,"S OF FM 1810, 5 MI W OF CHICO",CHICO,TX,76431,33.312006,-97.877725,Wise,211130,,
5884911,60,3.33,835,,62.6,5884911,DYNEGY CHICO GAS PLANT,"S OF FM 1810, 5 MI W OF CHICO",CHICO,TX,76431,33.312006,-97.877725,Wise,211130,,
5884911,40,1.167,700,,70,5884911,DYNEGY CHICO GAS PLANT,"S OF FM 1810, 5 MI W OF CHICO",CHICO,TX,76431,33.312006,-97.877725,Wise,211130,,
5884911,15,3,70,,.1,5884911,DYNEGY CHICO GAS PLANT,"S OF FM 1810, 5 MI W OF CHICO",CHICO,TX,76431,33.312006,-97.877725,Wise,211130,,
5884911,15,1,700,,70,5884911,DYNEGY CHICO GAS PLANT,"S OF FM 1810, 5 MI W OF CHICO",CHICO,TX,76431,33.312006,-97.877725,Wise,211130,,
5884911,,,,,,5884911,DYNEGY CHICO GAS PLANT,"S OF FM 1810, 5 MI W OF CHICO",CHICO,TX,76431,33.312006,-97.877725,Wise,211130,,
5884911,75,1,1000,0.1116,.1421,5884911,DYNEGY CHICO GAS PLANT,"S OF FM 1810, 5 MI W OF CHICO",CHICO,TX,76431,33.312006,-97.877725,Wise,211130,,
5884911,50,1,775,,97.4,5884911,DYNEGY CHICO GAS PLANT,"S OF FM 1810, 5 MI W OF CHICO",CHICO,TX,76431,33.312006,-97.877725,Wise,211130,,
5884911,20,2.5,500,,14.6,5884911,DYNEGY CHICO GAS PLANT,"S OF FM 1810, 5 MI W OF CHICO",CHICO,TX,76431,33.312006,-97.877725,Wise,211130,,
5884911,18,.83,752,,40,5884911,DYNEGY CHICO GAS PLANT,"S OF FM 1810, 5 MI W OF CHICO",CHICO,TX,76431,33.312006,-97.877725,Wise,211130,,
5884911,15,3,65,,.1,5884911,DYNEGY CHICO GAS PLANT,"S OF FM 1810, 5 MI W OF CHICO",CHICO,TX,76431,33.312006,-97.877725,Wise,211130,,
5884911,50,1,700,,70,5884911,DYNEGY CHICO GAS PLANT,"S OF FM 1810, 5 MI W OF CHICO",CHICO,TX,76431,33.312006,-97.877725,Wise,211130,,
5884911,1,.1,30,,.1,5884911,DYNEGY CHICO GAS PLANT,"S OF FM 1810, 5 MI W OF CHICO",CHICO,TX,76431,33.312006,-97.877725,Wise,211130,,
5884911,15,1.5,80,,10,5884911,DYNEGY CHICO GAS PLANT,"S OF FM 1810, 5 MI W OF CHICO",CHICO,TX,76431,33.312006,-97.877725,Wise,211130,,
5884911,30,1.17,702,,104.57,5884911,DYNEGY CHICO GAS PLANT,"S OF FM 1810, 5 MI W OF CHICO",CHICO,TX,76431,33.312006,-97.877725,Wise,211130,,
6318211,100,6,510,145.2833,5.1,6318211,DCP Antrim Gas LLC,6250  OLD STATE RD,JOHANNESBURG,MI,49751,44.9159,-84.5411,Otsego,486210,,
6318211,26.8,.833,650,2.0833,3.8,6318211,DCP Antrim Gas LLC,6250  OLD STATE RD,JOHANNESBURG,MI,49751,44.9159,-84.5411,Otsego,486210,,
6318211,24,.167,220,0.4166,19.1,6318211,DCP Antrim Gas LLC,6250  OLD STATE RD,JOHANNESBURG,MI,49751,44.9159,-84.5411,Otsego,486210,,
6318211,34,4,800,1250.0,99.5,6318211,DCP Antrim Gas LLC,6250  OLD STATE RD,JOHANNESBURG,MI,49751,44.9159,-84.5411,Otsego,486210,,
6318211,30,.167,209,0.8833,40.5,6318211,DCP Antrim Gas LLC,6250  OLD STATE RD,JOHANNESBURG,MI,49751,44.9159,-84.5411,Otsego,486210,,
6318211,30,.167,206,0.8833,40.5,6318211,DCP Antrim Gas LLC,6250  OLD STATE RD,JOHANNESBURG,MI,49751,44.9159,-84.5411,Otsego,486210,,
6318211,35,.83,730,90.7833,167.8,6318211,DCP Antrim Gas LLC,6250  OLD STATE RD,JOHANNESBURG,MI,49751,44.9159,-84.5411,Otsego,486210,,
6318211,75,1.333,120,124.2666,89,6318211,DCP Antrim Gas LLC,6250  OLD STATE RD,JOHANNESBURG,MI,49751,44.9159,-84.5411,Otsego,486210,,
6318211,,,,,,6318211,DCP Antrim Gas LLC,6250  OLD STATE RD,JOHANNESBURG,MI,49751,44.9159,-84.5411,Otsego,486210,,
6318211,14.5,1,540,9.0,11.5,6318211,DCP Antrim Gas LLC,6250  OLD STATE RD,JOHANNESBURG,MI,49751,44.9159,-84.5411,Otsego,486210,,
6318211,55,.5,120,38.3333,195.2,6318211,DCP Antrim Gas LLC,6250  OLD STATE RD,JOHANNESBURG,MI,49751,44.9159,-84.5411,Otsego,486210,,
6318211,95,6,700,540.2666,19.1,6318211,DCP Antrim Gas LLC,6250  OLD STATE RD,JOHANNESBURG,MI,49751,44.9159,-84.5411,Otsego,486210,,
6380511,46,1,1800,2.8333,3.606,6380511,WILCOX GAS PLANT,ON FM 2437; 12 MI S OF SHERIDAN,SHERIDAN,TX,77475,29.337103,-96.680511,Lavaca,211130,,
6380511,30,3,400,,53.8,6380511,WILCOX GAS PLANT,ON FM 2437; 12 MI S OF SHERIDAN,SHERIDAN,TX,77475,29.337103,-96.680511,Lavaca,211130,,
6380511,45,1.5,640,,33.4,6380511,WILCOX GAS PLANT,ON FM 2437; 12 MI S OF SHERIDAN,SHERIDAN,TX,77475,29.337103,-96.680511,Lavaca,211130,,
6380511,25,.33,1800,9.3333,109.0797,6380511,WILCOX GAS PLANT,ON FM 2437; 12 MI S OF SHERIDAN,SHERIDAN,TX,77475,29.337103,-96.680511,Lavaca,211130,,
6380511,22,1,702,,114.1,6380511,WILCOX GAS PLANT,ON FM 2437; 12 MI S OF SHERIDAN,SHERIDAN,TX,77475,29.337103,-96.680511,Lavaca,211130,,
6380511,35,2,670,,30.8,6380511,WILCOX GAS PLANT,ON FM 2437; 12 MI S OF SHERIDAN,SHERIDAN,TX,77475,29.337103,-96.680511,Lavaca,211130,,
6380511,18,.83,702,,127.99,6380511,WILCOX GAS PLANT,ON FM 2437; 12 MI S OF SHERIDAN,SHERIDAN,TX,77475,29.337103,-96.680511,Lavaca,211130,,
6380511,24,1.17,702,,109.3,6380511,WILCOX GAS PLANT,ON FM 2437; 12 MI S OF SHERIDAN,SHERIDAN,TX,77475,29.337103,-96.680511,Lavaca,211130,,
6380511,,,,,,6380511,WILCOX GAS PLANT,ON FM 2437; 12 MI S OF SHERIDAN,SHERIDAN,TX,77475,29.337103,-96.680511,Lavaca,211130,,
6380511,25,1.33,702,,27.5,6380511,WILCOX GAS PLANT,ON FM 2437; 12 MI S OF SHERIDAN,SHERIDAN,TX,77475,29.337103,-96.680511,Lavaca,211130,,
6380511,18,.67,1000,,61.6,6380511,WILCOX GAS PLANT,ON FM 2437; 12 MI S OF SHERIDAN,SHERIDAN,TX,77475,29.337103,-96.680511,Lavaca,211130,,
6380511,16,2,838,,40,6380511,WILCOX GAS PLANT,ON FM 2437; 12 MI S OF SHERIDAN,SHERIDAN,TX,77475,29.337103,-96.680511,Lavaca,211130,,
6380511,22,3,76,,.1,6380511,WILCOX GAS PLANT,ON FM 2437; 12 MI S OF SHERIDAN,SHERIDAN,TX,77475,29.337103,-96.680511,Lavaca,211130,,
6380511,22,3,77,,.1,6380511,WILCOX GAS PLANT,ON FM 2437; 12 MI S OF SHERIDAN,SHERIDAN,TX,77475,29.337103,-96.680511,Lavaca,211130,,
6380511,19,1.33,650,,8.1,6380511,WILCOX GAS PLANT,ON FM 2437; 12 MI S OF SHERIDAN,SHERIDAN,TX,77475,29.337103,-96.680511,Lavaca,211130,,
6380511,16,2,838,,155,6380511,WILCOX GAS PLANT,ON FM 2437; 12 MI S OF SHERIDAN,SHERIDAN,TX,77475,29.337103,-96.680511,Lavaca,211130,,
6444611,125,1.56,1832,2.1666,1.1331,6444611,BROOKELAND GAS PLANT,N OF BROWNDELL APPROX 6 M ON HWY 96; FAC ON RT SIDE OF RD,BROOKELAND,TX,75931,31.061811,-93.960844,Jasper,211130,,
6444611,68,6,1400,,22.68,6444611,BROOKELAND GAS PLANT,N OF BROWNDELL APPROX 6 M ON HWY 96; FAC ON RT SIDE OF RD,BROOKELAND,TX,75931,31.061811,-93.960844,Jasper,211130,,
6444611,21,1.33,780,,56.19,6444611,BROOKELAND GAS PLANT,N OF BROWNDELL APPROX 6 M ON HWY 96; FAC ON RT SIDE OF RD,BROOKELAND,TX,75931,31.061811,-93.960844,Jasper,211130,,
6444611,,,,,,6444611,BROOKELAND GAS PLANT,N OF BROWNDELL APPROX 6 M ON HWY 96; FAC ON RT SIDE OF RD,BROOKELAND,TX,75931,31.061811,-93.960844,Jasper,211130,,
6444611,33,1,369,,25,6444611,BROOKELAND GAS PLANT,N OF BROWNDELL APPROX 6 M ON HWY 96; FAC ON RT SIDE OF RD,BROOKELAND,TX,75931,31.061811,-93.960844,Jasper,211130,,
6444611,20,1.33,780,,39.19,6444611,BROOKELAND GAS PLANT,N OF BROWNDELL APPROX 6 M ON HWY 96; FAC ON RT SIDE OF RD,BROOKELAND,TX,75931,31.061811,-93.960844,Jasper,211130,,
6444611,33,1.16,540,,12.19,6444611,BROOKELAND GAS PLANT,N OF BROWNDELL APPROX 6 M ON HWY 96; FAC ON RT SIDE OF RD,BROOKELAND,TX,75931,31.061811,-93.960844,Jasper,211130,,
6444611,50,8.4,1832,1100.0,19.8412,6444611,BROOKELAND GAS PLANT,N OF BROWNDELL APPROX 6 M ON HWY 96; FAC ON RT SIDE OF RD,BROOKELAND,TX,75931,31.061811,-93.960844,Jasper,211130,,
6444611,52,3.08,301,,18.86,6444611,BROOKELAND GAS PLANT,N OF BROWNDELL APPROX 6 M ON HWY 96; FAC ON RT SIDE OF RD,BROOKELAND,TX,75931,31.061811,-93.960844,Jasper,211130,,
6444611,21,1.33,780,,56.02,6444611,BROOKELAND GAS PLANT,N OF BROWNDELL APPROX 6 M ON HWY 96; FAC ON RT SIDE OF RD,BROOKELAND,TX,75931,31.061811,-93.960844,Jasper,211130,,
6444611,18.4,.67,831,,91,6444611,BROOKELAND GAS PLANT,N OF BROWNDELL APPROX 6 M ON HWY 96; FAC ON RT SIDE OF RD,BROOKELAND,TX,75931,31.061811,-93.960844,Jasper,211130,,
6444611,3,2.9,74,,.1,6444611,BROOKELAND GAS PLANT,N OF BROWNDELL APPROX 6 M ON HWY 96; FAC ON RT SIDE OF RD,BROOKELAND,TX,75931,31.061811,-93.960844,Jasper,211130,,
6444611,20,1.33,780,,43.9,6444611,BROOKELAND GAS PLANT,N OF BROWNDELL APPROX 6 M ON HWY 96; FAC ON RT SIDE OF RD,BROOKELAND,TX,75931,31.061811,-93.960844,Jasper,211130,,
6444611,32,1,500,,7.88,6444611,BROOKELAND GAS PLANT,N OF BROWNDELL APPROX 6 M ON HWY 96; FAC ON RT SIDE OF RD,BROOKELAND,TX,75931,31.061811,-93.960844,Jasper,211130,,
6444611,28,1.33,500,,7.88,6444611,BROOKELAND GAS PLANT,N OF BROWNDELL APPROX 6 M ON HWY 96; FAC ON RT SIDE OF RD,BROOKELAND,TX,75931,31.061811,-93.960844,Jasper,211130,,
6477411,22,.51,80,,10,6477411,GORDON GAS PROCESSING PLANT,2 MI N ON HWY 193 FROM I 20,GORDON,TX,76453,32.540042,-98.338133,Palo Pinto,211130,,
6477411,12,.5,120,,80,6477411,GORDON GAS PROCESSING PLANT,2 MI N ON HWY 193 FROM I 20,GORDON,TX,76453,32.540042,-98.338133,Palo Pinto,211130,,
6477411,,,,,,6477411,GORDON GAS PROCESSING PLANT,2 MI N ON HWY 193 FROM I 20,GORDON,TX,76453,32.540042,-98.338133,Palo Pinto,211130,,
6477411,12,3.03,66,,.1,6477411,GORDON GAS PROCESSING PLANT,2 MI N ON HWY 193 FROM I 20,GORDON,TX,76453,32.540042,-98.338133,Palo Pinto,211130,,
6477411,22,.67,80,,10,6477411,GORDON GAS PROCESSING PLANT,2 MI N ON HWY 193 FROM I 20,GORDON,TX,76453,32.540042,-98.338133,Palo Pinto,211130,,
6477411,21,.26,120,,4.45,6477411,GORDON GAS PROCESSING PLANT,2 MI N ON HWY 193 FROM I 20,GORDON,TX,76453,32.540042,-98.338133,Palo Pinto,211130,,
6477411,15,.67,870,,91,6477411,GORDON GAS PROCESSING PLANT,2 MI N ON HWY 193 FROM I 20,GORDON,TX,76453,32.540042,-98.338133,Palo Pinto,211130,,
6477411,15,.67,85,,100,6477411,GORDON GAS PROCESSING PLANT,2 MI N ON HWY 193 FROM I 20,GORDON,TX,76453,32.540042,-98.338133,Palo Pinto,211130,,
6477411,15,.67,750,,181,6477411,GORDON GAS PROCESSING PLANT,2 MI N ON HWY 193 FROM I 20,GORDON,TX,76453,32.540042,-98.338133,Palo Pinto,211130,,
6477411,18,1,120,,80,6477411,GORDON GAS PROCESSING PLANT,2 MI N ON HWY 193 FROM I 20,GORDON,TX,76453,32.540042,-98.338133,Palo Pinto,211130,,
6477411,18,1,870,,91,6477411,GORDON GAS PROCESSING PLANT,2 MI N ON HWY 193 FROM I 20,GORDON,TX,76453,32.540042,-98.338133,Palo Pinto,211130,,
6477411,24,1.17,750,,70,6477411,GORDON GAS PROCESSING PLANT,2 MI N ON HWY 193 FROM I 20,GORDON,TX,76453,32.540042,-98.338133,Palo Pinto,211130,,
6477411,10,.13,68,,1,6477411,GORDON GAS PROCESSING PLANT,2 MI N ON HWY 193 FROM I 20,GORDON,TX,76453,32.540042,-98.338133,Palo Pinto,211130,,
6477411,10,.17,80,,54,6477411,GORDON GAS PROCESSING PLANT,2 MI N ON HWY 193 FROM I 20,GORDON,TX,76453,32.540042,-98.338133,Palo Pinto,211130,,
6477411,14,.67,700,,82,6477411,GORDON GAS PROCESSING PLANT,2 MI N ON HWY 193 FROM I 20,GORDON,TX,76453,32.540042,-98.338133,Palo Pinto,211130,,
6477411,9,.5,814,,56,6477411,GORDON GAS PROCESSING PLANT,2 MI N ON HWY 193 FROM I 20,GORDON,TX,76453,32.540042,-98.338133,Palo Pinto,211130,,
6477411,15,3,68,,.1,6477411,GORDON GAS PROCESSING PLANT,2 MI N ON HWY 193 FROM I 20,GORDON,TX,76453,32.540042,-98.338133,Palo Pinto,211130,,
6477411,12,.13,85,,10,6477411,GORDON GAS PROCESSING PLANT,2 MI N ON HWY 193 FROM I 20,GORDON,TX,76453,32.540042,-98.338133,Palo Pinto,211130,,
6477411,22,.34,80,,10,6477411,GORDON GAS PROCESSING PLANT,2 MI N ON HWY 193 FROM I 20,GORDON,TX,76453,32.540042,-98.338133,Palo Pinto,211130,,
6477411,20,.84,650,,13,6477411,GORDON GAS PROCESSING PLANT,2 MI N ON HWY 193 FROM I 20,GORDON,TX,76453,32.540042,-98.338133,Palo Pinto,211130,,
6477411,14,.84,600,,10,6477411,GORDON GAS PROCESSING PLANT,2 MI N ON HWY 193 FROM I 20,GORDON,TX,76453,32.540042,-98.338133,Palo Pinto,211130,,
6477411,15,.67,80,,100,6477411,GORDON GAS PROCESSING PLANT,2 MI N ON HWY 193 FROM I 20,GORDON,TX,76453,32.540042,-98.338133,Palo Pinto,211130,,
6477411,23,.5,120,,65,6477411,GORDON GAS PROCESSING PLANT,2 MI N ON HWY 193 FROM I 20,GORDON,TX,76453,32.540042,-98.338133,Palo Pinto,211130,,
6477411,24,1.17,750,,136,6477411,GORDON GAS PROCESSING PLANT,2 MI N ON HWY 193 FROM I 20,GORDON,TX,76453,32.540042,-98.338133,Palo Pinto,211130,,
6477411,13,.66,700,,94,6477411,GORDON GAS PROCESSING PLANT,2 MI N ON HWY 193 FROM I 20,GORDON,TX,76453,32.540042,-98.338133,Palo Pinto,211130,,
6477411,24,1,800,,9.9,6477411,GORDON GAS PROCESSING PLANT,2 MI N ON HWY 193 FROM I 20,GORDON,TX,76453,32.540042,-98.338133,Palo Pinto,211130,,
6477411,24,1.17,85,,100,6477411,GORDON GAS PROCESSING PLANT,2 MI N ON HWY 193 FROM I 20,GORDON,TX,76453,32.540042,-98.338133,Palo Pinto,211130,,
6492411,195,4,746,,41.13,6492411,SAND HILLS PLANT,"STAR RT; BOX 18 CRANE, TX   79731",CRANE,TX,79731,31.501917,-102.640278,Crane,211130,,
6492411,15,3,78,,.1,6492411,SAND HILLS PLANT,"STAR RT; BOX 18 CRANE, TX   79731",CRANE,TX,79731,31.501917,-102.640278,Crane,211130,,
6492411,28,1,750,,91,6492411,SAND HILLS PLANT,"STAR RT; BOX 18 CRANE, TX   79731",CRANE,TX,79731,31.501917,-102.640278,Crane,211130,,
6492411,10,3,63,,.1,6492411,SAND HILLS PLANT,"STAR RT; BOX 18 CRANE, TX   79731",CRANE,TX,79731,31.501917,-102.640278,Crane,211130,,
6492411,8,3,63,,.1,6492411,SAND HILLS PLANT,"STAR RT; BOX 18 CRANE, TX   79731",CRANE,TX,79731,31.501917,-102.640278,Crane,211130,,
6492411,,,,,,6492411,SAND HILLS PLANT,"STAR RT; BOX 18 CRANE, TX   79731",CRANE,TX,79731,31.501917,-102.640278,Crane,211130,,
6492411,1,.1,30,,.1,6492411,SAND HILLS PLANT,"STAR RT; BOX 18 CRANE, TX   79731",CRANE,TX,79731,31.501917,-102.640278,Crane,211130,,
6492411,1,.1,500,,.1,6492411,SAND HILLS PLANT,"STAR RT; BOX 18 CRANE, TX   79731",CRANE,TX,79731,31.501917,-102.640278,Crane,211130,,
6492411,45,.833,700,,70,6492411,SAND HILLS PLANT,"STAR RT; BOX 18 CRANE, TX   79731",CRANE,TX,79731,31.501917,-102.640278,Crane,211130,,
6492411,1,.1,538,,.1,6492411,SAND HILLS PLANT,"STAR RT; BOX 18 CRANE, TX   79731",CRANE,TX,79731,31.501917,-102.640278,Crane,211130,,
6492411,80,1,1000,2.0333,2.5878,6492411,SAND HILLS PLANT,"STAR RT; BOX 18 CRANE, TX   79731",CRANE,TX,79731,31.501917,-102.640278,Crane,211130,,
6492411,80,1,1000,2.9666,3.7757,6492411,SAND HILLS PLANT,"STAR RT; BOX 18 CRANE, TX   79731",CRANE,TX,79731,31.501917,-102.640278,Crane,211130,,
6492411,50,1,1000,0.7166,.9121,6492411,SAND HILLS PLANT,"STAR RT; BOX 18 CRANE, TX   79731",CRANE,TX,79731,31.501917,-102.640278,Crane,211130,,
6492411,20,1,600,,12.5,6492411,SAND HILLS PLANT,"STAR RT; BOX 18 CRANE, TX   79731",CRANE,TX,79731,31.501917,-102.640278,Crane,211130,,
6492411,24,1,700,,82,6492411,SAND HILLS PLANT,"STAR RT; BOX 18 CRANE, TX   79731",CRANE,TX,79731,31.501917,-102.640278,Crane,211130,,
6492411,25,1,80,,10,6492411,SAND HILLS PLANT,"STAR RT; BOX 18 CRANE, TX   79731",CRANE,TX,79731,31.501917,-102.640278,Crane,211130,,
6492411,12,10,66,,.1,6492411,SAND HILLS PLANT,"STAR RT; BOX 18 CRANE, TX   79731",CRANE,TX,79731,31.501917,-102.640278,Crane,211130,,
6492411,8,6,66,,.1,6492411,SAND HILLS PLANT,"STAR RT; BOX 18 CRANE, TX   79731",CRANE,TX,79731,31.501917,-102.640278,Crane,211130,,
6492411,18,1,650,,82,6492411,SAND HILLS PLANT,"STAR RT; BOX 18 CRANE, TX   79731",CRANE,TX,79731,31.501917,-102.640278,Crane,211130,,
6492411,14,2,600,,12.16,6492411,SAND HILLS PLANT,"STAR RT; BOX 18 CRANE, TX   79731",CRANE,TX,79731,31.501917,-102.640278,Crane,211130,,
6492411,15,.2,500,,20,6492411,SAND HILLS PLANT,"STAR RT; BOX 18 CRANE, TX   79731",CRANE,TX,79731,31.501917,-102.640278,Crane,211130,,
6494111,100,1.5,1100,3.0,1.6969,6494111,ARMSTRONG GAS PLANT,10 MI S OF YOAKUM ON FM 682,YOAKUM,TX,77995,29.133778,-97.038733,DeWitt,211130,,
6494111,,,,,,6494111,ARMSTRONG GAS PLANT,10 MI S OF YOAKUM ON FM 682,YOAKUM,TX,77995,29.133778,-97.038733,DeWitt,211130,,
6494111,88,1.33,1100,3.0,2.1585,6494111,ARMSTRONG GAS PLANT,10 MI S OF YOAKUM ON FM 682,YOAKUM,TX,77995,29.133778,-97.038733,DeWitt,211130,,
6494111,30,1.83,1400,42.1666,16.0251,6494111,ARMSTRONG GAS PLANT,10 MI S OF YOAKUM ON FM 682,YOAKUM,TX,77995,29.133778,-97.038733,DeWitt,211130,,
6494111,15,5,80,,.1,6494111,ARMSTRONG GAS PLANT,10 MI S OF YOAKUM ON FM 682,YOAKUM,TX,77995,29.133778,-97.038733,DeWitt,211130,,
6494111,1,.1,30,,.1,6494111,ARMSTRONG GAS PLANT,10 MI S OF YOAKUM ON FM 682,YOAKUM,TX,77995,29.133778,-97.038733,DeWitt,211130,,
6494111,25,.83,550,,10,6494111,ARMSTRONG GAS PLANT,10 MI S OF YOAKUM ON FM 682,YOAKUM,TX,77995,29.133778,-97.038733,DeWitt,211130,,
6494111,30,2,700,,80,6494111,ARMSTRONG GAS PLANT,10 MI S OF YOAKUM ON FM 682,YOAKUM,TX,77995,29.133778,-97.038733,DeWitt,211130,,
6494111,51,3.33,679,,82,6494111,ARMSTRONG GAS PLANT,10 MI S OF YOAKUM ON FM 682,YOAKUM,TX,77995,29.133778,-97.038733,DeWitt,211130,,
6494111,28,1.96,637,,13.1,6494111,ARMSTRONG GAS PLANT,10 MI S OF YOAKUM ON FM 682,YOAKUM,TX,77995,29.133778,-97.038733,DeWitt,211130,,
6494111,10,.33,538,,11.35,6494111,ARMSTRONG GAS PLANT,10 MI S OF YOAKUM ON FM 682,YOAKUM,TX,77995,29.133778,-97.038733,DeWitt,211130,,
6494111,10,.17,1105,,159.02,6494111,ARMSTRONG GAS PLANT,10 MI S OF YOAKUM ON FM 682,YOAKUM,TX,77995,29.133778,-97.038733,DeWitt,211130,,
6494111,20,1.1,1100,8.7916,9.2474,6494111,ARMSTRONG GAS PLANT,10 MI S OF YOAKUM ON FM 682,YOAKUM,TX,77995,29.133778,-97.038733,DeWitt,211130,,
6494111,30,2,600,,70,6494111,ARMSTRONG GAS PLANT,10 MI S OF YOAKUM ON FM 682,YOAKUM,TX,77995,29.133778,-97.038733,DeWitt,211130,,
6494111,75,3.96,415,,10.6,6494111,ARMSTRONG GAS PLANT,10 MI S OF YOAKUM ON FM 682,YOAKUM,TX,77995,29.133778,-97.038733,DeWitt,211130,,
6494111,15,3,585,,23.2,6494111,ARMSTRONG GAS PLANT,10 MI S OF YOAKUM ON FM 682,YOAKUM,TX,77995,29.133778,-97.038733,DeWitt,211130,,
6494111,33,3.33,800,,82.7,6494111,ARMSTRONG GAS PLANT,10 MI S OF YOAKUM ON FM 682,YOAKUM,TX,77995,29.133778,-97.038733,DeWitt,211130,,
6494111,25,1.67,750,,55.3,6494111,ARMSTRONG GAS PLANT,10 MI S OF YOAKUM ON FM 682,YOAKUM,TX,77995,29.133778,-97.038733,DeWitt,211130,,
6494111,55,1.33,700,,82,6494111,ARMSTRONG GAS PLANT,10 MI S OF YOAKUM ON FM 682,YOAKUM,TX,77995,29.133778,-97.038733,DeWitt,211130,,
6494111,27,2,300,,70.1,6494111,ARMSTRONG GAS PLANT,10 MI S OF YOAKUM ON FM 682,YOAKUM,TX,77995,29.133778,-97.038733,DeWitt,211130,,
6494111,52,3.33,804,,70,6494111,ARMSTRONG GAS PLANT,10 MI S OF YOAKUM ON FM 682,YOAKUM,TX,77995,29.133778,-97.038733,DeWitt,211130,,
6494111,75,2,80,,10,6494111,ARMSTRONG GAS PLANT,10 MI S OF YOAKUM ON FM 682,YOAKUM,TX,77995,29.133778,-97.038733,DeWitt,211130,,
6494111,50,2,838,,183,6494111,ARMSTRONG GAS PLANT,10 MI S OF YOAKUM ON FM 682,YOAKUM,TX,77995,29.133778,-97.038733,DeWitt,211130,,
6507511,175,4.25,1175,,63.1,6507511,GOLDSMITH GAS PLANT,FROM INTERCHANGE OF SR 158 & N LOOP 250 ON THE W SIDE OF MIDLAND GO 29 MI NW ON SR 158 TO GOLDSMITH,GOLDSMITH,TX,79741,31.980603,-102.634847,Ector,211130,,
6507511,20,.83,702,,129.4,6507511,GOLDSMITH GAS PLANT,FROM INTERCHANGE OF SR 158 & N LOOP 250 ON THE W SIDE OF MIDLAND GO 29 MI NW ON SR 158 TO GOLDSMITH,GOLDSMITH,TX,79741,31.980603,-102.634847,Ector,211130,,
6507511,15,3,70,,.1,6507511,GOLDSMITH GAS PLANT,FROM INTERCHANGE OF SR 158 & N LOOP 250 ON THE W SIDE OF MIDLAND GO 29 MI NW ON SR 158 TO GOLDSMITH,GOLDSMITH,TX,79741,31.980603,-102.634847,Ector,211130,,
6507511,30,1.17,727,,151,6507511,GOLDSMITH GAS PLANT,FROM INTERCHANGE OF SR 158 & N LOOP 250 ON THE W SIDE OF MIDLAND GO 29 MI NW ON SR 158 TO GOLDSMITH,GOLDSMITH,TX,79741,31.980603,-102.634847,Ector,211130,,
6507511,,,,,,6507511,GOLDSMITH GAS PLANT,FROM INTERCHANGE OF SR 158 & N LOOP 250 ON THE W SIDE OF MIDLAND GO 29 MI NW ON SR 158 TO GOLDSMITH,GOLDSMITH,TX,79741,31.980603,-102.634847,Ector,211130,,
6507511,3,2.9,86,,15,6507511,GOLDSMITH GAS PLANT,FROM INTERCHANGE OF SR 158 & N LOOP 250 ON THE W SIDE OF MIDLAND GO 29 MI NW ON SR 158 TO GOLDSMITH,GOLDSMITH,TX,79741,31.980603,-102.634847,Ector,211130,,
6507511,30,1.17,708,,153,6507511,GOLDSMITH GAS PLANT,FROM INTERCHANGE OF SR 158 & N LOOP 250 ON THE W SIDE OF MIDLAND GO 29 MI NW ON SR 158 TO GOLDSMITH,GOLDSMITH,TX,79741,31.980603,-102.634847,Ector,211130,,
6507511,175,6.5,1175,,52.15,6507511,GOLDSMITH GAS PLANT,FROM INTERCHANGE OF SR 158 & N LOOP 250 ON THE W SIDE OF MIDLAND GO 29 MI NW ON SR 158 TO GOLDSMITH,GOLDSMITH,TX,79741,31.980603,-102.634847,Ector,211130,,
6507511,20,.83,702,,134.5,6507511,GOLDSMITH GAS PLANT,FROM INTERCHANGE OF SR 158 & N LOOP 250 ON THE W SIDE OF MIDLAND GO 29 MI NW ON SR 158 TO GOLDSMITH,GOLDSMITH,TX,79741,31.980603,-102.634847,Ector,211130,,
6507511,30,1,72,,.1,6507511,GOLDSMITH GAS PLANT,FROM INTERCHANGE OF SR 158 & N LOOP 250 ON THE W SIDE OF MIDLAND GO 29 MI NW ON SR 158 TO GOLDSMITH,GOLDSMITH,TX,79741,31.980603,-102.634847,Ector,211130,,
6507511,15.7,10,95,,.1,6507511,GOLDSMITH GAS PLANT,FROM INTERCHANGE OF SR 158 & N LOOP 250 ON THE W SIDE OF MIDLAND GO 29 MI NW ON SR 158 TO GOLDSMITH,GOLDSMITH,TX,79741,31.980603,-102.634847,Ector,211130,,
6507511,37,3.54,640,,47.5,6507511,GOLDSMITH GAS PLANT,FROM INTERCHANGE OF SR 158 & N LOOP 250 ON THE W SIDE OF MIDLAND GO 29 MI NW ON SR 158 TO GOLDSMITH,GOLDSMITH,TX,79741,31.980603,-102.634847,Ector,211130,,
6507511,60,9.03,960,,78.13,6507511,GOLDSMITH GAS PLANT,FROM INTERCHANGE OF SR 158 & N LOOP 250 ON THE W SIDE OF MIDLAND GO 29 MI NW ON SR 158 TO GOLDSMITH,GOLDSMITH,TX,79741,31.980603,-102.634847,Ector,211130,,
6507511,100,2,800,5.0,1.5909,6507511,GOLDSMITH GAS PLANT,FROM INTERCHANGE OF SR 158 & N LOOP 250 ON THE W SIDE OF MIDLAND GO 29 MI NW ON SR 158 TO GOLDSMITH,GOLDSMITH,TX,79741,31.980603,-102.634847,Ector,211130,,
6507511,110,1.3,800,5.0,3.7654,6507511,GOLDSMITH GAS PLANT,FROM INTERCHANGE OF SR 158 & N LOOP 250 ON THE W SIDE OF MIDLAND GO 29 MI NW ON SR 158 TO GOLDSMITH,GOLDSMITH,TX,79741,31.980603,-102.634847,Ector,211130,,
6507511,18,.1,30,,.1,6507511,GOLDSMITH GAS PLANT,FROM INTERCHANGE OF SR 158 & N LOOP 250 ON THE W SIDE OF MIDLAND GO 29 MI NW ON SR 158 TO GOLDSMITH,GOLDSMITH,TX,79741,31.980603,-102.634847,Ector,211130,,
6507511,37,3.54,640,,80,6507511,GOLDSMITH GAS PLANT,FROM INTERCHANGE OF SR 158 & N LOOP 250 ON THE W SIDE OF MIDLAND GO 29 MI NW ON SR 158 TO GOLDSMITH,GOLDSMITH,TX,79741,31.980603,-102.634847,Ector,211130,,
6507511,30,1.17,701,,156,6507511,GOLDSMITH GAS PLANT,FROM INTERCHANGE OF SR 158 & N LOOP 250 ON THE W SIDE OF MIDLAND GO 29 MI NW ON SR 158 TO GOLDSMITH,GOLDSMITH,TX,79741,31.980603,-102.634847,Ector,211130,,
6507511,39,2,700,,90,6507511,GOLDSMITH GAS PLANT,FROM INTERCHANGE OF SR 158 & N LOOP 250 ON THE W SIDE OF MIDLAND GO 29 MI NW ON SR 158 TO GOLDSMITH,GOLDSMITH,TX,79741,31.980603,-102.634847,Ector,211130,,
6507511,31,3,70,,.1,6507511,GOLDSMITH GAS PLANT,FROM INTERCHANGE OF SR 158 & N LOOP 250 ON THE W SIDE OF MIDLAND GO 29 MI NW ON SR 158 TO GOLDSMITH,GOLDSMITH,TX,79741,31.980603,-102.634847,Ector,211130,,
6507511,16,3,70,,.1,6507511,GOLDSMITH GAS PLANT,FROM INTERCHANGE OF SR 158 & N LOOP 250 ON THE W SIDE OF MIDLAND GO 29 MI NW ON SR 158 TO GOLDSMITH,GOLDSMITH,TX,79741,31.980603,-102.634847,Ector,211130,,
6507511,35,1.66,1000,,9.1,6507511,GOLDSMITH GAS PLANT,FROM INTERCHANGE OF SR 158 & N LOOP 250 ON THE W SIDE OF MIDLAND GO 29 MI NW ON SR 158 TO GOLDSMITH,GOLDSMITH,TX,79741,31.980603,-102.634847,Ector,211130,,
6507511,17,.25,72,,.1,6507511,GOLDSMITH GAS PLANT,FROM INTERCHANGE OF SR 158 & N LOOP 250 ON THE W SIDE OF MIDLAND GO 29 MI NW ON SR 158 TO GOLDSMITH,GOLDSMITH,TX,79741,31.980603,-102.634847,Ector,211130,,
6508111,75,1,1000,0.1666,.2121,6508111,OZONA GAS PLANT,1.8 MI S SH 163,OZONA,TX,76943,30.682764,-101.217275,Crockett,211130,,
6508111,20,3,70,,.1,6508111,OZONA GAS PLANT,1.8 MI S SH 163,OZONA,TX,76943,30.682764,-101.217275,Crockett,211130,,
6508111,15,3,70,,.1,6508111,OZONA GAS PLANT,1.8 MI S SH 163,OZONA,TX,76943,30.682764,-101.217275,Crockett,211130,,
6508111,,,,,,6508111,OZONA GAS PLANT,1.8 MI S SH 163,OZONA,TX,76943,30.682764,-101.217275,Crockett,211130,,
6508111,55,1.5,780,,142,6508111,OZONA GAS PLANT,1.8 MI S SH 163,OZONA,TX,76943,30.682764,-101.217275,Crockett,211130,,
6508111,55,.83,863,,196.92,6508111,OZONA GAS PLANT,1.8 MI S SH 163,OZONA,TX,76943,30.682764,-101.217275,Crockett,211130,,
6508111,12,.33,700,,50,6508111,OZONA GAS PLANT,1.8 MI S SH 163,OZONA,TX,76943,30.682764,-101.217275,Crockett,211130,,
6508111,10,3,70,,.1,6508111,OZONA GAS PLANT,1.8 MI S SH 163,OZONA,TX,76943,30.682764,-101.217275,Crockett,211130,,
6508111,10,2,850,,1,6508111,OZONA GAS PLANT,1.8 MI S SH 163,OZONA,TX,76943,30.682764,-101.217275,Crockett,211130,,
6508111,55,.83,801,,90.4,6508111,OZONA GAS PLANT,1.8 MI S SH 163,OZONA,TX,76943,30.682764,-101.217275,Crockett,211130,,
6508111,26,.83,850,,82.75,6508111,OZONA GAS PLANT,1.8 MI S SH 163,OZONA,TX,76943,30.682764,-101.217275,Crockett,211130,,
6508111,20,1,500,,15,6508111,OZONA GAS PLANT,1.8 MI S SH 163,OZONA,TX,76943,30.682764,-101.217275,Crockett,211130,,
6508111,50,2.33,850,,25.22,6508111,OZONA GAS PLANT,1.8 MI S SH 163,OZONA,TX,76943,30.682764,-101.217275,Crockett,211130,,
6508111,50,1,842,,126.4,6508111,OZONA GAS PLANT,1.8 MI S SH 163,OZONA,TX,76943,30.682764,-101.217275,Crockett,211130,,
6508111,16,3,70,,.1,6508111,OZONA GAS PLANT,1.8 MI S SH 163,OZONA,TX,76943,30.682764,-101.217275,Crockett,211130,,
6508111,15,.5,120,,10,6508111,OZONA GAS PLANT,1.8 MI S SH 163,OZONA,TX,76943,30.682764,-101.217275,Crockett,211130,,
6508111,17,1.5,405,,15.5,6508111,OZONA GAS PLANT,1.8 MI S SH 163,OZONA,TX,76943,30.682764,-101.217275,Crockett,211130,,
6613811,75,2,1832,3.6666,1.1666,6613811,SOUTHWEST OZONA GAS PLANT,4 MI W IH10; 22.5 MI S FM 2083,OZONA,TX,76943,30.446153,-101.466622,Crockett,211130,,
6613811,13,3,65,,.1,6613811,SOUTHWEST OZONA GAS PLANT,4 MI W IH10; 22.5 MI S FM 2083,OZONA,TX,76943,30.446153,-101.466622,Crockett,211130,,
6613811,6,3,65,,.1,6613811,SOUTHWEST OZONA GAS PLANT,4 MI W IH10; 22.5 MI S FM 2083,OZONA,TX,76943,30.446153,-101.466622,Crockett,211130,,
6613811,10,3,68,,.1,6613811,SOUTHWEST OZONA GAS PLANT,4 MI W IH10; 22.5 MI S FM 2083,OZONA,TX,76943,30.446153,-101.466622,Crockett,211130,,
6613811,10,3,30,,.1,6613811,SOUTHWEST OZONA GAS PLANT,4 MI W IH10; 22.5 MI S FM 2083,OZONA,TX,76943,30.446153,-101.466622,Crockett,211130,,
6613811,12,3,68,,.1,6613811,SOUTHWEST OZONA GAS PLANT,4 MI W IH10; 22.5 MI S FM 2083,OZONA,TX,76943,30.446153,-101.466622,Crockett,211130,,
6613811,,,,,,6613811,SOUTHWEST OZONA GAS PLANT,4 MI W IH10; 22.5 MI S FM 2083,OZONA,TX,76943,30.446153,-101.466622,Crockett,211130,,
6613811,20,.25,72,,.1,6613811,SOUTHWEST OZONA GAS PLANT,4 MI W IH10; 22.5 MI S FM 2083,OZONA,TX,76943,30.446153,-101.466622,Crockett,211130,,
6613811,15,.25,72,,.1,6613811,SOUTHWEST OZONA GAS PLANT,4 MI W IH10; 22.5 MI S FM 2083,OZONA,TX,76943,30.446153,-101.466622,Crockett,211130,,
6613811,40,1,842,,126.79,6613811,SOUTHWEST OZONA GAS PLANT,4 MI W IH10; 22.5 MI S FM 2083,OZONA,TX,76943,30.446153,-101.466622,Crockett,211130,,
6613811,25,1,72,,100,6613811,SOUTHWEST OZONA GAS PLANT,4 MI W IH10; 22.5 MI S FM 2083,OZONA,TX,76943,30.446153,-101.466622,Crockett,211130,,
6613811,40,.83,702,,93,6613811,SOUTHWEST OZONA GAS PLANT,4 MI W IH10; 22.5 MI S FM 2083,OZONA,TX,76943,30.446153,-101.466622,Crockett,211130,,
6613811,55,1.5,910,,138.5,6613811,SOUTHWEST OZONA GAS PLANT,4 MI W IH10; 22.5 MI S FM 2083,OZONA,TX,76943,30.446153,-101.466622,Crockett,211130,,
6613811,50,.83,702,,127.99,6613811,SOUTHWEST OZONA GAS PLANT,4 MI W IH10; 22.5 MI S FM 2083,OZONA,TX,76943,30.446153,-101.466622,Crockett,211130,,
6613811,11,3,65,,.1,6613811,SOUTHWEST OZONA GAS PLANT,4 MI W IH10; 22.5 MI S FM 2083,OZONA,TX,76943,30.446153,-101.466622,Crockett,211130,,
6613811,15,3,65,,.1,6613811,SOUTHWEST OZONA GAS PLANT,4 MI W IH10; 22.5 MI S FM 2083,OZONA,TX,76943,30.446153,-101.466622,Crockett,211130,,
6613811,25,1.5,600,,9.43,6613811,SOUTHWEST OZONA GAS PLANT,4 MI W IH10; 22.5 MI S FM 2083,OZONA,TX,76943,30.446153,-101.466622,Crockett,211130,,
6613811,75,24,1832,52.0,.1148,6613811,SOUTHWEST OZONA GAS PLANT,4 MI W IH10; 22.5 MI S FM 2083,OZONA,TX,76943,30.446153,-101.466622,Crockett,211130,,
6613811,30,1.33,700,,68.6,6613811,SOUTHWEST OZONA GAS PLANT,4 MI W IH10; 22.5 MI S FM 2083,OZONA,TX,76943,30.446153,-101.466622,Crockett,211130,,
6614011,55,1,1000,5.0,6.3636,6614011,JAMESON GAS PLANT,SILVER,SILVER,TX,76949,32.048325,-100.684281,Coke,211130,,
6614011,40,1.5,700,,87.8,6614011,JAMESON GAS PLANT,SILVER,SILVER,TX,76949,32.048325,-100.684281,Coke,211130,,
6614011,,,,,,6614011,JAMESON GAS PLANT,SILVER,SILVER,TX,76949,32.048325,-100.684281,Coke,211130,,
6614011,52,1,1000,5.0,6.3636,6614011,JAMESON GAS PLANT,SILVER,SILVER,TX,76949,32.048325,-100.684281,Coke,211130,,
6614011,25,.83,842,,181.94,6614011,JAMESON GAS PLANT,SILVER,SILVER,TX,76949,32.048325,-100.684281,Coke,211130,,
6614011,30,1,788,,53,6614011,JAMESON GAS PLANT,SILVER,SILVER,TX,76949,32.048325,-100.684281,Coke,211130,,
6614011,16,3,77,,.1,6614011,JAMESON GAS PLANT,SILVER,SILVER,TX,76949,32.048325,-100.684281,Coke,211130,,
6614011,12,.7,900,,9.41,6614011,JAMESON GAS PLANT,SILVER,SILVER,TX,76949,32.048325,-100.684281,Coke,211130,,
6614011,25,2,1000,1.6666,.5303,6614011,JAMESON GAS PLANT,SILVER,SILVER,TX,76949,32.048325,-100.684281,Coke,211130,,
6614011,21,.83,700,,82,6614011,JAMESON GAS PLANT,SILVER,SILVER,TX,76949,32.048325,-100.684281,Coke,211130,,
6614011,41,1,700,,82,6614011,JAMESON GAS PLANT,SILVER,SILVER,TX,76949,32.048325,-100.684281,Coke,211130,,
6614011,17,.7,400,,7.8,6614011,JAMESON GAS PLANT,SILVER,SILVER,TX,76949,32.048325,-100.684281,Coke,211130,,
6614011,13,.67,548,,9.46,6614011,JAMESON GAS PLANT,SILVER,SILVER,TX,76949,32.048325,-100.684281,Coke,211130,,
6614011,40,1.67,700,,50.2,6614011,JAMESON GAS PLANT,SILVER,SILVER,TX,76949,32.048325,-100.684281,Coke,211130,,
6614011,12,.3,80,,.3,6614011,JAMESON GAS PLANT,SILVER,SILVER,TX,76949,32.048325,-100.684281,Coke,211130,,
6614011,30,.83,700,,70,6614011,JAMESON GAS PLANT,SILVER,SILVER,TX,76949,32.048325,-100.684281,Coke,211130,,
6614011,17,.83,700,,82,6614011,JAMESON GAS PLANT,SILVER,SILVER,TX,76949,32.048325,-100.684281,Coke,211130,,
6614011,44,1.33,700,,93,6614011,JAMESON GAS PLANT,SILVER,SILVER,TX,76949,32.048325,-100.684281,Coke,211130,,
6614011,41,1.25,700,,75.6,6614011,JAMESON GAS PLANT,SILVER,SILVER,TX,76949,32.048325,-100.684281,Coke,211130,,
6614011,17,.3,75,,.1,6614011,JAMESON GAS PLANT,SILVER,SILVER,TX,76949,32.048325,-100.684281,Coke,211130,,
6614011,17,.83,700,,69.4,6614011,JAMESON GAS PLANT,SILVER,SILVER,TX,76949,32.048325,-100.684281,Coke,211130,,
6614011,40,1.67,700,,50,6614011,JAMESON GAS PLANT,SILVER,SILVER,TX,76949,32.048325,-100.684281,Coke,211130,,
6614011,25,.83,750,,212.9,6614011,JAMESON GAS PLANT,SILVER,SILVER,TX,76949,32.048325,-100.684281,Coke,211130,,
6614011,30,1,992,,193.66,6614011,JAMESON GAS PLANT,SILVER,SILVER,TX,76949,32.048325,-100.684281,Coke,211130,,
6757611,23,.83,700,,70,6757611,NORTH CROSS COMP STATION4,4.3 M W ON US 67/385,MCCAMEY,TX,79752,31.115864,-102.296497,Upton,2111,,
6757611,15,.5,700,,80,6757611,NORTH CROSS COMP STATION4,4.3 M W ON US 67/385,MCCAMEY,TX,79752,31.115864,-102.296497,Upton,2111,,
6757611,20,.4,400,,.9,6757611,NORTH CROSS COMP STATION4,4.3 M W ON US 67/385,MCCAMEY,TX,79752,31.115864,-102.296497,Upton,2111,,
6757611,,,,,,6757611,NORTH CROSS COMP STATION4,4.3 M W ON US 67/385,MCCAMEY,TX,79752,31.115864,-102.296497,Upton,2111,,
6757611,18,.83,700,,56.3,6757611,NORTH CROSS COMP STATION4,4.3 M W ON US 67/385,MCCAMEY,TX,79752,31.115864,-102.296497,Upton,2111,,
6757611,23,.83,700,,2,6757611,NORTH CROSS COMP STATION4,4.3 M W ON US 67/385,MCCAMEY,TX,79752,31.115864,-102.296497,Upton,2111,,
6757611,6,4,65,,.1,6757611,NORTH CROSS COMP STATION4,4.3 M W ON US 67/385,MCCAMEY,TX,79752,31.115864,-102.296497,Upton,2111,,
6757611,6,3,65,,.1,6757611,NORTH CROSS COMP STATION4,4.3 M W ON US 67/385,MCCAMEY,TX,79752,31.115864,-102.296497,Upton,2111,,
6757611,15,.6,75,,30,6757611,NORTH CROSS COMP STATION4,4.3 M W ON US 67/385,MCCAMEY,TX,79752,31.115864,-102.296497,Upton,2111,,
6757611,20,.85,814,,82,6757611,NORTH CROSS COMP STATION4,4.3 M W ON US 67/385,MCCAMEY,TX,79752,31.115864,-102.296497,Upton,2111,,
6757611,15,.5,750,,80,6757611,NORTH CROSS COMP STATION4,4.3 M W ON US 67/385,MCCAMEY,TX,79752,31.115864,-102.296497,Upton,2111,,
6757611,8,3,65,,.1,6757611,NORTH CROSS COMP STATION4,4.3 M W ON US 67/385,MCCAMEY,TX,79752,31.115864,-102.296497,Upton,2111,,
6757611,14.5,.67,847,,79,6757611,NORTH CROSS COMP STATION4,4.3 M W ON US 67/385,MCCAMEY,TX,79752,31.115864,-102.296497,Upton,2111,,
6757611,2.5,.6,75,,30,6757611,NORTH CROSS COMP STATION4,4.3 M W ON US 67/385,MCCAMEY,TX,79752,31.115864,-102.296497,Upton,2111,,
7217611,20,2,450,69.7833,22.2,7217611,SHOLEM GAS PLT,1 MI N OF MOBIL & SEMINOLE RD,VELMA,OK,73081,34.49425,-97.58698,Stephens,211130,,
7217611,,,,,,7217611,SHOLEM GAS PLT,1 MI N OF MOBIL & SEMINOLE RD,VELMA,OK,73081,34.49425,-97.58698,Stephens,211130,,
7217611,29,1.5,878,265.1833,150.063,7217611,SHOLEM GAS PLT,1 MI N OF MOBIL & SEMINOLE RD,VELMA,OK,73081,34.49425,-97.58698,Stephens,211130,,
7217611,15,.5,800,12.7633,65,7217611,SHOLEM GAS PLT,1 MI N OF MOBIL & SEMINOLE RD,VELMA,OK,73081,34.49425,-97.58698,Stephens,211130,,
7217611,18,.2,210,3.3333,106,7217611,SHOLEM GAS PLT,1 MI N OF MOBIL & SEMINOLE RD,VELMA,OK,73081,34.49425,-97.58698,Stephens,211130,,
7217611,11,.5,900,20.0,101.859,7217611,SHOLEM GAS PLT,1 MI N OF MOBIL & SEMINOLE RD,VELMA,OK,73081,34.49425,-97.58698,Stephens,211130,,
7217611,20,1,375,5.0,6.366,7217611,SHOLEM GAS PLT,1 MI N OF MOBIL & SEMINOLE RD,VELMA,OK,73081,34.49425,-97.58698,Stephens,211130,,
7217611,28,1.5,867,199.5166,112.903,7217611,SHOLEM GAS PLT,1 MI N OF MOBIL & SEMINOLE RD,VELMA,OK,73081,34.49425,-97.58698,Stephens,211130,,
7217611,24,1.2,1055,116.1166,102.67,7217611,SHOLEM GAS PLT,1 MI N OF MOBIL & SEMINOLE RD,VELMA,OK,73081,34.49425,-97.58698,Stephens,211130,,
7218811,35,1.2,930,95.0666,84.057,7218811,MOORELAND GAS PLANT,2 MILES E OF,MOORELAND,OK,73802,36.43768,-99.15736,Woodward,211130,,
7218811,,,,,,7218811,MOORELAND GAS PLANT,2 MILES E OF,MOORELAND,OK,73802,36.43768,-99.15736,Woodward,211130,,
7218811,20,1,375,5.0,6.366,7218811,MOORELAND GAS PLANT,2 MILES E OF,MOORELAND,OK,73802,36.43768,-99.15736,Woodward,211130,,
7218811,25,1,375,5.0,6.37,7218811,MOORELAND GAS PLANT,2 MILES E OF,MOORELAND,OK,73802,36.43768,-99.15736,Woodward,211130,,
7218811,19,1,930,92.3666,117.605,7218811,MOORELAND GAS PLANT,2 MILES E OF,MOORELAND,OK,73802,36.43768,-99.15736,Woodward,211130,,
7218811,35,1.5,910,202.0666,114.3,7218811,MOORELAND GAS PLANT,2 MILES E OF,MOORELAND,OK,73802,36.43768,-99.15736,Woodward,211130,,
7218811,15,.5,800,12.7633,65,7218811,MOORELAND GAS PLANT,2 MILES E OF,MOORELAND,OK,73802,36.43768,-99.15736,Woodward,211130,,
7218811,50,1,375,5.0,6.37,7218811,MOORELAND GAS PLANT,2 MILES E OF,MOORELAND,OK,73802,36.43768,-99.15736,Woodward,211130,,
7218811,12,1,375,5.0,6.366,7218811,MOORELAND GAS PLANT,2 MILES E OF,MOORELAND,OK,73802,36.43768,-99.15736,Woodward,211130,,
7218811,35,1,375,5.0,6.366,7218811,MOORELAND GAS PLANT,2 MILES E OF,MOORELAND,OK,73802,36.43768,-99.15736,Woodward,211130,,
7218811,23,1,1056,76.2,97.021,7218811,MOORELAND GAS PLANT,2 MILES E OF,MOORELAND,OK,73802,36.43768,-99.15736,Woodward,211130,,
7218811,19,1,930,121.6666,154.911,7218811,MOORELAND GAS PLANT,2 MILES E OF,MOORELAND,OK,73802,36.43768,-99.15736,Woodward,211130,,
7218811,35,1.5,910,202.0666,114.346,7218811,MOORELAND GAS PLANT,2 MILES E OF,MOORELAND,OK,73802,36.43768,-99.15736,Woodward,211130,,
7218811,30,1,375,5.0,6.37,7218811,MOORELAND GAS PLANT,2 MILES E OF,MOORELAND,OK,73802,36.43768,-99.15736,Woodward,211130,,
7218811,20,.48,500,2.18,12,7218811,MOORELAND GAS PLANT,2 MILES E OF,MOORELAND,OK,73802,36.43768,-99.15736,Woodward,211130,,
7218911,51,1,375,5.0,6.366,7218911,CIMARRON NAT GAS PROCESSING PLT,2 MILES NW OF SEILING,RICHMOND,OK,73663,36.18351,-98.99418,Woodward,211130,,
7218911,18,.83,1250,59.5833,110.123,7218911,CIMARRON NAT GAS PROCESSING PLT,2 MILES NW OF SEILING,RICHMOND,OK,73663,36.18351,-98.99418,Woodward,211130,,
7218911,13,.8,700,33.75,67.143,7218911,CIMARRON NAT GAS PROCESSING PLT,2 MILES NW OF SEILING,RICHMOND,OK,73663,36.18351,-98.99418,Woodward,211130,,
7218911,18,1,1149,108.75,138.465,7218911,CIMARRON NAT GAS PROCESSING PLT,2 MILES NW OF SEILING,RICHMOND,OK,73663,36.18351,-98.99418,Woodward,211130,,
7218911,17,.83,952,51.6666,95.491,7218911,CIMARRON NAT GAS PROCESSING PLT,2 MILES NW OF SEILING,RICHMOND,OK,73663,36.18351,-98.99418,Woodward,211130,,
7218911,18,.83,1250,58.95,108.953,7218911,CIMARRON NAT GAS PROCESSING PLT,2 MILES NW OF SEILING,RICHMOND,OK,73663,36.18351,-98.99418,Woodward,211130,,
7218911,,,,,,7218911,CIMARRON NAT GAS PROCESSING PLT,2 MILES NW OF SEILING,RICHMOND,OK,73663,36.18351,-98.99418,Woodward,211130,,
7218911,20,.48,500,2.18,12,7218911,CIMARRON NAT GAS PROCESSING PLT,2 MILES NW OF SEILING,RICHMOND,OK,73663,36.18351,-98.99418,Woodward,211130,,
7218911,15,.5,800,12.7633,65,7218911,CIMARRON NAT GAS PROCESSING PLT,2 MILES NW OF SEILING,RICHMOND,OK,73663,36.18351,-98.99418,Woodward,211130,,
7218911,18,.2,210,3.3333,106,7218911,CIMARRON NAT GAS PROCESSING PLT,2 MILES NW OF SEILING,RICHMOND,OK,73663,36.18351,-98.99418,Woodward,211130,,
7218911,10,1,375,5.0,6.366,7218911,CIMARRON NAT GAS PROCESSING PLT,2 MILES NW OF SEILING,RICHMOND,OK,73663,36.18351,-98.99418,Woodward,211130,,
7411811,100,4,1000,339.2,27,7411811,Artesia Gas Plant,1925 Illinois Camp Road,Artesia,NM,88210,32.75676,-104.21012,Eddy,21112,,
7411811,46,1,1340,,89.2,7411811,Artesia Gas Plant,1925 Illinois Camp Road,Artesia,NM,88210,32.75676,-104.21012,Eddy,21112,,
7411811,42,1,855,,163,7411811,Artesia Gas Plant,1925 Illinois Camp Road,Artesia,NM,88210,32.75676,-104.21012,Eddy,21112,,
7411811,44.7,3,750,,21.2,7411811,Artesia Gas Plant,1925 Illinois Camp Road,Artesia,NM,88210,32.75676,-104.21012,Eddy,21112,,
7411811,33.1,3.6,630,,20.8,7411811,Artesia Gas Plant,1925 Illinois Camp Road,Artesia,NM,88210,32.75676,-104.21012,Eddy,21112,,
7411811,70.6,1.6,1832,,65.6,7411811,Artesia Gas Plant,1925 Illinois Camp Road,Artesia,NM,88210,32.75676,-104.21012,Eddy,21112,,
7411811,42.3,3.6,750,,21.2,7411811,Artesia Gas Plant,1925 Illinois Camp Road,Artesia,NM,88210,32.75676,-104.21012,Eddy,21112,,
7411811,40.3,1,1340,,89.2,7411811,Artesia Gas Plant,1925 Illinois Camp Road,Artesia,NM,88210,32.75676,-104.21012,Eddy,21112,,
7411811,46,1,1125,,147.9,7411811,Artesia Gas Plant,1925 Illinois Camp Road,Artesia,NM,88210,32.75676,-104.21012,Eddy,21112,,
7440211,285,5.5,1300,664.6166,27.97,7440211,Escambia Operating Company LLC,3888 Sardis Road,Atmore,AL,36502,31.0717,-87.3629,Escambia,211130,,
7440211,20,.83,150,0.038,.07,7440211,Escambia Operating Company LLC,3888 Sardis Road,Atmore,AL,36502,31.0717,-87.3629,Escambia,211130,,
7440211,20,1,1100,26.9666,34.33,7440211,Escambia Operating Company LLC,3888 Sardis Road,Atmore,AL,36502,31.0717,-87.3629,Escambia,211130,,
7440211,20,1,700,26.9666,34.33,7440211,Escambia Operating Company LLC,3888 Sardis Road,Atmore,AL,36502,31.0717,-87.3629,Escambia,211130,,
7440211,20,1.17,850,15.8166,14.71,7440211,Escambia Operating Company LLC,3888 Sardis Road,Atmore,AL,36502,31.0717,-87.3629,Escambia,211130,,
7440211,35,.5,850,19.9831,101.77,7440211,Escambia Operating Company LLC,3888 Sardis Road,Atmore,AL,36502,31.0717,-87.3629,Escambia,211130,,
7440211,20,1.16,850,15.8166,14.97,7440211,Escambia Operating Company LLC,3888 Sardis Road,Atmore,AL,36502,31.0717,-87.3629,Escambia,211130,,
7440211,30,1.5,850,192.25,108.79,7440211,Escambia Operating Company LLC,3888 Sardis Road,Atmore,AL,36502,31.0717,-87.3629,Escambia,211130,,
7440211,20,.66,900,52.2333,152.68,7440211,Escambia Operating Company LLC,3888 Sardis Road,Atmore,AL,36502,31.0717,-87.3629,Escambia,211130,,
7440211,20,.66,800,52.2333,152.68,7440211,Escambia Operating Company LLC,3888 Sardis Road,Atmore,AL,36502,31.0717,-87.3629,Escambia,211130,,
7440211,137.7,2,1200,40.6666,12.94,7440211,Escambia Operating Company LLC,3888 Sardis Road,Atmore,AL,36502,31.0717,-87.3629,Escambia,211130,,
7440211,,,,,,7440211,Escambia Operating Company LLC,3888 Sardis Road,Atmore,AL,36502,31.0717,-87.3629,Escambia,211130,,
7440211,42,.38,1200,0.8666,7.64,7440211,Escambia Operating Company LLC,3888 Sardis Road,Atmore,AL,36502,31.0717,-87.3629,Escambia,211130,,
7440211,50,.67,1200,0.0308,.09,7440211,Escambia Operating Company LLC,3888 Sardis Road,Atmore,AL,36502,31.0717,-87.3629,Escambia,211130,,
7661811,128,1.5,650,0.1666,.0942,7661811,EAST TEXAS GAS PLANT,5 MI E ON US HWY 79,CARTHAGE,TX,75633,32.1875,-94.2625,Panola,211130,,
7661811,26,.67,750,,115.6,7661811,EAST TEXAS GAS PLANT,5 MI E ON US HWY 79,CARTHAGE,TX,75633,32.1875,-94.2625,Panola,211130,,
7661811,24,.83,750,,103.6,7661811,EAST TEXAS GAS PLANT,5 MI E ON US HWY 79,CARTHAGE,TX,75633,32.1875,-94.2625,Panola,211130,,
7661811,37,1.33,750,,37.5,7661811,EAST TEXAS GAS PLANT,5 MI E ON US HWY 79,CARTHAGE,TX,75633,32.1875,-94.2625,Panola,211130,,
7661811,52,1.5,992,,48.6,7661811,EAST TEXAS GAS PLANT,5 MI E ON US HWY 79,CARTHAGE,TX,75633,32.1875,-94.2625,Panola,211130,,
7661811,,,,,,7661811,EAST TEXAS GAS PLANT,5 MI E ON US HWY 79,CARTHAGE,TX,75633,32.1875,-94.2625,Panola,211130,,
7661811,26,3.33,824,,155.4,7661811,EAST TEXAS GAS PLANT,5 MI E ON US HWY 79,CARTHAGE,TX,75633,32.1875,-94.2625,Panola,211130,,
7661811,20,1,72,,1,7661811,EAST TEXAS GAS PLANT,5 MI E ON US HWY 79,CARTHAGE,TX,75633,32.1875,-94.2625,Panola,211130,,
7661811,36,1.5,750,,62.1,7661811,EAST TEXAS GAS PLANT,5 MI E ON US HWY 79,CARTHAGE,TX,75633,32.1875,-94.2625,Panola,211130,,
7661811,56,2.83,670,,16.1,7661811,EAST TEXAS GAS PLANT,5 MI E ON US HWY 79,CARTHAGE,TX,75633,32.1875,-94.2625,Panola,211130,,
7661811,45,2,600,,83.9,7661811,EAST TEXAS GAS PLANT,5 MI E ON US HWY 79,CARTHAGE,TX,75633,32.1875,-94.2625,Panola,211130,,
7661811,40,.4,1000,2.0,15.909,7661811,EAST TEXAS GAS PLANT,5 MI E ON US HWY 79,CARTHAGE,TX,75633,32.1875,-94.2625,Panola,211130,,
7661811,24,1,750,,123.7,7661811,EAST TEXAS GAS PLANT,5 MI E ON US HWY 79,CARTHAGE,TX,75633,32.1875,-94.2625,Panola,211130,,
7661811,45,1.67,250,,26.88,7661811,EAST TEXAS GAS PLANT,5 MI E ON US HWY 79,CARTHAGE,TX,75633,32.1875,-94.2625,Panola,211130,,
7661811,26,3.33,830,,155.4,7661811,EAST TEXAS GAS PLANT,5 MI E ON US HWY 79,CARTHAGE,TX,75633,32.1875,-94.2625,Panola,211130,,
7661811,60,.5,120,,43.5,7661811,EAST TEXAS GAS PLANT,5 MI E ON US HWY 79,CARTHAGE,TX,75633,32.1875,-94.2625,Panola,211130,,
7661811,30,.83,77,,45,7661811,EAST TEXAS GAS PLANT,5 MI E ON US HWY 79,CARTHAGE,TX,75633,32.1875,-94.2625,Panola,211130,,
7661811,30,.83,77,,54,7661811,EAST TEXAS GAS PLANT,5 MI E ON US HWY 79,CARTHAGE,TX,75633,32.1875,-94.2625,Panola,211130,,
7661811,20,1.33,400,,48,7661811,EAST TEXAS GAS PLANT,5 MI E ON US HWY 79,CARTHAGE,TX,75633,32.1875,-94.2625,Panola,211130,,
7661811,26,3.33,830,,70,7661811,EAST TEXAS GAS PLANT,5 MI E ON US HWY 79,CARTHAGE,TX,75633,32.1875,-94.2625,Panola,211130,,
7661811,45,1,400,,48,7661811,EAST TEXAS GAS PLANT,5 MI E ON US HWY 79,CARTHAGE,TX,75633,32.1875,-94.2625,Panola,211130,,
7661811,8,3,72,,.1,7661811,EAST TEXAS GAS PLANT,5 MI E ON US HWY 79,CARTHAGE,TX,75633,32.1875,-94.2625,Panola,211130,,
7661811,36,1.5,1087,,52.4,7661811,EAST TEXAS GAS PLANT,5 MI E ON US HWY 79,CARTHAGE,TX,75633,32.1875,-94.2625,Panola,211130,,
7661811,48,3,670,,14.7,7661811,EAST TEXAS GAS PLANT,5 MI E ON US HWY 79,CARTHAGE,TX,75633,32.1875,-94.2625,Panola,211130,,
7661811,36,1.5,1127,,52.4,7661811,EAST TEXAS GAS PLANT,5 MI E ON US HWY 79,CARTHAGE,TX,75633,32.1875,-94.2625,Panola,211130,,
7661811,24,.83,750,,110,7661811,EAST TEXAS GAS PLANT,5 MI E ON US HWY 79,CARTHAGE,TX,75633,32.1875,-94.2625,Panola,211130,,
7661811,24,1,750,,104.81,7661811,EAST TEXAS GAS PLANT,5 MI E ON US HWY 79,CARTHAGE,TX,75633,32.1875,-94.2625,Panola,211130,,
7661811,80,4.73,830,,71,7661811,EAST TEXAS GAS PLANT,5 MI E ON US HWY 79,CARTHAGE,TX,75633,32.1875,-94.2625,Panola,211130,,
7661811,27,3.33,824,,173.8,7661811,EAST TEXAS GAS PLANT,5 MI E ON US HWY 79,CARTHAGE,TX,75633,32.1875,-94.2625,Panola,211130,,
7661811,20,3,72,,.1,7661811,EAST TEXAS GAS PLANT,5 MI E ON US HWY 79,CARTHAGE,TX,75633,32.1875,-94.2625,Panola,211130,,
7661811,40,1.5,728,,60,7661811,EAST TEXAS GAS PLANT,5 MI E ON US HWY 79,CARTHAGE,TX,75633,32.1875,-94.2625,Panola,211130,,
7661811,25,.83,702,,103.56,7661811,EAST TEXAS GAS PLANT,5 MI E ON US HWY 79,CARTHAGE,TX,75633,32.1875,-94.2625,Panola,211130,,
7661811,70,3.5,1400,,2,7661811,EAST TEXAS GAS PLANT,5 MI E ON US HWY 79,CARTHAGE,TX,75633,32.1875,-94.2625,Panola,211130,,
7661811,10,3,72,,.1,7661811,EAST TEXAS GAS PLANT,5 MI E ON US HWY 79,CARTHAGE,TX,75633,32.1875,-94.2625,Panola,211130,,
7661811,6,3,72,,.1,7661811,EAST TEXAS GAS PLANT,5 MI E ON US HWY 79,CARTHAGE,TX,75633,32.1875,-94.2625,Panola,211130,,
7661811,22,3,72,,.1,7661811,EAST TEXAS GAS PLANT,5 MI E ON US HWY 79,CARTHAGE,TX,75633,32.1875,-94.2625,Panola,211130,,
7661811,36,1.5,810,,91.9,7661811,EAST TEXAS GAS PLANT,5 MI E ON US HWY 79,CARTHAGE,TX,75633,32.1875,-94.2625,Panola,211130,,
7661811,24,1.12,810,,164.9,7661811,EAST TEXAS GAS PLANT,5 MI E ON US HWY 79,CARTHAGE,TX,75633,32.1875,-94.2625,Panola,211130,,
7661811,27,3.33,849,,59.6,7661811,EAST TEXAS GAS PLANT,5 MI E ON US HWY 79,CARTHAGE,TX,75633,32.1875,-94.2625,Panola,211130,,
7661811,26,3.33,830,,60,7661811,EAST TEXAS GAS PLANT,5 MI E ON US HWY 79,CARTHAGE,TX,75633,32.1875,-94.2625,Panola,211130,,
7661811,36,1.5,750,,52.4,7661811,EAST TEXAS GAS PLANT,5 MI E ON US HWY 79,CARTHAGE,TX,75633,32.1875,-94.2625,Panola,211130,,
7661811,36,1.5,1127,,57.45,7661811,EAST TEXAS GAS PLANT,5 MI E ON US HWY 79,CARTHAGE,TX,75633,32.1875,-94.2625,Panola,211130,,
7661811,26,2,500,,15,7661811,EAST TEXAS GAS PLANT,5 MI E ON US HWY 79,CARTHAGE,TX,75633,32.1875,-94.2625,Panola,211130,,
7661811,36,.83,850,,72.78,7661811,EAST TEXAS GAS PLANT,5 MI E ON US HWY 79,CARTHAGE,TX,75633,32.1875,-94.2625,Panola,211130,,
7993111,84.8,1,100,,114.3,7993111,Harvest - Milagro Gas Treating Plant,~3 mi NE of Bloomfield,Bloomfield,NM,87413,36.735944,-107.941694,San Juan,213112,,
7993111,60,5.2,276,,56,7993111,Harvest - Milagro Gas Treating Plant,~3 mi NE of Bloomfield,Bloomfield,NM,87413,36.735944,-107.941694,San Juan,213112,,
7993111,,,,,,7993111,Harvest - Milagro Gas Treating Plant,~3 mi NE of Bloomfield,Bloomfield,NM,87413,36.735944,-107.941694,San Juan,213112,,
7993111,46.5,5,350,,39.7,7993111,Harvest - Milagro Gas Treating Plant,~3 mi NE of Bloomfield,Bloomfield,NM,87413,36.735944,-107.941694,San Juan,213112,,
7993111,30,1,960,,301,7993111,Harvest - Milagro Gas Treating Plant,~3 mi NE of Bloomfield,Bloomfield,NM,87413,36.735944,-107.941694,San Juan,213112,,
7993111,84.8,1.3,100,,160.5,7993111,Harvest - Milagro Gas Treating Plant,~3 mi NE of Bloomfield,Bloomfield,NM,87413,36.735944,-107.941694,San Juan,213112,,
8013911,96.4,2.6,760,,36.6,8013911,Hess Tioga Gas Plant LLC - Tioga Gas Plant,10340 68th St NW,Tioga,ND,58852,48.3996,-102.9141,Williams,211130,,
8013911,39.5,2,70,,1,8013911,Hess Tioga Gas Plant LLC - Tioga Gas Plant,10340 68th St NW,Tioga,ND,58852,48.3996,-102.9141,Williams,211130,,
8019911,50,.8,430,,1.9,8019911,XTO Energy Inc - Cotton Valley Gas Plant,1256 Marathon Rd,Cotton Valley,LA,71018,32.78469,-93.37386,Webster,211120,,
8019911,50,.8,1500,76.6666,150,8019911,XTO Energy Inc - Cotton Valley Gas Plant,1256 Marathon Rd,Cotton Valley,LA,71018,32.78469,-93.37386,Webster,211120,,
8019911,12,.6,500,170.0,600,8019911,XTO Energy Inc - Cotton Valley Gas Plant,1256 Marathon Rd,Cotton Valley,LA,71018,32.78469,-93.37386,Webster,211120,,
8019911,10,.5,500,7.9,40,8019911,XTO Energy Inc - Cotton Valley Gas Plant,1256 Marathon Rd,Cotton Valley,LA,71018,32.78469,-93.37386,Webster,211120,,
8019911,20,1,500,95.0,120,8019911,XTO Energy Inc - Cotton Valley Gas Plant,1256 Marathon Rd,Cotton Valley,LA,71018,32.78469,-93.37386,Webster,211120,,
8019911,20,1,500,81.0,100,8019911,XTO Energy Inc - Cotton Valley Gas Plant,1256 Marathon Rd,Cotton Valley,LA,71018,32.78469,-93.37386,Webster,211120,,
8019911,30,.7,500,100.0,260,8019911,XTO Energy Inc - Cotton Valley Gas Plant,1256 Marathon Rd,Cotton Valley,LA,71018,32.78469,-93.37386,Webster,211120,,
8019911,20,.67,642,56.6666,160,8019911,XTO Energy Inc - Cotton Valley Gas Plant,1256 Marathon Rd,Cotton Valley,LA,71018,32.78469,-93.37386,Webster,211120,,
8019911,17,.5,77,3.1,16,8019911,XTO Energy Inc - Cotton Valley Gas Plant,1256 Marathon Rd,Cotton Valley,LA,71018,32.78469,-93.37386,Webster,211120,,
8019911,28,1.1,530,241.0,260,8019911,XTO Energy Inc - Cotton Valley Gas Plant,1256 Marathon Rd,Cotton Valley,LA,71018,32.78469,-93.37386,Webster,211120,,
8019911,10,.5,1000,22.5,115,8019911,XTO Energy Inc - Cotton Valley Gas Plant,1256 Marathon Rd,Cotton Valley,LA,71018,32.78469,-93.37386,Webster,211120,,
8019911,13,.5,70,0.2,1,8019911,XTO Energy Inc - Cotton Valley Gas Plant,1256 Marathon Rd,Cotton Valley,LA,71018,32.78469,-93.37386,Webster,211120,,
8019911,,,,,,8019911,XTO Energy Inc - Cotton Valley Gas Plant,1256 Marathon Rd,Cotton Valley,LA,71018,32.78469,-93.37386,Webster,211120,,
8019911,30,.5,77,3.1,16,8019911,XTO Energy Inc - Cotton Valley Gas Plant,1256 Marathon Rd,Cotton Valley,LA,71018,32.78469,-93.37386,Webster,211120,,
8019911,20,.5,500,32.3333,165,8019911,XTO Energy Inc - Cotton Valley Gas Plant,1256 Marathon Rd,Cotton Valley,LA,71018,32.78469,-93.37386,Webster,211120,,
8019911,30,1.7,500,41.2833,18,8019911,XTO Energy Inc - Cotton Valley Gas Plant,1256 Marathon Rd,Cotton Valley,LA,71018,32.78469,-93.37386,Webster,211120,,
8019911,30,.3,70,0.092,1.3,8019911,XTO Energy Inc - Cotton Valley Gas Plant,1256 Marathon Rd,Cotton Valley,LA,71018,32.78469,-93.37386,Webster,211120,,
8019911,30,3,1200,70.7,10,8019911,XTO Energy Inc - Cotton Valley Gas Plant,1256 Marathon Rd,Cotton Valley,LA,71018,32.78469,-93.37386,Webster,211120,,
8023811,195.1,6.123,500,,1,8023811,"Petro-Hunt, L.L.C. - Little Knife Gas Plant",813 123rd Avenue SW,Killdeer,ND,58640,47.2975,-103.0975,Billings,211130,,
8023811,31.3,2,450,,1,8023811,"Petro-Hunt, L.L.C. - Little Knife Gas Plant",813 123rd Avenue SW,Killdeer,ND,58640,47.2975,-103.0975,Billings,211130,,
8023811,62,2.79,440,,1,8023811,"Petro-Hunt, L.L.C. - Little Knife Gas Plant",813 123rd Avenue SW,Killdeer,ND,58640,47.2975,-103.0975,Billings,211130,,
8023811,61,2.79,440,,1,8023811,"Petro-Hunt, L.L.C. - Little Knife Gas Plant",813 123rd Avenue SW,Killdeer,ND,58640,47.2975,-103.0975,Billings,211130,,
8023811,32.2,2.18,450,,1,8023811,"Petro-Hunt, L.L.C. - Little Knife Gas Plant",813 123rd Avenue SW,Killdeer,ND,58640,47.2975,-103.0975,Billings,211130,,
8023811,26.9,2.06,1000,,1,8023811,"Petro-Hunt, L.L.C. - Little Knife Gas Plant",813 123rd Avenue SW,Killdeer,ND,58640,47.2975,-103.0975,Billings,211130,,
8023811,31.8,2.58,580,,1,8023811,"Petro-Hunt, L.L.C. - Little Knife Gas Plant",813 123rd Avenue SW,Killdeer,ND,58640,47.2975,-103.0975,Billings,211130,,
8023811,31.2,2.48,450,,1,8023811,"Petro-Hunt, L.L.C. - Little Knife Gas Plant",813 123rd Avenue SW,Killdeer,ND,58640,47.2975,-103.0975,Billings,211130,,
8023811,16,.66,700,,1,8023811,"Petro-Hunt, L.L.C. - Little Knife Gas Plant",813 123rd Avenue SW,Killdeer,ND,58640,47.2975,-103.0975,Billings,211130,,
8023811,195,6.104,900,,1,8023811,"Petro-Hunt, L.L.C. - Little Knife Gas Plant",813 123rd Avenue SW,Killdeer,ND,58640,47.2975,-103.0975,Billings,211130,,
8023811,97,1.5,1500,,1,8023811,"Petro-Hunt, L.L.C. - Little Knife Gas Plant",813 123rd Avenue SW,Killdeer,ND,58640,47.2975,-103.0975,Billings,211130,,
8091911,269,1.33,1832,,4.2,8091911,San Juan River Gas Plant,1.55 N of Kirtland,Kirtland,NM,87417,36.7573,-108.3672,San Juan,21113,,
8091911,28,1.33,878,,70.5,8091911,San Juan River Gas Plant,1.55 N of Kirtland,Kirtland,NM,87417,36.7573,-108.3672,San Juan,21113,,
8091911,35,1.5,868,,115.4,8091911,San Juan River Gas Plant,1.55 N of Kirtland,Kirtland,NM,87417,36.7573,-108.3672,San Juan,21113,,
8091911,50,5,600,,27.6,8091911,San Juan River Gas Plant,1.55 N of Kirtland,Kirtland,NM,87417,36.7573,-108.3672,San Juan,21113,,
8091911,,,,,,8091911,San Juan River Gas Plant,1.55 N of Kirtland,Kirtland,NM,87417,36.7573,-108.3672,San Juan,21113,,
8091911,13,.67,774,,124,8091911,San Juan River Gas Plant,1.55 N of Kirtland,Kirtland,NM,87417,36.7573,-108.3672,San Juan,21113,,
8091911,25,.83,1135,,123,8091911,San Juan River Gas Plant,1.55 N of Kirtland,Kirtland,NM,87417,36.7573,-108.3672,San Juan,21113,,
8091911,18,.66,400,,4.3,8091911,San Juan River Gas Plant,1.55 N of Kirtland,Kirtland,NM,87417,36.7573,-108.3672,San Juan,21113,,
8116311,110,2,1200,25.95,8.26,8116311,MAYSVILLE GAS PLANT,2 MILES W OF HWY 74 ON HWY 19,MAYSVILLE,OK,73057,34.81359,-97.44141,Garvin,211130,,
8116311,16,1.2,934,110.9,98.06,8116311,MAYSVILLE GAS PLANT,2 MILES W OF HWY 74 ON HWY 19,MAYSVILLE,OK,73057,34.81359,-97.44141,Garvin,211130,,
8116311,,,,,,8116311,MAYSVILLE GAS PLANT,2 MILES W OF HWY 74 ON HWY 19,MAYSVILLE,OK,73057,34.81359,-97.44141,Garvin,211130,,
8116311,28,1.3,808,200.1166,150.77,8116311,MAYSVILLE GAS PLANT,2 MILES W OF HWY 74 ON HWY 19,MAYSVILLE,OK,73057,34.81359,-97.44141,Garvin,211130,,
8116311,88,.6,900,1.5,5.31,8116311,MAYSVILLE GAS PLANT,2 MILES W OF HWY 74 ON HWY 19,MAYSVILLE,OK,73057,34.81359,-97.44141,Garvin,211130,,
8116311,43,1.2,725,58.9833,52.15,8116311,MAYSVILLE GAS PLANT,2 MILES W OF HWY 74 ON HWY 19,MAYSVILLE,OK,73057,34.81359,-97.44141,Garvin,211130,,
8116311,41,.8,700,43.3,86.14,8116311,MAYSVILLE GAS PLANT,2 MILES W OF HWY 74 ON HWY 19,MAYSVILLE,OK,73057,34.81359,-97.44141,Garvin,211130,,
8116311,40,.8,725,59.0,117.38,8116311,MAYSVILLE GAS PLANT,2 MILES W OF HWY 74 ON HWY 19,MAYSVILLE,OK,73057,34.81359,-97.44141,Garvin,211130,,
8116311,30,.1,800,1.5,190.99,8116311,MAYSVILLE GAS PLANT,2 MILES W OF HWY 74 ON HWY 19,MAYSVILLE,OK,73057,34.81359,-97.44141,Garvin,211130,,
8116311,34,2,450,15.7,5,8116311,MAYSVILLE GAS PLANT,2 MILES W OF HWY 74 ON HWY 19,MAYSVILLE,OK,73057,34.81359,-97.44141,Garvin,211130,,
8116311,98,.7,900,1.5,3.9,8116311,MAYSVILLE GAS PLANT,2 MILES W OF HWY 74 ON HWY 19,MAYSVILLE,OK,73057,34.81359,-97.44141,Garvin,211130,,
8116311,22,1,1250,73.95,94.16,8116311,MAYSVILLE GAS PLANT,2 MILES W OF HWY 74 ON HWY 19,MAYSVILLE,OK,73057,34.81359,-97.44141,Garvin,211130,,
8116311,45,1.2,675,62.7166,55.45,8116311,MAYSVILLE GAS PLANT,2 MILES W OF HWY 74 ON HWY 19,MAYSVILLE,OK,73057,34.81359,-97.44141,Garvin,211130,,
8116311,56,1.5,875,188.9166,106.91,8116311,MAYSVILLE GAS PLANT,2 MILES W OF HWY 74 ON HWY 19,MAYSVILLE,OK,73057,34.81359,-97.44141,Garvin,211130,,
8116311,30,.1,900,1.5,190.99,8116311,MAYSVILLE GAS PLANT,2 MILES W OF HWY 74 ON HWY 19,MAYSVILLE,OK,73057,34.81359,-97.44141,Garvin,211130,,
8116311,30,.3,900,1.5,21.22,8116311,MAYSVILLE GAS PLANT,2 MILES W OF HWY 74 ON HWY 19,MAYSVILLE,OK,73057,34.81359,-97.44141,Garvin,211130,,
8116311,14,.1,900,1.5,190.99,8116311,MAYSVILLE GAS PLANT,2 MILES W OF HWY 74 ON HWY 19,MAYSVILLE,OK,73057,34.81359,-97.44141,Garvin,211130,,
8116311,24,1.3,800,115.2833,86.85,8116311,MAYSVILLE GAS PLANT,2 MILES W OF HWY 74 ON HWY 19,MAYSVILLE,OK,73057,34.81359,-97.44141,Garvin,211130,,
8116311,34,.2,900,1.5,47.75,8116311,MAYSVILLE GAS PLANT,2 MILES W OF HWY 74 ON HWY 19,MAYSVILLE,OK,73057,34.81359,-97.44141,Garvin,211130,,
8116311,21,1.5,801,132.0166,74.68,8116311,MAYSVILLE GAS PLANT,2 MILES W OF HWY 74 ON HWY 19,MAYSVILLE,OK,73057,34.81359,-97.44141,Garvin,211130,,
8116311,19,1.5,801,132.0166,74.71,8116311,MAYSVILLE GAS PLANT,2 MILES W OF HWY 74 ON HWY 19,MAYSVILLE,OK,73057,34.81359,-97.44141,Garvin,211130,,
8116311,42,.8,725,59.0,117.38,8116311,MAYSVILLE GAS PLANT,2 MILES W OF HWY 74 ON HWY 19,MAYSVILLE,OK,73057,34.81359,-97.44141,Garvin,211130,,
8116311,26,.7,800,35.5833,92.46,8116311,MAYSVILLE GAS PLANT,2 MILES W OF HWY 74 ON HWY 19,MAYSVILLE,OK,73057,34.81359,-97.44141,Garvin,211130,,
8116311,20,.7,1007,68.0833,176.91,8116311,MAYSVILLE GAS PLANT,2 MILES W OF HWY 74 ON HWY 19,MAYSVILLE,OK,73057,34.81359,-97.44141,Garvin,211130,,
8116311,110,2,1200,4.9333,1.57,8116311,MAYSVILLE GAS PLANT,2 MILES W OF HWY 74 ON HWY 19,MAYSVILLE,OK,73057,34.81359,-97.44141,Garvin,211130,,
8132411,66,4.92,535,1209.25,64,8132411,CHANDLER STA,7 MI SW OF,WILBURTON,OK,74578,34.88861,-95.40564,Latimer,486210,,
8132411,,,,,,8132411,CHANDLER STA,7 MI SW OF,WILBURTON,OK,74578,34.88861,-95.40564,Latimer,486210,,
8132411,18,.25,1170,14.1833,289,8132411,CHANDLER STA,7 MI SW OF,WILBURTON,OK,74578,34.88861,-95.40564,Latimer,486210,,
8132411,55,3.5,750,701.5,73,8132411,CHANDLER STA,7 MI SW OF,WILBURTON,OK,74578,34.88861,-95.40564,Latimer,486210,,
8132411,36,4.66,650,963.1666,56,8132411,CHANDLER STA,7 MI SW OF,WILBURTON,OK,74578,34.88861,-95.40564,Latimer,486210,,
8132411,10,.42,960,33.9666,249,8132411,CHANDLER STA,7 MI SW OF,WILBURTON,OK,74578,34.88861,-95.40564,Latimer,486210,,
8241211,222,1,1000,51.8,66,8241211,DCP - Linam Ranch Gas Plant,7 mi W of Hobbs,Hobbs,NM,88240,32.695278,-103.285278,Lea,21113,,
8241211,50,3.75,300,,50,8241211,DCP - Linam Ranch Gas Plant,7 mi W of Hobbs,Hobbs,NM,88240,32.695278,-103.285278,Lea,21113,,
8241211,,,,,,8241211,DCP - Linam Ranch Gas Plant,7 mi W of Hobbs,Hobbs,NM,88240,32.695278,-103.285278,Lea,21113,,
8241211,222,2,1832,,65.6,8241211,DCP - Linam Ranch Gas Plant,7 mi W of Hobbs,Hobbs,NM,88240,32.695278,-103.285278,Lea,21113,,
8241211,32,4,817,,104.1,8241211,DCP - Linam Ranch Gas Plant,7 mi W of Hobbs,Hobbs,NM,88240,32.695278,-103.285278,Lea,21113,,
8241211,74,1.5,650,,122.1,8241211,DCP - Linam Ranch Gas Plant,7 mi W of Hobbs,Hobbs,NM,88240,32.695278,-103.285278,Lea,21113,,
8241211,74,1.75,750,,132.3,8241211,DCP - Linam Ranch Gas Plant,7 mi W of Hobbs,Hobbs,NM,88240,32.695278,-103.285278,Lea,21113,,
8241211,35.8,3.83,890,,154.9,8241211,DCP - Linam Ranch Gas Plant,7 mi W of Hobbs,Hobbs,NM,88240,32.695278,-103.285278,Lea,21113,,
8241211,175,2,1832,,65.6,8241211,DCP - Linam Ranch Gas Plant,7 mi W of Hobbs,Hobbs,NM,88240,32.695278,-103.285278,Lea,21113,,
8241211,75,1.5,650,,122.6,8241211,DCP - Linam Ranch Gas Plant,7 mi W of Hobbs,Hobbs,NM,88240,32.695278,-103.285278,Lea,21113,,
8241211,210,2,1832,,65.6,8241211,DCP - Linam Ranch Gas Plant,7 mi W of Hobbs,Hobbs,NM,88240,32.695278,-103.285278,Lea,21113,,
8241211,45,2,600,,36.3,8241211,DCP - Linam Ranch Gas Plant,7 mi W of Hobbs,Hobbs,NM,88240,32.695278,-103.285278,Lea,21113,,
8241211,44,4,817,,103.5,8241211,DCP - Linam Ranch Gas Plant,7 mi W of Hobbs,Hobbs,NM,88240,32.695278,-103.285278,Lea,21113,,
8241211,44,6,826,,67.8,8241211,DCP - Linam Ranch Gas Plant,7 mi W of Hobbs,Hobbs,NM,88240,32.695278,-103.285278,Lea,21113,,
8241211,44,4,858,,156.3,8241211,DCP - Linam Ranch Gas Plant,7 mi W of Hobbs,Hobbs,NM,88240,32.695278,-103.285278,Lea,21113,,
9110611,30,1,120,,35,9110611,BECKVILLE COMPRESSOR STATION,1.75 MI SE OF BECKVILLE OFF HWY 149,BECKVILLE,TX,75631,32.223389,-94.431667,Panola,486210,,
9110611,15,3,73,,.1,9110611,BECKVILLE COMPRESSOR STATION,1.75 MI SE OF BECKVILLE OFF HWY 149,BECKVILLE,TX,75631,32.223389,-94.431667,Panola,486210,,
9110611,25,.17,120,6.6666,293.5933,9110611,BECKVILLE COMPRESSOR STATION,1.75 MI SE OF BECKVILLE OFF HWY 149,BECKVILLE,TX,75631,32.223389,-94.431667,Panola,486210,,
9110611,15,1,400,,.1,9110611,BECKVILLE COMPRESSOR STATION,1.75 MI SE OF BECKVILLE OFF HWY 149,BECKVILLE,TX,75631,32.223389,-94.431667,Panola,486210,,
9110611,20,3,73,,.1,9110611,BECKVILLE COMPRESSOR STATION,1.75 MI SE OF BECKVILLE OFF HWY 149,BECKVILLE,TX,75631,32.223389,-94.431667,Panola,486210,,
9110611,,,,,,9110611,BECKVILLE COMPRESSOR STATION,1.75 MI SE OF BECKVILLE OFF HWY 149,BECKVILLE,TX,75631,32.223389,-94.431667,Panola,486210,,
9110611,32,1.02,862,,79,9110611,BECKVILLE COMPRESSOR STATION,1.75 MI SE OF BECKVILLE OFF HWY 149,BECKVILLE,TX,75631,32.223389,-94.431667,Panola,486210,,
1003211,1,,,,,1003211,"ALLWORTH, INC.",500 Medco RD,Birmingham,AL,35217,33.59369,-86.77001,Jefferson,325998,,
1003211,2,18,1,435.0,,1003211,"ALLWORTH, INC.",500 Medco RD,Birmingham,AL,35217,33.59369,-86.77001,Jefferson,325998,,
1003211,2,21,.17,80.0,.1166,1003211,"ALLWORTH, INC.",500 Medco RD,Birmingham,AL,35217,33.59369,-86.77001,Jefferson,325998,,
