TRIFD,FACILITY NAME,PRIMARY NAICS,NAICS 2,NAICS 3,NAICS 4,NAICS 5,NAICS 6,PARENT CO NAME,FRS ID,FRS_ID,FacilityName,Address,City,State,Zip,Latitude,Longitude,County,NAICS,SIC,FacilityID,Source,_merge
19526HDCNCVALLE,ENGINEERED MATERIALS SOLUTIONS HAMBURG FACILITY,331221,issues,issues,issues,issues,issues,ENGINEERED MATERIALS HOLDING INC,110000584939.0,issues,issues,issues,issues,issues,issues,issues,issues,issues,issues,issues,issues,issues,left_only
98108DLTMR1608S,DELTA MARINE INDUSTRIES INC.,336611,issues,issues,issues,issues,issues,issues,110000897290.0,issues,issues,issues,issues,issues,issues,issues,issues,issues,issues,issues,issues,issues,left_only
97210SCCRP2211N,ESCO GROUP,331513,issues,issues,issues,issues,issues,issues,110024423836.0,issues,issues,issues,issues,issues,issues,issues,issues,issues,issues,issues,issues,issues,left_only
3947WRNCCR863LD,RAIN CII CARBON LLC-PURVIS CALCINING PLANT,324199,issues,issues,issues,issues,issues,RAIN CII CARBON LLC,110002206611.0,issues,issues,issues,issues,issues,issues,issues,issues,issues,issues,issues,issues,issues,left_only
49015MGCST31FRI,OMEGA CASTINGS INC,331513,issues,issues,issues,issues,issues,issues,110022411282.0,issues,issues,issues,issues,issues,issues,issues,issues,issues,issues,issues,issues,issues,left_only
77640GRTLKCOKED,OXBOW CALCINING LLC,324199,issues,issues,issues,issues,issues,OXBOW CARBON & MINERALS HOLDINGS INC,110002042502.0,issues,issues,issues,issues,issues,issues,issues,issues,issues,issues,issues,issues,issues,left_only
15683BLWKNBRIDG,DURALOY TECHNOLOGIES INC,331513,issues,issues,issues,issues,issues,PARK CORP,110000330259.0,issues,issues,issues,issues,issues,issues,issues,issues,issues,issues,issues,issues,issues,left_only
61821LLYNG17WWA,ILLINOIS NI CAST (DBA) ALLOY ENGINEERING & CASTING CO,331513,issues,issues,issues,issues,issues,WIRCO INC,110001808018.0,issues,issues,issues,issues,issues,issues,issues,issues,issues,issues,issues,issues,issues,left_only
16749QKRSTINTER,INTERNATIONAL WAXES INC,324199,issues,issues,issues,issues,issues,THE INTERNATIONAL GROUP INC,110000583850.0,issues,issues,issues,issues,issues,issues,issues,issues,issues,issues,issues,issues,issues,left_only
70665VNTRC1920P,RAIN CII CARBON LLC LAKE CHARLES CALCINING PLANT (LCCP),324199,issues,issues,issues,issues,issues,RAIN CII CARBON LLC,110015679853.0,issues,issues,issues,issues,issues,issues,issues,issues,issues,issues,issues,issues,issues,left_only
62454CCRBN12187,RAIN CII CARBON LLC,324199,issues,issues,issues,issues,issues,RAIN CII CARBON LLC,110018167053.0,issues,issues,issues,issues,issues,issues,issues,issues,issues,issues,issues,issues,issues,left_only
77983RCCRBHWY18,SEADRIFT COKE LP,324199,issues,issues,issues,issues,issues,GRAFTECH INTERNATIONAL LTD,110043798913.0,issues,issues,issues,issues,issues,issues,issues,issues,issues,issues,issues,issues,issues,left_only
44646LTVST401RO,REPUBLIC STEEL -  MASSILLON PLANT,331221,issues,issues,issues,issues,issues,REPUBLIC STEEL,110000390470.0,issues,issues,issues,issues,issues,issues,issues,issues,issues,issues,issues,issues,issues,left_only
42101CCHLD407RA,VALOR LLC,324199,issues,issues,issues,issues,issues,VALOR LLC,110000380221.0,issues,issues,issues,issues,issues,issues,issues,issues,issues,issues,issues,issues,issues,left_only
44035SHLMT164FR,SHALMET CORP,331221,issues,issues,issues,issues,issues,CARPENTER TECHNOLOGY CORP,110000385486.0,issues,issues,issues,issues,issues,issues,issues,issues,issues,issues,issues,issues,issues,left_only
44622GRRST624BL,GREER STEEL CO,331221,issues,issues,issues,issues,issues,GREER INDUSTRIES INC,110000591761.0,issues,issues,issues,issues,issues,issues,issues,issues,issues,issues,issues,issues,issues,left_only
53186GRTLN831PR,VALMET INC. - WAUKESHA SERVICE CENTER,331513,issues,issues,issues,issues,issues,VALMET INC,110000417969.0,issues,issues,issues,issues,issues,issues,issues,issues,issues,issues,issues,issues,issues,left_only
7036WLSHPL367DI,LASHIP LLC,336611,issues,issues,issues,issues,issues,issues,110043851230.0,issues,issues,issues,issues,issues,issues,issues,issues,issues,issues,issues,issues,issues,left_only
77562STHWS18310,SOUTHWEST SHIPYARD L.P.,336611,488390.0,issues,issues,issues,issues,SOUTHWEST SHIPYARD LP,110000463533.0,issues,issues,issues,issues,issues,issues,issues,issues,issues,issues,issues,issues,issues,left_only
46953BHRBR2545S,BAHR BROTHERS MANUFACTURING,331513,issues,issues,issues,issues,issues,issues,110000401565.0,issues,issues,issues,issues,issues,issues,issues,issues,issues,issues,issues,issues,issues,left_only
47130JFFBT1030E,OLD JB LLC,336611,issues,issues,issues,issues,issues,AMERICAN COMMERCIAL LINES INC,110005980750.0,issues,issues,issues,issues,issues,issues,issues,issues,issues,issues,issues,issues,issues,left_only
4841WBLDMN125ST,"BLUE DIAMOND STEEL CASTING,INC.",331513,issues,issues,issues,issues,issues,issues,110046278755.0,issues,issues,issues,issues,issues,issues,issues,issues,issues,issues,issues,issues,issues,left_only
43125GRFFN3900B,AMSTED RAIL CO INC,331513,issues,issues,issues,issues,issues,AMSTED INDUSTRIES INC,110000381943.0,issues,issues,issues,issues,issues,issues,issues,issues,issues,issues,issues,issues,issues,left_only
66002RCKWL4THAN,BRADKEN ATCHISON/ST JOSEPH,331513,issues,issues,issues,issues,issues,BRADKEN INC,110017375124.0,issues,issues,issues,issues,issues,issues,issues,issues,issues,issues,issues,issues,issues,left_only
17013THFRG600EH,FROG SWITCH & MANUFACTURING CO,331513,issues,issues,issues,issues,issues,issues,110000332596.0,issues,issues,issues,issues,issues,issues,issues,issues,issues,issues,issues,issues,issues,left_only
94565SSPSCPOBOX,USS-UPI LLC,331221,issues,issues,issues,issues,issues,US STEEL CORP,110000483450.0,issues,issues,issues,issues,issues,issues,issues,issues,issues,issues,issues,issues,issues,left_only
85283CPTLC5857S,ME GLOBAL INC.,331513,issues,issues,issues,issues,issues,ME GLOBAL INC,110000471551.0,issues,issues,issues,issues,issues,issues,issues,issues,issues,issues,issues,issues,issues,left_only
1506WBRBRN11BRA,BRAEBURN ALLOY STEEL ROLLING MILL FAC,331221,331110.0,issues,issues,issues,issues,CCX INC,110001045262.0,issues,issues,issues,issues,issues,issues,issues,issues,issues,issues,issues,issues,issues,left_only
70373NRTHM800IN,NORTH AMERICAN SHIPBUILDING LLC-LAROSE SHIPYARD,336611,issues,issues,issues,issues,issues,issues,110000846648.0,issues,issues,issues,issues,issues,issues,issues,issues,issues,issues,issues,issues,issues,left_only
75604STHWS600FO,SOUTHWEST STEEL CASTING CO LLC,331513,issues,issues,issues,issues,issues,GREENBRIER COS,110005058098.0,issues,issues,issues,issues,issues,issues,issues,issues,issues,issues,issues,issues,issues,left_only
52632KKKST240RO,KEOKUK STEEL CASTINGS,331513,issues,issues,issues,issues,issues,MILLS GROUP LLC,110000415453.0,issues,issues,issues,issues,issues,issues,issues,issues,issues,issues,issues,issues,issues,left_only
50613VKNGP711VI,VIKING PUMP INC. - SOUTH MAIN FACILITY,331513,issues,issues,issues,issues,issues,IDEX CORP,110013313985.0,issues,issues,issues,issues,issues,issues,issues,issues,issues,issues,issues,issues,issues,left_only
60411CHCGH211EM,CHICAGO HEIGHTS STEEL,331221,issues,issues,issues,issues,issues,CHICAGO HEIGHTS STEEL,110000432292.0,issues,issues,issues,issues,issues,issues,issues,issues,issues,issues,issues,issues,issues,left_only
02184WLLST205WO,WOLLASTON ALLOYS,331513,issues,issues,issues,issues,issues,CONSOLIDATED PRECISION PRODUCTS CORP,110000311289.0,issues,issues,issues,issues,issues,issues,issues,issues,issues,issues,issues,issues,issues,left_only
15061BVRVL1899B,BEAVER VALLEY ALLOY FOUNDRY CO,331513,issues,issues,issues,issues,issues,issues,110012700069.0,issues,issues,issues,issues,issues,issues,issues,issues,issues,issues,issues,issues,issues,left_only
3740WSTLWR6RIVE,STEEL WAREHOUSE OF CHATTANOOGA,331221,332811.0,423510.0,332313.0,332322.0,issues,STEEL WAREHOUSE CO LLC,110043694204.0,issues,issues,issues,issues,issues,issues,issues,issues,issues,issues,issues,issues,issues,left_only
92138NTNLSHARBO,GENERAL DYNAMICS (NASSCO),336611,issues,issues,issues,issues,issues,GENERAL DYNAMICS CORP,110014337413.0,issues,issues,issues,issues,issues,issues,issues,issues,issues,issues,issues,issues,issues,left_only
78520KPPLM2HWY4,KEPPEL AMFELS INC.,336611,issues,issues,issues,issues,issues,FELS OFFSHORE PTE LTD,110018858324.0,issues,issues,issues,issues,issues,issues,issues,issues,issues,issues,issues,issues,issues,left_only
3012WSKYLN19DEN,SKYLINE STEEL LLC-CARTERSVILLE,331221,issues,issues,issues,issues,issues,NUCOR CORP,110060259367.0,issues,issues,issues,issues,issues,issues,issues,issues,issues,issues,issues,issues,issues,left_only
53188WSCNS905EA,METALTEK INTERNATIONAL-WISCO NSIN CENTRIFUGAL DIV,331513,331529.0,issues,issues,issues,issues,METALTEK INTERNATIONAL,110000418129.0,issues,issues,issues,issues,issues,issues,issues,issues,issues,issues,issues,issues,issues,left_only
50613VKNGL7THBL,VIKING PUMP INC-ALLOYS FOUNDRY,331513,issues,issues,issues,issues,issues,IDEX CORP,110000593581.0,issues,issues,issues,issues,issues,issues,issues,issues,issues,issues,issues,issues,issues,left_only
53208BDGRL5120W,BADGER ALLOYS,331513,issues,issues,issues,issues,issues,issues,110000418478.0,issues,issues,issues,issues,issues,issues,issues,issues,issues,issues,issues,issues,issues,left_only
90748RCCQC1175C,TESORO WILMINGTON CALCINER,324199,issues,issues,issues,issues,issues,MARATHON PETROLEUM CORP,110001138956.0,issues,issues,issues,issues,issues,issues,issues,issues,issues,issues,issues,issues,issues,left_only
15618NTNLRRAILR,AKERS NATIONAL ROLL,331513,issues,issues,issues,issues,issues,AKERS INTERNATIONAL,110000583226.0,issues,issues,issues,issues,issues,issues,issues,issues,issues,issues,issues,issues,issues,left_only
39568NGLLSLITTO,INGALLS SHIPBUILDING PASCAGOULA OPERATIONS,336611,issues,issues,issues,issues,issues,HUNTINGTON INGALLS INDUSTRIES INC,110000590888.0,issues,issues,issues,issues,issues,issues,issues,issues,issues,issues,issues,issues,issues,left_only
76504CNTRF3320P,CENTRIFUGAL CASTINGS,331513,issues,issues,issues,issues,issues,issues,110006531949.0,issues,issues,issues,issues,issues,issues,issues,issues,issues,issues,issues,issues,issues,left_only
49442GLLLY5142E,EAGLE ALLOY INC.,331513,issues,issues,issues,issues,issues,issues,110009027793.0,issues,issues,issues,issues,issues,issues,issues,issues,issues,issues,issues,issues,issues,left_only
55432MNNCS200NE,MINNCAST INC,331513,issues,issues,issues,issues,issues,issues,110000426030.0,issues,issues,issues,issues,issues,issues,issues,issues,issues,issues,issues,issues,issues,left_only
46312NDNHR3210W,INDIANA HARBOR COKE CO LP,324199,issues,issues,issues,issues,issues,SUNCOKE ENERGY INC,110070149427.0,issues,issues,issues,issues,issues,issues,issues,issues,issues,issues,issues,issues,issues,left_only
98625BHPCT222WE,STEELSCAPE,331221,issues,issues,issues,issues,issues,NS BLUESCOPE HOLDINGS USA LLC,110000490790.0,issues,issues,issues,issues,issues,issues,issues,issues,issues,issues,issues,issues,issues,left_only
4445WNRTHJ258SU,NORTH JACKSON SPECIALTY STEEL LLC.,331221,issues,issues,issues,issues,issues,UNIVERSAL STAINLESS & ALLOY PRODUCTS INC,110046278639.0,issues,issues,issues,issues,issues,issues,issues,issues,issues,issues,issues,issues,issues,left_only
60473NVRSL16655,NIAGARA LASALLE CORP - SOUTH HOLLAND,331221,issues,issues,issues,issues,issues,SPECIALTY STEEL WORKS INC,110001811996.0,issues,issues,issues,issues,issues,issues,issues,issues,issues,issues,issues,issues,issues,left_only
16354NVRSL121CA,UNIVERSAL STAINLESS & ALLOY PRODUCTS INC,331221,issues,issues,issues,issues,issues,UNIVERSAL STAINLESS & ALLOY PRODUCTS INC,110000331445.0,issues,issues,issues,issues,issues,issues,issues,issues,issues,issues,issues,issues,issues,left_only
70052GRMRC114JE,RAIN CII CARBON LLC,324199,issues,issues,issues,issues,issues,RAIN CII CARBON LLC,110018914781.0,issues,issues,issues,issues,issues,issues,issues,issues,issues,issues,issues,issues,issues,left_only
70381CNRDS29DUH,CONRAD SHIPYARD LLC (DEEPWATER YARD),336611,issues,issues,issues,issues,issues,CONRAD INDUSTRIES INC,110025317280.0,issues,issues,issues,issues,issues,issues,issues,issues,issues,issues,issues,issues,issues,left_only
26037KPPRSKOPPE,KOPPERS FOLLANSBEE TAR PLANT,324199,325110.0,issues,issues,issues,issues,KOPPERS INC,110000586027.0,issues,issues,issues,issues,issues,issues,issues,issues,issues,issues,issues,issues,issues,left_only
73753GRTLKRTE1B,OXBOW CALCINING LLC,324199,issues,issues,issues,issues,issues,OXBOW CARBON & MINERALS HOLDINGS INC,110007385374.0,issues,issues,issues,issues,issues,issues,issues,issues,issues,issues,issues,issues,issues,left_only
70605LKCHR3943G,REYNOLDS METALS CO LLC,324199,issues,issues,issues,issues,issues,ALCOA CORP,110000449499.0,issues,issues,issues,issues,issues,issues,issues,issues,issues,issues,issues,issues,issues,left_only
02852GNRLDQUONS,GENERAL DYNAMICS ELECTRIC BOAT CORP,336611,issues,issues,issues,issues,issues,GENERAL DYNAMICS CORP,110000581264.0,issues,issues,issues,issues,issues,issues,issues,issues,issues,issues,issues,issues,issues,left_only
82902MNSNTQUEAL,P4 PRODUCTION LLC,324199,issues,issues,issues,issues,issues,BAYER US HOLDING LP,110000859296.0,issues,issues,issues,issues,issues,issues,issues,issues,issues,issues,issues,issues,issues,left_only
28732BLRDG180MI,BLUE RIDGE METALS CORP,331221,issues,issues,issues,issues,issues,issues,110018723559.0,issues,issues,issues,issues,issues,issues,issues,issues,issues,issues,issues,issues,issues,left_only
39503GLFSH12351,GULF SHIP LLC,336611,issues,issues,issues,issues,issues,issues,110027227551.0,issues,issues,issues,issues,issues,issues,issues,issues,issues,issues,issues,issues,issues,left_only
48707BYCST400WE,BAY CAST - WEBSTER STREET PLANT,331513,issues,issues,issues,issues,issues,issues,110000407872.0,issues,issues,issues,issues,issues,issues,issues,issues,issues,issues,issues,issues,issues,left_only
23523CLNNS400EI,COLONNA'S SHIPYARD INC,336611,issues,issues,issues,issues,issues,issues,110000342193.0,issues,issues,issues,issues,issues,issues,issues,issues,issues,issues,issues,issues,issues,left_only
70374BLLNGLAHWY,BOLLINGER SHIPYARDS LOCKPORT LLC,336611,issues,issues,issues,issues,issues,BOLLINGER SHIPYARDS LLC,110000606559.0,issues,issues,issues,issues,issues,issues,issues,issues,issues,issues,issues,issues,issues,left_only
39345SCCRPHIGHW,ESCO GROUP LLC,331513,issues,issues,issues,issues,issues,issues,110056962425.0,issues,issues,issues,issues,issues,issues,issues,issues,issues,issues,issues,issues,issues,left_only
46368MDWSTROUTE,US STEEL CORP MIDWEST PLANT,331221,332813.0,issues,issues,issues,issues,US STEEL CORP,110056963282.0,issues,issues,issues,issues,issues,issues,issues,issues,issues,issues,issues,issues,issues,left_only
4230WVLRLL12ALS,VALOR LLC,324199,issues,issues,issues,issues,issues,VALOR LLC,110070238790.0,issues,issues,issues,issues,issues,issues,issues,issues,issues,issues,issues,issues,issues,left_only
04530BTHRN700WA,BATH IRON WORKS,336611,issues,issues,issues,issues,issues,GENERAL DYNAMICS CORP,110000314605.0,issues,issues,issues,issues,issues,issues,issues,issues,issues,issues,issues,issues,issues,left_only
60131NLSNS9400W,NELSEN STEEL & WIRE LP,331221,issues,issues,issues,issues,issues,issues,110000431113.0,issues,issues,issues,issues,issues,issues,issues,issues,issues,issues,issues,issues,issues,left_only
70079CCRBN81PRS,RAIN CII CARBON LLC,324199,issues,issues,issues,issues,issues,RAIN CII CARBON LLC,110022810449.0,issues,issues,issues,issues,issues,issues,issues,issues,issues,issues,issues,issues,issues,left_only
29405DTYNS1670D,DETYENS SHIPYARD,336611,issues,issues,issues,issues,issues,DETYENS SHIPYARD,110001139857.0,issues,issues,issues,issues,issues,issues,issues,issues,issues,issues,issues,issues,issues,left_only
78362KWTFF244KI,KIEWIT OFFSHORE SERVICES LTD,336611,issues,issues,issues,issues,issues,PETER KIEWIT & SON'S,110022524106.0,issues,issues,issues,issues,issues,issues,issues,issues,issues,issues,issues,issues,issues,left_only
53186WKSHF1300L,WAUKESHA FOUNDRY INC,331513,issues,issues,issues,issues,issues,UNITED STARS,110000418058.0,issues,issues,issues,issues,issues,issues,issues,issues,issues,issues,issues,issues,issues,left_only
99901SCSTG1300S,U.S. COAST GUARD BASE KETCHIKAN,336611,332999.0,issues,issues,issues,issues,US DEPARTMENT OF HOMELAND SECURITY,110000885873.0,issues,issues,issues,issues,issues,issues,issues,issues,issues,issues,issues,issues,issues,left_only
33605TMPSH1130M,TAMPA SHIP LLC,336611,issues,issues,issues,issues,issues,issues,110005590235.0,issues,issues,issues,issues,issues,issues,issues,issues,issues,issues,issues,issues,issues,left_only
16512RCKCRFOOTO,ERIE COKE CORP,324199,issues,issues,issues,issues,issues,issues,110043970441.0,issues,issues,issues,issues,issues,issues,issues,issues,issues,issues,issues,issues,issues,left_only
75229GHHNS2108J,HENSLEY INDUSTRIES INC,331513,issues,issues,issues,issues,issues,KOMATSU AMERICA CORP,110000457470.0,issues,issues,issues,issues,issues,issues,issues,issues,issues,issues,issues,issues,issues,left_only
97203CLMBS10425,COLUMBIA STEEL CASTING CO INC,331513,issues,issues,issues,issues,issues,issues,110000487152.0,issues,issues,issues,issues,issues,issues,issues,issues,issues,issues,issues,issues,issues,left_only
29729VSTPL3043C,OUTOKUMPU STAINLESS BAR LLC,331221,issues,issues,issues,issues,issues,OUTOKUMPU STAINLESS INC,110015681109.0,issues,issues,issues,issues,issues,issues,issues,issues,issues,issues,issues,issues,issues,left_only
39581HLTRM5110W,VT HALTER MARINE PASCAGOULA OPERATIONS,336611,issues,issues,issues,issues,issues,issues,110064135056.0,issues,issues,issues,issues,issues,issues,issues,issues,issues,issues,issues,issues,issues,left_only
14048DNKRK88HOW,DUNKIRK SPECIALTY STEEL LLC,331221,issues,issues,issues,issues,issues,UNIVERSAL STAINLESS & ALLOY PRODUCTS INC,110016752272.0,issues,issues,issues,issues,issues,issues,issues,issues,issues,issues,issues,issues,issues,left_only
43515WRTHN6303C,WORTHINGTON INDUSTRIES,331221,332812.0,issues,issues,issues,issues,WORTHINGTON INDUSTRIES INC,110000591538.0,issues,issues,issues,issues,issues,issues,issues,issues,issues,issues,issues,issues,issues,left_only
9822WDKTCR824TH,DAKOTA CREEK INDUSTRIES INC.,336611,issues,issues,issues,issues,issues,issues,110054906081.0,issues,issues,issues,issues,issues,issues,issues,issues,issues,issues,issues,issues,issues,left_only
46801SLTRS2400T,VALBRUNA SLATER STAINLESS INC,331221,issues,issues,issues,issues,issues,VALBRUNA STAINLESS INC,110000400851.0,issues,issues,issues,issues,issues,issues,issues,issues,issues,issues,issues,issues,issues,left_only
54143MRNTTELYST,MARINETTE MARINE CORP,336611,issues,issues,issues,issues,issues,FINCANTIERI MARINE GROUP LLC,110000742723.0,issues,issues,issues,issues,issues,issues,issues,issues,issues,issues,issues,issues,issues,left_only
47362VSTNCSTRD3,NEW CASTLE STAINLESS PLATE LLC,331221,issues,issues,issues,issues,issues,NEW CASTLE STAINLESS PLATE LLC,110000402831.0,issues,issues,issues,issues,issues,issues,issues,issues,issues,issues,issues,issues,issues,left_only
97217CSCDG5555N,VIGOR INDUSTRIAL,336611,issues,issues,issues,issues,issues,VIGOR INDUSTRIAL LLC,110057205803.0,issues,issues,issues,issues,issues,issues,issues,issues,issues,issues,issues,issues,issues,left_only
70340MCDRMDEGRA,BOLLINGER MARINE FABRICATORS LLC,336611,issues,issues,issues,issues,issues,BOLLINGER SHIPYARDS LOCKPORT LLC,110000449159.0,issues,issues,issues,issues,issues,issues,issues,issues,issues,issues,issues,issues,issues,left_only
78112VPRCN7124R,VP RACING FUELS INC.,324199,issues,issues,issues,issues,issues,VP RACING FUELS INC,110002465234.0,issues,issues,issues,issues,issues,issues,issues,issues,issues,issues,issues,issues,issues,left_only
17961SHLMT1486A,SHALMET CORP,331221,issues,issues,issues,issues,issues,CARPENTER TECHNOLOGY CORP,110000334610.0,issues,issues,issues,issues,issues,issues,issues,issues,issues,issues,issues,issues,issues,left_only
19030SSFRLMAILS,US STEEL FAIRLESS HILLS WORKS,331221,issues,issues,issues,issues,issues,US STEEL CORP,110038161921.0,issues,issues,issues,issues,issues,issues,issues,issues,issues,issues,issues,issues,issues,left_only
53094SPNCSPOBOX,SPUNCAST,331513,issues,issues,issues,issues,issues,issues,110000417077.0,issues,issues,issues,issues,issues,issues,issues,issues,issues,issues,issues,issues,issues,left_only
15059WSTHMONE12,WHEMCO-STEEL CASTINGS INC,331513,issues,issues,issues,issues,issues,WHEMCO INC,110007336579.0,issues,issues,issues,issues,issues,issues,issues,issues,issues,issues,issues,issues,issues,left_only
76513MRCNS2505T,AMERICAN SPINCAST INC,331513,issues,issues,issues,issues,issues,AMERICAN SPINCAST INC,110013763739.0,issues,issues,issues,issues,issues,issues,issues,issues,issues,issues,issues,issues,issues,left_only
62040MRCNS1700W,AMSTED RAIL CO INC,331513,issues,issues,issues,issues,issues,AMSTED INDUSTRIES INC,110000438731.0,issues,issues,issues,issues,issues,issues,issues,issues,issues,issues,issues,issues,issues,left_only
44601MRCNS1001E,ALLIANCE CASTINGS CO LLC,331513,issues,issues,issues,issues,issues,OHIO CASTINGS CO LLC,110000390238.0,issues,issues,issues,issues,issues,issues,issues,issues,issues,issues,issues,issues,issues,left_only
47918HRRSN900MO,HARRISON STEEL CASTINGS CO,331513,issues,issues,issues,issues,issues,HARRISON STEEL CASTINGS CO,110010302975.0,issues,issues,issues,issues,issues,issues,issues,issues,issues,issues,issues,issues,issues,left_only
52722SVYRS225S3,SIVYER STEEL CASTING LLC,331513,issues,issues,issues,issues,issues,SIVYER STEEL HOLDINGS LLC,110000415603.0,issues,issues,issues,issues,issues,issues,issues,issues,issues,issues,issues,issues,issues,left_only
17921GLDSPEASTC,ASHLAND FOUNDRY & MACHINE WORKS,331513,issues,issues,issues,issues,issues,issues,110000334576.0,issues,issues,issues,issues,issues,issues,issues,issues,issues,issues,issues,issues,issues,left_only
04011BTHRNROUTE,BATH IRON WORKS-STRUCTURAL FABRICATION FACILITY (FORMERLY HA,336611,issues,issues,issues,issues,issues,GENERAL DYNAMICS CORP,110039678346.0,issues,issues,issues,issues,issues,issues,issues,issues,issues,issues,issues,issues,issues,left_only
63830TRNTYHWY84,ARCOSA MARINE PRODUCTS INC. PLT  75,336611,issues,issues,issues,issues,issues,ARCOSA INC,110012469514.0,issues,issues,issues,issues,issues,issues,issues,issues,issues,issues,issues,issues,issues,left_only
23501NRFLKFOOTO,BAE SYSTEMS NORFOLK SHIP REPAIR,336611,issues,issues,issues,issues,issues,BAE SYSTEMS INC,110000342175.0,issues,issues,issues,issues,issues,issues,issues,issues,issues,issues,issues,issues,issues,left_only
15066DMSCSPOBOX,DAMASCUSS STEEL LLC,331513,issues,issues,issues,issues,issues,issues,110012342688.0,issues,issues,issues,issues,issues,issues,issues,issues,issues,issues,issues,issues,issues,left_only
77029QLTYL252MC,QUALITY ELECTRIC STEEL CASTINGS LP,331513,issues,issues,issues,issues,issues,issues,110012565214.0,issues,issues,issues,issues,issues,issues,issues,issues,issues,issues,issues,issues,issues,left_only
1911WKRPHL21KIT,PHILLY SHIPYARD INC,336611,issues,issues,issues,issues,issues,issues,110040928253.0,issues,issues,issues,issues,issues,issues,issues,issues,issues,issues,issues,issues,issues,left_only
33605GLFMR1200S,GULF MARINE REPAIR CORP,336611,issues,issues,issues,issues,issues,issues,110045611619.0,issues,issues,issues,issues,issues,issues,issues,issues,issues,issues,issues,issues,issues,left_only
4755WCRNSLP125X,CORN ISLAND SHIPYARD INC,336611,issues,issues,issues,issues,issues,LITTLE SANDY COAL CO INC,110040494621.0,issues,issues,issues,issues,issues,issues,issues,issues,issues,issues,issues,issues,issues,left_only
94572TSCSF2101F,PHILLIPS 66 CARBON PLANT,324199,issues,issues,issues,issues,issues,PHILLIPS 66 CO,110000483478.0,issues,issues,issues,issues,issues,issues,issues,issues,issues,issues,issues,issues,issues,left_only
37015TRNTY1050N,ARCOSA MARINE PRODUCTS INC PLT  296,336611,issues,issues,issues,issues,issues,ARCOSA INC.,110000369869.0,issues,issues,issues,issues,issues,issues,issues,issues,issues,issues,issues,issues,issues,left_only
47805VPRCN41EST,VP RACING FUELS INC.,324199,issues,issues,issues,issues,issues,VP RACING FUELS INC,110022523241.0,issues,issues,issues,issues,issues,issues,issues,issues,issues,issues,issues,issues,issues,left_only
21162MRCNS10300,OLDCASTLE APG MID-ATLANTIC WHITE MARSH MD,324199,324122.0,issues,issues,issues,issues,CRH AMERICAS INC,110001276976.0,issues,issues,issues,issues,issues,issues,issues,issues,issues,issues,issues,issues,issues,left_only
15907GTRXX119WA,GAUTIER STEEL LTD.,331221,issues,issues,issues,issues,issues,THE RESERVE GROUP,110001144066.0,issues,issues,issues,issues,issues,issues,issues,issues,issues,issues,issues,issues,issues,left_only
46552NTKXX30755,I/N KOTE,331221,issues,issues,issues,issues,issues,ARCELORMITTAL USA INC,110000399462.0,issues,issues,issues,issues,issues,issues,issues,issues,issues,issues,issues,issues,issues,left_only
06340GNRLD75EAS,ELECTRIC BOAT CORP,336611,issues,issues,issues,issues,issues,GENERAL DYNAMICS CORP,110011370729.0,issues,issues,issues,issues,issues,issues,issues,issues,issues,issues,issues,issues,issues,left_only
29550TLLYMSCHWY,TALLEY METALS TECHNOLOGY,331221,issues,issues,issues,issues,issues,CARPENTER TECHNOLOGY CORP,110038172189.0,issues,issues,issues,issues,issues,issues,issues,issues,issues,issues,issues,issues,issues,left_only
66111GRFFN7111G,AMSTED RAIL CO GRIFFIN WHEEL KANSAS CITY FACILITY,331513,issues,issues,issues,issues,issues,AMSTED INDUSTRIES INC,110000445518.0,issues,issues,issues,issues,issues,issues,issues,issues,issues,issues,issues,issues,issues,left_only
53209STNLS5150N,STAINLESS FOUNDRY & ENGINEERING INC,331513,331512.0,issues,issues,issues,issues,issues,110000418619.0,issues,issues,issues,issues,issues,issues,issues,issues,issues,issues,issues,issues,issues,left_only
33605NTRNT1616P,INTERNATIONAL SHIP REPAIR & MARINE SERVICES INC.,336611,issues,issues,issues,issues,issues,issues,110010116070.0,issues,issues,issues,issues,issues,issues,issues,issues,issues,issues,issues,issues,issues,left_only
98409TLSFN3021S,BRADKEN ENERGY,331513,issues,issues,issues,issues,issues,BRADKEN INC,110000495884.0,issues,issues,issues,issues,issues,issues,issues,issues,issues,issues,issues,issues,issues,left_only
53215MYNRD2856S,MAYNARD STEEL CASTING CO,331513,issues,issues,issues,issues,issues,issues,110000418833.0,issues,issues,issues,issues,issues,issues,issues,issues,issues,issues,issues,issues,issues,left_only
16050WTCCRHWY26,SONNEBORN LLC,324199,issues,issues,issues,issues,issues,HF SINCLAIR CORP,110059338220.0,issues,issues,issues,issues,issues,issues,issues,issues,issues,issues,issues,issues,issues,left_only
70807GRTLK2200B,OXBOW CALCINING LLC,324199,issues,issues,issues,issues,issues,OXBOW CARBON & MINERALS HOLDINGS INC.,110003360372.0,issues,issues,issues,issues,issues,issues,issues,issues,issues,issues,issues,issues,issues,left_only
60439NCLCH317WE,OXBOW MIDWEST CALCINING LLC,324199,issues,issues,issues,issues,issues,OXBOW CARBON & MINERALS HOLDINGS INC,110000432862.0,issues,issues,issues,issues,issues,issues,issues,issues,issues,issues,issues,issues,issues,left_only
63110CRNDL2101S,CARONDELET FOUNDRY CORP,331513,issues,issues,issues,issues,issues,METALTEK INTERNATIONAL,110000500510.0,issues,issues,issues,issues,issues,issues,issues,issues,issues,issues,issues,issues,issues,left_only
70058BLLNG615DE,BOLLINGER QUICK REPAIR LLC,336611,issues,issues,issues,issues,issues,BOLLINGER SHIPYARDS LLC,110001309931.0,issues,issues,issues,issues,issues,issues,issues,issues,issues,issues,issues,issues,issues,left_only
44667CNTRS510CO,BEKAERT CORP,331221,issues,issues,issues,issues,issues,BEKAERT CORP,110000390675.0,issues,issues,issues,issues,issues,issues,issues,issues,issues,issues,issues,issues,issues,left_only
86402NRTHS3000H,NUCOR STEEL KINGMAN LLC,331221,issues,issues,issues,issues,issues,NUCOR CORP,110000607264.0,issues,issues,issues,issues,issues,issues,issues,issues,issues,issues,issues,issues,issues,left_only
16041PNNZLRD2BO,CALUMET KARNS CITY REFINING LLC,324199,issues,issues,issues,issues,issues,CALUMET SPECIALTY PRODUCTS PARTNERS LP,110012413628.0,issues,issues,issues,issues,issues,issues,issues,issues,issues,issues,issues,issues,issues,left_only
70043CHLMT7CKEP,RAIN CII CARBON LLC,324199,issues,issues,issues,issues,issues,RAIN CII CARBON LLC,110012818497.0,issues,issues,issues,issues,issues,issues,issues,issues,issues,issues,issues,issues,issues,left_only
4466WMRCNB555CL,NUCOR BRIGHT BAR ORRVILLE LLC,331221,issues,issues,issues,issues,issues,NUCOR CORP,110015646906.0,issues,issues,issues,issues,issues,issues,issues,issues,issues,issues,issues,issues,issues,left_only
04011BTHRNMALLE,BATH IRON WORKS OUTFIT FABRICATION FACILITY (FORMERLY EBMF),336611,issues,issues,issues,issues,issues,GENERAL DYNAMICS CORP,110000581362.0,issues,issues,issues,issues,issues,issues,issues,issues,issues,issues,issues,issues,issues,left_only
48047NTRNT37087,INTERNATIONAL CASTING CORP,331513,issues,issues,issues,issues,issues,issues,110000404660.0,issues,issues,issues,issues,issues,issues,issues,issues,issues,issues,issues,issues,issues,left_only
74008MRCNF14602,AMERICAN FOUNDRY GROUP LLC - BIXBY,331513,issues,issues,issues,issues,issues,AMERICAN FOUNDRY GROUP LLC,110000454375.0,issues,issues,issues,issues,issues,issues,issues,issues,issues,issues,issues,issues,issues,left_only
60123LGLYN1565F,ELGILOY SPECIALTY METALS,331221,issues,issues,issues,issues,issues,COMBINED METALS OF CHICAGO LLC,110000430926.0,issues,issues,issues,issues,issues,issues,issues,issues,issues,issues,issues,issues,issues,left_only
15034SSRVNPOBOX,USS MON VALLEY WORKS - IRVIN PLANT,331221,issues,issues,issues,issues,issues,US STEEL CORP,110008470724.0,issues,issues,issues,issues,issues,issues,issues,issues,issues,issues,issues,issues,issues,left_only
06010THSPR300BR,THEIS PRECISION STEEL USA INC,331221,issues,issues,issues,issues,issues,issues,110000763157.0,issues,issues,issues,issues,issues,issues,issues,issues,issues,issues,issues,issues,issues,left_only
38478MRCNM2360I,MAGOTTEAUX INC,331513,issues,issues,issues,issues,issues,issues,110000375246.0,issues,issues,issues,issues,issues,issues,issues,issues,issues,issues,issues,issues,issues,left_only
77262NWPRK8502C,SWS HOLDINGS-BRADY ISLAND LP,336611,issues,issues,issues,issues,issues,SOUTHWEST SHIPYARD LP,110000462240.0,issues,issues,issues,issues,issues,issues,issues,issues,issues,issues,issues,issues,issues,left_only
77541TXSBR4115E,TEXAS BARGE & BOAT INC,336611,488320.0,issues,issues,issues,issues,issues,110020774740.0,issues,issues,issues,issues,issues,issues,issues,issues,issues,issues,issues,issues,issues,left_only
01069RTHBN241PA,RATHBONE PRECISION METALS INC,331221,issues,issues,issues,issues,issues,issues,110000495937.0,issues,issues,issues,issues,issues,issues,issues,issues,issues,issues,issues,issues,issues,left_only
90801CRTFD3245C,CERTIFIED ALLOY PRODUCTS INC,331513,issues,issues,issues,issues,issues,issues,110000476271.0,issues,issues,issues,issues,issues,issues,issues,issues,issues,issues,issues,issues,issues,left_only
90280STRTG8616T,GRISWOLD INDUSTRIES DBA SOUNDCAST,331513,issues,issues,issues,issues,issues,issues,110020516645.0,issues,issues,issues,issues,issues,issues,issues,issues,issues,issues,issues,issues,issues,left_only
45204CNSLD1028D,CONSOLIDATED METAL PRODUCTS,331221,issues,issues,issues,issues,issues,issues,110004593609.0,issues,issues,issues,issues,issues,issues,issues,issues,issues,issues,issues,issues,issues,left_only
74403MRCNL612SO,AMERICAN FOUNDRY GROUP LLC ALLOY 2 FACILITY,331513,issues,issues,issues,issues,issues,AMERICAN FOUNDRY GROUP LLC,110001649725.0,issues,issues,issues,issues,issues,issues,issues,issues,issues,issues,issues,issues,issues,left_only
7035WBLLNG236AD,BOLLINGER FOURCHON NORTH,336611,issues,issues,issues,issues,issues,BOLLINGER SHIPYARDS LLC,110066955343.0,issues,issues,issues,issues,issues,issues,issues,issues,issues,issues,issues,issues,issues,left_only
6313WSTLSC16PER,ST. LOUIS COLD DRAWN,331221,issues,issues,issues,issues,issues,NUCOR CORP,110015904663.0,issues,issues,issues,issues,issues,issues,issues,issues,issues,issues,issues,issues,issues,left_only
55808MNTRN200EA,ME GLOBAL INC,331513,issues,issues,issues,issues,issues,ME GLOBAL INC,110000426389.0,issues,issues,issues,issues,issues,issues,issues,issues,issues,issues,issues,issues,issues,left_only
9721WCLBRC11535,ECOLUBE RECOVERY LLC,324199,issues,issues,issues,issues,issues,issues,110071325264.0,issues,issues,issues,issues,issues,issues,issues,issues,issues,issues,issues,issues,issues,left_only
52632GRFFNCARBI,AMSTED RAIL CO INC,331513,issues,issues,issues,issues,issues,AMSTED INDUSTRIES,110000415444.0,issues,issues,issues,issues,issues,issues,issues,issues,issues,issues,issues,issues,issues,left_only
48755HRNCSPOBOX,HURON CASTING INC,331513,issues,issues,issues,issues,issues,issues,110000407961.0,issues,issues,issues,issues,issues,issues,issues,issues,issues,issues,issues,issues,issues,left_only
46312SSSTC101E1,USS EAST CHICAGO TIN,331221,issues,issues,issues,issues,issues,US STEEL CORP,110003098861.0,issues,issues,issues,issues,issues,issues,issues,issues,issues,issues,issues,issues,issues,left_only
35404MRCHMONEWA,MERICHEM CO,324199,325180.0,issues,issues,issues,issues,MERICHEM CO,110000367175.0,issues,issues,issues,issues,issues,issues,issues,issues,issues,issues,issues,issues,issues,left_only
35950WBBWH1279B,ALLOY RESOURCES,331513,issues,issues,issues,issues,issues,issues,110042900590.0,issues,issues,issues,issues,issues,issues,issues,issues,issues,issues,issues,issues,issues,left_only
98134YNGCR34441,YOUNG CORPORPORATION MELTEC DIV,331513,issues,issues,issues,issues,issues,YOUNG CORP,110002150369.0,issues,issues,issues,issues,issues,issues,issues,issues,issues,issues,issues,issues,issues,left_only
53072NRTHR845HI,NORTHERN STAINLESS CORP,331513,issues,issues,issues,issues,issues,issues,110000416666.0,issues,issues,issues,issues,issues,issues,issues,issues,issues,issues,issues,issues,issues,left_only
02703NGNRD39PER,ENGINEERED MATERIALS SOLUTIONS  LLC,331221,issues,issues,issues,issues,issues,ENGINEERED MATERIALS HOLDING INC,110003502193.0,issues,issues,issues,issues,issues,issues,issues,issues,issues,issues,issues,issues,issues,left_only
49441CNNNM2875L,CANNON-MUSKEGON,331513,issues,issues,issues,issues,issues,BERKSHIRE HATHAWAY INC,110000410751.0,issues,issues,issues,issues,issues,issues,issues,issues,issues,issues,issues,issues,issues,left_only
16121DFRCF15ROE,NLMK PENNSYLVANIA LLC,331221,issues,issues,issues,issues,issues,TOP GUN INVESTMENT CORP II,110000763923.0,issues,issues,issues,issues,issues,issues,issues,issues,issues,issues,issues,issues,issues,left_only
16323FRNKL600AT,FRANKLIN INVESTMENT CORP.,331221,issues,issues,issues,issues,issues,issues,110000331347.0,issues,issues,issues,issues,issues,issues,issues,issues,issues,issues,issues,issues,issues,left_only
53151WNTHD16300,WENTHE-DAVIDSON ENGINEERING CO .,331221,issues,issues,issues,issues,issues,issues,110001929496.0,issues,issues,issues,issues,issues,issues,issues,issues,issues,issues,issues,issues,issues,left_only
39303STHRNWILER,SOUTHERN CAST PRODUCTS INC,331513,issues,issues,issues,issues,issues,issues,110000376968.0,issues,issues,issues,issues,issues,issues,issues,issues,issues,issues,issues,issues,issues,left_only
32404NRTHW133AL,NORTHWEST FLORIDA HOLDINGS INC,336611,issues,issues,issues,issues,issues,NORTHWEST FLORIDA HOLDINGS INC,110037929463.0,issues,issues,issues,issues,issues,issues,issues,issues,issues,issues,issues,issues,issues,left_only
15201MCCNW10948,MCCONWAY & TORLEY LLC PLT 1801,331513,issues,issues,issues,issues,issues,ARCOSA INC,110000329458.0,issues,issues,issues,issues,issues,issues,issues,issues,issues,issues,issues,issues,issues,left_only
3660WSGNLS61SRY,WORLD MARINE OF ALABAMA LLC,336611,issues,issues,issues,issues,issues,WORLD MARINE LLC,110040826023.0,issues,issues,issues,issues,issues,issues,issues,issues,issues,issues,issues,issues,issues,left_only
54143WNSRT2645I,WINSERT INC,331513,issues,issues,issues,issues,issues,issues,110000421099.0,issues,issues,issues,issues,issues,issues,issues,issues,issues,issues,issues,issues,issues,left_only
4568WMCGNN74CUN,MCGINNIS INC.,336611,issues,issues,issues,issues,issues,issues,110039084497.0,issues,issues,issues,issues,issues,issues,issues,issues,issues,issues,issues,issues,issues,left_only
77012SWSHL8114H,SWS HOLDINGS-PASADENA LP,336611,issues,issues,issues,issues,issues,SOUTHWEST SHIPYARD LP,110025333930.0,issues,issues,issues,issues,issues,issues,issues,issues,issues,issues,issues,issues,issues,left_only
64468LMPST2000E,NUCOR LMP,331221,issues,issues,issues,issues,issues,NUCOR CORP,110010819775.0,issues,issues,issues,issues,issues,issues,issues,issues,issues,issues,issues,issues,issues,left_only
01069PRFLS7FIRS,PROFILES INC,331221,issues,issues,issues,issues,issues,issues,110001956811.0,issues,issues,issues,issues,issues,issues,issues,issues,issues,issues,issues,issues,issues,left_only
36602TLNTCDUNLA,ALABAMA SHIPYARD LLC,336611,issues,issues,issues,issues,issues,issues,110006517448.0,issues,issues,issues,issues,issues,issues,issues,issues,issues,issues,issues,issues,issues,left_only
70357BLLNG16NRM,BOLLINGER FOURCHON LLC,336611,issues,issues,issues,issues,issues,BOLLINGER SHIPYARDS LLC,110008393452.0,issues,issues,issues,issues,issues,issues,issues,issues,issues,issues,issues,issues,issues,left_only
77630RNGSH71MAR,CONRAD ORANGE SHIPYARD INC,336611,issues,issues,issues,issues,issues,CONRAD INDUSTRIES INC,110015976265.0,issues,issues,issues,issues,issues,issues,issues,issues,issues,issues,issues,issues,issues,left_only
9836WWSTPR637MA,WESTPORT LLC 50 METER FACILITY,336611,issues,issues,issues,issues,issues,WESTPORT LLC,110015930215.0,issues,issues,issues,issues,issues,issues,issues,issues,issues,issues,issues,issues,issues,left_only
32226TLNTC8500H,BAE SYSTEMS JACKSONVILLE SHIP REPAIR LLC,336611,issues,issues,issues,issues,issues,BAE SYSTEMS INC,110057268031.0,issues,issues,issues,issues,issues,issues,issues,issues,issues,issues,issues,issues,issues,left_only
9800WSGYPS41CST,US GYPSUM CO AUBURN PLANT,331221,327420.0,issues,issues,issues,issues,USG CORP,110005307042.0,issues,issues,issues,issues,issues,issues,issues,issues,issues,issues,issues,issues,issues,left_only
30120BLSSL8DENT,NUCOR BRIGHT BAR CARTERSVILLE LLC,331221,issues,issues,issues,issues,issues,NUCOR CORP,110000356338.0,issues,issues,issues,issues,issues,issues,issues,issues,issues,issues,issues,issues,issues,left_only
