,TRIFD,FACILITY NAME,PRIMARY NAICS,NAICS 2,NAICS 3,NAICS 4,NAICS 5,NAICS 6,PARENT CO NAME,FRS ID,FRS_ID,FacilityName,Address,City,State,Zip,Latitude,Longitude,County,NAICS,SIC,FacilityID,Source,_merge
720,7750WFTNCH1NSUT,AFTON CHEMICAL CORP,325199,issues,issues,issues,issues,issues,AFTON CHEMICAL CORP,110067263071.0,issues,issues,issues,issues,issues,issues,issues,issues,issues,issues,issues,issues,issues,left_only
915,9495WLGCBS2199S,LGC BIOSEARCH TECHNOLOGIES INC,325199,issues,issues,issues,issues,issues,issues,110055425160.0,issues,issues,issues,issues,issues,issues,issues,issues,issues,issues,issues,issues,issues,left_only
950,7076WBLCBP21255,BLUE CUBE OPERATIONS LLC - PLAQUEMINE SITE,325199,325180.0,issues,issues,issues,issues,OLIN CORP,110070828281.0,issues,issues,issues,issues,issues,issues,issues,issues,issues,issues,issues,issues,issues,left_only
2196,6154WCRNPR831WR,INGREDION,325199,issues,issues,issues,issues,issues,INGREDION INC,110037066260.0,issues,issues,issues,issues,issues,issues,issues,issues,issues,issues,issues,issues,issues,left_only
2405,37202STFFR4600C,INNOPHOS INC,325180,issues,issues,issues,issues,issues,INNOPHOS INC,110000370811.0,issues,issues,issues,issues,issues,issues,issues,issues,issues,issues,issues,issues,issues,left_only
2480,7750WKRRYM131BA,KURARAY AMERICA BAYPORT,325211,issues,issues,issues,issues,issues,KURARAY AMERICA INC,110069266261.0,issues,issues,issues,issues,issues,issues,issues,issues,issues,issues,issues,issues,issues,left_only
2508,0802WCHMRS67CAN,CHEMOURS CHAMBERS WORKS,325199,issues,issues,issues,issues,issues,THE CHEMOURS CO,110007970142.0,issues,issues,issues,issues,issues,issues,issues,issues,issues,issues,issues,issues,issues,left_only
2544,2530WNVTNT11SCI,UNIVATION TECHNOLOGIES LLC,325199,issues,issues,issues,issues,issues,DOW INC.,110043228833.0,issues,issues,issues,issues,issues,issues,issues,issues,issues,issues,issues,issues,issues,left_only
2564,45373GDSNP1250S,DELTECH POLYMERS CORP,325211,issues,issues,issues,issues,issues,DELTECH HOLDINGS INC,110000394387.0,issues,issues,issues,issues,issues,issues,issues,issues,issues,issues,issues,issues,issues,left_only
2750,3090WPVSTC244DU,PVS TECHNOLOGIES INC. (AUGUSTA),325180,issues,issues,issues,issues,issues,PVS CHEMICALS INC,110000513659.0,issues,issues,issues,issues,issues,issues,issues,issues,issues,issues,issues,issues,issues,left_only
2782,7007WDMNDG14891,DIAMOND GREEN DIESEL LLC,325199,issues,issues,issues,issues,issues,DIAMOND GREEN DIESEL,110045975744.0,issues,issues,issues,issues,issues,issues,issues,issues,issues,issues,issues,issues,issues,left_only
2850,6412WDTCHN951NT,IODITECH INC,325180,issues,issues,issues,issues,issues,issues,110063694471.0,issues,issues,issues,issues,issues,issues,issues,issues,issues,issues,issues,issues,issues,left_only
2866,7754WBLCBP231NB,FREEPORT_OLIN BC,325199,issues,issues,issues,issues,issues,OLIN CORP,110066943605.0,issues,issues,issues,issues,issues,issues,issues,issues,issues,issues,issues,issues,issues,left_only
3209,53209MRCNN6000N,ALDRICH CHEMICAL CO LLC TEUTONIA,325199,issues,issues,issues,issues,issues,EMD HOLDING CORP.,110000536625.0,issues,issues,issues,issues,issues,issues,issues,issues,issues,issues,issues,issues,issues,left_only
3520,3264WVLTXN131SU,AIR LIQUIDE ADVANCED MATERIALS INC,325120,325180.0,issues,issues,issues,issues,AMERICAN AIR LIQUIDE HOLDINGS INC,110012540483.0,issues,issues,issues,issues,issues,issues,issues,issues,issues,issues,issues,issues,issues,left_only
3649,35601STHRNPOBOX,CHEMTRADE SOLUTIONS LLC,325180,325998.0,issues,issues,issues,issues,CHEMTRADE HOLDCO US INC,110000367497.0,issues,issues,issues,issues,issues,issues,issues,issues,issues,issues,issues,issues,issues,left_only
3702,7066WLCCLL22BAY,LACC LLC US/LOTTE CHEMICAL LOUISIANA LLC,325199,issues,issues,issues,issues,issues,issues,110070031367.0,issues,issues,issues,issues,issues,issues,issues,issues,issues,issues,issues,issues,issues,left_only
3709,7701WVLRNR971MA,VALERO ENERGY PARTNERS LP,324110,issues,issues,issues,issues,issues,VALERO ENERGY PARTNERS LP,110070135386.0,issues,issues,issues,issues,issues,issues,issues,issues,issues,issues,issues,issues,issues,left_only
3854,7754WKNDRM47CLI,KINDER MORGAN CRUDE & CONDENSATE LLC,324110,issues,issues,issues,issues,issues,KINDER MORGAN,110069234661.0,issues,issues,issues,issues,issues,issues,issues,issues,issues,issues,issues,issues,issues,left_only
3863,01810CMBRD5FRNT,CAMBRIDGE ISOTOPE LABORATORIES  INC,325199,issues,issues,issues,issues,issues,OTSUKA AMERICA INC,110000796014.0,issues,issues,issues,issues,issues,issues,issues,issues,issues,issues,issues,issues,issues,left_only
4031,6811WNVZYM6S1ST,NOVOZYMES BLAIR INC,325199,issues,issues,issues,issues,issues,NOVOZYMES US INC,110039181079.0,issues,issues,issues,issues,issues,issues,issues,issues,issues,issues,issues,issues,issues,left_only
4058,31701SSCFG827PI,SASCO CHEMICAL GROUP INC,325199,issues,issues,issues,issues,issues,POLYMER SOLUTIONS GROUP,110000360911.0,issues,issues,issues,issues,issues,issues,issues,issues,issues,issues,issues,issues,issues,left_only
4151,1409WPLYNC4921I,POLYONE CORP,325211,issues,issues,issues,issues,issues,POLYONE CORP,110070247069.0,issues,issues,issues,issues,issues,issues,issues,issues,issues,issues,issues,issues,issues,left_only
4160,9520WHJBKRPBX28,HJ BAKER & BRO LLC,325180,issues,issues,issues,issues,issues,HJ BAKER & BRO LLC,110008275785.0,issues,issues,issues,issues,issues,issues,issues,issues,issues,issues,issues,issues,issues,left_only
4181,7757WKRRYM12342,KURARAY AMERICA INC,325211,issues,issues,issues,issues,issues,KURARAY AMERICA INC,110059809989.0,issues,issues,issues,issues,issues,issues,issues,issues,issues,issues,issues,issues,issues,left_only
4189,3713WCCDNT19DUP,OCCIDENTAL CHEMICAL CORP (OXYCHEM),325180,issues,issues,issues,issues,issues,OCCIDENTAL CHEMICAL HOLDING CORP,110044904146.0,issues,issues,issues,issues,issues,issues,issues,issues,issues,issues,issues,issues,issues,left_only
4233,01510PLYMR179WO,POLYMER CONCENTRATES INC,325211,issues,issues,issues,issues,issues,CHROMA COLOR CORP,110001943498.0,issues,issues,issues,issues,issues,issues,issues,issues,issues,issues,issues,issues,issues,left_only
4245,53235LKSDC4170S,KINGCHEM LABORATORIES INC.,325199,issues,issues,issues,issues,issues,issues,110057462865.0,issues,issues,issues,issues,issues,issues,issues,issues,issues,issues,issues,issues,issues,left_only
4268,9022WCHMLN195SA,CHEMLINE CA INC,325211,issues,issues,issues,issues,issues,CHEMLINE INC,110070049086.0,issues,issues,issues,issues,issues,issues,issues,issues,issues,issues,issues,issues,issues,left_only
4311,7735WLQDMN37FM2,LIQUID MINERALS GROUP NEW WAVERLY PLANT,325180,issues,issues,issues,issues,issues,PILOT CHEMICAL CORP,110034855574.0,issues,issues,issues,issues,issues,issues,issues,issues,issues,issues,issues,issues,issues,left_only
4365,00851HSSLVLIMET,LIMETREE BAY REFINING LLC & LIMETREE BAY TERMINALS LLC,324110,issues,issues,issues,issues,issues,issues,110000307864.0,issues,issues,issues,issues,issues,issues,issues,issues,issues,issues,issues,issues,issues,left_only
4533,7807WVLRNR31WLE,VALERO ENERGY PARTNERS THREE  RIVERS,324110,issues,issues,issues,issues,issues,VALERO ENERGY PARTNERS LP,110000464462.0,issues,issues,issues,issues,issues,issues,issues,issues,issues,issues,issues,issues,issues,left_only
4546,6041WDVRSF24338,DIVERSIFIED CPC INTERNATIONAL INC,325120,issues,issues,issues,issues,issues,SUMITOMO CORP OF AMERICAS,110000578214.0,issues,issues,issues,issues,issues,issues,issues,issues,issues,issues,issues,issues,issues,left_only
4563,28001PRFRM1700W,PREFORMED LINE PRODUCTS,325211,issues,issues,issues,issues,issues,PREFORMED LINE PRODUCTS CO,110000496598.0,issues,issues,issues,issues,issues,issues,issues,issues,issues,issues,issues,issues,issues,left_only
4575,1807WMTHSN141ST,MATHESON TRI-GAS INC-PALM,325120,issues,issues,issues,issues,issues,TAIYO NIPPON SANSO USA INC,110043569466.0,issues,issues,issues,issues,issues,issues,issues,issues,issues,issues,issues,issues,issues,left_only
4596,8023WFSTRV391JL,COLORADO SALT PRODUCTS LLC,325180,issues,issues,issues,issues,issues,COLORADO SALT PRODUCTS LLC,110059361505.0,issues,issues,issues,issues,issues,issues,issues,issues,issues,issues,issues,issues,issues,left_only
4599,18042PLYTK55HIL,POLYTEK DEVELOPMENT CORP,325211,325212.0,issues,issues,issues,issues,POLYTEK DEVELOPMENT CORP,110000334816.0,issues,issues,issues,issues,issues,issues,issues,issues,issues,issues,issues,issues,issues,left_only
4651,7750WRLQDL11777,AIR LIQUIDE LARGE INDUSTRIES US LP - SMR UNIT,325120,issues,issues,issues,issues,issues,AMERICAN AIR LIQUIDE HOLDINGS INC,110046424598.0,issues,issues,issues,issues,issues,issues,issues,issues,issues,issues,issues,issues,issues,left_only
4669,79922GLBLL35DNI,GLOBAL ALTERNATIVE FUELS LLC,325199,issues,issues,issues,issues,issues,issues,110040366788.0,issues,issues,issues,issues,issues,issues,issues,issues,issues,issues,issues,issues,issues,left_only
4737,42501THSMR501RE,CONTINENTAL REFINING CO LLC,324110,issues,issues,issues,issues,issues,CONTINENTAL REFINING CO LLC,110000381113.0,issues,issues,issues,issues,issues,issues,issues,issues,issues,issues,issues,issues,issues,left_only
4749,1632WMSTBL24TWM,AM STABILIZERS CORP,325199,issues,issues,issues,issues,issues,AMFINE CHEMICAL CORP,110070056822.0,issues,issues,issues,issues,issues,issues,issues,issues,issues,issues,issues,issues,issues,left_only
4774,4900WCYTCN3115M,CYTEC ENGINEERED MATERIALS,325211,issues,issues,issues,issues,issues,SOLVAY HOLDING INC,110057677679.0,issues,issues,issues,issues,issues,issues,issues,issues,issues,issues,issues,issues,issues,left_only
4957,91767SLPKN47EBN,SILPAK INC,325211,issues,issues,issues,issues,issues,issues,110030909257.0,issues,issues,issues,issues,issues,issues,issues,issues,issues,issues,issues,issues,issues,left_only
4959,7007WRPRDC1251B,AIR PRODUCTS & CHEMICALS INC LULING SMR,325120,issues,issues,issues,issues,issues,AIR PRODUCTS & CHEMICALS INC.,110055498956.0,issues,issues,issues,issues,issues,issues,issues,issues,issues,issues,issues,issues,issues,left_only
5009,31082CHMCLINDUS,BULK CHEMICAL SERVICES LLC.,325199,issues,issues,issues,issues,issues,issues,110007088668.0,issues,issues,issues,issues,issues,issues,issues,issues,issues,issues,issues,issues,issues,left_only
5043,9456WKPRSL95LVE,K2 PURE SOLUTIONS NOCAL LP,325180,issues,issues,issues,issues,issues,issues,110046123164.0,issues,issues,issues,issues,issues,issues,issues,issues,issues,issues,issues,issues,issues,left_only
5187,77054LLCHM9011E,ALLCHEM SERVICES INC,325199,325314.0,325611.0,issues,issues,issues,issues,110000461900.0,issues,issues,issues,issues,issues,issues,issues,issues,issues,issues,issues,issues,issues,left_only
5283,7759WBLNCH2415T,BLANCHARD REFINING CO LLC,324110,issues,issues,issues,issues,issues,MARATHON PETROLEUM CORP,110059763536.0,issues,issues,issues,issues,issues,issues,issues,issues,issues,issues,issues,issues,issues,left_only
5358,60538RCHST2200R,ROCHESTER MIDLAND CORP,325199,issues,issues,issues,issues,issues,ROCHESTER MIDLAND CORP,110000433692.0,issues,issues,issues,issues,issues,issues,issues,issues,issues,issues,issues,issues,issues,left_only
5361,7908WVLRPR671FM,VALERO PARTNERS MCKEE,324110,issues,issues,issues,issues,issues,VALERO ENERGY PARTNERS LP,110070135387.0,issues,issues,issues,issues,issues,issues,issues,issues,issues,issues,issues,issues,issues,left_only
5439,4524WMVRCK11379,MAVERICK MOLDING,325211,issues,issues,issues,issues,issues,issues,110012251384.0,issues,issues,issues,issues,issues,issues,issues,issues,issues,issues,issues,issues,issues,left_only
5616,2611WLMNTSRUTE2,ELEMENTIS SPECIATIES INC,325199,issues,issues,issues,issues,issues,ELEMENTIS,110064455888.0,issues,issues,issues,issues,issues,issues,issues,issues,issues,issues,issues,issues,issues,left_only
5672,30082PLLND1850S,APOLLO TECHNOLOGIES,325199,issues,issues,issues,issues,issues,APOLLO TECHNOLOGIES INC,110000356016.0,issues,issues,issues,issues,issues,issues,issues,issues,issues,issues,issues,issues,issues,left_only
5839,0096WHDSNT869KM,HUDSON TECHNOLOGIES CO,325120,issues,issues,issues,issues,issues,HUDSON TECHNOLOGIES INC,110070071511.0,issues,issues,issues,issues,issues,issues,issues,issues,issues,issues,issues,issues,issues,left_only
5857,1413WVWRCH6357I,VWR CHEMICALS LLC,325199,541715.0,issues,issues,issues,issues,AVANTOR INC.,110031423742.0,issues,issues,issues,issues,issues,issues,issues,issues,issues,issues,issues,issues,issues,left_only
5894,36582BSFPR4201A,BASF TRILON M,325211,issues,issues,issues,issues,issues,BASF CORP,110042852838.0,issues,issues,issues,issues,issues,issues,issues,issues,issues,issues,issues,issues,issues,left_only
5980,2614WPRVRN62IND,PROVIRON INC,325199,issues,issues,issues,issues,issues,issues,110064454674.0,issues,issues,issues,issues,issues,issues,issues,issues,issues,issues,issues,issues,issues,left_only
5992,7007WHXNLL12513,HEXION LULING FACILITY,325199,issues,issues,issues,issues,issues,HEXION HOLDINGS CORP,110066956299.0,issues,issues,issues,issues,issues,issues,issues,issues,issues,issues,issues,issues,issues,left_only
5994,2618WCHMRS848DU,CHEMOURS WASHINGTON WORKS,325120,325211.0,issues,issues,issues,issues,THE CHEMOURS CO,110000586081.0,issues,issues,issues,issues,issues,issues,issues,issues,issues,issues,issues,issues,issues,left_only
6084,2973WGBRLP812CE,GABRIEL PHENOXIES INC,325211,issues,issues,issues,issues,issues,GABRIEL PERFORMANCE PRODUCTS,110050813958.0,issues,issues,issues,issues,issues,issues,issues,issues,issues,issues,issues,issues,issues,left_only
6090,7834WBSFCR5738C,BASF CORP,325199,issues,issues,issues,issues,issues,issues,110070234154.0,issues,issues,issues,issues,issues,issues,issues,issues,issues,issues,issues,issues,issues,left_only
6160,7840WBCKYT151SU,BUCKEYE TEXAS PROCESSING LLC-CORPUS CHRISTI,324110,issues,issues,issues,issues,issues,BUCKEYE PARTNERS LP,110063235002.0,issues,issues,issues,issues,issues,issues,issues,issues,issues,issues,issues,issues,issues,left_only
6231,5860WDKTPR38151,MARATHON DICKINSON REFINERY,324110,issues,issues,issues,issues,issues,MARATHON PETROLEUM CORP,110059678353.0,issues,issues,issues,issues,issues,issues,issues,issues,issues,issues,issues,issues,issues,left_only
6320,7757WLPRTT6INDE,LUBRIZOL ADVANCED MATERIALS LAPORTE FACILITY,325211,issues,issues,issues,issues,issues,BERKSHIRE HATHAWAY INC,110041626443.0,issues,issues,issues,issues,issues,issues,issues,issues,issues,issues,issues,issues,issues,left_only
6349,91350HSNCX23119,HASA INC,325180,issues,issues,issues,issues,issues,issues,110000476958.0,issues,issues,issues,issues,issues,issues,issues,issues,issues,issues,issues,issues,issues,left_only
6363,7076WSTYLS2627H,SE TYLOSE LOUISIANA LLC,325199,issues,issues,issues,issues,issues,SE TYLOSE USA INC,110055592336.0,issues,issues,issues,issues,issues,issues,issues,issues,issues,issues,issues,issues,issues,left_only
6670,46703DNCRP203WE,UNIVERTICAL LLC,325180,331420.0,issues,issues,issues,issues,issues,110042036908.0,issues,issues,issues,issues,issues,issues,issues,issues,issues,issues,issues,issues,issues,left_only
6761,48150BSFCR13000,BASF CORP,325211,issues,issues,issues,issues,issues,BASF CORP,110017411834.0,issues,issues,issues,issues,issues,issues,issues,issues,issues,issues,issues,issues,issues,left_only
6798,99686PTRST25MIL,PETRO STAR VALDEZ REFINERY,324110,issues,issues,issues,issues,issues,ARCTIC SLOPE REGIONAL CORP,110041977162.0,issues,issues,issues,issues,issues,issues,issues,issues,issues,issues,issues,issues,issues,left_only
6915,7906WPMPFL821FM,PROMAN USA (PAMPA) LLC,325199,issues,issues,issues,issues,issues,PROMAN USA INC,110067409922.0,issues,issues,issues,issues,issues,issues,issues,issues,issues,issues,issues,issues,issues,left_only
7028,7738WFLWCR616SP,FLOWCRETE NA - SPRING,325211,issues,issues,issues,issues,issues,RPM INTERNATIONAL INC,110067659064.0,issues,issues,issues,issues,issues,issues,issues,issues,issues,issues,issues,issues,issues,left_only
7061,48130PHTSY7200H,PHOTO SYSTEMS INC/BOTTCHER AMERICA,325199,325992.0,325611.0,issues,issues,issues,issues,110003703476.0,issues,issues,issues,issues,issues,issues,issues,issues,issues,issues,issues,issues,issues,left_only
7099,8538WRPRCR8932W,A-GAS US INC,325120,issues,issues,issues,issues,issues,A-GAS US HOLDINGS INC,110069348664.0,issues,issues,issues,issues,issues,issues,issues,issues,issues,issues,issues,issues,issues,left_only
7124,7080WCSRVC131AI,ECO-SERVICES OPERATIONS,325180,issues,issues,issues,issues,issues,ECOVYST CATALYST TECHNOLOGIES LLC,110063234940.0,issues,issues,issues,issues,issues,issues,issues,issues,issues,issues,issues,issues,issues,left_only
7281,7741WCHMCL855ST,CHEMICALS INC BAY CITY SITE,325199,issues,issues,issues,issues,issues,CHEMICALS INC,110045563804.0,issues,issues,issues,issues,issues,issues,issues,issues,issues,issues,issues,issues,issues,left_only
7427,9323WTSSND1724E,TESSENDERLO KERLEY INC HANFORD PLANT,325180,issues,issues,issues,issues,issues,TESSENDERLO KERLEY INC,110057050550.0,issues,issues,issues,issues,issues,issues,issues,issues,issues,issues,issues,issues,issues,left_only
7432,5045WNWHVN15853,NEW HEAVEN CHEMICALS IOWA LLC - SMO MANUFACTURING PLANT,325199,issues,issues,issues,issues,issues,issues,110066863193.0,issues,issues,issues,issues,issues,issues,issues,issues,issues,issues,issues,issues,issues,left_only
7436,4021WDPNTL425CA,DUPONT LOUISVILLE PLANT,325120,issues,issues,issues,issues,issues,DUPONT DE NEMOURS INC,110069236883.0,issues,issues,issues,issues,issues,issues,issues,issues,issues,issues,issues,issues,issues,left_only
7650,17403NRTHM609EA,NORTH METAL & CHEMICAL CO,325180,issues,issues,issues,issues,issues,issues,110004838999.0,issues,issues,issues,issues,issues,issues,issues,issues,issues,issues,issues,issues,issues,left_only
8028,3001WMCNSS1SKCD,MCNS-US COVINGTON,325211,issues,issues,issues,issues,issues,issues,110070244707.0,issues,issues,issues,issues,issues,issues,issues,issues,issues,issues,issues,issues,issues,left_only
8085,7007WVLRPR1492R,VALERO PARTNERS LA LLC- TERMINAL,324110,issues,issues,issues,issues,issues,VALERO ENERGY CORP,110070135385.0,issues,issues,issues,issues,issues,issues,issues,issues,issues,issues,issues,issues,issues,left_only
8206,77054FMNTR1703C,BASF HOUSTON POLYURETHANE,325211,issues,issues,issues,issues,issues,BASF CORP,110000861755.0,issues,issues,issues,issues,issues,issues,issues,issues,issues,issues,issues,issues,issues,left_only
8209,02021NTRPL200DA,ZSCHIMMER & SCHWARZ INTERPOLYMER,325211,issues,issues,issues,issues,issues,ZSCHIMMER & SCHWARZ,110000310510.0,issues,issues,issues,issues,issues,issues,issues,issues,issues,issues,issues,issues,issues,left_only
8353,2725WNDLRX932EA,INDULOR AMERICA LP,325211,issues,issues,issues,issues,issues,issues,110056968456.0,issues,issues,issues,issues,issues,issues,issues,issues,issues,issues,issues,issues,issues,left_only
8380,7073WMTHNX4171H,METHANEX USA SERVICES LLC,325199,issues,issues,issues,issues,issues,issues,110046528227.0,issues,issues,issues,issues,issues,issues,issues,issues,issues,issues,issues,issues,issues,left_only
8756,46323GGSCN3930M,LINDE GAS NA LLC,325120,issues,issues,issues,issues,issues,LINDE GAS N.A. LLC,110000727447.0,issues,issues,issues,issues,issues,issues,issues,issues,issues,issues,issues,issues,issues,left_only
8758,84404GRTSL765N1,COMPASS MINERALS OGDEN INC,325180,325998.0,issues,issues,issues,issues,COMPASS MINERALS INTERNATIONAL INC,110000469920.0,issues,issues,issues,issues,issues,issues,issues,issues,issues,issues,issues,issues,issues,left_only
8937,92807NNVTV495EH,INNOVATIVE ORGANICS,325199,issues,issues,issues,issues,issues,SAINT-GOBAIN CORP,110025333431.0,issues,issues,issues,issues,issues,issues,issues,issues,issues,issues,issues,issues,issues,left_only
8938,7900WSLVYSSPUR1,SOLVAY SPECIALTY POLYMERS USA,325211,issues,issues,issues,issues,issues,SOLVAY AMERICA INC,110069727558.0,issues,issues,issues,issues,issues,issues,issues,issues,issues,issues,issues,issues,issues,left_only
9334,5262WWFLLL31873,W2 FUEL LLC,325199,issues,issues,issues,issues,issues,issues,110070070546.0,issues,issues,issues,issues,issues,issues,issues,issues,issues,issues,issues,issues,issues,left_only
9709,9074WHJBKR11SCH,HJ BAKER & BRO LLC,325180,issues,issues,issues,issues,issues,issues,110055500051.0,issues,issues,issues,issues,issues,issues,issues,issues,issues,issues,issues,issues,issues,left_only
9881,7607WDVRSF115SU,A-GAS US INC,325120,issues,issues,issues,issues,issues,A-GAS US HOLDINGS INC,110064403239.0,issues,issues,issues,issues,issues,issues,issues,issues,issues,issues,issues,issues,issues,left_only
9885,7750WVNKCR1431P,EVONIK CORP - PASADENA PMD PLANT,325199,issues,issues,issues,issues,issues,EVONIK CORP,110070055384.0,issues,issues,issues,issues,issues,issues,issues,issues,issues,issues,issues,issues,issues,left_only
10038,99705PTRST1200H,PETRO STAR INC. NORTH POLE REFINERY,324110,issues,issues,issues,issues,issues,ARCTIC SLOPE REGIONAL CORP,110055089149.0,issues,issues,issues,issues,issues,issues,issues,issues,issues,issues,issues,issues,issues,left_only
10050,63069CNVNN307IN,DAP PRODUCTS INC.,325211,issues,issues,issues,issues,issues,RPM INTERNATIONAL INC,110009415454.0,issues,issues,issues,issues,issues,issues,issues,issues,issues,issues,issues,issues,issues,left_only
10052,7007WVLRPR25EST,VALERO PARTNERS LLC,324110,424710.0,issues,issues,issues,issues,VALERO ENERGY CORP,110000448837.0,issues,issues,issues,issues,issues,issues,issues,issues,issues,issues,issues,issues,issues,left_only
10086,77507STHRN12901,SOUTHERN IONICS INC.,325180,issues,issues,issues,issues,issues,SOUTHERN IONICS INC,110000702151.0,issues,issues,issues,issues,issues,issues,issues,issues,issues,issues,issues,issues,issues,left_only
10087,77507BGTHR11400,AIR LIQUIDE LARGE INDUSTRIES US LP,325120,issues,issues,issues,issues,issues,AMERICAN AIR LIQUIDE HOLDINGS INC,110000462758.0,issues,issues,issues,issues,issues,issues,issues,issues,issues,issues,issues,issues,issues,left_only
10231,7125WMYRNT525PR,MYRIANT CORP,325199,issues,issues,issues,issues,issues,MYRIANT CORP,110054142129.0,issues,issues,issues,issues,issues,issues,issues,issues,issues,issues,issues,issues,issues,left_only
10281,18951QKRCL201SH,MCADOO & ALLEN  DIV QUAKER COLOR DIV MCADOO & ALLEN  DIV,325211,325991.0,issues,issues,issues,issues,issues,110007764605.0,issues,issues,issues,issues,issues,issues,issues,issues,issues,issues,issues,issues,issues,left_only
10383,01453SNNCR300WH,US PACK INC,325211,issues,issues,issues,issues,issues,issues,110000308845.0,issues,issues,issues,issues,issues,issues,issues,issues,issues,issues,issues,issues,issues,left_only
10446,8532WTHTCH6321S,THATCHER CO OF ARIZONA,325180,issues,issues,issues,issues,issues,THATCHER CO,110042003131.0,issues,issues,issues,issues,issues,issues,issues,issues,issues,issues,issues,issues,issues,left_only
10456,3919WRGSNT1226R,AIRGAS NITROUS OXIDE,325120,issues,issues,issues,issues,issues,AIRGAS INC,110038172946.0,issues,issues,issues,issues,issues,issues,issues,issues,issues,issues,issues,issues,issues,left_only
10468,5504WVRCTF1ISAN,EVER CAT FUELS LLC,325199,issues,issues,issues,issues,issues,issues,110037299562.0,issues,issues,issues,issues,issues,issues,issues,issues,issues,issues,issues,issues,issues,left_only
10469,72443NCHRP105EA,ANCHOR PACKAGING INC,325211,issues,issues,issues,issues,issues,issues,110025061769.0,issues,issues,issues,issues,issues,issues,issues,issues,issues,issues,issues,issues,issues,left_only
10524,9176WPLRTC747EF,HUDSON TECHNOLOGIES CO,325120,issues,issues,issues,issues,issues,HUDSON TECHNOLOGIES INC,110060260211.0,issues,issues,issues,issues,issues,issues,issues,issues,issues,issues,issues,issues,issues,left_only
10542,7739WSMMTR8541E,SUMMIT REFRIGERANTS,325120,423740.0,238220.0,issues,issues,issues,issues,110070541426.0,issues,issues,issues,issues,issues,issues,issues,issues,issues,issues,issues,issues,issues,left_only
10605,29630HNYWLHWY93,SHAW INDUSTRIES/PLANT 8T,325211,issues,issues,issues,issues,issues,BERKSHIRE HATHAWAY INC,110020516832.0,issues,issues,issues,issues,issues,issues,issues,issues,issues,issues,issues,issues,issues,left_only
10627,7757WCHMRS1235S,THE CHEMOURS CO,325180,issues,issues,issues,issues,issues,issues,110064375260.0,issues,issues,issues,issues,issues,issues,issues,issues,issues,issues,issues,issues,issues,left_only
10702,53121SNPND1001E,APPLIED MATERIAL SOLUTIONS INC,325199,issues,issues,issues,issues,issues,APPLIED MATERIAL SOLUTIONS INC,110012175449.0,issues,issues,issues,issues,issues,issues,issues,issues,issues,issues,issues,issues,issues,left_only
10703,3560WPLYPL31MAL,POLYPLEX USA LLC,325211,issues,issues,issues,issues,issues,issues,110044302242.0,issues,issues,issues,issues,issues,issues,issues,issues,issues,issues,issues,issues,issues,left_only
10707,91761NNCRB5705E,LINDE INC,325120,issues,issues,issues,issues,issues,LINDE INC,110065364135.0,issues,issues,issues,issues,issues,issues,issues,issues,issues,issues,issues,issues,issues,left_only
10719,7007WRPRDC14885,AIR PRODUCTS & CHEMCIALS INC  NORCO SMR,325120,issues,issues,issues,issues,issues,AIR PRODUCTS & CHEMICALS INC,110055569567.0,issues,issues,issues,issues,issues,issues,issues,issues,issues,issues,issues,issues,issues,left_only
10769,77630SCHLMTHOMA,CHEM32 LLC,325180,issues,issues,issues,issues,issues,ECOVYST INC.,110000463962.0,issues,issues,issues,issues,issues,issues,issues,issues,issues,issues,issues,issues,issues,left_only
10800,48217DTRTS1025S,AIR PRODUCTS & CHEMICALS INC/DETROIT HYDROGEN FACILITY,325120,issues,issues,issues,issues,issues,AIR PRODUCTS & CHEMICALS INC,110054838459.0,issues,issues,issues,issues,issues,issues,issues,issues,issues,issues,issues,issues,issues,left_only
10810,14094TWNLK520MI,TWIN LAKE CHEMICAL INC.,325199,issues,issues,issues,issues,issues,issues,110000326576.0,issues,issues,issues,issues,issues,issues,issues,issues,issues,issues,issues,issues,issues,left_only
10840,45014MRCNC3700D,USALCO FAIRFIELD PLANT LLC,325180,issues,issues,issues,issues,issues,USALCO LLC,110064455067.0,issues,issues,issues,issues,issues,issues,issues,issues,issues,issues,issues,issues,issues,left_only
10847,0192WTRNSN1ELEC,TRANSENE CO INC,325180,issues,issues,issues,issues,issues,issues,110009594117.0,issues,issues,issues,issues,issues,issues,issues,issues,issues,issues,issues,issues,issues,left_only
10889,60435CRSFL101IN,PQ CORP,325180,issues,issues,issues,issues,issues,PQ GROUP HOLDINGS INC,110013718842.0,issues,issues,issues,issues,issues,issues,issues,issues,issues,issues,issues,issues,issues,left_only
10923,0885WSTSCR25CHE,IST (USA) CORP,325211,issues,issues,issues,issues,issues,issues,110015309691.0,issues,issues,issues,issues,issues,issues,issues,issues,issues,issues,issues,issues,issues,left_only
10929,75603RLQDMOFFCA,AIR LIQUIDE - LONGVIEW POX,325120,issues,issues,issues,issues,issues,AIR LIQUIDE LARGE INDUSTRIES US,110056955610.0,issues,issues,issues,issues,issues,issues,issues,issues,issues,issues,issues,issues,issues,left_only
10931,2915WNVMLC755IN,NOVA MOLECULAR SUMTER LLC,325199,issues,issues,issues,issues,issues,NOVA MOLECULAR TECHNOLOGIES INC.,110062718821.0,issues,issues,issues,issues,issues,issues,issues,issues,issues,issues,issues,issues,issues,left_only
10938,5310WPPLDM1956P,APPLIED MATERIAL SOLUTIONS,325199,issues,issues,issues,issues,issues,APPLIED MATERIAL SOLUTIONS INC,110070126796.0,issues,issues,issues,issues,issues,issues,issues,issues,issues,issues,issues,issues,issues,left_only
10942,46256CRWNT7513E,CROWN TECHNOLOGY,325180,issues,issues,issues,issues,issues,issues,110000397570.0,issues,issues,issues,issues,issues,issues,issues,issues,issues,issues,issues,issues,issues,left_only
10944,59107MNTNSEXXON,MONTANA SULPHUR & CHEMICAL CO,325180,325998.0,325120.0,issues,issues,issues,issues,110000428476.0,issues,issues,issues,issues,issues,issues,issues,issues,issues,issues,issues,issues,issues,left_only
10954,1946WSPCLT243SH,SPECIALTY CHEMICAL SYSTEMS INC,325180,issues,issues,issues,issues,issues,issues,110070028256.0,issues,issues,issues,issues,issues,issues,issues,issues,issues,issues,issues,issues,issues,left_only
10955,7480WRPRDC541UP,AIR PRODUCTS LLC,325120,issues,issues,issues,issues,issues,AIR PRODUCTS & CHEMICALS INC,110041624873.0,issues,issues,issues,issues,issues,issues,issues,issues,issues,issues,issues,issues,issues,left_only
10958,5320WPRNCM411WE,PRINCE MINERALS LLC,325180,issues,issues,issues,issues,issues,PRINCE MINERALS LLC,110045403103.0,issues,issues,issues,issues,issues,issues,issues,issues,issues,issues,issues,issues,issues,left_only
10962,0193WNCHRS54GRE,ANCHOR SEAL,325211,issues,issues,issues,issues,issues,issues,110042374169.0,issues,issues,issues,issues,issues,issues,issues,issues,issues,issues,issues,issues,issues,left_only
10972,92705GMNND2311S,GEMINI INDUSTRIES INC,325180,issues,issues,issues,issues,issues,issues,110000480541.0,issues,issues,issues,issues,issues,issues,issues,issues,issues,issues,issues,issues,issues,left_only
10989,8002WRMSTR64CMP,CHECKERS INDUSTRIAL SAFETY PRODUCTS,325211,issues,issues,issues,issues,issues,JUSTRITE MANUFACTURING CO LLC,110060258698.0,issues,issues,issues,issues,issues,issues,issues,issues,issues,issues,issues,issues,issues,left_only
11005,85242MGCPR6560S,MGC PURE CHEMICALS AMERICA INC,325180,issues,issues,issues,issues,issues,issues,110000860792.0,issues,issues,issues,issues,issues,issues,issues,issues,issues,issues,issues,issues,issues,left_only
11006,7757WSNGWN12LDU,SONGWON INTERNATIONAL AMERICAS INC. - LA PORTE,325199,issues,issues,issues,issues,issues,issues,110070164098.0,issues,issues,issues,issues,issues,issues,issues,issues,issues,issues,issues,issues,issues,left_only
11019,48108CYMNC118EE,CAYMAN CHEMICAL CO INC.,325199,issues,issues,issues,issues,issues,issues,110003705027.0,issues,issues,issues,issues,issues,issues,issues,issues,issues,issues,issues,issues,issues,left_only
11028,92780BJBNT14791,BJB ENTERPRISES INC,325211,issues,issues,issues,issues,issues,issues,110022448369.0,issues,issues,issues,issues,issues,issues,issues,issues,issues,issues,issues,issues,issues,left_only
11030,9720WTCMRC13135,TCI AMERICA,325199,issues,issues,issues,issues,issues,issues,110032744127.0,issues,issues,issues,issues,issues,issues,issues,issues,issues,issues,issues,issues,issues,left_only
11048,38118DLTFR3915A,DELTA FOREMOST CHEMICAL CORP,325199,issues,issues,issues,issues,issues,issues,110000374336.0,issues,issues,issues,issues,issues,issues,issues,issues,issues,issues,issues,issues,issues,left_only
11050,94510PRXRN331EC,PRAXAIR INC,325120,issues,issues,issues,issues,issues,PRAXAIR INC,110000482781.0,issues,issues,issues,issues,issues,issues,issues,issues,issues,issues,issues,issues,issues,left_only
11051,10940HRCLS33SPR,FLEURCHEM INC.,325199,issues,issues,issues,issues,issues,issues,110001579373.0,issues,issues,issues,issues,issues,issues,issues,issues,issues,issues,issues,issues,issues,left_only
11054,66044FMCCR9THMA,ICL,325180,issues,issues,issues,issues,issues,ICL NA INC,110017579850.0,issues,issues,issues,issues,issues,issues,issues,issues,issues,issues,issues,issues,issues,left_only
11055,78140LLPTRHWY87,LAZARUS REFINERY LLC,324110,issues,issues,issues,issues,issues,issues,110037848498.0,issues,issues,issues,issues,issues,issues,issues,issues,issues,issues,issues,issues,issues,left_only
11069,77515GRFBR1508E,3M ANGLETON,325211,issues,issues,issues,issues,issues,3M CO,110002134119.0,issues,issues,issues,issues,issues,issues,issues,issues,issues,issues,issues,issues,issues,left_only
11070,49221NXTDS1571W,W2 FUEL LLC,325199,issues,issues,issues,issues,issues,issues,110037145087.0,issues,issues,issues,issues,issues,issues,issues,issues,issues,issues,issues,issues,issues,left_only
11092,38583GPLST510IR,BASF CORPORATION-SPARTA TN,325211,issues,issues,issues,issues,issues,BASF CORP,110000496847.0,issues,issues,issues,issues,issues,issues,issues,issues,issues,issues,issues,issues,issues,left_only
11096,94565HSNCX1251L,HASA INC,325180,issues,issues,issues,issues,issues,issues,110009528092.0,issues,issues,issues,issues,issues,issues,issues,issues,issues,issues,issues,issues,issues,left_only
11107,2972WJNSHM4433R,JONES-HAMILTON CO.,325180,issues,issues,issues,issues,issues,JONES-HAMILTON CO,110067715271.0,issues,issues,issues,issues,issues,issues,issues,issues,issues,issues,issues,issues,issues,left_only
11118,5273WNVBFL56444,CLINTON BIODIESEL LLC,324110,issues,issues,issues,issues,issues,issues,110024825055.0,issues,issues,issues,issues,issues,issues,issues,issues,issues,issues,issues,issues,issues,left_only
11120,77389PLYTH2400S,SES FOAM LLC.,325211,issues,issues,issues,issues,issues,CARLISLE COS INC,110009497455.0,issues,issues,issues,issues,issues,issues,issues,issues,issues,issues,issues,issues,issues,left_only
11127,98632NTRXM3500I,SOLVAY CHEMICALS INC,325180,issues,issues,issues,issues,issues,SOLVAY HOLDING INC,110000490870.0,issues,issues,issues,issues,issues,issues,issues,issues,issues,issues,issues,issues,issues,left_only
11146,00777LSRPRRD185,LASER PRODUCT INC,325180,issues,issues,issues,issues,issues,issues,110000580924.0,issues,issues,issues,issues,issues,issues,issues,issues,issues,issues,issues,issues,issues,left_only
11151,02339HPCNC353CI,HAPCO INC,325211,issues,issues,issues,issues,issues,HAPCO INC.,110000311332.0,issues,issues,issues,issues,issues,issues,issues,issues,issues,issues,issues,issues,issues,left_only
11153,7764WPRXRP181SU,LINDE  PORT ARTHUR 2,325120,issues,issues,issues,issues,issues,LINDE INC,110060241885.0,issues,issues,issues,issues,issues,issues,issues,issues,issues,issues,issues,issues,issues,left_only
11161,7758WNNDST4631L,NIPPON SHOKUBAI AMERICA INDUSTRIES,325211,issues,issues,issues,issues,issues,issues,110055499571.0,issues,issues,issues,issues,issues,issues,issues,issues,issues,issues,issues,issues,issues,left_only
11163,66762MCPRT826E4,MCP URETHANES,325211,issues,issues,issues,issues,issues,MCP INDUSTRIES,110000446027.0,issues,issues,issues,issues,issues,issues,issues,issues,issues,issues,issues,issues,issues,left_only
11172,3812WLNXSS2571F,LANXESS CORPORATION-MEMPHIS,325180,issues,issues,issues,issues,issues,LANXESS CORP,110070049823.0,issues,issues,issues,issues,issues,issues,issues,issues,issues,issues,issues,issues,issues,left_only
11185,9135WQLLNL25161,QUALLION LLC MANN BIOMEDICAL PARK BUILDING 61,325180,issues,issues,issues,issues,issues,ENERSYS,110043534459.0,issues,issues,issues,issues,issues,issues,issues,issues,issues,issues,issues,issues,issues,left_only
11187,9175WGSPLY3687B,GS POLYMERS INC.,325211,issues,issues,issues,issues,issues,issues,110057101032.0,issues,issues,issues,issues,issues,issues,issues,issues,issues,issues,issues,issues,issues,left_only
11190,9212WNTGRT6828N,INTEGRATED DNA TECHNOLOGIES,325199,issues,issues,issues,issues,issues,DANAHER CORP,110043653356.0,issues,issues,issues,issues,issues,issues,issues,issues,issues,issues,issues,issues,issues,left_only
11192,2618WKRRYM848DU,KURARAY AMERICA INC-WASHINGTON WV,325211,issues,issues,issues,issues,issues,KURARAY AMERICA INC,110060291964.0,issues,issues,issues,issues,issues,issues,issues,issues,issues,issues,issues,issues,issues,left_only
11194,02852DVLPM300OL,DEVELOPMENT ASSOCIATES INC,325211,issues,issues,issues,issues,issues,issues,110000312215.0,issues,issues,issues,issues,issues,issues,issues,issues,issues,issues,issues,issues,issues,left_only
11201,37134MTHSN200MA,MATHESON TRI-GAS-NEW JOHNSONVILLE TN BRANCH,325120,issues,issues,issues,issues,issues,TAIYO NIPPON SANSO USA INC,110056639106.0,issues,issues,issues,issues,issues,issues,issues,issues,issues,issues,issues,issues,issues,left_only
11206,45147RCDSTSTRT1,AIRGAS USA LLC MIAMIVILLE,325120,issues,issues,issues,issues,issues,AIRGAS INC,110000726126.0,issues,issues,issues,issues,issues,issues,issues,issues,issues,issues,issues,issues,issues,left_only
11211,6520WHNYWL64NBR,HONEYWELL INTERNATIONAL INC,325211,issues,issues,issues,issues,issues,HONEYWELL INTERNATIONAL INC,110010667554.0,issues,issues,issues,issues,issues,issues,issues,issues,issues,issues,issues,issues,issues,left_only
11218,3650WPMCRG13755,PMC ORGANOMETALLIX INC,325180,issues,issues,issues,issues,issues,PMC GROUP INC,110067013467.0,issues,issues,issues,issues,issues,issues,issues,issues,issues,issues,issues,issues,issues,left_only
11233,2501WPTMBL91WDU,OPTIMA BELLE LLC,325199,issues,issues,issues,issues,issues,OPTIMA CHEMICAL,110000344182.0,issues,issues,issues,issues,issues,issues,issues,issues,issues,issues,issues,issues,issues,left_only
11246,20842NTRNP22301,NEUTRON PRODUCTS INC.,325211,issues,issues,issues,issues,issues,issues,110003510576.0,issues,issues,issues,issues,issues,issues,issues,issues,issues,issues,issues,issues,issues,left_only
11248,03820RSLNC1WASH,URASEAL INC,325211,issues,issues,issues,issues,issues,issues,110000314035.0,issues,issues,issues,issues,issues,issues,issues,issues,issues,issues,issues,issues,issues,left_only
11251,15088SNYCHSTATE,SANYO CHEMICAL & RESINS LLC,325211,issues,issues,issues,issues,issues,SANYO N.A.,110067041846.0,issues,issues,issues,issues,issues,issues,issues,issues,issues,issues,issues,issues,issues,left_only
11256,07032KHNCH86HAC,KUEHNE CHEMICAL CO INC,325180,issues,issues,issues,issues,issues,KUEHNE CHEMICAL CO INC,110000318362.0,issues,issues,issues,issues,issues,issues,issues,issues,issues,issues,issues,issues,issues,left_only
11257,92665BSFCR210EM,BASF CORP,325211,issues,issues,issues,issues,issues,BASF CORP,110000480104.0,issues,issues,issues,issues,issues,issues,issues,issues,issues,issues,issues,issues,issues,left_only
11267,0651WGRNLF1WATE,AMERICAN GREENFUELS LLC,325199,issues,issues,issues,issues,issues,KOLMAR AMERICAS INC,110055592595.0,issues,issues,issues,issues,issues,issues,issues,issues,issues,issues,issues,issues,issues,left_only
11282,19468SPCLT400FI,"SPECIALTY CHEMICAL SYSTEMS,INC",325180,issues,issues,issues,issues,issues,issues,110000337966.0,issues,issues,issues,issues,issues,issues,issues,issues,issues,issues,issues,issues,issues,left_only
11283,75009FNNTRFM289,CHEMTRADE SULFATE SOLUTIONS INC,325180,issues,issues,issues,issues,issues,CHEMTRADE HOLDCO US INC,110002470102.0,issues,issues,issues,issues,issues,issues,issues,issues,issues,issues,issues,issues,issues,left_only
11289,85714KRMNT4231S,POLYMER CHEMISTRY INNOVATIONS INC,325211,issues,issues,issues,issues,issues,issues,110009524032.0,issues,issues,issues,issues,issues,issues,issues,issues,issues,issues,issues,issues,issues,left_only
11290,6831WDNXBT722KI,DUONIX BEATRICE LP,325199,issues,issues,issues,issues,issues,KOCH INDUSTRIES INC,110045416974.0,issues,issues,issues,issues,issues,issues,issues,issues,issues,issues,issues,issues,issues,left_only
11296,9582WTHTCH8625U,THATCHER CO OF CALIFORNIA,325180,issues,issues,issues,issues,issues,THATCHER CO,110070244745.0,issues,issues,issues,issues,issues,issues,issues,issues,issues,issues,issues,issues,issues,left_only
11300,7840WTDCLL381BU,TDC LLC-CORPUS CHRISTI PLANT,325180,issues,issues,issues,issues,issues,GENESIS ENERGY LP,110038160129.0,issues,issues,issues,issues,issues,issues,issues,issues,issues,issues,issues,issues,issues,left_only
11301,77651RLQDP2121P,AIR LIQUIDE LARGE INDUSTRIES US LP PORT NECHES,325120,issues,issues,issues,issues,issues,AIR LIQUIDE LARGE INDUSTRIES US LP,110014407846.0,issues,issues,issues,issues,issues,issues,issues,issues,issues,issues,issues,issues,issues,left_only
11313,7735WCMBSG345FM,COOLGAS INC DBA A-GAS,325120,issues,issues,issues,issues,issues,A-GAS US HOLDINGS INC,110055506796.0,issues,issues,issues,issues,issues,issues,issues,issues,issues,issues,issues,issues,issues,left_only
11314,3175WMDRND32EDW,MODERN DISPERSIONS SOUTH INC.,325211,issues,issues,issues,issues,issues,issues,110070046153.0,issues,issues,issues,issues,issues,issues,issues,issues,issues,issues,issues,issues,issues,left_only
11325,94553RPRDSTRACT,AIR PRODUCTS & CHEMICALS INC MARTINEZ SOLANO WAY,325120,issues,issues,issues,issues,issues,AIR PRODUCTS & CHEMICALS INC,110070131948.0,issues,issues,issues,issues,issues,issues,issues,issues,issues,issues,issues,issues,issues,left_only
11358,70734RHNPL10810,INNOPHOS INC,325180,issues,issues,issues,issues,issues,INNOPHOS INC,110000743385.0,issues,issues,issues,issues,issues,issues,issues,issues,issues,issues,issues,issues,issues,left_only
11360,0410WMNSTN51ING,MAINE STANDARD BIOFUELS,325199,issues,issues,issues,issues,issues,issues,110069220738.0,issues,issues,issues,issues,issues,issues,issues,issues,issues,issues,issues,issues,issues,left_only
11366,30721PLSTR207BR,SANCO INC,325211,issues,issues,issues,issues,issues,issues,110000359200.0,issues,issues,issues,issues,issues,issues,issues,issues,issues,issues,issues,issues,issues,left_only
11370,3000WSLVYS45MCG,SOLVAY SPECIALTY POLYMERS USA LLC-ALPHARETTA,325211,541715.0,issues,issues,issues,issues,AUSIMONT INDUSTRIES INC.,110000856538.0,issues,issues,issues,issues,issues,issues,issues,issues,issues,issues,issues,issues,issues,left_only
11372,7522WRRWMG2646R,ARROW MAGNOLIA INTERNATIONAL,325199,issues,issues,issues,issues,issues,issues,110005033454.0,issues,issues,issues,issues,issues,issues,issues,issues,issues,issues,issues,issues,issues,left_only
11379,7706WTWPLY1255C,ITW POLYMERS SEALANTS NA,325211,issues,issues,issues,issues,issues,ILLINOIS TOOL WORKS INC,110060261746.0,issues,issues,issues,issues,issues,issues,issues,issues,issues,issues,issues,issues,issues,left_only
11386,77651CLBRN5500H,INEOS CALABRIAN CORP,325180,issues,issues,issues,issues,issues,issues,110000746499.0,issues,issues,issues,issues,issues,issues,issues,issues,issues,issues,issues,issues,issues,left_only
11401,7220WTWGLB7511S,ITW GLOBAL TIRE REPAIR,325199,issues,issues,issues,issues,issues,issues,110070071008.0,issues,issues,issues,issues,issues,issues,issues,issues,issues,issues,issues,issues,issues,left_only
11408,3547WHRBXL12982,HERO BX ALABAMA,325199,issues,issues,issues,issues,issues,issues,110070071273.0,issues,issues,issues,issues,issues,issues,issues,issues,issues,issues,issues,issues,issues,left_only
11409,9211WNWLFB2285B,NEW LEAF BIOFUEL,325199,issues,issues,issues,issues,issues,issues,110056970247.0,issues,issues,issues,issues,issues,issues,issues,issues,issues,issues,issues,issues,issues,left_only
11416,02840NWPRT312CN,NEWPORT BIODIESEL INC,325199,issues,issues,issues,issues,issues,issues,110055218438.0,issues,issues,issues,issues,issues,issues,issues,issues,issues,issues,issues,issues,issues,left_only
11423,7163WPNNCL117MA,DELEK RENEWABLES LLC,325199,issues,issues,issues,issues,issues,DELEK US HOLDINGS INC,110033168471.0,issues,issues,issues,issues,issues,issues,issues,issues,issues,issues,issues,issues,issues,left_only
11424,31907RCPLYONERU,STEPAN CO,325211,issues,issues,issues,issues,issues,STEPAN CO,110000361448.0,issues,issues,issues,issues,issues,issues,issues,issues,issues,issues,issues,issues,issues,left_only
11442,37055WBSHLSOUTH,ZOCHEM LLC,325180,issues,issues,issues,issues,issues,issues,110000370027.0,issues,issues,issues,issues,issues,issues,issues,issues,issues,issues,issues,issues,issues,left_only
11445,44087LBMRL1664E,ALBEMARLE CORP,325199,issues,issues,issues,issues,issues,ALBEMARLE CORP,110038365382.0,issues,issues,issues,issues,issues,issues,issues,issues,issues,issues,issues,issues,issues,left_only
11449,7163WLVRRS141MA,ALVAR RESINS INC.,325211,issues,issues,issues,issues,issues,issues,110043510830.0,issues,issues,issues,issues,issues,issues,issues,issues,issues,issues,issues,issues,issues,left_only
11453,90745BFGDR2104E,GEON PERFORMANCE SOLUTIONS,325211,issues,issues,issues,issues,issues,GEON PERFORMANCE SOLUTIONS,110000476100.0,issues,issues,issues,issues,issues,issues,issues,issues,issues,issues,issues,issues,issues,left_only
11458,7066WTDCLL28LDS,TDC LLC - WESTLAKE PLANT,325180,issues,issues,issues,issues,issues,GENESIS ENERGY LP,110000540175.0,issues,issues,issues,issues,issues,issues,issues,issues,issues,issues,issues,issues,issues,left_only
11459,78704STHWS821EW,SACHEM INC,325199,issues,issues,issues,issues,issues,SACHEM INC,110000465390.0,issues,issues,issues,issues,issues,issues,issues,issues,issues,issues,issues,issues,issues,left_only
11468,4589WMDWST32KRE,MIDWEST COMPOSITES LLC,325211,issues,issues,issues,issues,issues,issues,110057510331.0,issues,issues,issues,issues,issues,issues,issues,issues,issues,issues,issues,issues,issues,left_only
11472,77418WSTRN7173H,WESTERN INTERNATIONAL GAS & CYLINDERS INC.,325120,issues,issues,issues,issues,issues,MATHESON TRI-GAS INC,110000728491.0,issues,issues,issues,issues,issues,issues,issues,issues,issues,issues,issues,issues,issues,left_only
11473,3659WNTDNT421EB,UNITED INITIATORS,325199,issues,issues,issues,issues,issues,UNITED INITIATORS INC,110064460701.0,issues,issues,issues,issues,issues,issues,issues,issues,issues,issues,issues,issues,issues,left_only
11474,4401WMXCHM33653,MEXICHEM SPECIALTY RESINS INC,325211,issues,issues,issues,issues,issues,MEXICHEM SPECIALTY RESINS INC,110056332339.0,issues,issues,issues,issues,issues,issues,issues,issues,issues,issues,issues,issues,issues,left_only
11475,66044PKCHM440BN,CHEMTRADE PHOSPHORUS SPECIALTIES LLC,325180,issues,issues,issues,issues,issues,CHEMTRADE LOGISTICS INC,110008059475.0,issues,issues,issues,issues,issues,issues,issues,issues,issues,issues,issues,issues,issues,left_only
11479,98248LQDCR446AL,LINDE INC,325120,issues,issues,issues,issues,issues,LINDE INC,110000490120.0,issues,issues,issues,issues,issues,issues,issues,issues,issues,issues,issues,issues,issues,left_only
11482,30318NTTNG1303B,APPLIED MATERIAL SOLUTIONS INC DBA NOTTINGHAM CO,325199,issues,issues,issues,issues,issues,APPLIED MATERIAL SOLUTIONS INC,110001751239.0,issues,issues,issues,issues,issues,issues,issues,issues,issues,issues,issues,issues,issues,left_only
11484,7557WRGNWB28TEX,REG NEW BOSTON LLC,325199,issues,issues,issues,issues,issues,RENEWABLE ENERGY GROUP INC,110060280413.0,issues,issues,issues,issues,issues,issues,issues,issues,issues,issues,issues,issues,issues,left_only
11486,7821WCPTLS1153B,CARBONFREE CHEMICALS SPE I HOLDINGS LLC,325180,issues,issues,issues,issues,issues,issues,110069359660.0,issues,issues,issues,issues,issues,issues,issues,issues,issues,issues,issues,issues,issues,left_only
11492,85231HSFRZ735EL,HASA INC,325180,issues,issues,issues,issues,issues,issues,110000600662.0,issues,issues,issues,issues,issues,issues,issues,issues,issues,issues,issues,issues,issues,left_only
11504,4813WLGCGN2434B,LGC GENOMICS LLC,325199,issues,issues,issues,issues,issues,issues,110042281580.0,issues,issues,issues,issues,issues,issues,issues,issues,issues,issues,issues,issues,issues,left_only
11511,4866WSKSRH3892S,SK SARAN AMERICAS LLC,325211,issues,issues,issues,issues,issues,issues,110070206563.0,issues,issues,issues,issues,issues,issues,issues,issues,issues,issues,issues,issues,issues,left_only
11515,1834WRLQDDDEMIR,AIR LIQUIDE ADVANCED MATERIALS INC,325120,325180.0,issues,issues,issues,issues,AMERICAN AIR LIQUIDE HOLDINGS INC,110070068460.0,issues,issues,issues,issues,issues,issues,issues,issues,issues,issues,issues,issues,issues,left_only
11534,67068PGNCX1SPEN,GREAT LAKES POLYMER TECHNOLOGIES LLC,325211,issues,issues,issues,issues,issues,issues,110039494188.0,issues,issues,issues,issues,issues,issues,issues,issues,issues,issues,issues,issues,issues,left_only
11539,7007WPRXRSVALER,LINDE ST CHARLES FACILITY,325120,issues,issues,issues,issues,issues,LINDE INC,110056382463.0,issues,issues,issues,issues,issues,issues,issues,issues,issues,issues,issues,issues,issues,left_only
11540,85019HLLBR4450N,HILL BROTHERS CHEMICAL CO,325180,424690.0,424950.0,issues,issues,issues,HILL BROTHERS CHEMICAL CO,110000470400.0,issues,issues,issues,issues,issues,issues,issues,issues,issues,issues,issues,issues,issues,left_only
11543,74467LSTMR221SH,ELASTOMER SPECIALTIES INC,325211,issues,issues,issues,issues,issues,ELASTOMER SPECIALTIES INC,110030818015.0,issues,issues,issues,issues,issues,issues,issues,issues,issues,issues,issues,issues,issues,left_only
11545,74015DVNCR5005N,ADVANCED RESEARCH CHEMICALS INC,325180,issues,issues,issues,issues,issues,issues,110069447101.0,issues,issues,issues,issues,issues,issues,issues,issues,issues,issues,issues,issues,issues,left_only
11547,0751WDVNCD1TAFT,ADVANCED BIOTECH,325199,issues,issues,issues,issues,issues,CENTROME,110060259731.0,issues,issues,issues,issues,issues,issues,issues,issues,issues,issues,issues,issues,issues,left_only
11550,60090PRCYH430SO,SLIDE PRODUCTS INC,325199,issues,issues,issues,issues,issues,issues,110000430294.0,issues,issues,issues,issues,issues,issues,issues,issues,issues,issues,issues,issues,issues,left_only
11551,issues,issues,issues,issues,issues,issues,issues,issues,issues,issues,110000437974.0,EVONIK CORP,8300 W RT 24,MAPLETON,IL,61547,40.564725,-89.724485,PEORIA,325613,nan,61547GLDSC8300W,TRI,right_only
11552,issues,issues,issues,issues,issues,issues,issues,issues,issues,issues,110012267965.0,PRAXAIR INC SULPHUR 676,4451 HIGHWAY 108 W,SULPHUR,LA,70665,30.139164,-93.526936,CALCASIEU PARISH,325120,nan,70664PRXRN4451H,TRI,right_only
