FRS_ID,FacilityName,Address,City,State,Zip,Latitude,Longitude,County,NAICS,SIC,FacilityID,Source
110000587179.0,INVISTA S.a.r.l. Camden Plant,643 HIGHWAY 1 SOUTH,LUGOFF,SC,29078,34.2337,-80.658,Kershaw,325211,,1000276,GHGRP
110000587179.0,INVISTA SARL,643 HWY 1 S,LUGOFF,SC,29078,34.2333,-80.6573,Kershaw,325220,,4762411,NEI
110000587179.0,INV CAMDEN PLANT,643 US HWY #1 S,LUGOFF,SC,29078,34.2375,-80.645833,KERSHAW,325222,,29020DPNTCPOBOX,TRI
110000462936.0,LUBRIZOL BAYPORT PLANT,12801 BAY AREA BOULEVARD,PASADENA,TX,77507,29.63914,-95.04694,HARRIS COUNTY,325199,,1000619,GHGRP
110000462936.0,BAYPORT PLANT,12801 BAY AREA BLVD,LA PORTE,TX,77571,29.6385,-95.0522,Harris,325110,,4168911,NEI
110000462936.0,LUBRIZOL CORP BAYPORT FACILITY,12801 BAY AREA BLVD,PASADENA,TX,77507,29.638475,-95.052814,HARRIS,325199,,77507LBRZL12801,TRI
110003266849.0,HONEYWELL INTERNATIONAL INC - BATON ROUGE PLANT,2966 LUPINE AVENUE,BATON ROUGE,LA,70805,30.474444,-91.183056,EAST BATON ROUGE,325120,,1000625,GHGRP
110003266849.0,Honeywell International Inc - Baton Rouge Plant,Lupine & Ontario,Baton Rouge,LA,70821,30.473,-91.1864,East Baton Rouge,325199,,8467611,NEI
110003266849.0,HONEYWELL INTERNATIONAL INC-BATON ROUGE PLANT,CORNER OF LUPINE & ONTARIO STR EETS,BATON ROUGE,LA,70805,30.474444,-91.183056,EAST BATON ROUGE PARISH,325199,,70805LLDSGCORNE,TRI
110000336994.0,Philadelphia Refinery,3144 PASSYUNK AVENUE,PHILADELPHIA,PA,19145,39.9058,-75.2122,Philadelphia,324110,,1001261,GHGRP
110000336994.0,ATLANTIC REFINING & MARKETING CORP,Unknown,PHILADELPHIA,PA,00000,39.9198,-75.1966,Philadelphia,48811,,12025611,NEI
110000336994.0,PHILA ENERGY SOL REF/ PES,3144 PASSYUNK AVE,PHILADELPHIA,PA,19145,39.9135,-75.19889999999998,Philadelphia,324110,,6652211,NEI
110000336994.0,PHILADELPHIA ENERGY SOLUTIONS REFINING PHILADELPHIA REFINERY,3144 PASSYUNK AVE,PHILADELPHIA,PA,19145,39.9147,-75.2005,PHILADELPHIA,324110,,19145TLNTC3144P,TRI
110000582101.0,"Sunoco, Inc. (R&S) Eagle Point Facility",ROUTE 130 AND I 295 SOUTH,WESTVILLE,NJ,8093,39.8743,-75.1595,Gloucester,324110,,1001321,GHGRP
110000582101.0,SUNOCO INC (R&M) EAGLE POINT FACILITY,US RT 130 AND I-295,WEST DEPTFORD,NJ,08093,39.8615,-75.15219999999998,Gloucester,32411,,8095211,NEI
110000582101.0,SPMT-EAGLE POINT TANK FARM,RT 130 & I-295 S,WESTVILLE,NJ,8093,39.8718,-75.1558,GLOUCESTER,493190,,08093CSTLGRTES1,TRI
110000434174.0,VANTAGE OLEOCHEMICALS,4650 S. RACINE AVE.,CHICAGO,IL,60609,41.809983,-87.656351,COOK,325199,,1001336,GHGRP
110000434174.0,Vantage Oleochemicals Inc,4650 S Racine,Chicago,IL,60609,41.81,-87.6564,Cook,325998,,3203811,NEI
110043782788.0,OXY VINYLS LP - Deer Park PVC,1000 TIDAL ROAD,DEER PARK,TX,77536,29.72613,-95.10802,HARRIS COUNTY,325211,,1001712,GHGRP
110043782788.0,DEER PARK VCM PLANT,1000 TIDAL RD INSIDE SHELL DEER PARK MFG COMPLEX,DEER PARK,TX,77536,29.7182,-95.1246,Harris,325110,,4778211,NEI
110043782788.0,DEER PARK PVC CAUSTIC PLANT HOUSTON,1000 TIDAL RD,DEER PARK,TX,77536,29.7303,-95.1094,Harris,325180,,4981011,NEI
110070828215.0,Auriga Polymers Inc.,1550 Dewberry Road,SPARTANBURG,SC,29307,35.027817,-81.87896,SPARTANBURG COUNTY,325211,,1001780,GHGRP
110070828215.0,AURIGA POLYMERS INC,1550 DEWBERRY RD,SPARTANBURG,SC,29307,35.0344,-81.8546,Spartanburg,325220,,2843211,NEI
110070828215.0,AURIGA POLYMERS INC-SPARTANBURG FACILITY,1550 DEWBERRY RD,SPARTANBURG,SC,29307,35.027817,-81.87896,SPARTANBURG,325211,,29304HCHSTI85AT,TRI
110015682830.0,Phillips 66 Ponca City Refinery,1000 South Pine,Ponca City,OK,74601,36.68807,-97.08786,KAY,324110,,1001920,GHGRP
110015682830.0,PONCA CITY RFNRY,1000 S PINE,PONCA CITY,OK,None,36.6754,-97.083,Kay,324110,,7320011,NEI
110015682830.0,PHILLIPS 66 PONCA CITY SITE,1000 S PINE ST,PONCA CITY,OK,746017501,36.6821,-97.0895,KAY,424710,,74603CNCPN1000S,TRI
110015682830.0,PHILLIPS 66 PONCA CITY SITE,1000 S PINE ST,PONCA CITY,OK,746017501,36.6821,-97.0895,KAY,324110,,74603CNCPN1000S,TRI
110015682830.0,PONCA CITY PIPELINE ACTIVITIES,1000 S PINE ST,PONCA CITY,OK,74601,36.6815,-97.091,Kay,486110,,10722511,NEI
110000463392.0,BASF FREEPORT SITE,602 COPPER ROAD,FREEPORT,TX,77541,29.002075,-95.399777,BRAZORIA,325199,,1001934,GHGRP
110000463392.0,FREEPORT SITE,602 COPPER RD,FREEPORT,TX,77541,29.0,-95.4036,Brazoria,325110,,4897511,NEI
110000463392.0,BASF CORP - FREEPORT SITE,602 COPPER RD,FREEPORT,TX,77541,29.002075,-95.399777,BRAZORIA,325199,,77541BSFCR602CO,TRI
110015670521.0,MONSANTO CO - LULING PLANT,12501 S RIVER RD,LULING,LA,70070,29.92444,-90.352217,SAINT CHARLES,325199,,1001989,GHGRP
110015670521.0,Monsanto Co - Luling Plant,12501 River Rd,Luling,LA,70070,29.9197,-90.3525,St. Charles,325320,,5608911,NEI
110015670521.0,BAYER CROPSCIENCE LP,12501 RIVER RD,LULING,LA,70070,29.92444,-90.352217,ST. CHARLES PARISH,325320,,70070MNSNTRIVER,TRI
110000463542.0,E I DU PONT DE NEMOURS LA PORTE PLANT,12501 STRANG RD.,LA PORTE,TX,77571,29.700264,-95.036967,HARRIS,325199,,1002003,GHGRP
110000463542.0,LA PORTE PLANT,12501 STRANG RD,LA PORTE,TX,77571,29.7042,-95.0403,Harris,325110,,4018511,NEI
110000463542.0,LAPORTE RAIL & TERMINAL LLC,12501 STRANG RD,LA PORTE,TX,77571,29.700264,-95.036967,HARRIS,325320,,77571DPNTL12501,TRI
110043813816.0,"St. Paul Park Refining Company, LLC",301 St. Paul Park Road,St. Paul Park,MN,55071,44.850583,-93.002139,WASHINGTON COUNTY,324110,,1002027,GHGRP
110043813816.0,Saint Paul Park Refining Co LLC,301 St Paul Park Rd,St. Paul Park,MN,55071,44.8519,-93.0013,Washington,32411,,8498611,NEI
110043813816.0,ST PAUL PARK REFINING CO LLC,301 ST PAUL PARK RD,SAINT PAUL PARK,MN,55071,44.850583,-93.002139,WASHINGTON,324110,,55071SHLND100WT,TRI
110070377148.0,ASCEND PERFORMANCE MATERIALS CHOCOLATE BAYOU FACILITY,None,ALVIN,TX,77512,29.2567,-95.2144,BRAZORIA,325199,,1002190,GHGRP
110070377148.0,CHOCOLATE BAYOU PLANT,3 M S OF FM 2004 & FM 2917 INTERX,ALVIN,TX,77512,29.2291,-95.1952,Brazoria,325110,,5632411,NEI
110070377148.0,ASCEND PERFORMANCE MATERIALS CHOCOLATE BAYOU PLANT,FM 2917; 8 MI S OF INTX OF HWY 35 & FM 2917,ALVIN,TX,77511,29.2525,-95.2111,Brazoria,325110,,5633311,NEI
110070377148.0,ASCEND PERFORMANCE MATERIALS-CHOCOLATE BAYOU PLANT,1 MONSANTO RD FM 2917,ALVIN,TX,775110000,29.24912,-95.2142,BRAZORIA,325188,,77511SLTNCFM291,TRI
110017407153.0,TRICOR REFINING LLC,1134 Manor Street,BAKERSFIELD,CA,93308,35.4185,-119.0112,KERN,324110,,1002261,GHGRP
110017407153.0,OILDALE ENERGY LLC,1134 MANOR ST & NORRIS RD,OILDALE,CA,93308,35.4175,-119.011,Kern,221118,,424911,NEI
110017407153.0,TRICOR REFINING LLC,1134 MANOR ST,BAKERSFIELD,CA,93308,35.4185,-119.0112,KERN,324110,,93308WTCCRCORNE,TRI
110017407153.0,"TRICOR REFINING, LLC",1134 MANOR ST,OILDALE,CA,93388,35.4175,-119.011,Kern,324110,,4842911,NEI
110017407153.0,"OILDALE ENERGY, LLC",1134 MANOR ST,BAKERSFIELD,CA,93308,35.417,-119.013,Kern,221112,,14386611,NEI
110001187144.0,LUNDAY-THAGARD COMPANY,9301 SOUTH GARFIELD AVENUE,SOUTH GATE,CA,90280,33.946295,-118.16704,LOS ANGELES COUNTY,324110,,1002286,GHGRP
110001187144.0,LUNDAY-THAGARD COMPANY,9301 GARFIELD AVE,SOUTH GATE,CA,90280,33.945,-118.166,Los Angeles,324122,,5797411,NEI
110001187144.0,LUNDAY-THAGARD CO DBA WORLD OIL REFINING,9301 GARFIELD AVE,SOUTH GATE,CA,90280,33.946295,-118.16704,LOS ANGELES,324110,,90280LNDYT9301S,TRI
110000341504.0,A&AT LLC WAYNESBORO FACILITY,400 DU PONT BOULEVARD,WAYNESBORO,VA,22980,38.061111,-78.883333,WAYNESBORO CITY,325211,,1002342,GHGRP
110000341504.0,Invista - Waynesboro,400 Dupont Blvd,Waynesboro,VA,22980,38.0596,-78.8721,Waynesboro city,325220,,4958111,NEI
110000341504.0,THE LYCRA CO LLC,400 DU PONT BLVD,WAYNESBORO,VA,22980,38.061111,-78.883333,AUGUSTA,325222,,22980DPNTWDUPON,TRI
110056956511.0,DOW CORNING,4770 HIGHWAY 42 EAST,CARROLLTON,KY,41008,38.7074,-85.1048,CARROLL,325199,,1002548,GHGRP
110056956511.0,Dow Corning Corp,4770 US 42 E,Carrollton,KY,None,38.7074,-85.10479999999998,Carroll,326199,,8194311,NEI
110056956511.0,DOW SILICONES CORP,4770 US HWY 42,CARROLLTON,KY,41008,38.7074,-85.1048,CARROLL,325199,,41008DWCRNUSHIG,TRI
110000450002.0,DELTECH CORP - BATON ROUGE FACILITY,11911 SCENIC HIGHWAY,BATON ROUGE,LA,70807,30.553364,-91.202428,EAST BATON ROUGE,325199,,1002789,GHGRP
110000450002.0,Deltech Corp - Baton Rouge Facility,11911 Scenic Hwy,Baton Rouge,LA,70807,30.5532,-91.2034,East Baton Rouge,325110,,7226311,NEI
110000450002.0,DELTECH MONOMERS OPCO LLC,11911 SCENIC HWY,BATON ROUGE,LA,70807,30.553364,-91.202428,EAST BATON ROUGE PARISH,325199,,70807HCHST11911,TRI
110012169517.0,EQUISTAR CHEMICALS LP,3400 ANAMOSA ROAD,CLINTON,IA,52732,41.807364,-90.295307,CLINTON,325199,,1002927,GHGRP
110012169517.0,"EQUISTAR CHEMICALS, LP",3400 ANAMOSA RD,CLINTON,IA,52732,41.8111,-90.2896,Clinton,325110,,5509711,NEI
110012169517.0,EQUISTAR CHEMICALS CLINTON PLANT,3400 ANAMOSA RD HWY 30 W,CLINTON,IA,52732,41.807,-90.296,CLINTON,325199,,52732QNTMCUSHWY,TRI
110000547052.0,INEOS USA LLC,1900 Fort Amanda Rd,Lima,OH,45804,40.714167,-84.132222,ALLEN COUNTY,325199,,1002955,GHGRP
110000547052.0,INEOS USA LLC (0302020371),1900 Fort Amanda Rd.,Lima,OH,45804,40.7142,-84.13219999999998,Allen,325199,,13571611,NEI
110000547052.0,"PCS Nitrogen Ohio, L.P. (0302020370)",Fort Amanda & Adgate Roads,Lima,OH,45804,40.7131,-84.13689999999998,Allen,325311,,8102411,NEI
110000547052.0,PCS NITROGEN OHIO L.P.,2200 FORT AMANDA RD,LIMA,OH,45804,40.717499,-84.132274,ALLEN,325311,,45802RCDNH1900F,TRI
110007175154.0,UCC SEADRIFT OPERATIONS,7501 HIGHWAY 185 NORTH,SEADRIFT,TX,77983,28.510636,-96.771527,CALHOUN,325199,,1002967,GHGRP
110007175154.0,SEADRIFT PLANT,HIGHWAY 185,SEADRIFT,TX,77983,28.512,-96.7685,Calhoun,325110,,5846511,NEI
110007175154.0,UNION CARBIDE CORP SEADRIFT PLANT,7501 N HWY 185,SEADRIFT,TX,77983,28.510636,-96.771527,CALHOUN,325199,,77979NNCRBPOBOX,TRI
110000748095.0,HUNTSMAN PETROCHEMICAL LLC,5451 JEFFERSON CHEMICAL ROAD,CONROE,TX,77301,30.316129,-95.387683,MONTGOMERY COUNTY,325199,,1002993,GHGRP
110000748095.0,CONROE FACILITY,5451 JEFFERSON CHEMICAL RD,CONROE,TX,77305,30.3136,-95.3847,Montgomery,325110,,4945611,NEI
110000748095.0,HUNTSMAN PETROCHEMICAL LLC,5451 JEFFERSON CHEMICAL RD,CONROE,TX,77301,30.311361,-95.387083,MONTGOMERY,325199,,77301TXCCHJEFFE,TRI
110017619861.0,AIR PRODUCTS & CHEMICAL INC - LAKE CHARLES FACILITY,102 TROUSDALE RD,WESTLAKE,LA,70669,30.238889,-93.281944,CALCASIEU,325120,,1003013,GHGRP
110017619861.0,Air Products & Chemical Inc - Lake Charles Facility,102 Trousdale Rd,Westlake,LA,70669,30.2376,-93.284,Calcasieu,32512,,9607311,NEI
110041135580.0,Garyville Refinery,155 Sugarcane Road,Garyville,LA,70051,30.06132,-90.59353,ST JOHN THE BAPTIST,324110,,1003043,GHGRP
110041135580.0,Marathon Petroleum Co LP - Terminal Transport & Rail Division,4663 W Airline Hwy,Garyville,LA,None,30.0684,-90.5964,St. John the Baptist,424710,,8018511,NEI
110041135580.0,Marathon Petroleum Co LP - LA Refining Division - Garyville Refinery,4663 W Airline Hwy,Garyville,LA,70051,30.0629,-90.5986,St. John the Baptist,324110,,8241011,NEI
110041135580.0,MARATHON PETROLEUM CO LP,4663 W AIRLINE HWY,GARYVILLE,LA,70051,30.06132,-90.59353,ST. JOHN THE BAPTIST PARISH,324110,,70051MRTHNHWY61,TRI
110046264760.0,PRAXAIR INC - GEISMAR HYCO FACILITY,9145 Hwy 75 & AVE. E,GEISMAR,LA,70734,30.199444,-91.013333,ASCENSION,325120,,1003255,GHGRP
110046264760.0,Praxair Inc - Geismar Plant,9156 Hwy 73,Geismar,LA,70734,30.1995,-91.0126,Ascension,325199,,8465711,NEI
110011031052.0,GALLUP REFINERY,92 Giant Crossing,Jamestown,NM,87347,35.490278,-108.425,MCKINLEY,324110,,1003355,GHGRP
110011031052.0,Gallup Refinery,17 miles E of Gallup on I-40,Gallup,NM,87301,35.4903,-108.425,McKinley,32411,,8105511,NEI
110011031052.0,WESTERN REFINING SOUTHWEST INC-GALLUP REFINERY,92 GIANT CROSSING ROAD,GALLUP,NM,87301,35.490278,-108.425,MCKINLEY,324110,,87301GNTRFROUTE,TRI
110017746368.0,DUPONT SABINE RIVER WORKS,3055 FARM RD. 1006,ORANGE,TX,77631,30.054796,-93.753863,ORANGE,325199,,1003382,GHGRP
110017746368.0,SABINE RIVER WORKS,FM 1006,ORANGE,TX,77630,30.0577,-93.7425,Orange,325110,,4190211,NEI
110017746368.0,PERFORMANCE MATERIALS NA INC,FARM RD 1006,ORANGE,TX,77630,30.054796,-93.753863,ORANGE,325110,,77631DPNTSFARMR,TRI
110056955987.0,ALBEMARLE CORPORATION HOUSTON PLANT,2500 N. SOUTH ST.,PASADENA,TX,77503,29.743111,-95.166694,HARRIS COUNTY,325199,,1003402,GHGRP
110056955987.0,ALBEMARLE CORP,2500 N SOUTH ST,PASADENA,TX,77503,29.7386,-95.1692,Harris,325110,,6536811,NEI
110056955987.0,ALBEMARLE CORP PASADENA PLANT,2500 N SOUTH ST,PASADENA,TX,77503,29.742498,-95.165513,HARRIS,325199,,77503LBMRL2500N,TRI
110028187049.0,INEOS NOVA LLC Texas City Site,2800 FM 519 E,TEXAS CITY,TX,77592,29.362224,-94.9284,GALVESTON,325199,,1003429,GHGRP
110028187049.0,INEOS STYRENICS TEXAS CITY PLANT,2800 FM 519 E,TEXAS CITY,TX,77592,29.3585,-94.9305,Galveston,325110,,10722911,NEI
110028187049.0,TEXAS CITY CHEMICAL PLANT,2800 FM 519 E,TEXAS CITY,TX,77590,29.3622,-94.9284,Galveston,325110,,3930711,NEI
110028187049.0,BP AMOCO CHEMICAL COMPANY,2800 FM 519 EAST,TEXAS CITY,TX,77590,29.361045,-94.930351,GALVESTON,221119,,77590MCLCM24015,TRI
110028187049.0,BP AMOCO CHEMICAL COMPANY,2800 FM 519 EAST,TEXAS CITY,TX,77590,29.361045,-94.930351,GALVESTON,325192,,77590MCLCM24015,TRI
110028187049.0,BP AMOCO CHEMICAL COMPANY,2800 FM 519 EAST,TEXAS CITY,TX,77590,29.361045,-94.930351,GALVESTON,324110,,77590MCLCM24015,TRI
110000605051.0,BASF CORPORATION,1379 CIBA RD,MC INTOSH,AL,36553,31.279,-87.9955,WASHINGTON COUNTY,325199,,1003551,GHGRP
110000605051.0,BASF Corporation,1379 Ciba Road,Mcintosh,AL,36553,31.2769,-87.97679999999998,Washington,325320,,7440611,NEI
110000605051.0,BASF CORP,1379 CIBA RD,MC INTOSH,AL,36553,31.264095,-87.981969,WASHINGTON,325199,,36653CBGGYGEIGY,TRI
110000460983.0,"MONUMENT CHEMICAL HOUSTON, LTD.",16717 JACINTOPORT BOULEVARD,HOUSTON,TX,77015,29.75487,-95.10327,HARRIS COUNTY,325199,,1004018,GHGRP
110000460983.0,JACINTOPORT PLANT,16717 JACINTOPORT BOULEVARD,CHANNELVIEW,TX,77530,29.7558,-95.1001,Harris,325110,,4182411,NEI
110000460983.0,MONUMENT CHEMICAL HOUSTON LLC,16717 JACINTOPORT BLVD,HOUSTON,TX,77015,29.75487,-95.10327,HARRIS,325199,,77015JHNNH16717,TRI
110022811402.0,MUSTANG MOTORCYCLE PRODUCTS LLC,4 SPRINGFIELD ST,THREE RIVERS,MA,1080,42.17959,-72.366746,HAMPDEN,325211,,1004019,GHGRP
110022811402.0,MUSTANG MOTORCYCLE PRODUCTS LLC,4 SPRINGFIELD ST,THREE RIVERS,MA,01080-0000,42.1796,-72.36669999999998,Hampden,336991,,14508911,NEI
110000378494.0,CHEMOURS LOUISVILLE WORKS,4200 CAMP GROUND ROAD,LOUISVILLE,KY,40216,38.21229,-85.83975,JEFFERSON COUNTY,325120,,1004133,GHGRP
110000378494.0,E I du Pont de Nemours & Co.,4200 CAMP GROUND RD,LOUISVILLE,KY,None,38.2154,-85.8418,Jefferson,325199,,10695411,NEI
110000378494.0,CHEMOURS LOUISVILLE PLANT,4200 CAMP GROUND RD,LOUISVILLE,KY,40216,38.217166,-85.841979,JEFFERSON,211112,,40216DPNTL4200C,TRI
110043785909.0,DUPONT KINSTON PLANT,"4693 N. C. HIGHWAY, 11 NORTH",Grifton,NC,28530,35.3306,-77.4772,PITT,325211,,1004136,GHGRP
110043785909.0,EI du Pont - Kinston Plant,4693 Hwy 11 N,Kinston,NC,28502,35.3318,-77.4795,Lenoir,325220,,8124911,NEI
110043785909.0,DUPONT KINSTON PLANT,4693 HIGHWAY 11 N,GRIFTON,NC,28530,35.3306,-77.4772,LENOIR,325211,,28502DPNTKNCHIG,TRI
110000367567.0,3M COMPANY,1400 STATE DOCKS RD.,DECATUR,AL,35609,34.641667,-87.038611,MORGAN COUNTY,325211,,1004206,GHGRP
110000367567.0,3M Company,1400 State Docks Rd,Decatur,AL,35609,34.6416,-87.0415,Morgan,325998,,999511,NEI
110000367567.0,3M CO - DECATUR,1400 STATE DOCKS RD,DECATUR,AL,35601,34.641667,-87.038611,MORGAN,325211,,35602MCMPNSTATE,TRI
110000481611.0,KERN OIL & REFINING CO.,7724 E PANAMA LN ,BAKERSFIELD,CA,93307,35.295278,-118.921111,KERN,324110,,1004267,GHGRP
110000481611.0,KERN OIL & REFINING,PANAMA LN @ WEEDPATCH HWY,LAMONT,CA,93307,35.267,-118.923,Kern,924110,,13866611,NEI
110000481611.0,KERN OIL & REFINING CO,PANAMA LN & WEEDPATCH HWY,BAKERSFIELD,CA,93307,35.2956,-118.918,Kern,324110,,4196711,NEI
110000481611.0,KERN OIL & REFINING CO,7724 EAST PANAMA LANE,BAKERSFIELD,CA,93307,35.295278,-118.921111,KERN,324110,,93307KRNLRRR677,TRI
110000481611.0,KERN OIL & REFINING COMPANY,TEN SECTION,Placeholder,CA,00000,35.2871,-119.207,Kern,324110,,10281011,NEI
110000568154.0,ANDERSON DEVELOPMENT COMPANY,525 GULF STREET,ADRIAN,MI,49221,41.891389,-84.0175,LENAWEE COUNTY,325120,,1004275,GHGRP
110000568154.0,Anderson Development Co,525 Gulf St.,Adrian,MI,49221,41.8928,-84.0181,Lenawee,3251,,5886911,NEI
110041133163.0,Phillips 66 BAYWAY REFINERY,1400 PARK AVE,LINDEN,NJ,7036,40.6365,-74.2199,UNION,324110,,1004305,GHGRP
110041133163.0,BAYWAY REFINERY,Unknown,LINDEN,NJ,00000,40.6362,-74.2343,Union,48811,,12323111,NEI
110041133163.0,Phillips 66 Bayway Refinery,1400 Park Ave,Linden,NJ,07036,40.6401,-74.2189,Union,324110,,7903711,NEI
110041133163.0,PHILLIPS 66 CO-BAYWAY REFINERY,1400 PARK AVE,LINDEN,NJ,7036,40.6365,-74.2199,UNION,324110,,07036XXNXX1400P,TRI
110000599291.0,WESTHOLLOW TECHNOLOGY CENTER,3333 HWY. 6 S.,HOUSTON,TX,77082,29.72644,-95.64394,HARRIS COUNTY,325199,,1004492,GHGRP
110000599291.0,WESTHOLLOW TECHNOLOGY CENTER,3333 HWY 6 SOUTH,HOUSTON,TX,77082,29.7261,-95.6381,Harris,325110,,3736811,NEI
110000597337.0,CONVENT REFINERY,10700 La. 44,CONVENT,LA,70723,30.10846,-90.89677,ST. JAMES PARISH,324110,,1004630,GHGRP
110000597337.0,Motiva Enterprises LLC - Convent Refinery,Hwys 44 & 70,Convent,LA,70723,30.1083,-90.8978,St. James,324110,,8239611,NEI
110000597337.0,CONVENT REFINERY,FOOT OF SUNSHINE BRIDGE- LA HW Y 44,CONVENT,LA,70723,30.10712,-90.89616,ST. JAMES PARISH,324110,,70723TXCRFFOOTO,TRI
110000597337.0,Motiva Enterprises LLC - Convent Marketing Terminal,Hwys 70 & 44 jct,Convent,LA,70723,30.1056,-90.9078,St. James,424710,,5273311,NEI
110043788719.0,LaPorte Methanol Company,11603 Strang Rd,LaPorte,TX,77571,29.70231,-95.05492,HARRIS COUNTY,325199,,1004807,GHGRP
110043788719.0,LA PORTE METHANOL,11603 STRANG RD,LA PORTE,TX,77572,29.706,-95.0558,Harris,325110,,4055111,NEI
110043788719.0,LA PORTE METHANOL PLANT,11603 STRANG RD,LA PORTE,TX,77571,29.70231,-95.05492,HARRIS,325199,,77571LPRTM11603,TRI
110000572675.0,SHINTECH PLAQUEMINE PLANT,"26270 HIGHWAY 405, RIVER ROAD SOUTH",PLAQUEMINE,LA,70764,30.2594,-91.1737,IBERVILLE,325211,,1004867,GHGRP
110000572675.0,Shintech Louisiana LLC - Plaquemine PVC Plant,26270 Hwy 405,Plaquemine,LA,70764,30.2558,-91.1733,Iberville,325211,,13610611,NEI
110000572675.0,SHINTECH PLAQUEMINE PLANT,26270 HWY 405,PLAQUEMINE,LA,70764,30.2594,-91.1737,IBERVILLE PARISH,326199,,70764LLMNXHWY40,TRI
110000746328.0,WESTLAKE VINYLS CO LP,36045 Highway 30,GEISMAR,LA,70734,30.208604,-91.011128,ASCENSION PARISH,325199,,1004900,GHGRP
110000746328.0,Westlake Vinyls Co LP,36045 Hwy 30,Geismar,LA,70734,30.2125,-91.0058,Ascension,325180,,7915011,NEI
110000746328.0,WESTLAKE VINYLS CO,36045 HWY 30,GEISMAR,LA,70734,30.208604,-91.011128,ASCENSION PARISH,325211,,70734BRDNCLOUIS,TRI
110027373045.0,Ascend Performance Materials LLC,3000 Old Chemstrand Road,Cantonment,FL,32533,30.598192,-87.248807,ESCAMBIA COUNTY,325211,,1004962,GHGRP
110027373045.0,ASCEND PERFORMANCE MATERIALS OPERATIONS,3000 OLD CHEMSTRAND RD,CANTONMENT,FL,32533,30.5958,-87.2568,Escambia,325220,,751411,NEI
110027373045.0,ASCEND PERFORMANCE MATERIALS OPERATIONS LLC,3000 OLD CHEMSTRAND RD,CANTONMENT,FL,325338926,30.596678,-87.251977,ESCAMBIA,325211,,32533MNSNT3000O,TRI
110027373045.0,ASCEND PERFORMANCE MATERIALS OPERATIONS LLC,3000 OLD CHEMSTRAND RD,CANTONMENT,FL,325338926,30.596678,-87.251977,ESCAMBIA,325192,,32533MNSNT3000O,TRI
110045447469.0,DAIKIN AMERICA INC.,905 STATE DOCKS ROAD,DECATUR,AL,35601,34.513889,-87.039444,MORGAN,325211,,1005062,GHGRP
110045447469.0,Daikin America Inc,905 State Docks Rd,Decatur,AL,35609,34.6316,-87.0411,Morgan,325199,,948911,NEI
110045447469.0,DAIKIN AMERICA INC,905 STATE DOCKS RD,DECATUR,AL,35601,34.630486,-87.039444,MORGAN,325211,,35601DKNMRSTATE,TRI
110045447469.0,"MDA Manufacturing, Inc.",905 State Docks Rd,Decatur,AL,35609,34.6406,-87.04139999999998,Morgan,325199,,869411,NEI
110000462918.0,KANEKA TEXAS Corporation,6161 UNDERWOOD RD.,PASADENA,TX,77507,29.621648,-95.085129,HARRIS,325211,,1005094,GHGRP
110000462918.0,APICAL DIVISION,"6161 UNDERWOOD RD PASADENA, TX 77507-1033",PASADENA,TX,77507,29.6197,-95.0859,Harris,326113,,4019411,NEI
110000462918.0,KANEKA PASADENA SITE,6161 UNDERWOOD RD,PASADENA,TX,77507,29.62,-95.0852,Harris,325211,,4981111,NEI
110000462918.0,KANEKA NORTH AMERICA LLC,6161 UNDERWOOD RD,PASADENA,TX,77507,29.621648,-95.085129,HARRIS,325211,,77507KNKTX6161U,TRI
110000427020.0,AGRI ENERGY LLC,502 SOUTH WALNUT AVENUE,LUVERNE,MN,56156,43.648333,-96.224444,ROCK COUNTY,325199,,1005284,GHGRP
110000427020.0,Agri-Energy LLC,502 Walnut Ave S,Luverne,MN,56156,43.6475,-96.2247,Rock,327331,,6926711,NEI
110000373998.0,PMC BIOGENIX INC,1231 POPE STREET,MEMPHIS,TN,38108,35.16677,-89.95893,SHELBY COUNTY,325199,,1005312,GHGRP
110000373998.0,PMC Biogenix (formerly Crompton Corporation/ Enenco),1231 Pope Street,Memphis,TN,38108,35.1681,-89.9567,Shelby,325992,,5706111,NEI
110000493555.0,Canton Refinery,2408 GAMBRINUS RD. S.W.,CANTON,OH,44706,40.7729,-81.4151,STARK,324110,,1005390,GHGRP
110000493555.0,Marathon Petroleum Company LP - Canton Refinery (1576002006),2408 Gambrinus Avenue SW,Canton,OH,44706,40.7719,-81.4156,Stark,324110,,13573011,NEI
110000493555.0,MARATHON PETROLEUM CO LP OHIO REFINING DIV,2408 GAMBRINUS AVE SW,CANTON,OH,44706,40.7736,-81.4146,STARK,324110,,44711SHLND2408G,TRI
110000493555.0,Marathon Petroleum Company LP - Canton Terminal (1576002007),2419 Gambrinus Avenue SW,Canton,OH,44706,40.7724,-81.4186,Stark,424710,,13436611,NEI
110000437974.0,EVONIK CORPORATION,8300 WEST ROUTE 24,MAPLETON,IL,61547,40.564739,-89.724506,PEORIA,325199,,1005465,GHGRP
110000437974.0,Degussa/Goldschmidt Chemical,8300 W Route 24,Mapleton,IL,61547,40.5647,-89.7245,Peoria,325613,,7940111,NEI
110000437974.0,EVONIK CORP,8300 W RT 24,MAPLETON,IL,61547,40.564725,-89.724485,PEORIA,325613,,61547GLDSC8300W,TRI
110001387151.0,Carbide Industries LLC,4400 Bells Lane,Louisville,KY,40211,38.22352,-85.83757,JEFFERSON COUNTY,325199,,1005537,GHGRP
110001387151.0,Carbide Industries LLC,4400 BELLS LN,LOUISVILLE,KY,None,38.2225,-85.8405,Jefferson,325180,,5832311,NEI
110001387151.0,CARBIDE INDUSTRIES LLC,4400 BELLS LN,LOUISVILLE,KY,40211,38.2219,-85.835574,JEFFERSON,325199,,40201RCCRB4400B,TRI
110000380061.0,"ARKEMA, INC.",4444 INDUSTRIAL PARKWAY,CALVERT CITY,KY,42029,37.04943,-88.36725,MARSHALL COUNTY,325120,,1005721,GHGRP
110000380061.0,Arkema Inc,4444 Industrial Pkwy,Calvert City,KY,42029,37.0542,-88.36499999999998,Marshall,325211,,7366811,NEI
110000380061.0,ARKEMA INC,4444 INDUSTRIAL PKWY,CALVERT CITY,KY,42029,37.056699,-88.365727,MARSHALL,325188,,42029PNNWLALTON,TRI
110017866727.0,COUNTRYMARK REFINING & LOGISTICS LLC,1200 REFINERY RD,MT VERNON,IN,47620,37.925417,-87.904972,POSEY,324110,,1005899,GHGRP
110017866727.0,Countrymark Refining and Logistics LLC,1200 Refinery Rd,Mount Vernon,IN,47620,37.9245,-87.9118,Posey,32411,,8166011,NEI
110017866727.0,COUNTRYMARK REFINING & LOGISTICS LLC,6701 LOWER NEW HARMONY ROAD,MOUNT VERNON,IN,47620,37.925417,-87.904972,POSEY,324110,,47620NDNFR1200R,TRI
110013831201.0,Norco Manufacturing Complex,15536 River Road,Norco,LA,70079,30.000723,-90.403768,SAINT CHARLES,324110,,1005911,GHGRP
110013831201.0,Shell Chemical LP - Norco Chemical Plant - East Site,15536 River Rd,Norco,LA,70079,29.9992,-90.3995,St. Charles,325110,,8239511,NEI
110013831201.0,SHELL NORCO CHEMICAL PLANT,15536 RIVER RD,NORCO,LA,70079,30.000964,-90.403863,ST. CHARLES PARISH,324110,,70079SHLLL1205R,TRI
110013831201.0,SHELL NORCO CHEMICAL PLANT,15536 RIVER RD,NORCO,LA,70079,30.000964,-90.403863,ST. CHARLES PARISH,325110,,70079SHLLL1205R,TRI
110031409973.0,Dixie Chemical Company,10601 Bay Area Blvd,Pasadena,TX,77507,29.612017,-95.050481,HARRIS,325199,,1005947,GHGRP
110031409973.0,BAYPORT FACILITY,10601 BAY AREA BLVD,LA PORTE,TX,77571,29.6122,-95.048,Harris,325110,,4862611,NEI
110031409973.0,DIXIE CHEMICAL CO INC,10601 BAY AREA BLVD,PASADENA,TX,77507,29.612017,-95.050481,HARRIS,325199,,77507DXCHM10701,TRI
110000469243.0,"Tesoro Refining and Marketing Company, Salt Lake City Refinery",474 West 900 North,Salt Lake City,UT,84103,40.791667,-111.902778,SALT LAKE,324110,,1006039,GHGRP
110000469243.0,Tesoro West Coast: Salt Lake City Refinery,474 West 900 North,Salt Lake City,UT,84103,40.791,-111.903,Salt Lake,32411,,7558611,NEI
110000469243.0,TESORO REFINING & MARKETING COMPANY LLC - SLC,474 W 900 N,SALT LAKE CITY,UT,84103,40.791667,-111.902778,SALT LAKE,324110,,84103MCLCM474WE,TRI
110033659878.0,HONEYWELL INTERNATIONAL INC - GEISMAR COMPLEX,5525 HWY 3115,GEISMAR,LA,70734,30.22847,-91.05435,IBERVILLE,325120,,1006070,GHGRP
110033659878.0,Honeywell International Inc - Geismar Plant,5525 Hwy 3115,Geismar,LA,70734,30.2271,-91.05,Ascension,325180,,7368711,NEI
110033659878.0,HONEYWELL INTERNATIONAL INC GEISMAR PLANT,5525 HWY 3115,CARVILLE,LA,70721,30.2219,-91.0515,ASCENSION PARISH,325120,,70734LLDSGHWY31,TRI
110000559609.0,CHEMOURS COMPANY - FAYETTEVILLE WORKS,22828 NC HIGHWAY 87 WEST,FAYETTEVILLE,NC,28306,34.840301,-78.838889,CUMBERLAND,325211,,1006145,GHGRP
110000559609.0,DuPont Company - Fayetteville Works,22828 NC Highway 87 West,Fayetteville,NC,28306,34.8433,-78.8382,Bladen,326113,,8480711,NEI
110000559609.0,CHEMOURS CO - FAYETTEVILLE WORKS,22828 NC HWY 87 W,FAYETTEVILLE,NC,28306,34.8419,-78.8388,BLADEN,326113,,28302DPNTFHIGHW,TRI
110000469485.0,CHEVRON PRODUCTS CO - SALT LAKE REFINERY,2351 N 1100 W,SALT LAKE CITY,UT,84116,40.8249,-111.9238,DAVIS,324110,,1006189,GHGRP
110000469485.0,Chevron Products Co - Salt Lake Refinery,2351 N 1100 W,Salt Lake City,UT,84116,40.8252,-111.92,Salt Lake,32411,,8178511,NEI
110000469485.0,CHEVRON PRODUCTS CO - SALT LAKE REFINERY,2351 NORTH 1100 WEST,SALT LAKE CITY,UT,84116,40.8249,-111.9238,SALT LAKE,324110,,84116CHVRN2351N,TRI
110000499069.0,Silver Eagle Refining-Woods Cross,2355 SOUTH 1100 WEST,WOODS CROSS,UT,84087,40.866389,-111.911389,DAVIS,324110,,1006448,GHGRP
110000499069.0,Silver Eagle Refining - Woods Cross Inc.: Petroleum Products Refinin,2355 So. 1100 West,Woods Cross,UT,84087,40.8661,-111.91,Davis,32411,,8236511,NEI
110000499069.0,SILVER EAGLE REFINING WOODS CROSS,2355 S 1100 W,WOODS CROSS,UT,84087,40.866389,-111.911389,DAVIS,324110,,84087CRYSN2355S,TRI
110000464168.0,ARKEMA BEAUMONT PLANT,2810 GULF STATES ROAD,BEAUMONT,TX,77701,30.060226,-94.058976,JEFFERSON,325199,,1006644,GHGRP
110000464168.0,ARKEMA BEAUMONT PLANT,2810 GULF STATES RD,BEAUMONT,TX,77701,30.0571,-94.0569,Jefferson,325110,,6430011,NEI
110000464168.0,ARKEMA INC,2810 GULF STATE RD,BEAUMONT,TX,77701,30.060226,-94.058976,JEFFERSON,325199,,77704PNNWL2052G,TRI
110000506079.0,EQUISTAR CHEMICALS LIMITED PARTNERSHIP BAYPORT PLANT,5761 UNDERWOOD ROAD,PASADENA,TX,77507,29.627167,-95.080194,HARRIS COUNTY,325199,,1006656,GHGRP
110000506079.0,BAYPORT UNDERWOOD PLANT,5761 UNDERWOOD RD,PASADENA,TX,77507,29.6303,-95.0794,Harris,325110,,4926611,NEI
110000506079.0,EQUISTAR CHEMICALS BAYPORT CHEMICALS PLANT,5761 UNDERWOOD RD,PASADENA,TX,77507,29.627167,-95.080194,HARRIS,325199,,77507QSTRC5761U,TRI
110067040703.0,CLEAR LAKE PLANT,9502 BAYPORT BLVD.,PASADENA,TX,77507,29.625819,-95.061592,HARRIS,325199,,1006867,GHGRP
110067040703.0,LINDE CLEAR LAKE PLANT,9502 BAYPORT BLVD,PASADENA,TX,77507,29.6258,-95.0636,Harris,325120,,10679911,NEI
110067040703.0,CLEAR LAKE PLANT,9502 BAYPORT BLVD,PASADENA,TX,77507,29.6228,-95.0647,Harris,325110,,4057911,NEI
110067040703.0,CELANESE LTD CLEAR LAKE PLANT,9502 BAYPORT BLVD,PASADENA,TX,77507,29.625819,-95.061592,HARRIS,325199,,77507HCHST9502B,TRI
110067040703.0,CLARIANT CORP CLEAR LAKE PLANT,9502 BAYPORT BLVD - ETOX UNIT,PASADENA,TX,77507,29.625819,-95.061592,HARRIS,325613,,7750WCLRNT952BA,TRI
110067040703.0,CLEAR LAKE OPERATIONS,9502 B BAYPORT BLVD B,PASADENA,TX,77501,29.6286,-95.0719,Harris,325110,,13411211,NEI
110067040703.0,"LINDE GAS NORTH AMERICA LLC, CLEARLAKE PLANT",9502 BAYPORT DRIVE,PASADENA,TX,77507,29.62132,-95.064683,HARRIS,325120,,1003049,GHGRP
110000861862.0,"Flint Hills Resources Port Arthur, LLC",4241 SAVANNAH AVE,PORT ARTHUR,TX,77640,29.892778,-93.973333,JEFFERSON,325199,,1006891,GHGRP
110000861862.0,PORT ARTHUR CHEMICALS,4241 SAVANNAH AVE,PORT ARTHUR,TX,77640,29.8936,-93.9696,Jefferson,325110,,6430411,NEI
110000861862.0,MOTIVA CHEMICALS LLC,4241 SAVANNAH AVE,PORT ARTHUR,TX,77640,29.892778,-93.973333,JEFFERSON,325110,,77641TXCCHGATE2,TRI
110000424611.0,Flint Hills Resources Pine Bend Refinery,12555 Clark Road,Rosemount,MN,55068,44.7684,-93.0406,DAKOTA COUNTY,324110,,1006985,GHGRP
110000424611.0,Flint Hills Resources Pine Bend LLC,13775 Clark Rd,Rosemount,MN,55068,44.7644,-93.0395,Dakota,32411,,6275811,NEI
110000424611.0,FLINT HILLS RESOURCES PINE BEND LLC,13775 CLARK RD,ROSEMOUNT,MN,55068,44.764434,-93.039484,DAKOTA,324110,,55164KCHRFPOBOX,TRI
110031267064.0,SHELL DEER PARK REFINERY,5900 HIGHWAY 225 EAST,DEER PARK,TX,77536,29.722222,-95.126944,HARRIS,324110,,1007002,GHGRP
110031267064.0,SHELL DEER PARK REFINERY,Unknown,DEER PARK,TX,00000,29.7151,-95.144,Harris,48811,,12193311,NEI
110031267064.0,DEER PARK PLANT,HWY 225 W OF BATTLEGROUND RD,DEER PARK,TX,77536,29.7184,-95.1186,Harris,324110,,4168511,NEI
110031267064.0,MOMENTIVE SPECIALTY CHEMICALS DEER PARK,5900 LA PORTE FWY,DEER PARK,TX,77536,29.7132,-95.1189,Harris,325211,,4982011,NEI
110031267064.0,DEER PARK REFINING LP,5900 HWY 225 EAST,DEER PARK,TX,77536,29.722222,-95.126944,HARRIS,324110,,77536DRPRK5900H,TRI
110031267064.0,WESTLAKE EPOXY INC.- DEER PARK SITE,5900 HIGHWAY 225 - GATE 7B,DEER PARK,TX,77536,29.722222,-95.126944,HARRIS,325211,,77536RSLTN5900H,TRI
110031267064.0,SHELL CHEMICAL LP,5900 HWY 225 EAST,DEER PARK,TX,77536,29.722222,-95.126944,HARRIS,325110,,77536SHLLLHIGHW,TRI
110018861793.0,St Charles Operations (Taft/Star) Union Carbide Corp,355 LA HWY 3142 (GATE 1),TAFT,LA,70057,29.987341,-90.445067,SAINT CHARLES,325199,,1007031,GHGRP
110018861793.0,Union Carbide Corp - St Charles Operations,355 Hwy 3142 Gate 1,Taft,LA,70057,29.9825,-90.444,St. Charles,325110,,7202911,NEI
110018861793.0,ST CHARLES OPERATIONS (TAFT/STAR) UNION CARBIDE CORP,355 LA HWY 3142 (GATE 1),HAHNVILLE,LA,70057,29.9829,-90.4437,ST. CHARLES PARISH,325199,,70057NNCRBHWY31,TRI
110000448837.0,MERAUX REFINERY,2500 EAST SAINT BERNARD HIGHWAY,MERAUX,LA,70075,29.930278,-89.943889,ST. BERNARD PARISH,324110,,1007059,GHGRP
110000448837.0,Valero Terminaling & Distribution Co - Meraux Terminal,2500 E St Bernard Hwy,Meraux,LA,70075,29.9295,-89.9414,St. Bernard,424710,,7204611,NEI
110000448837.0,Valero Refining - Meraux LLC - Meraux Refinery,2500 E St Bernard Hwy,Meraux,LA,70075,29.932,-89.9393,St. Bernard,324110,,7355411,NEI
110000448837.0,VALERO REFINING - MERAUX LLC MERAUX REFINERY,2500 E ST BERNARD HWY,MERAUX,LA,70075,29.930517,-89.940643,ST. BERNARD PARISH,324110,,70075MRPHY2500E,TRI
110039498674.0,"Air Products and Chemicals, Inc.",412 North Main Street,Calvert City,KY,42029,37.045833,-88.345833,MARSHALL,325199,,1007116,GHGRP
110039498674.0,Air Products & Chemicals,412 N Main St,Calvert City,KY,42029,37.0439,-88.3531,Marshall,325120,,7366911,NEI
110039498674.0,EVONIK CORP,412 N MAIN ST,CALVERT CITY,KY,42029,37.03723,-88.351153,MARSHALL,325199,,42029RPRDCHIGHW,TRI
110001148598.0,Delaware City Refinery,4550 WRANGLE HILL ROAD,DELAWARE CITY,DE,19706,39.5936,-75.6337,New Castle,324110,,1007322,GHGRP
110001148598.0,Delaware City Refinery,4550 WRANGLE HILL RD,DELAWARE CITY,DE,19706,39.5886,-75.63559999999998,New Castle,32411,,588311,NEI
110001148598.0,DELAWARE CITY REFINERY,4550 WRANGLE HILL RD,DELAWARE CITY,DE,19706,39.591,-75.634,NEW CASTLE,324110,,19706TXCDL2000W,TRI
110066942321.0,"Emery Oleochemicals, LLC",4900 ESTE AVENUE,CINCINNATI,OH,45232,39.1792,-84.5053,Hamilton,325199,,1007325,GHGRP
110066942321.0,Emery Oleochemicals LLC (1431074278),4900 Este Avenue,Cincinnati,OH,None,39.1758,-84.5047,Hamilton,325998,,13571911,NEI
110066942321.0,EMERY OLEOCHEMICALS LLC CINCINNATI PLANT,4900 ESTE AVE,CINCINNATI,OH,45232,39.1782,-84.5041,HAMILTON,325199,,45232HNKLC4900E,TRI
110000398338.0,BP Whiting Business Unit,2815 INDIANAPOLIS BLVD,WHITING,IN,46394,41.6703,-87.4803,Lake,324110,,1007339,GHGRP
110000398338.0,"BP PRODUCTS NORTH AMERICA INC, WHITING R",2815 INDIANAPOLIS BLVD.,WHITING,IN,46394,41.6631,-87.4796,Lake,32411,,7247711,NEI
110000398338.0,BP PRODUCTS NA WHITING BUSINESS UNIT,2815 INDIANAPOLIS BLVD,WHITING,IN,46394,41.663055,-87.479643,LAKE,324110,,46394MCLCX2815I,TRI
110000398338.0,BP Products North America Whiting Busin,2815 Indianapolis Blvd,Whiting,IN,46394,41.6622,-87.48279999999998,Lake,32411,,3988711,NEI
110000398338.0,BP Products North America Inc Hammond,2815 Indianapolis Blvd,Whiting,IN,46394,41.6603,-87.49599999999998,Lake,32411,,3984911,NEI
110000743704.0,Eastman Chemical - Texas Operations,300 KODAK BLVD,LONGVIEW,TX,75602,32.4472,-94.6917,Harrison,325199,,1007438,GHGRP
110000743704.0,TEXAS OPERATIONS,HWY 149 KODAK BLVD,LONGVIEW,TX,75607,32.4386,-94.6911,Harrison,325110,,4941511,NEI
110000743704.0,EASTMAN COGENERATION FACILITY,CALLAHAN RD,LONGVIEW,TX,75602,32.4477,-94.6902,Harrison,221121,,7908711,NEI
110000743704.0,EASTMAN CHEMICAL CO TEXAS OPERATIONS,300 KODAK BLVD,LONGVIEW,TX,75602,32.438056,-94.69,HARRISON,325199,,75607TXSSTOFFHI,TRI
110056963745.0,Buckeye Port Reading Terminal,750 CLIFF ROAD,PT. READING,NJ,7064,40.564223,-74.25076,MIDDLESEX,324110,,1007595,GHGRP
110056963745.0,HESS PORT READING,Unknown,PORT READING,NJ,00000,40.6444,-74.2453,Union,48811,,11560511,NEI
110056963745.0,Hess Corporation-Port Reading Refiner,750 Cliff Road,Pt. Reading,NJ,07064,40.5591,-74.2401,Middlesex,324110,,8237311,NEI
110056963745.0,BUCKEYE PORT READING TERMINAL LLC,750 CLIFF RD,PORT READING,NJ,7064,40.564223,-74.25076,MIDDLESEX,324110,,07064MRDHS750CL,TRI
110041023807.0,ALON REFINING KROTZ SPRINGS INC,356 S. LEVEE RD,KROTZ SPRINGS,LA,70750,30.526504,-91.748383,SAINT LANDRY,324110,,1007622,GHGRP
110041023807.0,VALERO REFINING CO,Unknown,KROTZ SPRINGS,LA,00000,30.5331,-91.7501,St. Landry,48811,,12483611,NEI
110041023807.0,Alon Refining Krotz Springs Inc,Hwy 105 S,Krotz Springs,LA,70750,30.5265,-91.7484,St. Landry,324110,,8240011,NEI
110041023807.0,ALON REFINING KROTZ SPRINGS INC,HWY 105 S,KROTZ SPRINGS,LA,70750,30.526504,-91.748383,ST. LANDRY PARISH,324110,,70750HLLPTHWY10,TRI
110000602544.0,DOW CHEMICAL COMPANY,901 LOVERIDGE ROAD,PITTSBURG,CA,94565,38.023129,-121.855352,CONTRA COSTA COUNTY,325199,,1007805,GHGRP
110000602544.0,DOW CHEMICAL COMPANY,901 LOVERIDGE ROAD,PITTSBURG,CA,94565,38.0241,-121.855,Contra Costa,325320,,6530311,NEI
110000602544.0,CORTEVA AGRISCIENCE LLC,901 LOVERIDGE RD,PITTSBURG,CA,94565,38.023129,-121.855352,CONTRA COSTA,325320,,94565DWCHMFOOTO,TRI
110017419667.0,LION OIL CO-EL DORADO REFINERY,1000 MCHENRY,EL DORADO,AR,71730,33.200091,-92.675095,UNION,324110,,1007861,GHGRP
110017419667.0,LION OIL COMPANY,1000 MCHENRY DRIVE,EL DORADO,AR,71730,33.1958,-92.6794,Union,32411,,993611,NEI
110017419667.0,LION OIL CO,1000 MCHENRY AVE,EL DORADO,AR,71730,33.200091,-92.675095,UNION,324110,,71730LNLRF1000M,TRI
110031352649.0,TICONA POLYMERS INCORPORATED,5738 COUNTY ROAD 4,BISHOP,TX,78343,27.569714,-97.83493,NUECES,325211,,1007868,GHGRP
110031352649.0,BISHOP FACILITY,1 M S OF BISHOP ON US HWY 77 BUS,BISHOP,TX,78343,27.5677,-97.8225,Nueces,325110,,4929511,NEI
110031352649.0,OQ CHEMICALS BISHOP LLC,5738 COUNTY ROAD 4 - BISHOP,BISHOP,TX,78343,27.565772,-97.826958,NUECES,325199,,78343XBSHPUSHWY,TRI
110031352649.0,OXEA BISHOP,FROM BISHOP TX NORTH CITY LIMITS TAKE BUS HWY 77 SOUTH TO FM 4 TURN RIGHT TO PLANT ENTRANCE,BISHOP,TX,78343,27.566,-97.8268,Nueces,325110,,13389511,NEI
110000854246.0,SHAW INDUSTRIES GROUP INC. P LANT 8S,4401 SAINT ANDREWS ROAD,COLUMBIA,SC,29210,34.047222,-81.151361,LEXINGTON COUNTY,325211,,1007876,GHGRP
110000854246.0,SHAW INDUSTRIES GROUP INC PLANT 8S,4401 ST ANDREWS RD,COLUMBIA,SC,29210,34.0472,-81.1562,Lexington,325220,,3778611,NEI
110008361263.0,"Catlettsburg Refining, LLC",11631 US Route 23,Catlettsburg,KY,41129,38.375,-82.6042,BOYD,324110,,1007913,GHGRP
110008361263.0,Marathon Petroleum Co LLC - Catlettsburg Refining,11631 US 23,Catlettsburg,KY,41129,38.3772,-82.5972,Boyd,32411,,7331911,NEI
110008361263.0,CATLETTSBURG REFINING LLC,11631 US RT 23,CATLETTSBURG,KY,41129,38.377246,-82.597162,BOYD,324110,,41114CTLTTPOBOX,TRI
110015862440.0,CHS MCPHERSON REFINERY INC.,2000 SOUTH MAIN STREET,MCPHERSON,KS,67460,38.347278,-97.673846,MCPHERSON,324110,,1007942,GHGRP
110015862440.0,NATIONAL COOP. REFINERY ASSN.,2000 S. MAIN,MC PHERSON,KS,67460,38.3475,-97.6692,McPherson,324110,,8067211,NEI
110015862440.0,CHS MCPHERSON REFINERY - SRU,2000 S MAIN ST,MCPHERSON,KS,67460,38.347278,-97.673846,MCPHERSON,325311,,67460NTNLC2000M,TRI
110015862440.0,CHS MCPHERSON REFINERY - SRU,2000 S MAIN ST,MCPHERSON,KS,67460,38.347278,-97.673846,MCPHERSON,324110,,67460NTNLC2000M,TRI
110000472630.0,"NAVAJO REFINING COMPANY, LLC - Artesia Refinery",501 East Main Street,ARTESIA,NM,88210,32.848593,-104.394383,EDDY,324110,,1007972,GHGRP
110000472630.0,Navajo Refining - Artesia Refinery,501 E Main St,Artesia,NM,88210,32.8486,-104.394,Eddy,32411,,7399911,NEI
110000472630.0,HOLLYFRONTIER NAVAJO REFINING LLC - ARTESIA REFINERY,501 E MAIN ST,ARTESIA,NM,88210,32.848593,-104.394383,EDDY,324110,,88210NVJRF501EA,TRI
110002899908.0,"CHEVRON PRODUCTS, EL SEGUNDO REFINERY",324 W EL SEGUNDO BLVD,EL SEGUNDO,CA,90245,33.908126,-118.41074,LOS ANGELES,324110,,1007978,GHGRP
110002899908.0,CHEVRON REFINERY,Unknown,EL SEGUNDO,CA,00000,33.9142,-118.427,Los Angeles,48811,,11161011,NEI
110002899908.0,CHEVRON PRODUCTS CO.,324 W EL SEGUNDO BLVD,EL SEGUNDO,CA,90245,33.9164,-118.419,Los Angeles,324110,,4086111,NEI
110002899908.0,CHEVRON PRODUCTS CO. DIV OF CHEVRON USA INC.,324 W EL SEGUNDO BLVD,EL SEGUNDO,CA,90245,33.9082,-118.4085,LOS ANGELES,324110,,90245CHVRN324WE,TRI
110000374087.0,"VALERO REFINING CO. (PREV. PREMCOR REFINING, PREV. WILLIAMS REFINING LLC)",543 WEST MALLORY AVENUE,MEMPHIS,TN,38109,35.085843,-90.083385,SHELBY COUNTY,324110,,1008271,GHGRP
110000374087.0,"Valero Refining Co. (Prev. Premcor Refining, Prev. Williams Refining Llc)",543 West Mallory Avenue,Memphis,TN,38109,35.0875,-90.0864,Shelby,32411,,7156111,NEI
110000374087.0,VALERO REFINING CO - TENNESSEE L.L.C.,2385 RIVERPORT ROAD,MEMPHIS,TN,38109,35.085843,-90.083385,SHELBY,324110,,38109MPCPT543WE,TRI
110033145353.0,VALERO REFINING CO - CALI FORNIA BENICIA REFINERY,3400 E SECOND ST,BENICIA,CA,94510,38.074864,-122.143574,SOLANO,324110,,1008504,GHGRP
110033145353.0,VALERO REFINING COMPANY - CALI,3400 E 2ND STREET,BENICIA,CA,94510,38.075,-122.145,Solano,324110,,14217311,NEI
110033145353.0,VALERO REFINING CO-CALI FORNIA BENICIA REFINERY,3400 E SECOND ST,BENICIA,CA,94510,38.07167,-122.13975,SOLANO,324110,,94510XXNCS3400E,TRI
110033145353.0,"NUSTAR LOGISTICS, L P",3400 E 2ND STREET,BENICIA,CA,94510,38.0722,-122.146,Solano,493190,,13843011,NEI
110032911669.0,VALERO REFINING TEXAS CITY REFINERY,1301 LOOP 197 S,TEXAS CITY,TX,77590,29.369167,-94.911111,GALVESTON,324110,,1008938,GHGRP
110032911669.0,TEXAS CITY REFINERY,LOOP 197 S @ 14TH ST,TEXAS CITY,TX,77590,29.3722,-94.9044,Galveston,324110,,4033811,NEI
110032911669.0,VALERO REFINING-TEXAS LP,1301 LOOP 197 S,TEXAS CITY,TX,77590,29.369167,-94.911111,GALVESTON,324110,,77592TXSCTLOOP1,TRI
110032911669.0,TEXAS CITY LP TANK FARM,1301 LOOP 197S,TEXAS CITY,TX,77590,29.3643,-94.9099,Galveston,424710,,13380311,NEI
110000468921.0,BIG WEST OIL LLC,333 WEST CENTER STREET,NORTH SALT LAKE,UT,84054,40.838386,-111.921443,DAVIS,324110,,1009068,GHGRP
110000468921.0,"Big West Oil, LLC: Big West Oil Refinery",333 W Center St,North Salt Lake,UT,84054,40.8384,-111.921,Davis,32411,,5067411,NEI
110000468921.0,BIG WEST OIL LLC,333 W CENTER ST,NORTH SALT LAKE,UT,84054,40.838386,-111.921443,DAVIS,324110,,84054BGWST333WE,TRI
110000600378.0,"SILVER EAGLE REFINING, INCORPORATED",2990 COUNTY ROAD 180,EVANSTON,WY,82930,41.260556,-110.806944,UINTA COUNTY,324110,,1009291,GHGRP
110000600378.0,Evanston Refining,"SW Section 23, T15N, R119W",Uinta County,WY,82930,41.2616,-110.807,Uinta,213112,,6981111,NEI
110000600378.0,SILVER EAGLE REFINING-EVANSTON,2990 COUNTY RD 180,EVANSTON,WY,82930,41.2616,-110.807,UINTA,324110,,82931XBWHYI80EX,TRI
110001244724.0,The Dow Chemical Co - Louisiana Operations,21255 Hwy 1,Plaquemine,LA,70765,30.3211,-91.2344,Iberville,32519,,8467311,NEI
110001244724.0,THE DOW CHEMICAL CO - LOUISIANA OPERATIONS,21255 LA HWY 1 S,PLAQUEMINE,LA,70764,30.320903,-91.239015,IBERVILLE PARISH,325199,,70765THDWCHIGHW,TRI
110001244724.0,Plaquemine Cogen Facility,21255 HIGHWAY 1,PLAQUEMINE,LA,70765,30.3215,-91.2392,Iberville,325199,,1000816,GHGRP
110001244724.0,The Dow Chemical Company -- Louisiana Operations,21255 Highway 1 South,PLAQUEMINE,LA,70765,30.320903,-91.239015,IBERVILLE,325199,,1004314,GHGRP
110002321381.0,PRAXAIR INC,2551 Dickey Rd,East Chicago,IN,46312,41.6677,-87.4722,Lake,32512,,7250911,NEI
110002321381.0,"PRAXAIR - WHITING, IN 1-4",2551 DICKEY ROAD,EAST CHICAGO,IN,46312,41.668631,-87.472829,LAKE COUNTY,325120,,1002119,GHGRP
110013662009.0,Union Carbide Norco Catalyst Plant,16122 River Rd,Norco,LA,70079,30.0005,-90.4245,St. Charles,325180,,5640011,NEI
110013662009.0,Momentive Specialty Chemicals Inc,16122 River Rd Lot 3,Norco,LA,70079,30.0043,-90.4236,St. Charles,325199,,8026211,NEI
110013662009.0,SHAC CATALYST PLANT,16122 RIVER RD,NORCO,LA,70079,29.99806,-90.4,ST. CHARLES PARISH,325188,,70079CYPRS16122,TRI
110013662009.0,HEXION INC,16122 RIVER RD LOT 3,NORCO,LA,70079,29.99806,-90.4,ST. CHARLES PARISH,325199,,70079RSLTN16122,TRI
110013662009.0,HEXION INC.,16122 RIVER RD LOT 3,NORCO,LA,70079,29.99891,-90.423054,ST. CHARLES PARISH,325199,,1005744,GHGRP
110059765696.0,Cargill Lactic Acid Plant,650 Industrial Park Dr,Blair,NE,68008-2666,41.5306,-96.1075,Washington,325211,,16440911,NEI
110059765696.0,CARGILL CORN MILLING NORTH AMERICA,650 INDUSTRIAL PARK DRIVE,BLAIR,NE,680082649,41.53397,-96.0979,WASHINGTON,311221,,68008CRGLL650IN,TRI
110059765696.0,CARGILL CORN MILLING NORTH AMERICA,650 INDUSTRIAL PARK DRIVE,BLAIR,NE,680082649,41.53397,-96.0979,WASHINGTON,325211,,68008CRGLL650IN,TRI
110059765696.0,Cargill Inc,650 Industrial Park Dr,Blair,NE,68008-2666,41.5295,-96.1027,Washington,311221,,10701611,NEI
110059765696.0,Cargill Polyols LLC,650 Industrial Park Dr,Blair,NE,None,41.5379,-96.0977,Washington,325998,,7237311,NEI
110059765696.0,NatureWorks LLC,650 Industrial Park Dr.,Blair,NE,68008,41.520412,-96.079271,WASHINGTON COUNTY,325211,,1003239,GHGRP
110059765696.0,Cargill Corn Milling North America,650 Industrial park Drive,Blair,NE,68008,41.520412,-96.079271,WASHINGTON COUNTY,311221,,1006425,GHGRP
110000369798.0,CONTINENTAL CARBON,1500 EAST STATE DOCKS ROAD,PHENIX CITY,AL,36869,32.43372,-84.97257,RUSSELL COUNTY,325182,,1004329,GHGRP
110000369798.0,Continental Carbon Company,1500 E State Docks Rd,Phenix City,AL,36869,32.4335,-84.9728,Russell,325180,,1000111,NEI
110000369798.0,CONTINENTAL CARBON CO PHENIX CITY,1500 E STATE DOCKS RD,PHENIX CITY,AL,36869,32.43372,-84.97257,RUSSELL,325182,,36867WTCCRSTATE,TRI
110055053926.0,Cray Valley USA LLCformerly Sartomer Company Inc,Hwy 17 S,Chatom,AL,36518,31.4549,-88.25759999999998,Washington,325211,,1028811,NEI
110055053926.0,TOTALENERGIES PETROCHEMICALS & REFINING USA INC.,16150 JORDAN ST,CHATOM,AL,36518,31.4559,-88.25811,WASHINGTON,325199,,36518RCKLNHIGHW,TRI
110000747817.0,U.S. Amines (Bucks) LLC,14086 Hwy 43 North,Bucks,AL,36505,30.9833,-88.022,Mobile,325180,,1062111,NEI
110000747817.0,U.S. AMINES (BUCKS) LLC,14086 HWY 43 N,AXIS,AL,36505,30.985223,-88.026254,MOBILE,325199,,36512HCHSTHIGHW,TRI
110025376448.0,Arkema Inc,13755 US Hwy 43 N,Axis,AL,36505,30.9806,-88.0262,Mobile,325199,,1062311,NEI
110025376448.0,ARKEMA INC,13755 HWY 43 N,AXIS,AL,36505,30.979167,-88.028833,MOBILE,325211,,36505MTCHMHWY43,TRI
110000589729.0,HONEYWELL - UOP LLC,1 LINDE DRIVE,CHICKASAW,AL,36611,30.759387,-88.060027,MOBILE COUNTY,325188,,1000628,GHGRP
110000589729.0,UOP,1 Linde Drive,Chickasaw,AL,36611,30.7573,-88.07089999999998,Mobile,325180,,1062611,NEI
110000589729.0,HONEYWELL - UOP LLC,1 LINDE DR,CHICKASAW,AL,36611,30.758831,-88.059471,MOBILE,325188,,36611NNCRBLINDE,TRI
110018270672.0,Solvay USA,1020 STATE ST,CHICAGO HEIGHTS,IL,60411,41.51284,-87.61855,COOK,325188,,1006664,GHGRP
110018270672.0,Rhodia Inc,1020 State St,Chicago Heights,IL,60411,41.5128,-87.61849999999998,Cook,325180,,10691811,NEI
110000451467.0,ALMATIS INC - BAUXITE ARKANSAS,4701 ALCOA ROAD,BAUXITE,AR,72011,34.577778,-92.520556,SALINE,331311,,1004327,GHGRP
110000451467.0,ALMATIS INC-BAUXITE,4701 ALCOA RD,BAUXITE,AR,72011,34.5775,-92.5289,Saline,325180,,1099711,NEI
110004173625.0,VOLTAIX INC.,197 MEISTER AVE,NORTH BRANCH,NJ,8876,40.6055,-74.71479999999998,Somerset,325120,,12756711,NEI
110004173625.0,AIR LIQUIDE ADVANCED MATERIALS INC,197 MEISTER AVE,BRANCHBURG,NJ,8876,40.605745,-74.715119,SOMERSET,325188,,08876RMTCT197ME,TRI
110001122044.0,BIMAX INC/ SPRINGFIELD,INDUSTRIAL LN,SHREWSBURY,PA,17327,39.8232,-76.6966,York,325199,,12798611,NEI
110001122044.0,BIMAX INC,158 INDUSTRIAL RD,GLEN ROCK,PA,17327,39.818601,-76.6872,YORK,325998,,17327PMXNC158IN,TRI
110012141798.0,"CHEMICAL & METAL INDUSTRIES, INC.",23465 CHEMTECH AVE,HUDSON AREA,CO,None,40.0518,-104.621,Weld,325180,,12868111,NEI
110012141798.0,CHEMICAL & METAL INDUSTRIES INC,23465 CHEM TECH AVE,HUDSON,CO,80642,40.08956,-104.61213,WELD,325188,,80642CHMCLHUDSO,TRI
110000388508.0,PPG - Teslin (1677020164),"PPG Industries, Inc.",Barberton,OH,44203-3913,41.0053,-81.6203,Summit,325211,,13471811,NEI
110000388508.0,PPG INDUSTRIES INC BARBERTON,4829 FAIRLAND RD,BARBERTON,OH,44203,40.997313,-81.620004,SUMMIT,325188,,44203PPGND4829F,TRI
110000388508.0,PPG - North Plant (1677020163),"PPG Industries, Inc.",Barberton,OH,44203-3913,41.0053,-81.6195,Summit,325211,,13471711,NEI
110046575773.0,Americas Styrenics (0744000173),925 County Road,Ironton,OH,45638,38.575,-82.7908,Lawrence,325211,,13572111,NEI
110046575773.0,AMERICAS STYRENICS LLC,925 COUNTY RD 1A 4563WMRCSS925CU,IRONTON,OH,45638,38.575,-82.791667,LAWRENCE,325211,,4563WMRCSS925CU,TRI
110046575773.0,The Dow Chemical Company - Hanging Rock (0744000029),925 County Road,Ironton,OH,45638,38.5789,-82.795,Lawrence,326140,,13433811,NEI
110022523045.0,COMMONWEALTH AGRI-ENERGY LLC,4895 PEMBROKE RD ,HOPKINSVILLE,KY,42240,36.81342,-87.41009,CHRISTIAN COUNTY,325193,,1005115,GHGRP
110022523045.0,Commonwealth Agri-Energy LLC,4895 Pembroke Rd,Hopkinsville,KY,42241,36.8083,-87.41469999999998,Christian,325199,,13715611,NEI
110022523045.0,COMMONWEALTH AGRI-ENERGY LLC,4895 PEMBROKE RD,HOPKINSVILLE,KY,42240,36.81342,-87.41009,CHRISTIAN,325193,,42241CMMNW4895P,TRI
110000481979.0,J R SIMPLOT COMPANY,12688 S. COLORADO AVE.,HELM,CA,93627,36.551156,-120.113717,FRESNO COUNTY,325311,,1003636,GHGRP
110000481979.0,J R SIMPLOT COMPANY,12688 S COLORADO AVE,HELM,CA,93627,36.549,-120.107,Fresno,325180,,13865911,NEI
110000481979.0,J R SIMPLOT CO,12688 S COLORADO AVE,HELM,CA,93627,36.551156,-120.113717,FRESNO,325311,,93627JRSMP12688,TRI
110000746667.0,Tesoro Refining & Marketing Company LLC- SRP,23208 South Alameda Street,Carson,CA,90810,33.81428,-118.23222,LOS ANGELES COUNTY,325188,,1002692,GHGRP
110000746667.0,TESORO REFINING AND MARKETING CO,23208 S ALAMEDA ST,CARSON,CA,90810,33.8134,-118.232,Los Angeles,325180,,14027511,NEI
110001165578.0,AGRI-CEL INC,391 ROAD 192,DELANO,CA,93215,35.797,-119.14,Tulare,326150,,13983111,NEI
110001165578.0,AGRICEL INC.,391 RD 192,DELANO,CA,93215,35.798,-119.143,Tulare,325211,,14384111,NEI
110001165578.0,"AGRI-CEL, INC.","P.O. BOX 100, 391 ROAD 192",DELANO,CA,93216,35.7977,-119.143,Kern,326150,,4843211,NEI
110000867036.0,Erachem Comilog,610 Pittman Rd,Curtis Bay,MD,21226,39.1944,-76.55889999999998,Anne Arundel,325180,,14527411,NEI
110000867036.0,PRINCE SPECIALTY PRODUCTS LLC,610 PITTMAN RD,BALTIMORE,MD,21226,39.19469,-76.56416,ANNE ARUNDEL,325188,,21226CHMTL711PI,TRI
110056904060.0,Marion Ethanol LLC d/b/a Poet Biorefining - Marion,1660 Hillman Ford Road,Marion,OH,43302,40.61855,-83.15954,MARION COUNTY,325193,,1004902,GHGRP
110056904060.0,POET Biorefining - Marion (0351010207),Hillman-Ford Road,Marion,OH,43302,40.6261,-83.1559,Marion,325199,,14690911,NEI
110056959929.0,POET BIOREFINING,2111 SANDUSKY STREET,FOSTORIA,OH,44830,41.176338,-83.379148,SENECA COUNTY,325192,,1006912,GHGRP
110056959929.0,POET Biorefining - Fostoria (0374010235),2111 Sandusky Street,Fostoria,OH,44830,41.172,-83.37699999999998,Seneca,325199,,14692611,NEI
110031332635.0,DUPONT BORDERLAND PLANT,6501 TROWBRIDGE DR,EL PASO,TX,79905,31.7641,-106.395,El Paso,325180,,15041011,NEI
110031332635.0,VEOLIA - BORDERLAND SAR,6501 TROWBRIDGE RD,EL PASO,TX,79905,31.76943,-106.40063,EL PASO,325188,,7990WDPNTX651TR,TRI
110030917603.0,Flint Hills Resources Fairmont,1214 Road G,Fairmont,NE,None,40.6114,-97.6014,Fillmore,325199,,15083411,NEI
110030917603.0,POET BIOREFINING - FAIRMONT LLC,1214 COUNTY RD G,FAIRMONT,NE,68354,40.61137,-97.6014,FILLMORE,325193,,68354BFRMN1214R,TRI
110041625202.0,Arkema Inc - Arkema Emulsion Systems,355 Hwy 3142,Hahnville,LA,70057,29.9855,-90.4473,St. Charles,325211,,15086811,NEI
110041625202.0,ARKEMA COATING RESINS,355 HIGHWAY 3142,HAHNVILLE,LA,70057,29.98553,-90.44728,ST. CHARLES PARISH,325510,,7005WRKMML355HW,TRI
110000746612.0,ARKEMA INC,19500 MARINER AVE,TORRANCE,CA,90503,33.8542,-118.351,Los Angeles,325180,,15786811,NEI
110000746612.0,ARKEMA COATING RESINS TERMINAL,19500 MARINER AVE,TORRANCE,CA,90503,33.85376,-118.35059,LOS ANGELES,424690,,90503NNCRB19500,TRI
110070090716.0,PACIFIC ETHANOL STOCKTON LLC,3028 NAVY DRIVE,STOCKTON,CA,95206,37.942858,-121.335361,SAN JOAQUIN COUNTY,325193,,1007262,GHGRP
110070090716.0,PACIFIC ETHANOL STOCKTON LLC,3028 NAVY DR,STOCKTON,CA,95206,37.9413,-121.339,San Joaquin,325199,,15859711,NEI
110070090716.0,PACIFIC ETHANOL STOCKTON LLC,3028 NAVY DRIVE,STOCKTON,CA,95206,37.9413,-121.3385,SAN JOAQUIN,325193,,9520WPCFCT328NA,TRI
110002317225.0,Nanophase Technologies Corp,453 Commerce St,Burr Ridge,IL,60521,41.7632,-87.92659999999998,DuPage,325180,,2635111,NEI
110002317225.0,NANOPHASE TECHNOLOGIES CORP,453 COMMERCE ST,BURR RIDGE,IL,60527,41.763201,-87.926559,DUPAGE,325188,,60521NNPHS453CO,TRI
110000818081.0,CARPENTER CO/UPPER MACUNGIE,P O BOX 519,FOGELSVILLE,PA,None,40.6111,-75.61669999999998,Lehigh,325211,,3038811,NEI
110000818081.0,CARPENTER CO,57A OLIN WAY,FOGELSVILLE,PA,18051,40.58103,-75.60884,LEHIGH,326150,,18051CRPNTSNOWD,TRI
110000433022.0,HB Fuller Adhesives LLC,7440 W Dupont Rd,Morris,IL,None,41.3053,-88.5618,Grundy,325211,,3349911,NEI
110000433022.0,H.B. FULLER CO,7440 W DUPONT RD,MORRIS,IL,60450,41.304952,-88.561651,GRUNDY,325520,,60450RCHHL7440W,TRI
110009971977.0,COLUMBIAN CHEMICALS CO,3500 SOUTH ROAD S,ULYSSES,KS,67880,37.54354,-101.19905,GRANT COUNTY,325182,,1005126,GHGRP
110009971977.0,COLUMBIAN CHEMICALS COMPANY,S7-T29S-R35W,ULYSSES,KS,67880,37.5397,-101.189,Grant,325180,,3507911,NEI
110009971977.0,BIRLA CARBON USA INC.,3500 S RD S,ULYSSES,KS,67880,37.54354,-101.19905,GRANT,325182,,67880CLMBNRRROU,TRI
110024415523.0,Southern States Phosphate & Fertilizer,1600 E President St.,Savannah,GA,31402,32.0754,-81.0644,Chatham,325180,,3678011,NEI
110024415523.0,SEAGATE TERMINALS SAVANNAH LLC,1600 E PRESIDENT ST,SAVANNAH,GA,31404,32.074813,-81.064262,CHATHAM,325188,,31404STHRN1600E,TRI
110010264828.0,FLEXSYS AMER LTD PAR/MONONGAHELA,829 ROUTE 481,MONONGAHELA,PA,None,40.1808,-79.9255,Washington,325180,,3895211,NEI
110010264828.0,FLEXSYS AMERICA LP,829 RT 481,MONONGAHELA,PA,15063,40.184167,-79.934167,WASHINGTON,325188,,15063KZCHMRD2BO,TRI
110000359488.0,"General Chemical Corp., Augusta Plant",Columbia Nitrogen Rd.,Augusta,GA,30901,33.4331,-81.9358,Richmond,325180,,3979611,NEI
110000359488.0,CHEMTRADE SOLUTIONS LLC-AUGUSTA PLANT,1580 COLUMBIA NITROGEN RD,AUGUSTA,GA,30901,33.433889,-81.936111,RICHMOND,325188,,30901PRDTCCOLUM,TRI
110000574423.0,EASTMAN CHEMICAL COMPANY,100 NORTH EASTMAN ROAD,KINGSPORT,TN,37660,36.5222,-82.5411,Sullivan,325199,,3982311,NEI
110000574423.0,EASTMAN CHEMICAL CO TENNESSEE OPERATIONS,100 EASTMAN RD,KINGSPORT,TN,37660,36.519722,-82.540556,SULLIVAN,325211,,37662TNNSSEASTM,TRI
110000460965.0,GREENS BAYOU PLANT,2239 HADEN RD,HOUSTON,TX,77001,29.7615,-95.1722,Harris,325180,,4058511,NEI
110000460965.0,GB BIOSCIENCES LLC,2239 HADEN RD,HOUSTON,TX,77015,29.7625,-95.171389,HARRIS,325320,,77015FRMNT2239H,TRI
110000462883.0,HALDOR TOPSOE,10010 BAYPORT RD,PASADENA,TX,77507,29.6109,-95.0588,Harris,325180,,4058711,NEI
110000462883.0,HALDOR TOPSOE INC,10010 BAYPORT RD,PASADENA,TX,77507,29.61225,-95.05782,HARRIS,325188,,77507HLDRT10010,TRI
110017428988.0,BP WEST COAST PROD.LLC BP CARSON REF.,2350 E 223RD ST,CARSON,CA,90749,33.8241,-118.233,Los Angeles,324110,,4073511,NEI
110017428988.0,TESORO LOS ANGELES REFINERY-CARSON OPERATIONS,24696 S WILMINGTON AVE,CARSON,CA,90745,33.8099,-118.2383,LOS ANGELES,324110,,90749RCPRD1801E,TRI
110017428988.0,TESORO LOS ANGELES REFINERY-CARSON OPERATIONS,24696 S WILMINGTON AVE,CARSON,CA,90745,33.8099,-118.2383,LOS ANGELES,424710,,90749RCPRD1801E,TRI
110017428988.0,TESORO LOS ANGELES REFINERY-CARSON OPERATIONS,24696 S WILMINGTON AVE,CARSON,CA,90745,33.8099,-118.2383,LOS ANGELES,325188,,90749RCPRD1801E,TRI
110017428988.0,ARCO TERMINAL SVCS. CORP./MARINE TERM 2,1801 SEPULVEDA BLVD,CARSON,CA,90745,33.8082,-118.237,Los Angeles,424710,,10318211,NEI
110000374265.0,Wm Barr,2105 Channel Avenue/ 2170 Buoy Avenue,Memphis,TN,38113,35.0884,-90.1131,Shelby,325199,,4143711,NEI
110000374265.0,WM BARR & CO INC,2105 CHANNEL AVE,MEMPHIS,TN,38109,35.088444,-90.110682,SHELBY,325510,,38113WMBRR2105C,TRI
110002131489.0,OCCIDENTAL CHEMICAL DALLAS SILICATE PLANT,1100 LENWAY ST.,DALLAS,TX,75215,32.75469,-96.77826,DALLAS COUNTY,325188,,1001072,GHGRP
110002131489.0,OCCIDENTAL CHEMICAL DALLAS,1100 LENWAY ST 75215,DALLAS,TX,75037,32.7542,-96.7791,Dallas,325180,,4161711,NEI
110000463123.0,BAYTOWN PLANT,3439 PARK ST,BAYTOWN,TX,77520,29.748,-95.0023,Harris,325180,,4167711,NEI
110000463123.0,ECO SERVICES OPERATIONS CORP.,3439 PARK ST,BAYTOWN,TX,77520,29.748056,-95.003556,HARRIS,325188,,77520STFFR3439P,TRI
110000868918.0,E I Du Pont De Nemours And Co-Spruance Plt,5401 Jefferson Davis Hwy,Richmond,VA,23234,37.4509,-77.4342,Chesterfield,325211,,4180911,NEI
110000868918.0,SPRUANCE PLANT,5401 JEFFERSON DAVIS HWY,NORTH CHESTERFIELD,VA,23234,37.45093,-77.43415,CHESTERFIELD,325222,,23234DPNTSUSHIG,TRI
110038705817.0,POLYETHYLENE PLANT,1230 BATTLEGROUND RD,DEER PARK,TX,77536,29.7174,-95.0852,Harris,325211,,4182611,NEI
110038705817.0,INEOS BATTLEGROUND MANUFACTURING COMPLEX,"1230 INDEPENDENCE PARKWAY, SOUTH",LA PORTE,TX,77571,29.718368,-95.08583,HARRIS,325211,,77536SLTXP1230B,TRI
110038705817.0,SOLVAY INTEROX,1230 BATTLEGROUND RD,DEER PARK,TX,77536,29.7152,-95.0872,Harris,325180,,4056611,NEI
110000594198.0,Erco Worldwide (Usa),101 Hwy 73 South,Nekoosa,WI,54457,44.3381,-89.8871,Wood,325180,,4194111,NEI
110000594198.0,ERCO WORLDWIDE (USA) INC,101 HWY 73 S,NEKOOSA,WI,54457,44.3381,-89.8871,WOOD,325181,,54469VLCNMSTATE,TRI
110020680789.0,Yorktown Terminal,2201 GOODWIN NECK RD,YORKTOWN,VA,23692,37.21022,-76.45366,YORK,424710,,1006907,GHGRP
110020680789.0,Western Refining Yorktown Inc,2201 Goodwin Neck Rd,Grafton,VA,None,37.2102,-76.4537,York,324110,,4195011,NEI
110020680789.0,PLAINS MARKETING LP YORKTOWN,2201 GOODWIN NECK RD,YORKTOWN,VA,23692,37.21022,-76.45366,YORK,324110,,23692MCLCM2201G,TRI
110000476075.0,US BORAX INC,300 FALCON ST,WILMINGTON,CA,90744,33.7562,-118.266,Los Angeles,325180,,436611,NEI
110000476075.0,US BORAX INC.,300 FALCON ST,WILMINGTON,CA,90744,33.75687,-118.26559,LOS ANGELES,325188,,90744NTDST300FA,TRI
110000431382.0,Engineered Polymer Solutions,1400 N State St,Marengo,IL,60152,42.2629,-88.61329999999998,McHenry,325211,,4558411,NEI
110000431382.0,ENGINEERED POLYMER SOLUTIONS INC.,1400 N STATE ST,MARENGO,IL,60152,42.263109,-88.612888,MCHENRY,325510,,60152THVLS1400N,TRI
110031191207.0,Nanophase Technologies Corp,1319 Marquette Dr,Romeoville,IL,60446,41.6707,-88.07519999999998,Will,325180,,4664911,NEI
110031191207.0,NANOPHASE TECHNOLOGIES CORP,1319 MARQUETTE DR,ROMEOVILLE,IL,60446,41.670548,-88.075079,WILL,325188,,60446NNPHS1319M,TRI
110046292677.0,ALBEMARLE/TYRONE QUALITY CHEM,2858 BACK VAIL RD,TYRONE,PA,None,40.6932,-78.2305,Blair,325199,,4701311,NEI
110046292677.0,W R GRACE & CO,2858 BACK VAIL ROAD,TYRONE,PA,16686,40.693119,-78.230157,BLAIR,325110,,16686QLTYCINDUS,TRI
110000329644.0,NEVILLE CHEM CO/PGH,2800 NEVILLE RD,PITTSBURGH,PA,None,40.5021,-80.0984,Allegheny,325211,,4714111,NEI
110000329644.0,NEVILLE CHEMICAL CO,2800 NEVILLE RD,PITTSBURGH,PA,15225,40.502778,-80.099167,ALLEGHENY,325188,,15225NVLLC2800N,TRI
110000421080.0,"Chemdesign Products, Inc.",2 Stanton St,Marinette,WI,54143,45.0981,-87.61579999999998,Marinette,325199,,4771011,NEI
110000421080.0,CHEMDESIGN PRODUCTS INC,2 STANTON ST,MARINETTE,WI,54143,45.09713,-87.61406,MARINETTE,325998,,54143SPCLT2STAN,TRI
110000462801.0,PASADENA CATALYSTS,10001 CHEMICAL RD,PASADENA,TX,77507,29.6144,-95.0531,Harris,325180,,4778611,NEI
110000462801.0,GRACE -PASADENA CATALYST SITE,10001 CHEMICAL RD,PASADENA,TX,77507,29.616247,-95.052006,HARRIS,325188,,77507CTLYS10001,TRI
110000460901.0,HOUSTON PLANT,8615 MANCHESTER RD,HOUSTON,TX,77012,29.7213,-95.2713,Harris,325180,,4778711,NEI
110000460901.0,ECO SERVICES OPERATIONS CORP.,8615 MANCHESTER ST,HOUSTON,TX,77012,29.718139,-95.26875,HARRIS,325188,,77012STFFR8615M,TRI
110017887330.0,EQUILON ENTERPRISES LLC,6451 ROSEDALE HIGHWAY,BAKERSFIELD,CA,93308,35.3849,-119.072,Kern,562998,,13857911,NEI
110017887330.0,TEXACO REFINING & MARKETING,6451 ROSEDALE HIGHWAY,BAKERSFIELD,CA,93308,35.3832,-119.071,Kern,923110,,14349611,NEI
110017887330.0,ALON BAKERSFIELD REFINING,6451 ROSEDALE HWY,BAKERSFIELD,CA,93308,35.3764,-119.072,Kern,324110,,4789411,NEI
110017887330.0,BAKERSFIELD RENEWABLE FUELS LLC - AREAS 1 & 2,6451 ROSEDALE HWY,BAKERSFIELD,CA,93308,35.3825,-119.070556,KERN,324110,,93308TXCRF6451R,TRI
110000464195.0,BEAUMONT FACILITY,1400 OLIN RD,BEAUMONT,TX,77703,30.0459,-94.0696,Jefferson,325180,,4860811,NEI
110000464195.0,CHEMTRADE REFINERY SERVICES INC.,1400 OLIN RD,BEAUMONT,TX,77705,30.046389,-94.068889,JEFFERSON,325188,,77705LNCRP1400O,TRI
110043804764.0,Borger Carbon Black Plant,9455 FM 1559,Borger,TX,79007,35.665516,-101.435748,HUTCHINSON,325182,,1000605,GHGRP
110043804764.0,BORGER CARBON BLACK PLT,FROM FM 1559; 0.5 MI N ON TX 136,BORGER,TX,79007,35.6666,-101.436,Hutchinson,325180,,4863711,NEI
110043804764.0,BORGER CARBON BLACK PLANT,9455 FM 1559,BORGER,TX,79007,35.665516,-101.435748,HUTCHINSON,325182,,79008SDRCHPODRA,TRI
110038495768.0,AdvanSix Resins & Chemicals LLC,2501 MARGARET STREET,PHILADELPHIA,PA,19137,40.0067,-75.0686,Philadelphia,325192,,1000089,GHGRP
110038495768.0,HONEYWELL/FRANKFORD PLT,4700 BERMUDA STREET,PHILADELPHIA,PA,19137,40.0065,-75.07139999999998,Philadelphia,325199,,4950811,NEI
110038495768.0,ADVANSIX RESINS & CHEMICALS LLC,2501 MARGARET,PHILADELPHIA,PA,19137,40.008039,-75.070917,PHILADELPHIA,325110,,19137LLDSGMARGA,TRI
110000374443.0,CHEMOURS MEMPHIS PLANT,2571 FITE ROAD,MEMPHIS,TN,38127,35.27213,-89.97894,SHELBY COUNTY,325188,,1002709,GHGRP
110000374443.0,E I Dupont De Nemours & Company Inc,2571 Fite Road,Memphis,TN,38127,35.2683,-89.9753,Shelby,325180,,4963911,NEI
110000374443.0,COVORO MINING SOLUTIONS LLC,2571 FITE RD,MEMPHIS,TN,38127,35.27213,-89.97894,SHELBY,325188,,38127DPNTM2571F,TRI
110000354679.0,MITSUBISHI POLYESTER FILM LLC,2001 HOOD RD,GREER,SC,29652,34.9237,-82.2611,Greenville,325211,,4966511,NEI
110000354679.0,MITSUBISHI CHEMICAL AMERICA INC. - POLYESTER FILM DIV,2001 HOOD RD,GREER,SC,29650,34.923436,-82.260666,GREENVILLE,326113,,29651HCHSTHOODR,TRI
110045410872.0,MILLIKEN & COMPANY,Unknown,BLACKSBURG,SC,00000,35.1165,-81.56149999999998,Cherokee,48811,,11429411,NEI
110045410872.0,MILLIKEN & CO CHEMICAL ALLEN PLANT,SC HWY 5 & I-85,BLACKSBURG,SC,29702,35.1153,-81.56109999999998,Cherokee,325199,,4967211,NEI
110045410872.0,MILLIKEN CHEMICAL ALLEN PLANT,164 NEW MILLIKEN RD,BLACKSBURG,SC,29702,35.118056,-81.565833,CHEROKEE,313311,,29702MGNLFSCHIG,TRI
110045410872.0,MILLIKEN CHEMICAL ALLEN PLANT,164 NEW MILLIKEN RD,BLACKSBURG,SC,29702,35.118056,-81.565833,CHEROKEE,325199,,29702MGNLFSCHIG,TRI
110000458406.0,CABOT NORIT AMERICAS INC,3200 UNIVERSITY AVE.,MARSHALL,TX,75670,32.535981,-94.399072,HARRISON,325998,,1005127,GHGRP
110000458406.0,MARSHALL PLANT,3200 W UNIVERSITY,MARSHALL,TX,75670,32.5367,-94.4006,Harrison,325180,,4982111,NEI
110000607772.0,GALLIPOLIS FERRY PLANT,STATE ROUTE 2,GALLIPOLIS FERRY,WV,25515,38.7722,-82.2056,Mason,325199,,5002111,NEI
110000607772.0,ICL-IP AMERICA INC,11636 HUNTINGTON,GALLIPOLIS FERRY,WV,25515,38.77222,-82.20556,MASON,325998,,25515KZCHMSTATE,TRI
110017980443.0,BUCKMAN LABORATORIES INC-CADET,14664 EAST STATE HIGHWAY 47,CADET,MO,63630,37.982,-90.6895,Washington,325199,,5219011,NEI
110017980443.0,BUCKMAN LABORATORIES INC.,14664 E STATE HWY 47,CADET,MO,63630,37.983333,-90.690833,WASHINGTON,325998,,63630BCKMNHIGHW,TRI
110001452703.0,"PQ Corporation - St. Louis, MO",4238 Geraldine Avenue,Saint Louis,MO,63115,38.6836,-90.25109,SAINT LOUIS CITY,325188,,1005348,GHGRP
110001452703.0,PQ CORPORATION (THE)-ST. LOUIS,4238 GERALDINE,ST. LOUIS,MO,63115,38.6836,-90.2511,St. Louis city,325180,,5341811,NEI
110000878881.0,PQ Corporation - Chester Plant,1201 W Front Street,Chester,PA,19013,39.840401,-75.372368,DELAWARE,325188,,1008044,GHGRP
110000878881.0,PQ CORP/CHESTER,1201 W FRONT ST,CHESTER,PA,None,39.8404,-75.3724,Delaware,325180,,5456011,NEI
110000587810.0,Chemical Products Corporation,102 Old Mill Rd,Cartersville,GA,None,34.1506,-84.7856,Bartow,325180,,552911,NEI
110000587810.0,CHEMICAL PRODUCTS CORP,102 OLD MILL RD,CARTERSVILLE,GA,30120,34.15091,-84.78595,BARTOW,325188,,30120CHMCLTENNE,TRI
110056959055.0,"Pinova, Inc.",2801 Cook Street,Brunswick,GA,31520,31.0955,-81.28319999999998,Glynn,325199,,554411,NEI
110056959055.0,"PINOVA,INC.",2801 COOK ST,BRUNSWICK,GA,31520,31.1653,-81.4811,GLYNN,325191,,31520HRCLS2801C,TRI
110000743296.0,OCCIDENTAL CHEMICAL CORPORATION - Taft Facility,266 HIGHWAY 3142,HAHNVILLE,LA,70057,29.9861,-90.4575,ST. CHARLES PARISH,325181,,1001709,GHGRP
110000743296.0,Occidental Chemical Corp - Taft Plant,266 Hwy 3142,Hahnville,LA,70057,29.9881,-90.4522,St. Charles,325180,,5609011,NEI
110000743296.0,OCCIDENTAL CHEMICAL CORP,266 HWY 3142,HAHNVILLE,LA,70057,29.97371,-90.45892,ST. CHARLES PARISH,325181,,70057CCDNTLAHWY,TRI
110000370508.0,"ERACHEM COMILOG, INC.",795 FOOTE LANE,NEW JOHNSONVILLE,TN,37134,35.99622,-87.979395,HUMPHREYS,325188,,1007164,GHGRP
110000370508.0,"ERACHEM COMILOG, INC.",795 FOOTE LANE,NEW JOHNSONVILLE,TN,37134,35.9962,-87.9794,Humphreys,325180,,5610711,NEI
110000370508.0,PRINCE SPECIALTY PRODUCTS LLC - NEW JOHNSONVILLE FACILITY,795 FOOTE LN,NEW JOHNSONVILLE,TN,37134,35.99622,-87.979395,HUMPHREYS,325188,,37134CHMTLFOOTE,TRI
110000599406.0,CHOCOLATE BAYOU POLYMERS,FM 2004; S OF ALVIN; 2 M W OF FM 2917 ON FM 2004,ALVIN,TX,77511,29.2319,-95.1894,Brazoria,325211,,5633211,NEI
110000599406.0,LYONDELL CHEMICAL CO - CHOCOLATE BAYOU CHEMICALS PLANT,FM RD 2917,ALVIN,TX,775122917,29.250091,-95.216526,BRAZORIA,325110,,77512CNCHMFM291,TRI
110000599406.0,CHOCOLATE BAYOU CHEMICAL,ON FM 2917 SE OF LIVERPOOL,ALVIN,TX,77512,29.2466,-95.2246,Brazoria,325110,,5617111,NEI
110000599406.0,Huntsman Corp,FM 2917,Alvin,TX,None,29.2467,-95.1964,Brazoria,325611,,6583611,NEI
110000599406.0,EQUISTAR CHEMICALS LP CHOCOLATE BAYOU POLYMERS PLANT,2 MILES W OF FM 2917 ON FM 2004,ALVIN,TX,77511,29.250091,-95.216526,BRAZORIA,325211,,77511QNTMC2MILE,TRI
110041008101.0,Borger Carbon Black Plant,9440 FM 1559,Borger,TX,79007,35.665695,-101.43327,HUTCHINSON,325182,,1003533,GHGRP
110041008101.0,BORGER CARBON BLACK PLANT,2 M W OF BORGER ON HWY 136 THEN N 0.5 M ON FM 1559,BORGER,TX,79007,35.6677,-101.433,Hutchinson,325180,,5655811,NEI
110041008101.0,ORION ENGINEERED CARBONS BORGER PLANT,9440 FM 1559,BORGER,TX,79007,35.665695,-101.43327,HUTCHINSON,325182,,79007JMHBRHIGHW,TRI
110000605872.0,Aldrich Chemical Company,5485 County Road V,Sheboygan Falls,WI,53085,43.6738,-87.7809,Sheboygan,325180,,5656411,NEI
110000605872.0,ALDRICH CHEMICAL CO LLC,5485 COUNTY RD V,SHEBOYGAN FALLS,WI,53085,43.67406,-87.78147,SHEBOYGAN,325199,,53085LDRCH6100H,TRI
110060338255.0,Arkema Inc.,2571 Fite Rd,Memphis,TN,38127,35.27213,-89.97896,SHELBY COUNTY,325188,,1006415,GHGRP
110060338255.0,Atofina Chemicals Inc,2571 Fite Road,Memphis,TN,38127,35.2614,-89.9778,Shelby,325180,,5721411,NEI
110000371927.0,W. R. Grace & Co.,4000 North Hawthorne Street,Chattanooga,TN,None,35.086,-85.24859999999998,Hamilton,325180,,5721611,NEI
110000371927.0,WR GRACE CHATTANOOGA PLANT,4000 N HAWTHORNE ST,CHATTANOOGA,TN,37406,35.081032,-85.25592,HAMILTON,325188,,37406WRGRC4000N,TRI
110000375184.0,"CYTEC INDUSTRIES, INC.",7910 MOUNT JOY ROAD,MT. PLEASANT,TN,38474,35.5249,-87.2431,Maury,325180,,5722911,NEI
110000375184.0,CYTEC INDUSTRIES INC,7910 MT JOY RD,MOUNT PLEASANT,TN,38474,35.5249,-87.2431,MAURY,325199,,38474CMRCSMTJOY,TRI
110000341933.0,Dupont De Nemours E I & Company Inc James River Pl,1201 Bellwood Rd,Chesterfield,VA,23237,37.4171,-77.4092,Chesterfield,325180,,5795411,NEI
110000341933.0,VEOLIA JAMES RIVER PLANT,1201 BELLWOOD RD,RICHMOND,VA,23237,37.416944,-77.408889,CHESTERFIELD,325188,,23237DPNTJ1201B,TRI
110000606997.0,ALCOA WORLD ALUMINA ATLANTIC,None,POINT COMFORT,TX,77978,28.3909,-96.3332,CALHOUN COUNTY,331311,,1003201,GHGRP
110000606997.0,POINT COMFORT PLANT,LOCATED S OF POINT COMFORT & SW OF INTERX OF SH 35 & FM 1593 W OF FM 1593 & E OF LAVACA BAY,POINT COMFORT,TX,77978,28.6516,-96.5601,Calhoun,325180,,5846711,NEI
110000606997.0,ALCOA WORLD ALUMINA LLC,STATE HWY 35,POINT COMFORT,TX,77978,28.652039,-96.557649,CALHOUN,331311,,77978LMNMCSTATE,TRI
110000867161.0,"USALCO, LLC",2601 Cannery Ave,Curtis Bay,MD,21226,39.2312,-76.5626,Baltimore city,325180,,5860111,NEI
110000867161.0,USALCO BALTIMORE PLANT LLC,2601 CANNERY AVE,BALTIMORE,MD,21226,39.230529,-76.56363,BALTIMORE (CITY),325188,,21226DLTCH2601C,TRI
110060257671.0,PADUCAH GASEOUS DIFFUSION PLANT - USEC,5600 HOBBS ROAD,Kevil,KY,42053,37.120138,-88.811111,MCCRACKEN COUNTY,325188,,1002900,GHGRP
110060257671.0,US Enrichment Corp,5600 Hobbs Rd,Kevil,KY,42053,37.1084,-88.8168,McCracken,325180,,6050611,NEI
110060257671.0,Dept of Energy,5600 Hobbs Rd,Kevil,KY,42053,37.1084,-88.8168,McCracken,92411,,7350711,NEI
110060257671.0,Babcock & Wilcox Conversion Services LLC,5600 Hobbs Rd,Kevil,KY,42053,37.1083,-88.81999999999998,McCracken,325180,,15544311,NEI
110000379876.0,E I Dupont Inc,HC 66 400 Harris Rd,Wurtland,KY,41144,38.555,-82.78919999999998,Greenup,325180,,6096411,NEI
110000379876.0,VEOLIA WURTLAND PLANT,HC 66-400 HARRIS RD,WURTLAND,KY,41144,38.555556,-82.789167,GREENUP,325188,,41144DPNTWHC664,TRI
110000385440.0,BASF Corporation (0247040195),120 PINE STREET,Elyria,OH,44035,41.3708,-82.10169999999998,Lorain,325180,,6372611,NEI
110000385440.0,BASF CORP,120 PINE ST,ELYRIA,OH,44035,41.37005,-82.10226,LORAIN,325188,,44035NGLHR120PI,TRI
110000462687.0,POLYSILICON FACILITY,3000 NORTHSOUTH ST,PASADENA,TX,77501,29.7435,-95.1703,Harris,325180,,6421911,NEI
110000462687.0,MEMC PASADENA INC,3000 N S ST,PASADENA,TX,77503,29.74258,-95.17203,HARRIS,325188,,77503MMCPS3000N,TRI
110021341332.0,TESORO REFINING AND MARKETING,"1750 MARINA VISTA WAY, AMORCO",MARTINEZ,CA,94553,38.0274,-122.117,Contra Costa,424710,,175011,NEI
110021341332.0,TESORO REFINING & MARKETING CO,"150 SOLANO WAY, AVON REFINERY",MARTINEZ,CA,94553,38.027,-122.069,Contra Costa,324110,,6480811,NEI
110021341332.0,TESORO REFINING & MARKETING CO LLC,150 SOLANO WAY,MARTINEZ,CA,94553,38.0251,-122.0639,CONTRA COSTA,324110,,94553TSCCRAVONR,TRI
110021341332.0,TESORO REFINING AND MARKETING,150 SOLANO WAY,MARTINEZ,CA,94553,38.0272,-122.07,Contra Costa,447110,,10519711,NEI
110000902621.0,ENGINEERED POLYMER SOLUTIONS INC,5501 E SLAUSON AVE,LOS ANGELES,CA,90040,33.9863,-118.166,Los Angeles,325211,,6501911,NEI
110000902621.0,ENGINEERED POLYMER SOLUTIONS INC,5501 E SLAUSON AVE,CITY OF COMMERCE,CA,90040,33.987111,-118.165944,LOS ANGELES,325510,,90040THMCC5501E,TRI
110000483263.0,RHODIA INC,100 MOCOCO ROAD,MARTINEZ,CA,94553,38.0321,-122.114,Contra Costa,325180,,6515711,NEI
110000483263.0,ECO SERVICES OPERATIONS CORP.,100 MOCOCO RD,MARTINEZ,CA,94553,38.034722,-122.112778,CONTRA COSTA,325188,,94553STFFR100MO,TRI
110000370544.0,DuPont Old Hickory,1002 INDUSTRIAL ROAD,OLD HICKORY,TN,37138,36.2756,-86.6644,Davidson,313230,,1000296,GHGRP
110000370544.0,E I Dupont De Nemours & Co Inc,1002 Industrial Rd,Old Hickory,TN,37138,36.2692,-86.6556,Davidson,325199,,6516311,NEI
110000342601.0,Evonik Goldshmidt Corp,914 E Randolph Rd,Hopewell,VA,None,37.292,-77.2686,Hopewell city,325180,,6633811,NEI
110000342601.0,EVONIK INDUSTRIES,914 E RANDOLPH RD,HOPEWELL,VA,23860,37.292778,-77.267833,HOPEWELL (CITY),325613,,23860GLDSC914ER,TRI
110000599987.0,PAMPA PLANT,3 M SW ON US HWY 60,PAMPA,TX,79065,35.5102,-101.015,Gray,325180,,6671211,NEI
110000599987.0,CABOT CORP PAMPA DEVELOPMENT & MANUFACTURING CENTER,8430 COUNTY ROAD 3,PAMPA,TX,79065,35.51,-101.015,GRAY,325182,,79066CBTCR5MILE,TRI
110000476208.0,ECO SERVICES DOMINGUEZ,20720 SOUTH WILMINGTON AVENUE,CARSON,CA,90810,33.843333,-118.232844,LOS ANGELES COUNTY,325188,,1007539,GHGRP
110000476208.0,RHODIA INC.,20720 S WILMINGTON AVE,CARSON,CA,90810,33.8434,-118.235,Los Angeles,325180,,67011,NEI
110000476208.0,ECO SERVICES OPERATIONS CORP,20720 S WILMINGTON AVE,CARSON,CA,90746,33.843333,-118.232844,LOS ANGELES,325188,,90746STFFR20720,TRI
110000469920.0,Compass Minerals Ogden Inc,765 N 10500 W,Ogden,UT,84404,41.27432,-112.22376,WEBER COUNTY,325188,,1009764,GHGRP
110000469920.0,Great Salt Lake Minerals Corporation: Production Plant,765 N 10500 W,Ogden,UT,84404,41.2313,-112.22,Weber,325180,,6734411,NEI
110000423667.0,3M Cottage Grove Center - Site,10746 Innovation Rd,Cottage Grove,MN,55016,44.789444,-92.908333,WASHINGTON,325998,,1004836,GHGRP
110000423667.0,3M Cottage Grove Utilities/Support Svcs,10746 Innovation Rd,Cottage Grove,MN,55016,44.7904,-92.9141,Washington,325998,,6772511,NEI
110000423667.0,3M Cottage Grove Materials Resource Division,10746 Innovation Rd Bldg 41-1,Cottage Grove,MN,55016,44.7908,-92.9151,Washington,325199,,6772711,NEI
110000423667.0,3M Cottage Grove - Bldg 17,10746 Innovation Rd,Cottage Grove,MN,55016,44.8051,-92.9126,Washington,31323,,6772811,NEI
110000423667.0,3M Cottage Grove Bldg 133/Traffic Safety,10746 Innovation Rd,Cottage Grove,MN,55016,44.7903,-92.9136,Washington,325199,,6785311,NEI
110000423667.0,3M - Cottage Grove Corporate Incinerator,10746 Innovation Rd Bldg 145,Cottage Grove,MN,55016,44.7908,-92.9151,Washington,562213,,8161811,NEI
110000423667.0,3M COTTAGE GROVE CENTER,10746 INNOVATION RD,COTTAGE GROVE,MN,55016,44.789444,-92.908333,WASHINGTON,325998,,55016MCHMLHIGHW,TRI
110000423667.0,3M Cottage Grove Specialty Additives,10746 Innovation Rd,Cottage Grove,MN,55016,44.7908,-92.9151,Washington,327212,,6771911,NEI
110000423667.0,3M Cottage Grove - Bldg 19 & 111,10746 Innovation Rd,Cottage Grove,MN,55016,44.7905,-92.9141,Washington,332999,,13603211,NEI
110020670610.0,DUPONT TEIJIN FILMS,3600 DISCOVERY DR,CHESTER,VA,23836,37.350627,-77.291096,CHESTERFIELD,326113,,1003976,GHGRP
110020670610.0,DuPont Teijin Films,3600 Discovery Dr,Chester,VA,23836,37.3458,-77.286,Chesterfield,325211,,6868311,NEI
110038158524.0,HEARTLAND CORN PRODUCTS,53331 State Highway 19,WINTHROP,MN,55396,44.541944,-94.341667,SIBLEY,325193,,1003907,GHGRP
110038158524.0,Heartland Corn Products,53331 State Highway 19 E,Winthrop,MN,55396,44.5417,-94.3415,Sibley,325180,,6930211,NEI
110038158524.0,HEARTLAND CORN PRODUCTS,53331 STATE HIGHWAY 19 EAST,WINTHROP,MN,55396,44.541944,-94.341667,SIBLEY,325193,,55396HRTLNHWY19,TRI
110000424149.0,Hawkins Inc - Termial I,1125 Childs Rd,St. Paul,MN,55106,44.9376,-93.0482,Ramsey,325180,,6963511,NEI
110000424149.0,HAWKINS TERMINAL I,1125 CHILDS RD,SAINT PAUL,MN,551066072,44.942041,-93.051638,RAMSEY,424690,,55106VLTXC1125C,TRI
110000468182.0,Evansville Plant,4900 E Yellowstone Hwy,Evansville,WY,82636,42.8574,-106.255,Natrona,325199,,6978011,NEI
110000468182.0,CHAMPIONX-EVANSVILLE PLANT 108,4900 E YELLOWSTONE HWY,EVANSVILLE,WY,82636,42.8574,-106.2547,NATRONA,339999,,82636NLCCH4900E,TRI
110000594642.0,AL CORN CLEAN FUEL,797 5th Street,CLAREMONT,MN,55924,44.049412,-93.017379,DODGE,325193,,1005149,GHGRP
110000594642.0,Al-Corn Clean Fuel,797 5th St,Claremont,MN,55924,44.0491,-93.0173,Dodge,325199,,7026511,NEI
110040941531.0,EKA CHEMICALS INC,4374 NASHVILLE FERRY ROAD EAST,COLUMBUS,MS,39702,33.423639,-88.395083,LOWNDES COUNTY,325188,,1007767,GHGRP
110040941531.0,Eka Chemicals Inc,4374 Nashville Ferry Road East,Columbus,MS,39702,33.4236,-88.39499999999998,Lowndes,325180,,7069811,NEI
110000425861.0,Hawkins Inc - Minneapolis,3100 E Hennepin Ave,Minneapolis,MN,55413,44.9916,-93.21,Hennepin,325199,,7161711,NEI
110000425861.0,HAWKINS INC. - MINNEAPOLIS,3100 E HENNEPIN AVE,MINNEAPOLIS,MN,55413,44.99165,-93.21015,HENNEPIN,424690,,55427HWKNS3100E,TRI
110000321189.0,PAULSBORO ASPHALT REFINERY,4 PARADISE RD.,PAULSBORO,NJ,8066,39.840932,-75.226205,GLOUCESTER COUNTY,324121,,1002103,GHGRP
110000321189.0,"NUSTAR ASPHALT REFINING, LLC",4 PARADISE RD,PAULSBORO,NJ,08066,39.8425,-75.2262,Gloucester,324110,,7201411,NEI
110000321189.0,CPI OPERATIONS LLC,4 PARADISE RD,PAULSBORO,NJ,8066,39.840932,-75.226205,GLOUCESTER,324110,,08066SVWLC4PARA,TRI
110043799743.0,Addis Carbon Black Plant,5221 Sid Richardson Road,Addis,LA,70710,30.3288,-91.2792,WEST BATON ROUGE,325182,,1000603,GHGRP
110043799743.0,Sid Richardson Carbon Co - Addis Plant,5221 Sid Richardson Rd,Addis,LA,70710,30.3287,-91.2796,West Baton Rouge,325180,,7206311,NEI
110043799743.0,ADDIS CARBON BLACK PLANT,5221 SID RICHARDSON RD,ADDIS,LA,70710,30.3288,-91.2792,WEST BATON ROUGE PARISH,111219,,70710SDRCHPOBOX,TRI
110019184149.0,GENERAL CHEMICAL LLC,1421 WILLIS AVE,SYRACUSE,NY,13204,43.0645,-76.2046,Onondaga,325180,,7209911,NEI
110019184149.0,CHEMTRADE SOLUTIONS-SYRACUSE,1421 WILLIS AVE,SYRACUSE,NY,13204,43.062167,-76.1995,ONONDAGA,325188,,13209GNRLCWILLI,TRI
110015670120.0,UOP LLC - Baton Rouge Plant,1200 Airline Hwy,Baton Rouge,LA,70805,30.5053,-91.1861,East Baton Rouge,325180,,7228911,NEI
110015670120.0,UOP LLC BATON ROUGE PLANT,1200 AIRLINE HWY,BATON ROUGE,LA,70805,30.50748,-91.18557,EAST BATON ROUGE PARISH,325188,,70805LRCHCAIRLI,TRI
110000398329.0,INEOS USA LLC,2357 Standard Ave,Whiting,IN,46394,41.6697,-87.4728,Lake,325199,,7248111,NEI
110000398329.0,INEOS OLIGOMERS,2357 STANDARD AVE,WHITING,IN,46394,41.671247,-87.475234,LAKE,325998,,46394MCCHM2357S,TRI
110000554301.0,PURSUE ENERGY CORPORATION THOMASVILLE GAS PLANT,2173 SHELL OIL ROAD,BRANDON,MS,39042,32.1575,-89.979528,RANKIN,211111,,1000387,GHGRP
110000554301.0,Pursue Energy Corporation Thomasville Gas Plant,2173 Shell Oil Road,Brandon,MS,39042,32.1625,-89.9745,Rankin,325180,,7288911,NEI
110000319361.0,Deltech Resin Company,49 RUTHERFORD ST,NEWARK,NJ,07105,40.7098,-74.14289999999998,Essex,325211,,7311411,NEI
110000319361.0,DELTECH RESIN CO,49 RUTHERFORD ST,NEWARK,NJ,7105,40.712446,-74.139073,ESSEX,325510,,07105DCCHM49RUT,TRI
110010534261.0,Toledo Refining Company,1819 WOODVILLE RD.,OREGON,OH,43616,41.6328,-83.5019,LUCAS,561210,,1001056,GHGRP
110010534261.0,"Toledo Refining Company, LLC. (0448010246)",1819 Woodville Road,Oregon,OH,43616,41.6319,-83.5036,Lucas,324110,,7319811,NEI
110010534261.0,TOLEDO REFINING CO LLC,1819 WOODVILLE RD,OREGON,OH,43616,41.6295,-83.4965,LUCAS,324110,,43616SNRFN1819W,TRI
110010534261.0,TWO LLC - Veolia Water Americas (0448020080),1819 Woodville Road,Oregon,OH,None,41.6287,-83.5048,Lucas,561210,,13431911,NEI
110010534261.0,Process Solutions a division of Veolia Water Americas (0448011640),1819 Woodville Road,Oregon,OH,43616,41.6078,-83.4822,Lucas,324199,,10722611,NEI
110069500524.0,Solutia Inc,500 Monsanto Dr,Sauget,IL,None,38.5973,-90.1687,St. Clair,325199,,7338811,NEI
110069500524.0,FLEXSYS AMERICA LP KRUMMRICH,500 MONSANTO AVE,SAUGET,IL,62206,38.59724,-90.168697,ST. CLAIR,325998,,62206FLXSY500MO,TRI
110000378207.0,"Clariant Corporation, Louisville Site, West Plant",1227 S. 12th Street,Louisville,KY,40210,38.233611,-85.7755,JEFFERSON COUNTY,325188,,1010761,GHGRP
110000378207.0,"Sud-Chemie, West Plant",1227 S 12TH ST,LOUISVILLE,KY,None,38.2349,-85.77339999999998,Jefferson,325180,,7353111,NEI
110000378207.0,CLARIANT CORP 12TH STREET FACILITY,1227 S 12TH ST,LOUISVILLE,KY,40210,38.233611,-85.7755,JEFFERSON,325188,,40210NTDCT1227S,TRI
110000494894.0,Eagle US 2 LLC,1300 PPG Drive,WESTLAKE,LA,70669,30.221,-93.2826,CALCASIEU,325181,,1008459,GHGRP
110000494894.0,Eagle US 2 LLC - Lake Charles Complex,1300 PPG Dr,Westlake,LA,70669,30.2251,-93.288,Calcasieu,325180,,7354911,NEI
110000494894.0,WESTLAKE US 2 LLC,1300 PPG DR,WESTLAKE,LA,70669,30.2235,-93.2869,CALCASIEU PARISH,325181,,70669PPGNDCOLUM,TRI
110013886875.0,3M CORDOVA,22614 ROUTE 84 NORTH,CORDOVA,IL,61242,41.755,-90.284167,ROCK ISLAND,325998,,1006665,GHGRP
110013886875.0,3M Cordova,22614 Route 84 N,Cordova,IL,61242,41.7543,-90.2891,Rock Island,325211,,7363311,NEI
110013886875.0,3M CO - CORDOVA,22614 RT 84 N,CORDOVA,IL,61242,41.755,-90.284167,ROCK ISLAND,325998,,61242MXXXX22614,TRI
110000597248.0,Citgo Petroleum Corp - Lake Charles Manufacturing Complex,1601 Hwy 108 E,Sulphur,LA,70665,30.1789,-93.3274,Calcasieu,324110,,7380411,NEI
110000597248.0,CITGO PETROLEUM CORP,1601 HWY 108 E,SULPHUR,LA,70665,30.18149,-93.324051,CALCASIEU PARISH,324110,,70602CTGPTHIGHW,TRI
110000597248.0,Citgo Petroleum Corp - Lake Charles Truck Loading Facility,4401 Hwy 108 S,Sulphur,LA,70663,30.1831,-93.3287,Calcasieu,424710,,5719311,NEI
110014466372.0,CF Industries Nitrogen LLC - Donaldsonville Nitrogen Complex,39018 Hwy 3089,Donaldsonville,LA,70346,30.0952,-90.9521,Ascension,325180,,7381111,NEI
110014466372.0,CF Industries Nitrogen LLC - Donaldsonville Nitrogen Complex,39018 Hwy 3089,Donaldsonville,LA,70346,30.0882,-90.9551,Ascension,325180,,7914611,NEI
110014466372.0,CF INDUSTRIES NITROGEN LLC,39018 HWY 3089,DONALDSONVILLE,LA,70346,30.098563,-90.95599,ASCENSION PARISH,325311,,70346CFNDSHWY30,TRI
110000607656.0,Chemtrade Refinery Services Inc - Shreveport Sulfuric Acid Plant,10889 Hwy 1 S,Shreveport,LA,71115,32.3599,-93.6335,Caddo,325180,,7381711,NEI
110000607656.0,CHEMTRADE REFINERY SERVICES INC,10889 HIGHWAY 1,SHREVEPORT,LA,71115,32.35715,-93.63602,CADDO PARISH,325188,,71135LNCRPHIGHW,TRI
110000329617.0,CALGON CARBON CORP/NEVILLE ISLAND PLT,200 NEVILLE RD,PITTSBURGH,PA,None,40.4939,-80.0797,Allegheny,325199,,7407911,NEI
110000329617.0,CALGON CARBON CORP NEVILLE ISLAND PLANT,200 NEVILLE RD,PITTSBURGH,PA,15225,40.492329,-80.079626,ALLEGHENY,325998,,15225CLGNC200NE,TRI
110000603339.0,EI DUPONT DE NEMOURS & CO INC NIAGARA FALLS PLANT,BUFFALO AVE & 26TH ST,NIAGARA FALLS,NY,14302,43.0811,-79.0223,Niagara,325211,,7416811,NEI
110000603339.0,CHEMOURS NIAGARA FALLS PLANT,BUFFALO AVE & 26TH ST,NIAGARA FALLS,NY,14302,43.082972,-79.030667,NIAGARA,325188,,14302DPNTNBUFFA,TRI
110000455766.0,CONTINENTAL CARBON COMPANY,1006 EAST OAKLAND AVENUE,PONCA CITY,OK,74601,36.66616,-97.07163,KAY,325182,,1006287,GHGRP
110000455766.0,PONCA CITY PLT,1006 E OAKLAND AVE,PONCA CITY,OK,74601,36.6613,-97.0698,Kay,325180,,7420411,NEI
110000455766.0,CONTINENTAL CARBON CO PONCA CITY OK PLANT,1006 E OAKLAND AVE,PONCA CITY,OK,74601,36.66616,-97.07163,KAY,325182,,74602WTCCR1MILE,TRI
110000321474.0,Dow Chemical Company,1500 JOHN TIPTON BLVD,PENNSAUKEN,NJ,08110,39.9827,-75.0406,Camden,325211,,7425011,NEI
110000321474.0,DDP SPECIALTY ELECTRONICS MATERIALS US INC.,1500 JOHN TIPTON BLVD,PENNSAUKEN,NJ,8110,39.982667,-75.040611,CAMDEN,326150,,08110CLTXC1500J,TRI
110059309699.0,Buckeye Perth Amboy Terminal LLC,380 MAURER RD,PERTH AMBOY,NJ,08861,40.5366,-74.26229999999998,Middlesex,324110,,7444311,NEI
110059309699.0,BUCKEYE PERTH AMBOY TERMINAL,380 MAURER ROAD,PERTH AMBOY,NJ,8861,40.536936,-74.266825,MIDDLESEX,424710,,08861CHVRN1200S,TRI
110000449774.0,OCCIDENTAL CHEMICAL CORPORATION - GEISMAR PLANT,8318 ASHLAND ROAD,GEISMAR,LA,70734,30.1875,-90.98833,ASCENSION,325181,,1001706,GHGRP
110000449774.0,Occidental Chemical Corporation - Geismar Plant,8318 Ashland Rd,Geismar,LA,70734,30.1846,-90.9774,Ascension,325180,,7445711,NEI
110000449774.0,OCCIDENTAL CHEMICAL HOLDING CORP - GEISMAR PLANT,8318 ASHLAND RD,GEISMAR,LA,70734,30.1851,-90.9804,ASCENSION PARISH,325199,,70734VLCNMASHLA,TRI
110000602465.0,Galata Chemicals LLC - Galata Taft Facility,471 Hwy 3142,Hahnville,LA,70057,29.9773,-90.4525,St. Charles,325199,,7450611,NEI
110000602465.0,GALATA CHEMICALS LLC - GALATA TAFT FACILITY,471 HWY 3142,HAHNVILLE,LA,70057,29.981074,-90.453152,ST. CHARLES PARISH,325998,,70057WTCCRRIVER,TRI
110002214951.0,Calgon Carbon Corporation,13121 Webre Road,Bay St Louis,MS,39520,30.2206,-89.56669999999998,Hancock,325180,,7492211,NEI
110002214951.0,CALGON CARBON CORP - PEARL RIVER PLANT,13121 WEBRE RD,BAY SAINT LOUIS,MS,39520,30.220561,-89.566675,HANCOCK,325998,,39520CLGNC13121,TRI
110020094351.0,Hexcel Corporation: Salt Lake Operations,6800 W 5400 S,West Valley City,UT,84118,40.6514,-112.05,Salt Lake,325211,,7570911,NEI
110020094351.0,HEXCEL CORP,6800 W 5400 S,SALT LAKE CITY,UT,84118,40.653604,-112.054074,SALT LAKE,325222,,84044HRCLS6800W,TRI
110005069102.0,ELEMENTIS CHROMIUM CORPUS CHRIST TX FACILITY,3800 BUDDY LAWRENCE DR,CORPUS CHRISTI,TX,78412,27.8161,-97.4339,Nueces,325180,,7679911,NEI
110005069102.0,AMERICAN CHROME & CHEMICALS INC,3800 BUDDY LAWRENCE DR,CORPUS CHRISTI,TX,78407,27.814167,-97.433333,NUECES,325188,,78407MRCNC3800B,TRI
110000321107.0,Coim USA Inc.,286 MANTUA GRV RD,WEST DEPTFORD,NJ,08066,39.8232,-75.21259999999998,Gloucester,325211,,7701611,NEI
110000321107.0,COIM USA INC,286 MANTUA GROVE RD BUILDING # 1,WEST DEPTFORD,NJ,8066,39.820003,-75.216459,GLOUCESTER,325199,,08066CPLYRMANTU,TRI
110000340275.0,Eastman Specialties Corporation,10380 Worton Rd,Chestertown,MD,21620,39.2624,-76.0891,Kent,325211,,7718011,NEI
110000340275.0,EASTMAN SPECIALTIES CORP,10380 WORTON RD,CHESTERTOWN,MD,21620,39.26277,-76.08655,KENT,325199,,21620HLSMRMDRTE,TRI
110002354602.0,SG SOLUTIONS LLC,444 W SANDFORD AVE,WEST TERRE HAUTE,IN,47885,39.532894,-87.426301,VIGO COUNTY,221112,,1004699,GHGRP
110002354602.0,SG SOLUTIONS LLC,444 WEST SANDFORD AVE.,WEST TERRE HAUTE,IN,47885,39.5327,-87.4282,Vigo,325199,,7743511,NEI
110002354602.0,SG SOLUTIONS LLC / WABASH RIVER COMBINED CYCLE PLANT,444 W SANFORD AVE,WEST TERRE HAUTE,IN,47885,39.532894,-87.426301,VIGO,325199,,47885WBSHR444WS,TRI
110000382309.0,CAPITAL RESIN CORP (0125040238),324 DERING AVENUE,COLUMBUS,OH,43207,39.9139,-82.98749999999998,Franklin,325199,,7751111,NEI
110000382309.0,CAPITAL RESIN CORP,324 DERING AVE,COLUMBUS,OH,43207,39.912778,-82.987222,FRANKLIN,325211,,43207CPTLR324DE,TRI
110000473005.0,WINNEMUCCA PLANT,5505 Cyanco Dr,WINNEMUCCA,NV,89445,40.9395,-117.861,Humboldt,325180,,7758411,NEI
110000473005.0,CYANCO CO LLC,5505 CYANCO DR.,WINNEMUCCA,NV,89445,40.94129,-117.861591,HUMBOLDT,325188,,89445CYNCX9000W,TRI
110000449845.0,BASF Corp - Port Allen Works,3502 S Riverview Rd,Port Allen,LA,70767,30.4987,-91.2267,West Baton Rouge,325180,,7764211,NEI
110000449845.0,BASF CORP - PORT ALLEN WO RKS,3502 S RIVERVIEW DR,PORT ALLEN,LA,70767,30.49891,-91.22691,WEST BATON ROUGE PARISH,325188,,70767DSCVR3502S,TRI
110000340523.0,Engineered Polymer Solutions,16414 Industrial Lane,Williamsport,MD,21795,39.598,-77.80039999999998,Washington,325211,,7764511,NEI
110000340523.0,ENGINEERED POLYMER SOLUTIONS INC.,16414 INDUSTRIAL LN,WILLIAMSPORT,MD,21795,39.598457,-77.799523,WASHINGTON,325510,,21795PSNCH16414,TRI
110043972207.0,BASF Corporation,2525 SOUTH KENSINGTON AVE,KANKAKEE,IL,60901,41.085542,-87.880542,KANKAKEE,325613,,1000356,GHGRP
110043972207.0,BASF Corp,2525 S Kensington Rd,Kankakee,IL,None,41.0855,-87.8805,Kankakee,325211,,7792011,NEI
110043972207.0,KENSING LLC,2525 S KENSINGTON AVE,KANKAKEE,IL,60901,41.085542,-87.880542,KANKAKEE,325211,,60901HNKLCSKENS,TRI
110032885723.0,FPL ENERGY MH50 LP/MARCUS HOOK,100 GREEN ST,MARCUS HOOK,PA,19061,39.8099,-75.42749999999998,Delaware,221112,,4724511,NEI
110032885723.0,SUNOCO INC (R&M)/MARCUS HOOK REFINERY,100 GREEN ST,MARCUS HOOK,PA,19061,39.8146,-75.4223,Delaware,324110,,7873611,NEI
110032885723.0,SUNOCO LLC-RACE FUELS,100 GREEN ST,MARCUS HOOK,PA,19061,39.814609,-75.42227,DELAWARE,324110,,19061SNRFNGREEN,TRI
110032885723.0,Marcus Hook Energy Center - MH750,100 Green Street,Marcus Hook,PA,19061,39.8083,-75.4225,Delaware,221112,,1000269,GHGRP
110000322311.0,AVANTOR PERFORMANCE MATERIALS INC,600 N BROAD ST,PHILLIPSBURG,NJ,08865,40.702,-75.1969,Warren,325180,,7904511,NEI
110000322311.0,AVANTOR PERFORMANCE MATERIALS,600 N BROAD ST,PHILLIPSBURG,NJ,8865,40.703099,-75.197676,WARREN,325188,,08865JTBKR600NO,TRI
110007970142.0,Chambers Works,EI DU PONT DE NEMOURS AND COMPANY,DEEPWATER,NJ,08023,39.6896,-75.5006,Salem,325199,,7904811,NEI
110007970142.0,DUPONT SPECIALTY PRODUCTS USA LLC -  CHAMBERS WORKS,RT 130,DEEPWATER,NJ,8023,39.682362,-75.491379,SALEM,325110,,08023DPNTCRT130,TRI
110000597346.0,Veolia Burnside Plant,3460 HWY. 44,DARROW,LA,70725,30.125259,-90.912628,ASCENSION,325188,,1002736,GHGRP
110000597346.0,E l Dupont de Nemours & Co Inc - Burnside Plant A H2SO4 Contact Faci,3460 Hwy 44,Darrow,LA,70725,30.1261,-90.9122,Ascension,325180,,7914911,NEI
110000597346.0,VEOLIA BURNSIDE PLANT,3460 HWY 44,DARROW,LA,70725,30.125259,-90.912628,ASCENSION PARISH,325188,,70725DPNTB3460H,TRI
110000350272.0,ELEMENTIS CHROMIUM,5408 HOLLY SHELTER ROAD,CASTLE HAYNE,NC,28429,34.372516,-77.859466,NEW HANOVER,325188,,1005640,GHGRP
110000350272.0,Elementis Chromium,5408 Holly Shelter Road,Castle Hayne,NC,28429,34.3725,-77.85949999999998,New Hanover,325180,,7923311,NEI
110000350272.0,ELEMENTIS CHROMIUM INC,5408 HOLLY SHELTER RD,CASTLE HAYNE,NC,28429,34.372516,-77.859466,NEW HANOVER,325188,,28429CCDNTOFFST,TRI
110010653257.0,UOP.LLC SHREVEPORT,8725 OLD MOORINGSPORT RD,SHREVEPORT,LA,71120,32.61514,-93.92517,CADDO PARISH,325188,,1000629,GHGRP
110010653257.0,UOP LLC - Shreveport Plant,8725 Old Mooringsport Rd,Shreveport,LA,71107,32.6167,-93.9236,Caddo,325180,,7929511,NEI
110010653257.0,UOP-SHREVEPORT PLANT,8725 OLD MOORINGSPORT RD,SHREVEPORT,LA,71107,32.61514,-93.92517,CADDO PARISH,325188,,71009PNCXXHIGHW,TRI
110000867214.0,Grace - Davison Chemical,5500 Chemical Rd,Curtis Bay,MD,21226,39.2142,-76.5706,Baltimore city,325180,,7946911,NEI
110000867214.0,GRACE DAVISON-CURTIS BAY WORKS,5500 CHEMICAL RD,BALTIMORE,MD,21226,39.216111,-76.57,BALTIMORE (CITY),325188,,21226WRGRC5500C,TRI
110057679739.0,Chemical Specialties Inc,5910 Pharr Mill Road,Harrisburg,NC,28075,35.3333,-80.6247,Cabarrus,325180,,7958111,NEI
110057679739.0,VENATOR CHEMICALS LLC,5910 PHARR MILL RD,HARRISBURG,NC,28075,35.33417,-80.6177,CABARRUS,325188,,28075MNRLRHWY49,TRI
110000590691.0,"Georgia-Pacific Wood Products LLC, Taylorsville",Highway 28 West,Taylorsville,MS,39168,31.8392,-89.4659,Smith,321212,,7984011,NEI
110000590691.0,"Georgia Pacific Chemicals LLC, Taylorsville",Highway 28 West,Taylorsville,MS,39168,31.8756,-89.5133,Smith,325211,,7984111,NEI
110000590691.0,GEORGIA-PACIFIC LLC,13136 HWY 28 WEST,TAYLORSVILLE,MS,39168,31.8392,-89.4659,SMITH,325211,,39168GRGPCHIGHW,TRI
110000590691.0,GEORGIA-PACIFIC LLC,13136 HWY 28 WEST,TAYLORSVILLE,MS,39168,31.8392,-89.4659,SMITH,321212,,39168GRGPCHIGHW,TRI
110000590691.0,GEORGIA-PACIFIC LLC,13136 HWY 28 WEST,TAYLORSVILLE,MS,39168,31.8392,-89.4659,SMITH,321113,,39168GRGPCHIGHW,TRI
110000397990.0,"Hammond Group, Inc.",2308 165th Street,Hammond,IN,46320,41.5947,-87.4715,Lake,325180,,8016711,NEI
110000397990.0,HAMMOND LEAD PRODUCTS,2308 - 165TH ST,HAMMOND,IN,46320,41.595513,-87.473728,LAKE,325998,,46323HMMND23081,TRI
110012818442.0,Cabot Corp - Canal Plant,272 Cabot Canal Plant Ln,Centerville,LA,70522,29.6847,-91.4737,St. Mary,325180,,8019111,NEI
110012818442.0,CABOT CORP CANAL PLANT,272 CABOT LN HWY 317,CENTERVILLE,LA,70522,29.68576,-91.473179,ST. MARY PARISH,325182,,70583CBTCRSTATE,TRI
110000597328.0,OCCIDENTAL CHEMICAL CORP - CONVENT FACILITY,7377 HIGHWAY 3214,CONVENT,LA,70723,30.05509,-90.83084,ST. JAMES PARISH,325181,,1001666,GHGRP
110000597328.0,Occidental Chemical Corp - Convent Facility,7377 Hwy 3214,Convent,LA,70723,30.0608,-90.8317,St. James,325180,,8020211,NEI
110000597328.0,OCCIDENTAL CHEMICAL HOLDING CORP,7377 HWY 3214,CONVENT,LA,70723,30.05509,-90.83084,ST. JAMES PARISH,325181,,70723CCDNTHIGHW,TRI
110000449337.0,COLUMBIAN CHEMICALS CO - NORTH BEND PLANT,370 COLUMBIAN CHEMICALS LN,CENTERVILLE,LA,70522,29.682045,-91.456159,SAINT MARY,325182,,1005114,GHGRP
110000449337.0,Columbian Chemicals Co - North Bend Plant,370 Columbian Chemicals Ln,Centerville,LA,70522,29.6808,-91.4572,St. Mary,325180,,8020311,NEI
110000449337.0,BIRLA CARBON USA INC,370 COLUMBIAN CHEMICALS LN,CENTERVILLE,LA,70522,29.682045,-91.456159,ST. MARY PARISH,325182,,70522CLMBNHIGHW,TRI
110017424312.0,Occidental Chemical Corporation,6200 SOUTH RIDGE ROAD,WICHITA,KS,67215,37.581667,-97.425278,SEDGWICK COUNTY,325181,,1001704,GHGRP
110017424312.0,OXYCHEM - WICHITA PLANT,6200 SOUTH RIDGE ROAD,WICHITA,KS,67215,37.5825,-97.4233,Sedgwick,325180,,8059311,NEI
110017424312.0,OCCIDENTAL CHEMICAL CORP,6200 S RIDGE RD,WICHITA,KS,67215,37.581667,-97.425278,SEDGWICK,325181,,67215VLCNC6200S,TRI
110017424312.0,OCCIDENTAL CHEMICAL CORP,6200 S RIDGE RD,WICHITA,KS,67215,37.581667,-97.425278,SEDGWICK,325320,,67215VLCNC6200S,TRI
110056969883.0,FMC Corporation - Lithium Division,1115 Bessemer City - Kings Mtn. Hwy.,Bessemer City,NC,28016,35.2803,-81.30589999999998,Gaston,325180,,8069011,NEI
110056969883.0,LIVENT USA CORP,HWY 161,BESSEMER CITY,NC,28016,35.283468,-81.295636,GASTON,325188,,28016LTHMCHWY16,TRI
110009967125.0,"PQ Corporation - Kansas City, KS",1700 Kansas Avenue,Kansas City,KS,66105,39.08742,-94.64768,WYANDOTTE COUNTY,325188,,1005231,GHGRP
110009967125.0,PQ CORPORATION,1700 KANSAS AVE.,KANSAS CITY,KS,66105,39.0869,-94.6464,Wyandotte,325180,,8080011,NEI
110009967125.0,ECOVYST CATALYST TECHNOLOGIES LLC,1700 KANSAS AVE,KANSAS CITY,KS,66105,39.08742,-94.64768,WYANDOTTE,325188,,66105PQCRP17THS,TRI
110000327361.0,OCCIDENTAL CHEMICAL CORP - NIAGARA PLANT,BUFFALO AVE AND 47TH ST,NIAGARA FALLS,NY,14302,43.0799,-79.009,Niagara,325180,,8090311,NEI
110000327361.0,OCCIDENTAL CHEMICAL CORP NIAGARA PLANT,4700 BUFFALO AVE,NIAGARA FALLS,NY,14304,43.08275,-79.008583,NIAGARA,325181,,14302CCDNT4700B,TRI
110000379563.0,PMC Organometallix Inc,2316 Highland Ave,Carrollton,KY,41008,38.6861,-85.1464,Carroll,325199,,8095611,NEI
110000379563.0,PMC ORGANOMETALLIX INC.,2316 HIGHLAND AVE,CARROLLTON,KY,41008,38.685954,-85.146363,CARROLL,325188,,41008MTCHM2316H,TRI
110000500235.0,Chemtrade Logistics Inc (0302000001),7680 Ottawa Rd.,Cairo,OH,45820-0310,40.8486,-84.0772,Allen,325180,,8101611,NEI
110000500235.0,CHEMTRADE LOGISTICS INC CAIRO SULFUR PRODS,OTTAWA RD,CAIRO,OH,45820,40.83045,-84.09132,ALLEN,325188,,45820CRCHMROUTE,TRI
110000350628.0,HK Research Corporation,908 Lenoir Road,Hickory,NC,28601,35.7454,-81.36029999999998,Catawba,325211,,8106611,NEI
110000350628.0,HK RESEARCH CORP,908 OLD LENOIR RD,HICKORY,NC,28601,35.74538,-81.36026,CATAWBA,326199,,28603HKRSR908LE,TRI
110000380098.0,Estron Chemical Inc,807 N Main St,Calvert City,KY,42029,37.0436,-88.3546,Marshall,325199,,8109411,NEI
110000380098.0,ESTRON CHEMICALS INC,807 NORTH MAIN ST,CALVERT CITY,KY,42029,37.043639,-88.354639,MARSHALL,325211,,42029STRNCHIGHW,TRI
110000410742.0,OCCIDENTAL CHEMICAL CORPORATION - Ludington facility,1600 S. MADISON ST.,LUDINGTON,MI,49431,43.939586,-86.434715,MASON COUNTY,325188,,1001708,GHGRP
110000410742.0,Occidental Chemical Corporation,1600 S. Madison St.,LUDINGTON,MI,49431,43.938,-86.4303,Mason,325180,,8112011,NEI
110000408746.0,"Allnex USA, Inc.",2715 MILLER RD,KALAMAZOO,MI,49001,42.2724,-85.5467,Kalamazoo,325199,,8125211,NEI
110000408746.0,ALLNEX USA INC,2715 MILLER RD,KALAMAZOO,MI,49001,42.269722,-85.545556,KALAMAZOO,325211,,49003MRCNC2715M,TRI
110032895357.0,Belpre Carbon Black Plant,11135 State Route 7,Belpre,OH,45714,39.30487,-81.56691,WASHINGTON COUNTY,325182,,1003790,GHGRP
110032895357.0,Orion Engineered Carbons LLC (0684010049),11135 State Route 7,Belpre,OH,None,39.3014,-81.568,Washington,325180,,8130611,NEI
110032895357.0,ORION ENGINEERED CARBONS BELPRE,11135 STATE RT 7,BELPRE,OH,45714,39.30487,-81.56691,WASHINGTON,325182,,45714SHLNDHWY7N,TRI
110000309522.0,ROHM AND HAAS ELECTRONIC MATERIALS LLC,455 FOREST ST,MARLBOROUGH,MA,None,42.3317,-71.5916,Middlesex,325199,,8143311,NEI
110000309522.0,ROHM & HAAS ELECTRONIC MATERIALS LLC,455 FOREST ST,MARLBOROUGH,MA,1752,42.331661,-71.591577,MIDDLESEX,325998,,01752SHPLY455FO,TRI
110013868840.0,NYACOL PRODUCTS INCORPORATED,MEGUNCO RD,ASHLAND,MA,None,42.2586,-71.473,Middlesex,325199,,8143811,NEI
110013868840.0,NYACOL NANOTECHNOLOGIES INC,211 MEGUNKO RD,ASHLAND,MA,1721,42.25963,-71.472741,MIDDLESEX,325188,,01721NYCLPMEGUN,TRI
110000494019.0,BASF CORP,1609 BIDDLE AVE,WYANDOTTE,MI,48192,42.2183,-83.14589999999998,Wayne,325199,,8158611,NEI
110000494019.0,BASF CORP,1609 BIDDLE AVE,WYANDOTTE,MI,481923729,42.219195,-83.14674,WAYNE,325211,,48192BSFCR1609B,TRI
110000494019.0,BASF CORP (FORMERLY CONCEPP TECHNOLOGIES),1609 BIDDLE AVE,WYANDOTTE,MI,48192,42.219195,-83.14674,WAYNE,326150,,48192CNCPP169BI,TRI
110000494019.0,BASF CORP,1609 BIDDLE AVE,WYANDOTTE,MI,48192,42.2183,-83.14589999999998,Wayne,325991,,8083611,NEI
110000494019.0,BASF Corporation,1609 BIDDLE AVE.,WYANDOTTE,MI,48192,42.2183,-83.14589999999998,Wayne,541712,,13671511,NEI
110000345421.0,"Powerlab, Inc.",3352 Old Lexington Road,Winston-Salem,NC,27107,36.0561,-80.2292,Forsyth,325180,,8166811,NEI
110000345421.0,POWERLAB INC,3352 OLD LEXINGTON RD,WINSTON SALEM,NC,27107,36.05612,-80.22924,FORSYTH,325188,,27107PWRLB3352O,TRI
110000434931.0,WR Grace,4099 W 71st St,Chicago,IL,60629,41.7634,-87.72329999999998,Cook,325180,,8189011,NEI
110000434931.0,W R GRACE & CO,4099 W 71ST ST,CHICAGO,IL,60629,41.763491,-87.723679,COOK,325188,,60629KTLCD4099W,TRI
110000432853.0,Arkema Inc,13511 Main St,Lemont,IL,60439,41.6903,-87.9483,Cook,325211,,8208011,NEI
110000432853.0,ARKEMA COATINGS AND RESINS,13511 MAIN ST,LEMONT,IL,60439,41.690271,-87.948258,COOK,325612,,60439MLSNSEASTO,TRI
110000450100.0,Eco Services Baton Rouge Site,1301 AIRLINE HWY.,BATON ROUGE,LA,70807,30.50986,-91.18465,EAST BATON ROUGE,325188,,1003003,GHGRP
110000450100.0,Rhodia Inc,1275 Airline Hwy,Baton Rouge,LA,70805,30.5103,-91.1844,East Baton Rouge,325180,,8215111,NEI
110000450100.0,SOLVAY USA INC,1275 AIRLINE HWY,BATON ROUGE,LA,70805,30.50986,-91.18465,EAST BATON ROUGE PARISH,325188,,70821STFFRAIRLI,TRI
110000384307.0,Chemtrade Refinery Solutions LP,1400 Otter Creek Rd.,Oregon,OH,43616,41.681417,-83.457722,LUCAS COUNTY,325188,,1009487,GHGRP
110000384307.0,Chemtrade Refinery Solutions Limited Partnership (0448020014),1400 Otter Creek Road,Oregon,OH,None,41.6817,-83.4556,Lucas,325180,,8302111,NEI
110000384307.0,CHEMTRADE REFINERY SOLUTIONS LP,1400 OTTER CREEK RD,OREGON,OH,43616,41.681417,-83.457722,LUCAS,325188,,43616CLTNC1400O,TRI
110000378378.0,"Sud-Chemie, South Plant",4900 CRITTENDEN DR,LOUISVILLE,KY,None,38.1745,-85.7496,Jefferson,325180,,8371411,NEI
110000378378.0,CLARIANT CORP CRITTENDEN DRIVE FACILITY,4900 CRITTENDEN DR,LOUISVILLE,KY,40209,38.17448,-85.74961,JEFFERSON,325188,,40213NTDCT4900C,TRI
110000392619.0,E.I. Du Pont Fort Hill Plant (1431350817),11215 Brower Rd,North Bend,OH,45052,39.0911,-84.8131,Hamilton,325180,,8394011,NEI
110000392619.0,VEOLIA FORT HILL PLANT,11215 BROWER RD,NORTH BEND,OH,45052,39.115278,-84.796111,HAMILTON,325188,,45052DPNTF11215,TRI
110000445625.0,"FORBO ADHESIVES, LLC",3150 FIBERGLASS ROAD,KANSAS CITY,KS,66115,39.1436,-94.617,Wyandotte,325211,,8414411,NEI
110000445625.0,HB FULLER COMPANY,3150 FIBERGLASS RD,KANSAS CITY,KS,66115,39.14489,-94.617383,WYANDOTTE,325520,,66115RCHHL3150F,TRI
110000487599.0,Portland Operations,2301 N COLUMBIA BLVD,PORTLAND,OR,None,45.5888,-122.691,Multnomah,325211,,8418211,NEI
110000487599.0,ARCLIN SURFACES LLC,2301 N COLUMBIA BLVD,PORTLAND,OR,97217,45.588771,-122.690793,MULTNOMAH,322222,,97217RGNVR2301N,TRI
110041552897.0,ENERGIZER BATTERY MANUFACTURING INC,2036 BLUE KNOB RD,Marietta,OH,45750,39.3686,-81.53319999999998,Washington,325180,,8425011,NEI
110041552897.0,ENERGIZER HOLDINGS INC,2036 BLUE KNOB RD,MARIETTA,OH,45750,39.3686,-81.5332,WASHINGTON,325188,,45750VRDYBCOUNT,TRI
110000395260.0,U.S. DOE PORTSMOUTH GASEOUS DIFFUSION PLANT,3930 US ROUTE 23 SOUTH,PIKETON,OH,45661,39.01333,-82.99805,PIKE,325188,,1003709,GHGRP
110000395260.0,USEC Inc. - American Centrifuge Plant (0666000000),3930 U.S. Route 23 South,Piketon,OH,None,39.0131,-82.9992,Pike,325180,,8450111,NEI
110000395260.0,US DOE PORTSMOUTH GASEOUS DIFFUSION PLANT,3930 US RT 23 S,PIKETON,OH,45661,39.01333,-82.99805,PIKE,325188,,45661SDPRT3930U,TRI
110000597373.0,RUBICON LLC - GEISMAR PLANT,9156 HWY. 75,GEISMAR,LA,70734,30.203024,-91.015172,ASCENSION,325192,,1000592,GHGRP
110000597373.0,Rubicon LLC - Geismar Plant,9156 Hwy 75,Geismar,LA,70734,30.203,-91.0152,Ascension,325199,,8465311,NEI
110000597373.0,RUBICON LLC,9156 HIGHWAY 75,GEISMAR,LA,70734,30.1989,-91.0085,ASCENSION PARISH,325192,,70734RBCNN9156H,TRI
110041055032.0,GRACE DAVISON,1800 DAVISON ROAD,SULPHUR,LA,70665,30.156194,-93.339443,CALCASIEU,325188,,1003857,GHGRP
110041055032.0,W R Grace & Co-Conn - Davison Division Lake Charles Facility,1800 Davison Rd,Sulphur,LA,70663,30.1575,-93.3409,Calcasieu,325180,,8467811,NEI
110041055032.0,W R GRACE & CO-CONN GRACE,1800 DAVISON RD,SULPHUR,LA,70665,30.156194,-93.339443,CALCASIEU PARISH,325188,,70663WRGRCDAVIS,TRI
110000494885.0,CABOT CORP - VILLE PLATTE PLANT,2066 CABOT ROAD,VILLE PLATTE,LA,70586,30.7492,-92.2532,EVANGELINE,325182,,1004791,GHGRP
110000494885.0,Cabot Corp - Ville Platte Plant,2066 Cabot Rd,Ville Platte,LA,70586,30.7493,-92.2533,Evangeline,325180,,8468111,NEI
110000494885.0,CABOT CORP VILLE PLATTE PLANT,2066 CABOT RD,VILLE PLATTE,LA,70586,30.7492,-92.2532,EVANGELINE PARISH,325182,,70586CBTCR412MI,TRI
110032967957.0,Agra Resources LLC dba POET BIOREFINING - GLENVILLE,15300 780TH AVE,ALBERT LEA,MN,56007,43.576024,-93.301823,FREEBORN,325193,,1000857,GHGRP
110032967957.0,POET Biorefining - Glenville East,15300 780th Ave,Albert Lea,MN,56007,43.5763,-93.3018,Freeborn,325199,,8484711,NEI
110000326996.0,PVS CHEMICALS,55 LEE ST,BUFFALO,NY,14210,42.8647,-78.8382,Erie,325180,,8502711,NEI
110000326996.0,PVS CHEMICAL SOLUTIONS,55 LEE ST,BUFFALO,NY,14210,42.864395,-78.840832,ERIE,325188,,14210PVSCH55LEE,TRI
110056525835.0,"Henkel Electronic Materials, LLC",825 Cedar Springs Road,Salisbury,NC,28147,35.63,-80.53579999999998,Rowan,325180,,8507411,NEI
110056525835.0,HENKEL US OPERATIONS CORP,825 CEDAR SPRINGS RD,SALISBURY,NC,28147,35.63367,-80.53335,ROWAN,325199,,28144NTNLSCEDAR,TRI
110056969035.0,Southern States Chemical,2600 Highway 421 North,Wilmington,NC,28402,34.273,-77.95269999999998,New Hanover,325180,,8547511,NEI
110056969035.0,SOUTHERN STATES CHEMICAL,2600 HWY 421 N,WILMINGTON,NC,28401,34.272966,-77.952716,NEW HANOVER,325188,,28402KCHSLHWY42,TRI
110043786356.0,"KMG Electronic Chemicals,Inc.",250 William White Boulevard,Pueblo,CO,81001,38.276933,-104.523808,PUEBLO,325188,,1005503,GHGRP
110043786356.0,"KMG ELECTRONIC CHEMICALS, INC",250 WILLIAM WHITE BLVD,PUEBLO AREA,CO,None,38.2809,-104.512,Pueblo,325180,,899011,NEI
110043786356.0,CMC MATERIALS EC INC,250 WILLIAM WHITE BLVD,PUEBLO,CO,81001,38.276933,-104.523808,PUEBLO,325188,,81001SHLND250WI,TRI
110000773333.0,GENERAL CHEMICAL CORP.,8579 N TEXAS RD,Anacortes,WA,None,48.4795,-122.558,Skagit,325180,,9083011,NEI
110000773333.0,CHEMTRADE SOLUTIONS LLC,8579 N TEXAS RD,ANACORTES,WA,98221,48.4795,-122.5577,SKAGIT,325188,,98221GNRLC655NT,TRI
110022810573.0,BAYPORT PLANT,13000 BAYPARK RD,PASADENA,TX,77507,29.6407,-95.0644,Harris,325180,,9102811,NEI
110022810573.0,ALBEMARLE CORP BAYPORT PLANT,13000 BAY PARK RD,PASADENA,TX,77507,29.64174,-95.0654,HARRIS,325188,,77507LBMRL13BAY,TRI
110002082353.0,Tronox Pigments (Savannah) Inc,One Kerr-McGee Road,Savannah,GA,31404,32.0831,-81.0267,Chatham,325180,,930611,NEI
110002082353.0,SOUTHERN STATES CHEMICAL SEAPOINT,1 KERR MCGEE RD,SAVANNAH,GA,31404,32.08277,-81.02805,CHATHAM,325188,,31404KMRNCEASTP,TRI
110020653808.0,GRANITE FALLS ENERGY LLC,15045 HIGHWAY 23 SE,GRANITE FALLS,MN,56241,44.796667,-95.483333,CHIPPEWA COUNTY,325193,,1002173,GHGRP
110020653808.0,Granite Falls Energy LLC,15045 Highway 23 SE,Granite Falls,MN,56241,44.8017,-95.4856,Chippewa,325199,,9540011,NEI
110043993211.0,Criterion Catalysts and Technologies L.P.,1699 Catalyst Drive,Port Allen,LA,70767,30.4943,-91.21708,WEST BATON ROUGE PARISH,325188,,1010792,GHGRP
110043993211.0,Criterion Catalysts & Technologies LP - Port Allen Plant,1699 Catalyst Dr,Port Allen,LA,70767,30.4953,-91.2225,West Baton Rouge,325180,,9583011,NEI
110043993211.0,SHELL CATALYST & TECHNOLOGIES,1699 CATALYST DR.,PORT ALLEN,LA,70767,30.4943,-91.21708,WEST BATON ROUGE PARISH,325188,,7076WCRTRN1699C,TRI
110000451038.0,GREAT LAKES SOUTH,324 SOUTHFIELD CUTOFF,EL DORADO,AR,71730,33.115639,-92.673583,UNION COUNTY,325188,,1008036,GHGRP
110000451038.0,GREAT LAKES CHEMICAL CORP - SOUTH PLANT,324 SOUTHFIELD CUTOFF,EL DORADO,AR,71730,33.1113,-92.6754,Union,325180,,993411,NEI
110000451038.0,LANXESS - SOUTH PLANT,324 SOUTHFIELD CUTOFF,EL DORADO,AR,71730,33.110306,-92.672944,UNION,325188,,71730GRTLKRT7BO,TRI
110056961417.0,"Indorama Ventures, Xylenes and PTA, LLC",1401 FINLEY ISLAND ROAD,DECATUR,AL,35601,34.64,-87.0583,Morgan,325110,,1000325,GHGRP
110056961417.0,BP Amoco Chemicals,1401 Finley Island Rd,Decatur,AL,35609,34.6406,-87.05459999999998,Morgan,325199,,999411,NEI
110056961417.0,INDORAMA VENTURES,1401 FINLEY ISLAND RD,DECATUR,AL,35601,34.6415,-87.0589,MORGAN,325110,,35601MCCHMFINLE,TRI
110000313134.0,"DSM COATING RESINS, INC.",199 AMARAL ST,EAST PROVIDENCE,RI,02915,41.7971,-71.3482,Providence,3251,,14580711,NEI
110000313134.0,DSM COATING RESINS INC,199 AMARAL ST,EAST PROVIDENCE,RI,2915,41.79983,-71.348988,PROVIDENCE,325211,,02914KNCRP199AM,TRI
110001664574.0,EASTERN COLOR AND CHEMICAL CO.,35 LIVINGSTON ST,PROVIDENCE,RI,02904,41.8418,-71.4094,Providence,3251,,3074411,NEI
110001664574.0,EASTERN COLOR & CHEMICAL CO,35 LIVINGSTON ST,PROVIDENCE,RI,2904,41.841824,-71.409359,PROVIDENCE,325199,,02940STRNC35LIV,TRI
110000316701.0,HAMPFORD RESEARCH INC,54 VETERANS BLVD,STRATFORD,CT,6615,41.19791,-73.12132,FAIRFIELD,325199,,06497HMPFR292LO,TRI
110000316701.0,HAMPFORD RESEARCH INC,54 VETERANS BLVD,STRATFORD,CT,None,41.1972,-73.12139999999998,Fairfield,325,,589611,NEI
110001405257.0,"Cray Valley USA, LLC",125 ONTARIO ST,STRATFORD,CT,None,41.1745,-73.1499,Fairfield,325,,533411,NEI
110001405257.0,TOTALENERGIES PETROCHEMICALS & REFINING USA INC,105 ONTARIO ST,STRATFORD,CT,6615,41.17816,-73.1257,FAIRFIELD,325199,,06497SRTMR125ON,TRI
110000319806.0,ELEMENTIS SPECIALTIES,400 CLAREMONT AVE,JERSEY CITY,NJ,07304,40.7171,-74.08929999999998,Hudson,325510,,7311711,NEI
110000319806.0,ELEMENTIS SPECIALTIES,400 CLAREMONT AVE,JERSEY CITY,NJ,7304,40.715504,-74.089306,HUDSON,325199,,07304DNLPR400CL,TRI
110000322286.0,Chemtura Corporation,1000 Convery Blvd.,Perth Amboy,NJ,08861,40.5374,-74.27599999999998,Middlesex,325110,,7444611,NEI
110000322286.0,LANXESS CORP,1000 CONVERY BLVD,PERTH AMBOY,NJ,8861,40.53921,-74.275238,MIDDLESEX,325199,,08862WTCCR1000C,TRI
110030750364.0,FISHER SCIENTIFIC CO. L.L.C.,755 RT 202,BRIDGEWATER,NJ,8807,40.571703,-74.664815,SOMERSET,325199,,08876FSHRS755RT,TRI
110030750364.0,THERMOFISHER SCIENTIFIC,755 RT 202,BRIDGEWATER,NJ,08807,40.5717,-74.6648,Somerset,424690,,12756311,NEI
110000747568.0,KINDER MORGAN TRANSMIX/INDIANOLA PLT,ROUTE 910,INDIANOLA,PA,15051,40.5711,-79.8636,Allegheny,424710,,4715311,NEI
110000747568.0,KINDER MORGAN TRANSMIX CO LLC,918 RT 910,INDIANOLA,PA,15051,40.571179,-79.863385,ALLEGHENY,324110,,15051MRCNRSTATE,TRI
110000583663.0,OMG AMER/SUGARCREEK TWP,TWO MILE RUN RD,SUGARCREEK BORO,PA,16323,41.4125,-79.7975,Venango,325110,,6516711,NEI
110000583663.0,BORCHERS AMERICAS INC.,240 TWO MILE RUN RD,FRANKLIN,PA,16323,41.412453,-79.797531,VENANGO,325199,,16323MNYCHTWOMI,TRI
110000334291.0,LONZA INC/WILLIAMSPORT PLT,3500 TRENTON AVE,WILLIAMSPORT,PA,None,41.2312,-77.0801,Lycoming,325998,,4120211,NEI
110000334291.0,ARXADA LLC,3500 TRENTON AVE,WILLIAMSPORT,PA,17701,41.230556,-77.080556,LYCOMING,325199,,17701LNZNC3500T,TRI
110000336146.0,3M ASTON/CHESTER TWP,50 MILTON DR,ASTON,PA,19014-2217,39.8805,-75.46049999999998,Delaware,325991,,9185911,NEI
110000336146.0,3M ASTON,50 MILTON DR,CHESTER TOWNSHIP,PA,19013,39.88054,-75.46053,DELAWARE,325211,,19014CSTMC50MIL,TRI
110000337047.0,ASHLAND SPECIALTY CHEM CO/PHILA,2801 CHRISTOPHER COLUMBUS BLVD,PHILADELPHIA,PA,19148,39.9119,-75.1383,Philadelphia,326199,,3901011,NEI
110000337047.0,INEOS COMPOSITES PHILADELPHIA PLANT,2801 CHRISTOPHER COLUMBUS BLVD,PHILADELPHIA,PA,19148,39.909557,-75.130454,PHILADELPHIA,325211,,19148SHLND2801S,TRI
110000337653.0,JOHNSON MATTHEY INC/RIVERSIDE,900 RIVER RD,CONSHOHOCKEN,PA,None,40.0856,-75.3249,Montgomery,325411,,6558711,NEI
110000337653.0,JOHNSON MATTHEY INC,900 SCHUYLKILL RIVER RD,CONSHOHOCKEN,PA,19428,40.083827,-75.323808,MONTGOMERY,325199,,19428SMTHK900RI,TRI
110000869828.0,Kinder Morgan Operating Lp A -Deepwater Terminal,3302 Deepwater Terminal Rd,Richmond,VA,23231,37.4736,-77.4256,Richmond city,424710,,5083511,NEI
110000869828.0,KINDER MORGAN TRANSMIX CO LLC,3302 DEEPWATER TERMINAL RD,RICHMOND,VA,23234,37.47836,-77.42936,RICHMOND (CITY),324110,,23234PRMRY3302D,TRI
110000342095.0,KMX CHEMICAL CORP,30474 ENERGY DR,NEW CHURCH,VA,23415,37.97582,-75.538206,ACCOMACK,325199,,23415NWCHRRT709,TRI
110000342095.0,KMX Chemical Corporation,30474 Energy Drive,New Church,VA,23415,37.9768,-75.5385,Accomack,325193,,4549011,NEI
110027982565.0,"ERGON - WEST VIRGINIA, INC.",9995 OHIO RIVER BLVD.,NEWELL,WV,26050,40.6086,-80.6336,Hancock,32411,,4781911,NEI
110027982565.0,ERGON WEST VIRGINIA INC,9995 OHIO RIVER BLVD,NEWELL,WV,26050,40.611414,-80.629099,HANCOCK,324110,,26050RGNWSSTATE,TRI
110000751525.0,"Kao Specialties Americas, LLC",243 Woodbine Street,High Point,NC,27261,35.9208,-80.03029999999998,Guilford,325613,,8393111,NEI
110000751525.0,KAO SPECIALTIES AMERICAS LLC,243 WOODBINE ST,HIGH POINT,NC,27260,35.92333,-80.02967,GUILFORD,325211,,27261HGHPN255BE,TRI
110000348954.0,Durafiber Technologies,7401 STATESVILLE BOULEVARD,SALISBURY,NC,28147,35.7133,-80.6122,ROWAN COUNTY,325222,,1000392,GHGRP
110000348954.0,"Performance Fibers Operations, Inc. - Salisbury Plant",7401 Statesville Boulevard,Salisbury,NC,28147,35.7133,-80.6117,Rowan,325220,,8507111,NEI
110000348954.0,DURAFIBER TECHNOLOGIES INC SALISBURY PLANT,7401 STATESVILLE BLVD,SALISBURY,NC,28147,35.7133,-80.6122,ROWAN,325211,,28144TCHNCHIGHW,TRI
110012474740.0,"IGM Resins Charlotte, Inc",3300 WESTINGHOUSE BV,Charlotte,NC,None,35.1369,-80.96339999999998,Mecklenburg,325998,,8049111,NEI
110012474740.0,IGM RESINS USA INC,3300 WESTINGHOUSE BLVD,CHARLOTTE,NC,28273,35.136111,-80.961111,MECKLENBURG,325199,,28241HNKLC3300W,TRI
110000349935.0,"Trinity Manufacturing, Inc.",11 EV Hogan Drive,Hamlet,NC,28345,34.919,-79.673,Richmond,32532,,8490711,NEI
110000349935.0,TRINITY MANUFACTURING INC,11 E V.HOGAN DR,HAMLET,NC,28345,34.918889,-79.673333,RICHMOND,325199,,28345TRNTY11EVH,TRI
110007116101.0,"Invista, S.a.r.l.",4600 Highway 421 North,Wilmington,NC,28401,34.3136,-77.9805,New Hanover,325220,,7923411,NEI
110007116101.0,STEPAN CO,4600 HWY 421 N,WILMINGTON,NC,28401,34.31065,-77.98461,NEW HANOVER,325199,,28402CPNDSHIGHW,TRI
110067426672.0,ALBEMARLE CORP,725 CANNON BRIDGE RD,ORANGEBURG,SC,29115,33.4675,-80.8811,Orangeburg,325110,,4143511,NEI
110067426672.0,SI GROUP INC,725 CANNON BRIDGE RD,ORANGEBURG,SC,29115,33.4675,-80.881111,ORANGEBURG,325412,,29116THYLCCANNO,TRI
110067426672.0,SI GROUP INC,725 CANNON BRIDGE RD,ORANGEBURG,SC,29115,33.4675,-80.881111,ORANGEBURG,325199,,29116THYLCCANNO,TRI
110000542985.0,LUBRIZOL ADVANCED MATERIALS,195 BROOKS BLVD,SPARTANBURG,SC,29307,35.01056,-81.87635,SPARTANBURG,325199,,29302SPCLT195BR,TRI
110000542985.0,Lubrizol Spartanburg,195 Brooks Boulevard,Spartanburg,SC,29302,35.0108,-81.8782,Spartanburg,325613,,2840211,NEI
110000352797.0,SANTOLUBES MANUFACTURING LLC  DBA BLACKMAN UHLER SPECIALTIES,2155 W CROFT CIR,SPARTANBURG,SC,29302,34.919444,-81.850833,SPARTANBURG,325199,,29304BLCKMPOBOX,TRI
110000352797.0,Blackman Uhler Chemical,2155 W Croft Circle,Spartanburg,SC,29302,34.9194,-81.8508,Spartanburg,325110,,6670711,NEI
110000353206.0,SYNTHOMER USA LLC,200 RAILROAD ST,ROEBUCK,SC,29376,34.876111,-81.971667,SPARTANBURG,325199,,29376BCNDSPOBOX,TRI
110000353206.0,Eastman Chemical Company,200 Railroad St,Roebuck,SC,29376,34.8761,-81.9717,Spartanburg,325110,,4040711,NEI
110038266051.0,LANXESS CORP BUSHY PARK SITE,1530 BUSHY PARK RD,GOOSE CREEK,SC,29445,32.9869,-79.9295,Berkeley,325130,,4952911,NEI
110038266051.0,LANXESS CORP  BUSHY PARK PLANT,1530 BUSHY PARK RD,GOOSE CREEK,SC,29445,32.983796,-79.932678,BERKELEY,325199,,29445LNXSS153BU,TRI
110000354134.0,ETHOX CHEMICALS LLC,1801 PERIMETER RD,GREENVILLE,SC,29605,34.734471,-82.375617,GREENVILLE,325199,,29605THXCHPERIM,TRI
110000354134.0,Ethox Chemicals,1801 Perimeter Road,Greenville,SC,29605,34.7339,-82.3747,Greenville,325613,,4103011,NEI
110070752579.0,INCHEM CORP,800 CEL-RIVER RD,ROCK HILL,SC,29730,34.972271,-80.980205,YORK,325211,,29730BSFST800CE,TRI
110070752579.0,Inchem Corp,800 Celriver Rd,Rock Hill,SC,29730,34.9747,-80.985,York,325110,,4797211,NEI
110000355507.0,ALLNEX USA INC,403 CARLINE RD,WARRENVILLE,SC,29851,33.518889,-81.845278,AIKEN,325211,,29834VLCHMCARLI,TRI
110000355507.0,CYTEC SURFACE SPECIALTIES,403 Carline Rd.,Langley,SC,29834,33.5217,-81.845,Aiken,3251,,3909111,NEI
110000356481.0,GEO SPECIALTY CHEMICALS INC.,701 WISSAHICKON AVE,CEDARTOWN,GA,30125,34.019632,-85.270141,POLK,325199,,30125HNKLC701WI,TRI
110000356481.0,Geo Specialty Chemicals Inc,701 Wissahickon Ave.,Cedartown,GA,30125,34.015,-85.26529999999998,Polk,325613,,2531811,NEI
110009492361.0,MANUFACTURER'S CHEMICAL LP,4325 OLD TASSO RD,CLEVELAND,TN,37312,35.18567,-84.827931,BRADLEY,325199,,37311MNFCT4325O,TRI
110009492361.0,Manufacturer'S Chemical L P,4325 Old Tasso Rd.,Cleveland,TN,37312,35.1872,-84.8281,Bradley,325611,,2968911,NEI
110011703530.0,Velsicol Chemical Corporation,1199 Warford Sreet,Memphis,TN,38108,35.1642,-89.9644,Shelby,325991,,6194211,NEI
110011703530.0,VELSICOL CHEMICAL LLC,1199 WARFORD ST,MEMPHIS,TN,38108,35.165278,-89.965278,SHELBY,325199,,38108VLSCL1100W,TRI
110000376502.0,"Ergon Biofuels, LLC",1833 Haining Road,Vicksburg,MS,39183,32.388258,-90.888467,WARREN,325193,,1000634,GHGRP
110000376502.0,ERGON BIOFUELS LLC,1833 HAINING RD.,VICKSBURG,MS,39180,32.389246,-90.895446,WARREN,325199,,39180BNGCR1833H,TRI
110000376502.0,"Bunge-Ergon Vicksburg, LLC",1833 Haining Road,Vicksburg,MS,39183,32.3893,-90.8954,Warren,325193,,6285511,NEI
110039523469.0,PolyOne,4250 BELLS LN,LOUISVILLE,KY,None,38.222,-85.8298,Jefferson,325991,,8370911,NEI
110039523469.0,GEON PERFORMANCE SOLUTIONS,4250 BELLS LN,LOUISVILLE,KY,40211,38.22333,-85.83079,JEFFERSON,325211,,40211THGNC4200B,TRI
110000903684.0,Ticona Polymers Inc.,8040 Dixie Hwy,Florence,KY,41042,38.9744,-84.6191,Boone,325991,,6041011,NEI
110000903684.0,CELANESE ENGINEERED MATERIALS,8040 DIXIE HIGHWAY,FLORENCE,KY,41042,38.97533,-84.61785,BOONE,325211,,41042HCHST8040D,TRI
110027373072.0,Westlake Vinyls Inc,2468 Industrial Pkwy,Calvert City,KY,42029,37.0511,-88.33419999999998,Marshall,325998,,5929411,NEI
110027373072.0,WESTLAKE VINYLS INC,2468 IND US TRIAL PKWY,CALVERT CITY,KY,42029,37.051111,-88.334167,MARSHALL,325199,,42029WSTLK2468I,TRI
110000498701.0,Vanderbilt Chemicals LLC,396 Pella Way,Murray,KY,42071,36.6473,-88.30039999999998,Calloway,327992,,7430811,NEI
110000498701.0,VANDERBILT CHEMICALS LLC-MURRAY DIV,396 PELLA WAY,MURRAY,KY,42071,36.647333,-88.300444,CALLOWAY,325199,,42071VNDRBPENNY,TRI
110000380212.0,INGEVITY VIRGINIA CORPORATION - CARBON PLANT,2025 BEECHGROVE RD.,WICKLIFFE,KY,42087,36.95,-89.066111,BALLARD COUNTY,325998,,1003749,GHGRP
110000380212.0,MeadWestvaco Virginia Corp - Wickliffe Carbon Plant,2025 Beech Grove Rd,Wickliffe,KY,42087,36.9442,-89.08079999999998,Ballard,325998,,5606311,NEI
110000380212.0,INGEVITY VIRGINIA CORP-WICKLIFFE CARBON PLANT,2025 BEECH GROVE RD,WICKLIFFE,KY,42087,36.95,-89.066111,BALLARD,325199,,42087WSTVCHIGHA,TRI
110000757501.0,Owensboro Grain Ed Oil,1145 Ewing Rd,Owensboro,KY,42302,37.7858,-87.1447,Daviess,311224,,6052911,NEI
110000757501.0,Owensboro Grain Biodiesel LLC,1145 Ewing Rd,Owensboro,KY,42302,37.785,-87.1442,Daviess,325199,,13418711,NEI
110000382434.0,"AKZO NOBEL COATINGS, INC. (0125040064)",1313 WINDSOR AVENUE,Columbus,OH,43211,39.995,-82.9721,Franklin,325510,,14669711,NEI
110000382434.0,AKZO NOBEL COATINGS INC,1313 WINDSOR AVE,COLUMBUS,OH,43211,39.994971,-82.972089,FRANKLIN,325211,,43211HNNCH1313W,TRI
110000382693.0,ISP CHEMICALS LLC,1979 ATLAS ST,COLUMBUS,OH,43228,39.99105,-83.14306,FRANKLIN,325199,,43228RSYNX1979A,TRI
110000382693.0,Isp Chemicals Inc,1979 Atlas St.,Columbus,OH,43228,39.9917,-83.1444,Franklin,325412,,7752711,NEI
110000384744.0,WILEY COS,1245 S 6TH ST,COSHOCTON,OH,43812,40.2596,-81.86261,COSHOCTON,325199,,43812WLYRG1245S,TRI
110000384744.0,Organic Techs,1245 S. 6th St.,Coshocton,OH,43812,40.2592,-81.8644,Coshocton,3119,,8249611,NEI
110000387340.0,Rochling Glastic Composites (1318544510),4321 Glenridge Road,South Euclid,OH,44121-2891,41.5435,-81.52939999999998,Cuyahoga,326199,,8356911,NEI
110000387340.0,ROCHLING GLASTIC COMPOSITES,4321 GLENRIDGE RD,SOUTH EUCLID,OH,44121,41.54376,-81.52827,CUYAHOGA,325211,,44121THGLS4321G,TRI
110057376398.0,Ineos USA LLC (0302020015),Fort Amanda And Adgate Roads P.O Box 628,Lima,OH,None,40.7142,-84.13219999999998,Allen,325311,,8011111,NEI
110057376398.0,INEOS NITRILES USA LLC,1900 FORT AMANDA RD,LIMA,OH,45804,40.714167,-84.132222,ALLEN,325199,,45805BPCHMFORTA,TRI
110000397909.0,ACS TECHNICAL PRODUCTS INC.,420 S COLFAX AVE,GRIFFITH,IN,46319,41.517222,-87.416111,LAKE,325199,,46319MRCNC420SC,TRI
110000397909.0,"American Chemical Services, Inc.",420 S Colfax Ave,Griffith,IN,46319,41.5147,-87.417,Lake,325998,,7247811,NEI
110000747167.0,PLASTICS ENGINEERING CO,2732 N 15TH ST,SHEBOYGAN,WI,53083,43.774167,-87.728889,SHEBOYGAN,325211,,53083PLSTC2732N,TRI
110000747167.0,PLASTICS ENGINEERING CO N 15TH ST PLANT,2732 N 15TH ST,SHEBOYGAN,WI,None,43.7748,-87.72679999999998,Sheboygan,32521,,7696111,NEI
110000417754.0,PPG Industries,10800 S 13th Street,Oak Creek,WI,53154,42.8484,-87.93,Milwaukee,325510,,12789311,NEI
110000417754.0,PPG INDUSTRIES INC-OAK CREEK,10800 S 13TH ST,OAK CREEK,WI,53154,42.84874,-87.93297,MILWAUKEE,325211,,53154PPGND10800,TRI
110000417754.0,PPG Industries-Resin Plant,10800 S 13th St,Oak Creek,WI,53154,42.8485,-87.93269999999998,Milwaukee,325211,,7098111,NEI
110012704546.0,Huntsman,5015 Barnard Mill Rd,Ringwood,IL,60072,42.3902,-88.2975,McHenry,326199,,8221811,NEI
110012704546.0,HUNTSMAN POLYURETHANES,5015 BARNARD MILL RD,RINGWOOD,IL,60072,42.39019,-88.29749,MCHENRY,325211,,60072HNTSM5015B,TRI
110000916983.0,Dow Chemical Co,26332 S Frontage Rd,Channahon,IL,60410,41.4026,-88.1997,Will,326140,,8088711,NEI
110000916983.0,AMERICAS STYRENICS LLC - JOLIET SITE,26332 SOUTH FRONTAGE ROAD WEST,CHANNAHON,IL,60410,41.401172,-88.200112,WILL,325211,,6041WMRCSS26332,TRI
110000432871.0,CCI Manufacturing IL Corp,15550 Canal Bank Rd,Lemont,IL,60439,41.6822,-87.9933,Cook,325998,,7411211,NEI
110000432871.0,CCI MANUFACTURING IL CORP,15550 CANAL BANK RD,LEMONT,IL,60439,41.682231,-87.993259,COOK,325199,,60439NTCTM15550,TRI
110000435413.0,Ester Solutions,5851 W 73rd St,Bedford Park,IL,60638,41.7587,-87.76739999999998,Cook,325998,,8189311,NEI
110000435413.0,HALLSTAR CO ESTER SOLUTIONS FACILITY,5851 W 73RD ST,BEDFORD PARK,IL,60638,41.75869,-87.76741,COOK,325199,,60638THCPH5851W,TRI
110016660451.0,Emerald Performance Materials LLC,1550 County Rd 1450 N,Henry,IL,61537,41.1351,-89.33839999999998,Marshall,325998,,4620811,NEI
110016660451.0,EMERALD PERFORMANCE MATERIALS LLC,"1550 COUNTY RD, 1450 N",HENRY,IL,61537,41.135468,-89.339559,MARSHALL,325199,,61537BFGDRRR1BO,TRI
110035813117.0,Performance Chemicals,8316 W Route 24,Mapleton,IL,61547,40.5638,-89.7281,Peoria,325998,,5422811,NEI
110035813117.0,ARXADA LLC,8316 W RT 24,MAPLETON,IL,61547,40.564278,-89.728417,PEORIA,325199,,61547LNZNCUSROU,TRI
110000755521.0,Chemtura Corp,8220 W Rte 24,Mapleton,IL,61547,40.5658,-89.7215,Peoria,325998,,4532011,NEI
110000755521.0,LANXESS CORP,8220 W US HIGHWAY 24,MAPLETON,IL,61547,40.565833,-89.721389,PEORIA,325199,,61547SHRXCROUTE,TRI
110000438410.0,Honeywell International Inc,209 Brewer Rd,Danville,IL,61832,40.1281,-87.56059999999998,Vermilion,325998,,4624011,NEI
110000438410.0,BRAINERD CHEMICAL MIDWEST LLC,209 BREWER RD,DANVILLE,IL,61834,40.128113,-87.560637,VERMILION,325120,,61834LLDSGNO5BR,TRI
110056958430.0,DynaChem Inc,Maple Grove Rd,Georgetown,IL,61846,40.0055,-87.6434,Vermilion,325998,,5386211,NEI
110056958430.0,DYNACHEM INC,MAPLE GROVE RD,GEORGETOWN,IL,61846,40.00556,-87.643266,VERMILION,325211,,61846CLNDSMAPLE,TRI
110000441004.0,ELEMENTIS SPECIALTIES INC-ELEMENTIS SPECIALTIES INC,5548 MANCHESTER,ST. LOUIS,MO,63110,38.6225,-90.2805,St. Louis city,325998,,7301011,NEI
110000441004.0,ELEMENTIS SPECIALTIES INC.,5548 MANCHESTER AVE,SAINT LOUIS,MO,63110,38.6225,-90.28054,ST LOUIS (CITY),325199,,63110NLCHM5548M,TRI
110000442021.0,ASHLAND INC-MISSOURI CHEMICAL WORKS,11083 HWY D,LOUISIANA,MO,63353,39.4294,-91.0329,Pike,325110,,7285611,NEI
110000442021.0,MISSOURI CHEMICAL WORKS,11083 HWY D,LOUISIANA,MO,63353,39.42942,-91.03289,PIKE,325199,,63353MSSRCHIGHW,TRI
110000446679.0,AIR PRODUCTS MANUFACTURING CORP.,6601 SOUTH RIDGE RD.,HAYSVILLE,KS,67060,37.5742,-97.4286,Sedgwick,325110,,8066811,NEI
110000446679.0,EVONIK CORP,6601 S RIDGE RD,HAYSVILLE,KS,67060,37.574167,-97.426111,SEDGWICK,325199,,67231RPRDC6601S,TRI
110043973509.0,WESTLAKE STYRENE LLC - STYRENE MONOMER PRODUCTION FACILITY,900 HWY 108,SULPHUR,LA,70664,30.18139,-93.35889,CALCASIEU,325110,,1005564,GHGRP
110043973509.0,Westlake Styrene LLC - Styrene Monomer Production Facility,900 Hwy 108,Sulphur,LA,70665,30.1767,-93.3559,Calcasieu,325110,,8465211,NEI
110043973509.0,WESTLAKE PETROCHEMICALS ETHYLENE,900 E HIGHWAY 108,SULPHUR,LA,70665,30.177,-93.357,CALCASIEU PARISH,325110,,70663WSTLK900HA,TRI
110043973509.0,WESTLAKE PETROCHEMICALS ETHYLENE,900 E HIGHWAY 108,SULPHUR,LA,70665,30.177,-93.357,CALCASIEU PARISH,325211,,70663WSTLK900HA,TRI
110043973509.0,Westlake Polymers LLC,900 Hwy 108,Sulphur,LA,70665,30.1802,-93.356,Calcasieu,325110,,7929111,NEI
110043973509.0,Westlake Petrochemicals LLC - Poly III,900 Hwy 108,Sulphur,LA,70663,30.173,-93.3565,Calcasieu,325211,,7928911,NEI
110040089043.0,Dynamic Fuels LLC - Renewable Synthetic Fuels - Geismar Plant,36187 Hwy 30,Geismar,LA,70734,30.2022,-91.0098,Ascension,325110,,15087311,NEI
110040089043.0,REG GEISMAR LLC,36187 HWY 30,GEISMAR,LA,70734,30.203595,-91.009457,ASCENSION PARISH,325199,,7073WDYNMC36187,TRI
110046122735.0,DEXCO Polymers LP - Plaquemine Manufacturing Plant,21255 Hwy 1,Plaquemine,LA,70764,30.3165,-91.2438,Iberville,211111,,15642211,NEI
110046122735.0,TSRC SPECIALTY MATERIALS LLC,21255 LA HWY 1,PLAQUEMINE,LA,70764,30.317014,-91.243777,IBERVILLE PARISH,325211,,7076WDXCPL21255,TRI
110000449934.0,BASF Corp,111 W Irene Rd,Zachary,LA,70791,30.6123,-91.2318,East Baton Rouge,325998,,8215011,NEI
110000449934.0,BASF CORP,111 W IRENE RD,ZACHARY,LA,70791,30.61349,-91.23737,EAST BATON ROUGE PARISH,325199,,70791GRNTCHWY61,TRI
110000450921.0,GEORGIA-PACIFIC LLC-CROSSETT PAPER OPER,100 MILL SUPPLY ROAD,CROSSETT,AR,71635,33.1414,-91.974,Ashley,32211,,1091211,NEI
110000450921.0,GEORGIA-PACIFIC CROSSETT PAPER OPERATIONS,100 MILL SUPPLY RD,CROSSETT,AR,71635,33.139372,-91.96557,ASHLEY,321212,,71635GRGPCPAPER,TRI
110000450921.0,GEORGIA-PACIFIC CROSSETT PAPER OPERATIONS,100 MILL SUPPLY RD,CROSSETT,AR,71635,33.139372,-91.96557,ASHLEY,322110,,71635GRGPCPAPER,TRI
110000450921.0,GEORGIA-PACIFIC CROSSETT PAPER OPERATIONS,100 MILL SUPPLY RD,CROSSETT,AR,71635,33.139372,-91.96557,ASHLEY,325211,,71635GRGPCPAPER,TRI
110000450921.0,GEORGIA-PACIFIC CROSSETT PAPER OPERATIONS,100 MILL SUPPLY RD,CROSSETT,AR,71635,33.139372,-91.96557,ASHLEY,322121,,71635GRGPCPAPER,TRI
110000458424.0,PERGAN MARSHALL,710 BUSSEY RD,MARSHALL,TX,75670,32.6058,-94.3495,Harrison,325110,,6809411,NEI
110000458424.0,PERGAN MARSHALL LLC,710 B BUSSEY RD,MARSHALL,TX,75670,32.60748,-94.35046,HARRISON,325199,,75670WTCCROFFHW,TRI
110000599139.0,HONEYWELL ELECTRONIC CHEMICALS LLC,100 US HWY 287 N,MANSFIELD,TX,76063,32.560556,-97.113333,TARRANT,325199,,76063TXSLT100US,TRI
110000599139.0,Gem Microelectronics Materials L L C,100 U.S. Hwy. 287 N.,Mansfield,TX,76063,32.5605,-97.1133,Tarrant,3251,,6903311,NEI
110000461134.0,TPC GROUP LLC,8600 PARK PLACE BOULEVARD,HOUSTON,TX,77017,29.69845,-95.254597,HARRIS,325110,,1005198,GHGRP
110000461134.0,HOUSTON PLANT,8600 PARK PLACE,HOUSTON,TX,77017,29.6993,-95.2531,Harris,325110,,4168611,NEI
110000461134.0,TPC GROUP LLC,8600 PARK PL BLVD,HOUSTON,TX,77017,29.69845,-95.254597,HARRIS,325199,,77017TXSPT8600P,TRI
110022832746.0,CENTRAL GREEN FACILITY HOUSTON,16602 CENTRAL GREEN BLVD,HOUSTON,TX,77032,29.9622,-95.375,Harris,326121,,9101111,NEI
110022832746.0,ENDURO COMPOSITES INC.-HOUSTON CENTRAL GREEN FACILITY,16602 CENTRAL GREEN BLVD,HOUSTON,TX,77032,29.96141,-95.37609,HARRIS,325211,,77032NDRSY1662C,TRI
110031389192.0,OXEA BAY CITY PLANT,2001 FM 3057 ADMIN BLDG,BAY CITY,TX,77414,28.8588,-96.02,Matagorda,325110,,13411911,NEI
110031389192.0,CELANESE LTD BAY CITY PLANT,2001 FM 3057,BAY CITY,TX,77414,28.861921,-96.020763,MATAGORDA,325199,,77414HCHSTPOBOX,TRI
110061712687.0,Air Products LLC - Pasadena Plant,1423 Pasadena Freeway,Pasadena,TX,77506,29.716191,-95.194361,HARRIS COUNTY,325192,,1003007,GHGRP
110061712687.0,SEKISUI SPECIALTY CHEMICALS AMERICA LLC. - PASADENA PLANT,1423 PASADENA FWY,PASADENA,TX,77506,29.716059,-95.189998,HARRIS,325211,,77506CLNSC1423H,TRI
110043799958.0,DITNTROTOLUENE PLANT PASADENA FACILITY,1423 HWY 225,PASADENA,TX,77501,29.7181,-95.1892,Harris,325110,,6510311,NEI
110043799958.0,AIR PRODUCTS LLC,1423 HWY 225,PASADENA,TX,77506,29.716191,-95.194361,HARRIS,325199,,77506RPRDC1423H,TRI
110043799958.0,PASADENA PLANT,1423 HWY 225,PASADENA,TX,77506,29.7164,-95.1907,Harris,325211,,6510111,NEI
110012183216.0,CENTAURI TECHNOLOGIES,5200 UNDERWOOD RD,PASADENA,TX,77507,29.63565,-95.08689,HARRIS,325199,,77507CNTRT52UND,TRI
110012183216.0,Centauri Technologies,5200 Underwood Rd,Pasadena,TX,77507,29.634,-95.0868,Harris,3251,,9134811,NEI
110000462794.0,ROGER W POWELL PLANT,11002 CHOATE RD,PASADENA,TX,77507,29.6178,-95.0474,Harris,325110,,4168111,NEI
110000462794.0,E R CARPENTER LP,11002 CHOATE RD,PASADENA,TX,77507,29.62001,-95.0455,HARRIS,325199,,77507CRPNT11002,TRI
110000462856.0,GOODYEAR TIRE & RUBBER CO BAYPORT CHEMICAL PLANT,13441 BAY AREA BOULEVARD,PASADENA,TX,77507,29.6469,-95.0479,HARRIS,325998,,1002991,GHGRP
110000462856.0,BAYPORT CHEMICAL PLANT,13441 BAY AREA BLVD,PASADENA,TX,77501,29.6484,-95.0475,Harris,325110,,4055511,NEI
110000462856.0,THE GOODYEAR TIRE & RUBBER CO BAYPORT CHEMICAL PLANT,13441 BAY AREA BLVD,PASADENA,TX,77507,29.6469,-95.0479,HARRIS,325199,,77507GDYRB13441,TRI
110044232773.0,AKZO NOBEL POLYMER CHEMICALS PASADENA,12900 BAY PARK RD,PASADENA,TX,77058,29.6411,-95.061,Harris,325110,,4057711,NEI
110044232773.0,NOURYON FUNCTIONAL CHEMICALS LLC,12900 BAY PARK RD,PASADENA,TX,77507,29.639444,-95.062778,HARRIS,325199,,77507KZCHM13000,TRI
110000462945.0,GULF BAYPORT CHEMICALS FACILITY,9700 BAYPORT BLVD,PASADENA,TX,77507,29.6156,-95.061,Harris,325110,,6671611,NEI
110000462945.0,SOLENIS LLC,9700 BAYPORT BLVD,PASADENA,TX,77507,29.615556,-95.061389,HARRIS,325199,,77507LNZBY9700B,TRI
110000463007.0,LCC BAYPORT LYONDELL,10801 CHOATE RD.,PASADENA,TX,77507,29.61,-95.05,HARRIS COUNTY,325110,,1001905,GHGRP
110000463007.0,LYONDELL CHEMICAL COMPANY BAYPORT CHOATE PLANT,10801 CHOATE RD,PASADENA,TX,77507,29.6224,-95.0501,Harris,325110,,4924311,NEI
110000463007.0,LYONDELL CHEMICAL CO BAYPORT FACILITY,10801 CHOATE RD,PASADENA,TX,77507,29.61,-95.05,HARRIS,325110,,77507RCCHM10801,TRI
110000463007.0,LYONDELL CHEMICAL CO BAYPORT FACILITY,10801 CHOATE RD,PASADENA,TX,77507,29.61,-95.05,HARRIS,325211,,77507RCCHM10801,TRI
110000463034.0,CLEAR LAKE CHEMICALS FACILITY,11200 BAY AREA BLVD,PASADENA,TX,77507,29.6176,-95.043,Harris,325110,,4941911,NEI
110000463034.0,MULTI-CHEM GROUP BAYPORT TX FACILITY,11200 BAY AREA BLVD,PASADENA,TX,77507,29.61813,-95.0439,HARRIS,325199,,77507WLCHM11200,TRI
110000463070.0,ADVANCED AROMATICS,5501 BAKER RD,BAYTOWN,TX,77520,29.7638,-95.0213,Harris,325110,,4056711,NEI
110000463070.0,MONUMENT CHEMICAL BAYTOWN LLC,5501 BAKER RD,BAYTOWN,TX,77520,29.763056,-95.0225,HARRIS,325199,,77520DVNCD5501B,TRI
110000463098.0,BAYER MATERIAL SCIENCE BAYTOWN PLANT,8500 W BAY RD,BAYTOWN,TX,77520,29.7575,-94.9035,Chambers,325110,,5729211,NEI
110000463098.0,LANXESS CORP BAYTOWN,"W SIDE OF CHAMBER COUNTY NEXT TO CHAMBER/HARRIS CTY LINE, ON CEDAR BAYOU TAKE ST HWY 146 S FROM I-10",BAYTOWN,TX,77520,29.7573,-94.9111,Chambers,325110,,9175811,NEI
110000463098.0,COVESTRO LLC,8500 W BAY RD MS-21,BAYTOWN,TX,77523,29.759767,-94.907294,CHAMBERS,325199,,77520MBYCR8500W,TRI
110000463098.0,LANXESS CORPORATION,8500 WEST BAY RD,BAYTOWN,TX,77520,29.7575,-94.903056,CHAMBERS COUNTY,325192,,1004234,GHGRP
110000463249.0,CROSBY FACILITY,16503 RAMSEY RD,CROSBY,TX,77532,29.9225,-95.0549,Harris,325110,,4167811,NEI
110000463249.0,KMCO CROSBY PLANT,16503 RAMSEY RD,CROSBY,TX,77532,29.9222,-95.0544,HARRIS,325199,,77532KMCNC16503,TRI
110000463258.0,CROSBY FACILITY,18000 CROSBY EASTGATE ROAD,CROSBY,TX,77532,29.9482,-95.0223,Harris,325110,,4018611,NEI
110000463258.0,ARKEMA INC,18000 CROSBY EASTGATE RD,CROSBY,TX,77532,29.948842,-95.021864,HARRIS,325199,,77532PNNWL18000,TRI
110000607576.0,INDORAMA VENTURES OXIDES LLC,3892 US HWY 90,DAYTON,TX,77535,29.999444,-94.9525,LIBERTY,325199,,77535BKRPRUSHWY,TRI
110000607576.0,Dayton Manufacturing Unit,"3892 U.S. Hwy. 90 W., 5 Mi. W. Of Dayton",Houston,TX,77007,29.9983,-94.9528,Liberty,325998,,4030311,NEI
110017743281.0,BATTLEGROUND RD FACILITY,2525 BATTLEGROUND RD,DEER PARK,TX,77536,29.7345,-95.0917,Harris,561499,,6520111,NEI
110017743281.0,TM DEER PARK SERVICES LP,2525 BATTLEGROUND RD,DEER PARK,TX,77536,29.73427,-95.08986,HARRIS,562211,,77536DSPSL2525B,TRI
110017743281.0,TM DEER PARK SERVICES LP,2525 BATTLEGROUND RD,DEER PARK,TX,77536,29.73427,-95.08986,HARRIS,325199,,77536DSPSL2525B,TRI
110008160337.0,LAPORTE PAO FACILITY,MILLER CUT OFF RD GATE 11,LA PORTE,TX,77571,29.7101,-95.0645,Harris,325110,,4033911,NEI
110008160337.0,INEOS OLIGOMERS USA LLC,1230 MILLER CUT-OFF RD GATE 10,LA PORTE,TX,77571,29.710851,-95.065571,HARRIS,325199,,77536QNTMC1515M,TRI
110000463374.0,BATTLEGROUND SITE,730 BATTLEGROUND RD,DEER PARK,TX,77536,29.7108,-95.0893,Harris,325110,,4927011,NEI
110000463374.0,NOURYON FUNCTIONAL CHEMICALS LLC,730 INDEPENDENCE PKWY S,LA PORTE,TX,77571,29.687314,-95.12114,HARRIS,325199,,77536TXSLK730BA,TRI
110012256076.0,HUNTSMAN ETHYLENEAMINES,307 CR 624 AT GATE A 38 BLOCK,FREEPORT,TX,77541,28.953,-95.3125,Brazoria,325110,,5632011,NEI
110012256076.0,HUNTSMAN ETHYLENEAMINES PLANT,307 COUNTY RD 624 A1 A38 BLOCK,FREEPORT,TX,77541,28.9525,-95.313,BRAZORIA,325199,,77541HNTSM307CO,TRI
110000754167.0,PETROCHEMICAL REFINING,PLANT 5 ON CR 229,FREEPORT,TX,77541,28.9577,-95.3331,Brazoria,325998,,5633711,NEI
110000754167.0,CHAMPIONX FREEPORT,2322 COUNTY RD 229,FREEPORT,TX,77541,28.9578,-95.335,BRAZORIA,325199,,77541NLCCHPODRA,TRI
110000599451.0,FREEPORT PLANT,6213 HWY 332 EAST,FREEPORT,TX,77541,28.9905,-95.3618,Brazoria,325110,,6614511,NEI
110000599451.0,VENCOREX US INC,6213 HWY 332 E,FREEPORT,TX,77541,28.991019,-95.36107,BRAZORIA,325199,,77541RHNPL6213H,TRI
110017769734.0,OXY VINYLS LP - LA PORTE VCM PLANT,2400 MILLER CUT-OFF ROAD,LA PORTE,TX,77571,29.7237,-95.07408,HARRIS COUNTY,325181,,1001713,GHGRP
110017769734.0,GEON OXY VINYL LAPORTE PLANT,2400 MILLER CUT OFF RD,LA PORTE,TX,77571,29.7283,-95.0783,Harris,325110,,4057611,NEI
110017769734.0,OXY VINYLS LP LA PORTE VCM PLANT,2400 MILLER CUTOFF RD,LA PORTE,TX,77571,29.7237,-95.07408,HARRIS,325199,,77571LPRTC2400M,TRI
110017769734.0,OXY VINYLS LP LA PORTE VCM PLANT,2400 MILLER CUTOFF RD,LA PORTE,TX,77571,29.7237,-95.07408,HARRIS,325181,,77571LPRTC2400M,TRI
110017874736.0,LA PORTE PLANT,12455 STRANGE RD,LA PORTE,TX,77571,29.7036,-95.0345,Harris,325110,,9103411,NEI
110017874736.0,THE LYCRA CO LA PORTE PLANT (PREVIOUSLY INVISTA SARL,12455  STRANG RD,LA PORTE,TX,77571,29.69797,-95.03339,HARRIS,325199,,77571NVSTS12455,TRI
110000501341.0,MULTIPURPOSE ORGAN SYNTH,1901 AVENUE 'H' AT ITS INTERSECTION WITH 16TH STREET,LA PORTE,TX,77571,29.6556,-95.0365,Harris,325110,,6510211,NEI
110000501341.0,ALTIVIA SPECIALTY CHEMICALS LLC,1901 W H ST,LA PORTE,TX,77571,29.654833,-95.036528,HARRIS,325199,,77571PPGND1901A,TRI
110000463597.0,LYONDELLBASELL ACETYLS,1350 MILLER CUT OFF RD,LA PORTE,TX,77571,29.7113,-95.0656,Harris,325110,,6671911,NEI
110000463597.0,LYONDELLBASELL ACETYLS LLC,1350 MILLER CUT OFF RD,LA PORTE,TX,77571,29.712222,-95.066667,HARRIS,325199,,77571QNTMC11603,TRI
110034641635.0,EQUISTAR CHEMICALS LAPORTE COMPLEX,1515 MILLER CUT- OFF ROAD,LA PORTE,TX,77571,29.717471,-95.068008,HARRIS,325110,,1002758,GHGRP
110034641635.0,LA PORTE COMPLEX,1515 MILLER CUT-OFF ROAD,DEER PARK,TX,77536,29.7096,-95.0718,Harris,325110,,4182311,NEI
110034641635.0,EQUISTAR CHEMICALS LP,1515 MILLER CUT OFF RD,LA PORTE,TX,77571,29.717471,-95.068008,HARRIS,325199,,77571QNTMC1515M,TRI
110006533359.0,EAST STORAGE/SPLITTER III FACILITY,316 S MAIN ST,MONT BELVIEU,TX,77580,29.8364,-94.8937,Chambers,325110,,6599811,NEI
110006533359.0,EAST STORAGE / SPLITTER III FACILITY,316 S MAIN ST,MONT BELVIEU,TX,77580,29.840014,-94.892134,CHAMBERS,324110,,77580DMNDS316SO,TRI
110056961480.0,Mont Belvieu Complex,10207 FM 1942,Mont Belvieu,TX,77580,29.857573,-94.912893,HARRIS,211112,,1006386,GHGRP
110056961480.0,ENTERPRISE PRODUCTS MONT BELVIEU COMPLEX,10207 FM 1942,HOUSTON,TX,77210,29.8577,-94.9143,Chambers,325110,,6600111,NEI
110056961480.0,ENTERPRISE PRODUCTS OPERATING LLC,10207 FM 1942,MONT BELVIEU,TX,77580,29.857573,-94.912893,CHAMBERS,324110,,77580NTRPR10207,TRI
110000463800.0,SEA LION TECHNOLOGY INC,5700 CENTURY BLVD,TEXAS CITY,TX,77590,29.4237,-95.0179,Galveston,325110,,3667211,NEI
110000463800.0,MPM SILICONES LLC,5700 CENTURY BLVD,TEXAS CITY,TX,77590,29.42501,-95.02019,GALVESTON,325199,,77590SLNCH5700J,TRI
110000463864.0,Eastman Chemical Texas City Operations,201 Bay Street South,Texas City,TX,77590,29.380301,-94.894036,GALVESTON,325110,,1004957,GHGRP
110000463864.0,TEXAS CITY OPERATONS,201 BAY ST S,TEXAS CITY,TX,77590,29.379,-94.8946,Galveston,325110,,6615111,NEI
110000463864.0,EASTMAN CHEMICAL TEXAS CITY INC,201 BAY ST S,TEXAS CITY,TX,77590,29.380301,-94.894036,GALVESTON,325199,,77592STRLN201BA,TRI
110000463917.0,BEAUMONT PLANT,LOCATED IN THE LUCITE BEAUMONT INDUSTRIAL PARK; 6350 N TWIN CITY HWY,BEAUMONT,TX,77701,30.0129,-94.0252,Jefferson,325110,,6385211,NEI
110000463917.0,MITSUBISHI CHEMICAL AMERICA INC.,6350 N TWIN CITY HWY,NEDERLAND,TX,77627,30.013916,-94.029616,JEFFERSON,325199,,77627CCRYL6350N,TRI
110022523982.0,INVISTA SRW SABINE RIVER WORKS ORANGE SITE,FM 1006,ORANGE,TX,77631,30.0521,-93.7576,Orange,325110,,10678011,NEI
110022523982.0,INV NYLON CHEMICALS AMERICAS ORANGE SITE,3055A FM 1006,ORANGE,TX,77630,30.054167,-93.752208,ORANGE,325199,,77630NVSTS355AF,TRI
110020148008.0,"CHEVRON PHILLIPS CHEMICAL COMPANY, LP PORT ARTHUR PLANT",2001 SOUTH GULFWAY DRIVE ,PORT ARTHUR,TX,77640,29.850396,-93.977222,JEFFERSON COUNTY,325110,,1002146,GHGRP
110020148008.0,PORT ARTHUR PLANT,2001 SOUTH GULFWAY DRIVE (IN THE OLD CHEVRON REFINERY),PORT ARTHUR,TX,77640,29.8539,-93.9788,Jefferson,325110,,6158411,NEI
110020148008.0,CHEVRON PHILLIPS CHEMICAL CO,2001 S GULFWAY DR,PORT ARTHUR,TX,77640,29.850396,-93.977222,JEFFERSON,325199,,77640CHVRN2001S,TRI
110000464042.0,KMCO PORT ARTHUR,2450 S GULFWAY DR PORT ARTHUR,PORT ARTHUR,TX,77640,29.8279,-93.9642,Jefferson,325110,,13381911,NEI
110000464042.0,MONUMENT CHEMICAL PORT ARTHUR LLC,2450 S GULFWAY DR,PORT ARTHUR,TX,77641,29.825641,-93.965034,JEFFERSON,325199,,77641KMCNC2450S,TRI
110000504801.0,PORT NECHES PLANT,2102 SPUR 136,PORT NECHES,TX,77651,29.9645,-93.9303,Jefferson,325110,,4945211,NEI
110000504801.0,TPC GROUP,2102 SPUR 136,PORT NECHES,TX,77651,29.964146,-93.930138,JEFFERSON,325199,,77651TXSPT212SP,TRI
110000464140.0,LNVA - NORTH PLANT REGIONAL TREATMENT PLANT,2655 GULF STATES RD; 1 M E OF BEAUMONT FROM SYCAMORE ST,BEAUMONT,TX,77701,30.06,-94.0644,Jefferson,221310,,7909511,NEI
110000464140.0,LNVA-NORTH REGIONAL TREATMENT PLANT,2655 GULF STATES RD,BEAUMONT,TX,77701,30.06329,-94.061311,JEFFERSON,324110,,77704NCHSRGULFS,TRI
110000743900.0,OCI BEAUMONT LLC,5470 N TWIN CITY HWY,NEDERLAND,TX,77627,30.013944,-94.048333,JEFFERSON,325199,,77720BMNTMHWY34,TRI
110000743900.0,OCI BEAUMONT LLC,5470 N TWIN CITY HWY,NEDERLAND,TX,77627,30.013944,-94.048333,JEFFERSON,488320,,77720BMNTMHWY34,TRI
110000464391.0,VICTORIA SITE,8.5 MI SE OFF FM 404,VICTORIA,TX,77901,28.6736,-96.9528,Victoria,325110,,5679711,NEI
110000464391.0,INV NYLON CHEMICALS AMERICAS VICTORIA SITE,2695 OLD BLOOMINGTON RD NORTH,VICTORIA,TX,77905,28.673056,-96.953611,VICTORIA,325199,,77905NVSTS2695L,TRI
110000599807.0,INGLESIDE PLANT,"ON F.M. 361, S. OF S.H. 35",INGLESIDE,TX,78362,27.881,-97.2429,San Patricio,325110,,5746611,NEI
110000599807.0,OCCIDENTAL CHEMICAL CORP,4133 HWY 361,GREGORY,TX,78359,27.883611,-97.241383,SAN PATRICIO,325199,,78359CCDNTHWY36,TRI
110000746532.0,CORPUS CHRISTI PLANT,"ON HWY 361, 1 M W OF INGLESIDE",INGLESIDE,TX,78362,27.875,-97.2442,San Patricio,325110,,5677911,NEI
110000746532.0,THE CHEMOURS CO,HWY 361,GREGORY,TX,78359,27.875556,-97.244722,SAN PATRICIO,325120,,78362DPNTCHIGHW,TRI
110002345249.0,BTB REFINING,6600 UP RIVER RD,CORPUS CHRISTI,TX,78412,27.8191,-97.4901,Nueces,424710,,4179611,NEI
110002345249.0,POTAC LLC,6600 UP RIVER RD,CORPUS CHRISTI,TX,78409,27.8159,-97.49217,NUECES,324110,,78409TRFNR6600U,TRI
110000600136.0,CHAMPIONX-ODESSA EAST 528,12205 W COUNTY RD 125,ODESSA,TX,79765,31.904455,-102.245483,MIDLAND,325199,,79765NLCXX12205,TRI
110000600136.0,Ondeo Nalco Energy Services Plant 114,12205 W. County Rd. 125,Odessa,TX,None,31.9058,-102.247,Midland,42469,,7650111,NEI
110000467469.0,BOULDER SCIENTIFIC CO,598 COUNTY HWY 7,MEAD,CO,80542,40.2388,-104.999,Weld,325998,,898411,NEI
110000467469.0,BOULDER SCIENTIFIC CO LLC - MEAD FACILITY,598 3RD ST,MEAD,CO,80542,40.238056,-104.998056,WELD,325199,,80542BLDRS5983R,TRI
110000469136.0,Holly Corp: HRMC and HEP Woods Cross Operations,393 South 800 West,Woods Cross,UT,84087,40.8835,-111.9,Davis,32411,,7301411,NEI
110000469136.0,HOLLYFRONTIER WOODS CROSS REFINING LLC,393 S 800 W,WOODS CROSS,UT,84087,40.886022,-111.904759,DAVIS,324110,,84087PHLLP393SO,TRI
110057930253.0,AIR PROD & CHEM INC,3305 E 26TH ST,LOS ANGELES,CA,90058,34.0125,-118.213,Los Angeles,325998,,4084311,NEI
110057930253.0,EVONIK CORP,3305 E 26TH ST,LOS ANGELES,CA,90058,34.01272,-118.21293,LOS ANGELES,325199,,90023PCFCN3305E,TRI
110000474969.0,Arnco,5141 Firestone Place,South Gate,CA,90280,33.95,-118.171,Los Angeles,325212,,1300111,NEI
110000474969.0,ARNCO,5141 FIRESTONE PL,SOUTH GATE,CA,90280,33.95147,-118.17609,LOS ANGELES,325211,,90280RNCXX5141F,TRI
110000476057.0,ULTRAMAR INC (NSR USE ONLY),961 LA PALOMA AVE,WILMINGTON,CA,90744,33.7592,-118.266,Los Angeles,493190,,5634611,NEI
110000476057.0,ULTRAMAR INC. MARINE TERMINAL,961 LA PALOMA ST,WILMINGTON,CA,90744,33.75828,-118.26676,LOS ANGELES,324110,,90744LTRMR961LA,TRI
110000482861.0,"MOMENTIVE SPECIALTY CHEMICALS,",41100 BOYCE ROAD,FREMONT,CA,94538,37.5118,-121.993,Alameda,325110,,136811,NEI
110000482861.0,MOMENTIVE SPECIALTY CHEMICALS INC,41100 BOYCE RD,FREMONT,CA,94538,37.5095,-121.98866,ALAMEDA,325211,,94538BRDNN41100,TRI
110069500463.0,SOLENIS LLC,3366 NW YEON AVE,PORTLAND,OR,97210,45.547397,-122.709153,MULTNOMAH,325211,,97210HRCLS3366N,TRI
110069500463.0,Hercules Incorporated,3366 Nw Yeon Ave,Portland,OR,97210,45.5464,-122.709,Multnomah,325998,,890011,NEI
110000316774.0,NEW HAVEN CHEMICALS LLC,67 WELTON ST,NEW HAVEN,CT,6511,41.326389,-72.895556,NEW HAVEN,325188,,06511HKRVT73WEL,TRI
110000316774.0,H Krevit & Company Inc,73 Welton St.,New Haven,CT,6511,41.3267,-72.89629999999998,New Haven,325180,,2707611,NEI
110000319049.0,HUMMEL CROTON INC,10 HARMICH RD,SOUTH PLAINFIELD,NJ,7080,40.56979,-74.39937,MIDDLESEX,325188,,07080HMMLC10HAR,TRI
110000319049.0,HUMMEL CROTON INC,10 HARMICH ROAD,SOUTH PLAINFIELD,NJ,7080,40.5697,-74.3994,Middlesex,325180,,7760511,NEI
110000327398.0,Olin Chlor Alkali Products,2400 Buffalo Avenue,Niagara Falls,NY,14303,43.081417,-79.026667,NIAGARA COUNTY,325181,,1009832,GHGRP
110000327398.0,Olin Corp,2400 Buffalo Ave.,Niagara Falls,NY,None,43.0831,-79.03329999999998,Niagara,325180,,7242711,NEI
110000327423.0,SAINT GOBAIN INDUSTRIAL CERAMIC INC,6600 WALMORE RD,NIAGARA FALLS,NY,14304,43.10359,-78.92708,NIAGARA,327999,,14304NRTNW6600W,TRI
110000327423.0,Saint-Gobain Niagara Falls,6600 Walmore Rd,Niagara Falls,NY,14304,43.1057,-78.92959999999998,Niagara,325211,,9358411,NEI
110000385011.0,ASHTA CHEMICALS INC.,3509 MIDDLE RD,ASHTABULA,OH,44004,41.896389,-80.751944,ASHTABULA,325181,,44004LCPCH3509M,TRI
110000385011.0,Ashta Chemicals Inc. (0204010056),3509 Middle Road,Ashtabula,OH,44004,41.8986,-80.74689999999998,Ashtabula,325180,,8117111,NEI
110000452144.0,TETRA CHEMICALS,2201 PORT RD,WEST MEMPHIS,AR,72301,35.10773,-90.1902,CRITTENDEN,325188,,72301RNKDS20312,TRI
110000452144.0,Tetra Chemicals,2201 Port Rd,West Memphis,AR,72301,35.118,-90.1897,Crittenden,325180,,10607211,NEI
110000474834.0,PCCR USA,2801 LYNWOOD RD,LYNWOOD,CA,90262,33.9259,-118.223,Los Angeles,561110,,15766211,NEI
110000474834.0,Eastman Chemical Company,2801 Lynwood Rd,Lynwood,CA,90262,33.9259,-118.208,Los Angeles,325211,,5041511,NEI
110000599816.0,CHEMTRADE SOLUTIONS LLC,5302 COUNTY RD 2047,ODEM,TX,78370,27.95612,-97.59698,SAN PATRICIO,325188,,78370BYCHMSTATE,TRI
110000599816.0,GENERAL CHEMICAL,5302 County Rd. 2047,Odem,TX,78370,27.9561,-97.5967,San Patricio,325180,,6674911,NEI
110000859508.0,H.B. FULLER CO,12110 HARLAND DR NE,COVINGTON,GA,30014,33.617778,-83.831389,NEWTON,325520,,30209HBFLL12110,TRI
110000859508.0,H B Fuller Co,12110 Harland Dr. N.E.,Covington,GA,30014,33.6192,-83.8319,Newton,325211,,2687111,NEI
110024324300.0,BORDEN & REMINGTON CORP,63 WATER ST,FALL RIVER,MA,2721,41.70382,-71.16343,BRISTOL,424690,,02722BRMCS106FE,TRI
110024324300.0,BORDEN & REMINGTON,63 WATER ST,FALL RIVER,MA,02721-0000,41.7013,-71.1686,Bristol,325199,,8168511,NEI
110035869165.0,AJINOMOTO HEARTLAND LLC,1116 HIGHWAY 137,EDDYVILLE,IA,None,41.1436,-92.6479,Monroe,311119,,7741311,NEI
110035869165.0,"AJINOMOTO FOOD INGREDIENTS, LLC",1 Ajinomoto Dr.,Eddyville,IA,52553,41.1486,-92.6447,Monroe,325199,,3779911,NEI
110037311263.0,OLIN CORP,1638 IND US TRIAL RD,MC INTOSH,AL,36553,31.263889,-87.99445,WASHINGTON,325181,,36553LNCRPPOBOX,TRI
110037311263.0,Olin Corp,1638 INDUSTRIAL RD,Mc Intosh,AL,36553,31.2639,-87.9945,Washington,325180,,1029311,NEI
110056966092.0,ISP CHEMICALS LLC,BLDG 5565 IND US TRIAL RD,HUNTSVILLE,AL,35898,34.6322,-86.638,MADISON,325188,,35898GFCHMBUILD,TRI
110056966092.0,ISP Chemicals Inc,BLDG 5565 INDUSTRIAL RD,Huntsville,AL,35898,34.6322,-86.638,Madison,325180,,969211,NEI
110057964421.0,KOPPERS PERFORMANCE CHEMICALS,52430 DUNCAN AVE,HUBBELL,MI,49934,47.176103,-88.424919,HOUGHTON,325188,,49934PNNSL1700D,TRI
110057964421.0,PENINSULA COPPER INDUSTRIES INC,52430 DUNCAN AVE M-26,HUBBELL,MI,49934,47.178,-88.4239,Houghton,325180,,5952811,NEI
110067425708.0,"GREAT PLAINS MANUFACTURING, INC. (SEE 1690007 & 1690048)",1733 DEWEY,SALINA,KS,67401-0000,38.8508,-97.588,Saline,333111,,3122411,NEI
110067425708.0,MCSHARES,1835 E. NORTH STREET,SALINA,KS,67401,38.8503,-97.5818,Saline,325199,,15594111,NEI
nan,"EPL Oil & Gas, Inc. - SP 77 A",None,Offshore,LA,0,28.8308,-89.4061,ORLEANS PARISH,211111,,1010333,GHGRP
nan,Air Liquide Large Industries U.S. Lp El Segundo,1310 E El Segundo Blvd,El Segundo,CA,90245,33.9058,-118.402,Los Angeles,32512,,10210811,NEI
nan,Cogeneration Project,Mile 2.5 Dayville Rd.,Valdez,AK,99686,61.0843,-146.252,Valdez-Cordova,221112,,1025411,NEI
nan,Glennallen Diesel Plant,Mile 187 Glenn Hwy,Glennallen,AK,99588,62.1186,-145.529,Valdez-Cordova,221112,,1025511,NEI
nan,Valdez Diesel Power Plant,West Egan Dr,Valdez,AK,99686,61.1352,-146.353,Valdez-Cordova,221112,,1025611,NEI
nan,Petro Star Valdez Refinery,Mile 2.5 Dayville Rd.,Valdez,AK,99686,61.0838,-146.253,Valdez-Cordova,324110,,1025911,NEI
nan,Valdez Pioneer Field,Unknown,Valdez,AK,00000,61.1339,-146.248,Valdez-Cordova,48811,,10551311,NEI
nan,New Chenega Airport,Unknown,New Chenega,AK,00000,60.0772,-147.992,Valdez-Cordova,48811,,10551511,NEI
nan,May Creek,Unknown,May Creek,AK,00000,61.3357,-142.687,Valdez-Cordova,48811,,10551611,NEI
nan,Middleton Island,Unknown,Middleton Island,AK,00000,59.45,-146.309,Valdez-Cordova,48811,,10551811,NEI
nan,Whittier,Unknown,Whittier,AK,00000,60.7772,-148.722,Valdez-Cordova,48811,,10551911,NEI
nan,Gulkana,Unknown,Gulkana,AK,00000,62.1549,-145.457,Valdez-Cordova,48811,,10552011,NEI
nan,Chisana,Unknown,Chisana,AK,00000,62.0712,-142.048,Valdez-Cordova,48811,,10552111,NEI
nan,Chitina,Unknown,Chitina,AK,00000,61.5829,-144.427,Valdez-Cordova,48811,,10552211,NEI
nan,Cordova Muni,Unknown,Cordova,AK,00000,60.5439,-145.727,Valdez-Cordova,48811,,10554511,NEI
nan,Merle K (Mudhole) Smith,Unknown,Cordova,AK,00000,60.4918,-145.478,Valdez-Cordova,48811,,10554611,NEI
nan,Tatitlek,Unknown,Tatitlek,AK,00000,60.8689,-146.686,Valdez-Cordova,48811,,10554711,NEI
nan,Mc Carthy Nr 2,Unknown,Mc Carthy,AK,00000,61.4371,-142.904,Valdez-Cordova,48811,,10554811,NEI
nan,"PS #10, TAPS Pump Station",None,Paxson,AK,99586,63.4233,-145.768,Valdez-Cordova,486110,,10556011,NEI
nan,Pogo Mine,38 Miles NE Of Delta Junction,Delta Junction,AK,99737,64.8,-146.56,Fairbanks North Star,212221,,10594011,NEI
nan,CROSSWIND LAKE,Unknown,CROSSWIND LAKE,AK,00000,62.4009,-146.013,Valdez-Cordova,48811,,11028311,NEI
nan,ELLAMAR,Unknown,ELLAMAR,AK,00000,60.8939,-146.704,Valdez-Cordova,48811,,11042611,NEI
nan,LONG LAKE,Unknown,LONG LAKE,AK,00000,61.3779,-143.326,Valdez-Cordova,48811,,11159911,NEI
nan,JACOBUS FIELD,Unknown,GULKANA,AK,00000,62.2803,-145.363,Valdez-Cordova,48811,,11272911,NEI
nan,SPORTS MANS PARADISE,Unknown,TOK,AK,00000,62.5121,-143.236,Valdez-Cordova,48811,,11285411,NEI
nan,SWIFT CREEK,Unknown,MCCARTHY,AK,00000,61.4112,-143.001,Valdez-Cordova,48811,,11297011,NEI
nan,BOSWELL BAY,Unknown,BOSWELL BAY,AK,00000,60.4231,-146.146,Valdez-Cordova,48811,,11298211,NEI
nan,DUFFYS TAVERN,Unknown,SLANA,AK,00000,62.7246,-143.921,Valdez-Cordova,48811,,11320011,NEI
nan,PAXSON,Unknown,PAXSON,AK,00000,63.0246,-145.501,Valdez-Cordova,48811,,11422611,NEI
nan,PERRY ISLAND,Unknown,PERRY ISLAND,AK,00000,60.6853,-147.919,Valdez-Cordova,48811,,11422711,NEI
nan,COPPER CENTER 2,Unknown,COPPER CENTER,AK,00000,61.9412,-145.294,Valdez-Cordova,48811,,11473311,NEI
nan,VALDEZ HOSPITAL,Unknown,VALDEZ,AK,00000,61.1366,-146.345,Valdez-Cordova,48811,,11486211,NEI
nan,YOUNG CREEK,Unknown,MAY CREEK,AK,00000,61.3565,-142.733,Valdez-Cordova,48811,,11518711,NEI
nan,Griffith Micro Science Inc,4900 S GIFFORD AVE,Los Angeles,CA,90058,33.9972,-118.191,Los Angeles,812990,,1157811,NEI
nan,JAKES BAR,Unknown,MCCARTHY,AK,00000,61.2187,-142.89,Valdez-Cordova,48811,,11623511,NEI
nan,STRAWBERRY POINT,Unknown,CORDOVA,AK,00000,60.3912,-146.098,Valdez-Cordova,48811,,11626011,NEI
nan,TAZLINA /SMOKEY LAKE/,Unknown,TAZLINA,AK,00000,62.0634,-146.449,Valdez-Cordova,48811,,11833011,NEI
nan,MANKOMEN LAKE,Unknown,MANKOMEN LAKE,AK,00000,62.9899,-144.48,Valdez-Cordova,48811,,11844411,NEI
nan,JOHNSTONE POINT,Unknown,HINCHINBROOK,AK,00000,60.4817,-146.584,Valdez-Cordova,48811,,11980811,NEI
nan,TOLSONA LAKE,Unknown,TOLSONA LAKE,AK,00000,62.1134,-146.041,Valdez-Cordova,48811,,12038811,NEI
nan,TAZLINA,Unknown,TAZLINA,AK,00000,62.0648,-146.461,Valdez-Cordova,48811,,12106511,NEI
nan,CHISTOCHINA,Unknown,CHISTOCHINA,AK,00000,62.5635,-144.669,Valdez-Cordova,48811,,12309011,NEI
nan,Unicircuit Inc,8192 Southpark Ln.,Littleton,CO,80120,39.5692,-105.006,Arapahoe,334412,,1238411,NEI
nan,THOMPSON PASS,Unknown,THOMPSON PASS,AK,00000,61.1773,-145.688,Valdez-Cordova,48811,,12410311,NEI
nan,GLACIER CREEK,Unknown,GLACIER CREEK,AK,00000,61.4551,-142.381,Valdez-Cordova,48811,,12411311,NEI
nan,ROBE LAKE,Unknown,VALDEZ,AK,00000,61.0871,-146.144,Valdez-Cordova,48811,,12413611,NEI
nan,DEVILS MOUNTAIN LODGE,Unknown,NABESNA,AK,00000,62.4018,-142.995,Valdez-Cordova,48811,,12528011,NEI
nan,Klamath Generation Peakers,4940 HIGHWAY 97 SOUTH,KLAMATH FALLS,OR,97603,42.1808,-121.801,Klamath,221112,,12659811,NEI
nan,Orca Power Plant,103 Orca Road,Cordova,AK,99574,60.5559,-145.754,Valdez-Cordova,221112,,12660911,NEI
nan,HAARP Research Site,"Milepost 11.3, Tok Cut-Off",Gakona,AK,99586,62.3917,-145.13,Valdez-Cordova,928110,,12662511,NEI
nan,CAT PVM-2500 Asphalt Plant,None,None,AK,None,,,Multiple (portable facilities),237310,,12663111,NEI
nan,MUSTANG STATION UNIT 4 & 5,5 MILES E OF DENVER CITY ON CR 390,DENVER CITY,TX,79323,32.9748,-102.744,Yoakum,221122,,13411811,NEI
nan,Monterey Regional Waste Management District,14201 Del Monte Blvd,Marina,CA,93933,36.7092,-121.766,Monterey,562212,,1353811,NEI
nan,Sevenmile Gulch Compressor Station,NW section 18 T21 R111,Sweetwater County,WY,82935,41.7991,-110.046,Sweetwater,2212,,14555111,NEI
nan,Kivetts Incorporated,711 Southwest Boulevard,Clinton,NC,28328,34.9873,-78.3211,Sampson,337127,,15605411,NEI
nan,MADERA GLASS COMPANY,24441 AVENUE 12,MADERA,CA,93637,36.9261,-120.106,Madera,327213,,1565611,NEI
nan,POPLAR MUNI,UNKNOWN,POPLAR,MT,00000,48.1344,-105.162,Roosevelt,48811,,16089311,NEI
nan,CVTC FIELD,UNKNOWN,VALDEZ,AK,00000,61.13,-146.371,Valdez-Cordova,48811,,16091611,NEI
nan,SHERMAN HOSPITAL RANDALL ROAD,UNKNOWN,ELGIN,IL,00000,42.0722,-88.3297,Kane,48811,,16110611,NEI
nan,Fulton County,UNKNOWN,Johnstown,NY,00000,42.9981,-74.3294,Fulton,48811,,16133411,NEI
nan,Skaneateles Aero Drome,UNKNOWN,Skaneateles,NY,00000,42.9139,-76.44079999999998,Onondaga,48811,,16134211,NEI
nan,GENCO ANADARKO PLT,701 NE 7TH ST,ANADARKO,OK,73005,35.0826,-98.229,Caddo,221112,,16154811,NEI
nan,PREMIER ETHANOL LLC D/B/A/ POET BIOREFINING - PORTLAND,None,None,IN,None,40.4137,-85.0248,Jay,325193,,16668411,NEI
nan,POET BIOREFINING North Manchester,None,None,IN,None,40.9461,-85.7834,Wabash,325193,,16668711,NEI
nan,Frenchie Draw Graham Unit Central Tank Battery,SENW Section 15 T37N R89W,Fremont County,WY,82520,43.1807,-107.51,Fremont,424710,,16675411,NEI
nan,Kirby Creek Pipeline Station,"NWNW Section 22, Township 43N, Range 92W",Hot Springs County,WY,82443,43.6858,-107.897,Hot Springs,4861,,16679911,NEI
nan,KLUNE INDUSTRIES INC,1800 N 300 W,SPANISH FORK,UT,84660,40.133,-111.66,Utah,332813,,16721911,NEI
nan,Crown Cork & Seal Co (USA),3737 E Exchange Ave,Aurora,IL,60504,41.7646,-88.26,Kane,332431,,1785211,NEI
nan,Shell Oil Prods U S Sulfur Recovery Plant,23208 S. Alameda St.,Carson,CA,90810,33.8136,-118.229,Los Angeles,3251,,2123411,NEI
nan,CITY OF MOUNTAIN VIEW (SHORELINE LANDFILL),2600 SHORELINE BLVD,MOUNTAIN VIEW,CA,94043,37.4288,-122.078,Santa Clara,562212,,2339811,NEI
nan,Arlon Inc,1100 Governor Lea Road,Bear,DE,19701,39.6031,-75.66549999999998,New Castle,33422,,2439811,NEI
nan,EMPIRE LUMBER CO (DBA KAMIAH MILLS),HWY 12 & RAILROAD AVE,Kamiah,ID,83536,46.2261,-116.019,Lewis,321113,,2467111,NEI
nan,SOUTHEAST COUNTY LANDFILL,15960 CR 672,LITHIA,FL,33547,27.7626,-82.20149999999998,Hillsborough,562212,,2594511,NEI
nan,Monroe Auto Equipment Co,200 Mcintyre Dr.,Hartwell,GA,30643,34.35,-82.95,Hart,336330,,2653211,NEI
nan,Mcclarin Plastics Inc,100 Blettner Ave.,Hanover,PA,None,39.7925,-76.998,York,326199,,3002211,NEI
nan,Tex Par Energy Inc,268 Industrial Blvd.,Bainbridge,GA,31717,30.9686,-84.62919999999998,Decatur,45431,,3704911,NEI
nan,U S Marine Corps Logistics Base Albany,814 Radford Blvd.,Albany,GA,31704,31.5481,-84.0686,Dougherty,928110,,3710411,NEI
nan,Global Stone Tenn Luttrell Company,486 Clinch Valley Road,Luttrell,TN,None,36.2333,-83.7077,Union,32741,,3933111,NEI
nan,FRITO-LAY INC.,22801 HWY 58,BAKERSFIELD,CA,93312,35.3913,-119.315,Kern,311919,,422611,NEI
nan,WHEELER RECYCLING & DISPOSAL FACILITY,None,None,IN,None,41.5152,-87.1984,Porter,562212,,5436211,NEI
nan,Osram Sylvania Prods Inc,835 Washington Rd.,Saint Marys,PA,15857,41.4406,-78.5592,Elk,335110,,5454011,NEI
nan,Innovative Coating Tech Inc,1347 Pool St. Mojave Airport Building 105,Mojave,CA,93501,35.0594,-118.165,Kern,332812,,563511,NEI
nan,CONSOLIDATED FABRICATORS,17 SAINT MARK ST,AUBURN,MA,None,42.1899,-71.824,Worcester,335312,,5688011,NEI
nan,Alcoa Inc,2500 Alumax Road,Yankton,SD,57078,42.8899,-97.3514,Yankton,331318,,6195911,NEI
nan,CPFILMS - PLANT II,4129 The Great Rd.,Fieldale,VA,24089,36.7269,-79.95059999999998,Henry,326130,,6326011,NEI
nan,East Central Mixed Mun (kanabec),"Hwy 23, 4 mi SW of Mora",Arthur,MN,55051,45.8479,-93.3508,Kanabec,562212,,6451211,NEI
nan,MHBA CB LLLP,FM 2917,Alvin,TX,77512,29.2467,-95.1964,Brazoria,325199,,6583711,NEI
nan,SILGAN CONTAINERS MFR. CORP.,3250 PATTERSON ROAD,RIVERBANK,CA,95367,37.7336,-120.939,Stanislaus,332431,,6592411,NEI
nan,Northeast Nebraska Solid Waste Coalition (NNSWC),57220 825 RD,Clarkson,NE,68629,41.7838,-97.0909,Stanton,562212,,6898411,NEI
nan,G J Chemical Co Inc,128 Doremus Ave.,Newark,NJ,7105,40.7189,-74.16469999999998,Essex,42469,,7196011,NEI
nan,Cwc Industries Inc,185 Foundry St,Newark,NJ,7105,40.7278,-74.1333,Essex,325510,,7202411,NEI
nan,Poly Foam Intl Inc Style Crest Prods,600 Hagerty Dr.,Fremont,OH,None,41.3725,-83.11279999999998,Sandusky,32612,,7294511,NEI
nan,Gibson Tube Inc,100 Aspen Hill Rd.,North Branch,NJ,None,40.5656,-74.5647,Somerset,331210,,7493411,NEI
nan,Prestone Prods Corp,250 Halls Mill Rd.,Freehold,NJ,7728,40.25,-74.25,Monmouth,325998,,7541111,NEI
nan,Kennecott Utah Copper Mine Concentrators & Power Plant,12300 S. Utah Hwy. 111,Copperton,UT,84006,40.5167,-112.15,Salt Lake,212234,,7697611,NEI
nan,GE Advanced Ceramics,22557 W. Lunn Rd.,Strongsville,OH,44136,41.2997,-81.87919999999998,Cuyahoga,327120,,7750211,NEI
nan,Machinery Recovery Services/Convertapax,5539 Gundy Dr.,Midvale,OH,44653,40.4364,-81.3542,Tuscarawas,322220,,7769211,NEI
nan,Schmidt Progressive L L C,360 Harmon Ave.,Lebanon,OH,None,39.4517,-84.1911,Warren,32612,,7771811,NEI
nan,REPUBLIC STEEL LACKAWANNA,S3049 Lakeshore Rd.,Blasdell,NY,14219,42.8017,-78.8417,Erie,331110,,7797411,NEI
nan,Owens-Brockway Glass Container Inc Plant #35,Rd. #6 County House Rd.,Auburn,NY,13021,42.9614,-76.55419999999998,Cayuga,327213,,7805311,NEI
nan,Blazer Fabricating Inc,4466 Pinson Valley Parkway,Birmingham,AL,35215,33.4879,-86.7132,Jefferson,332313,,7919111,NEI
nan,Jmc (Usa) Inc,1 Innovation Dr.,Research Triangle Park,NC,27709,35.8333,-78.8756,Durham,331110,,8052711,NEI
nan,Trinity Inds Inc,425 E. O'Connor Ave.,Lima,OH,45801,40.7575,-84.0994,Allen,332812,,8102011,NEI
nan,Whemco Ohio Fndy Div Inc,1600 McClain Rd.,Lima,OH,45804,40.7146,-84.11,Allen,331511,,8103111,NEI
nan,"Newco Metals Processing, Inc.",4635 Peerless Road,Bedford,IN,47421,38.9216,-86.5202,Lawrence,331492,,8225511,NEI
nan,Btlsr Toledo Inc,2112 Sylvan Ave.,Toledo,OH,None,41.6583,-83.575,Lucas,325211,,8262511,NEI
nan,ASHLAND INC,2401 Doyle St.,Greensboro,NC,27406,36.0433,-79.7886,Guilford,325998,,8285711,NEI
nan,Columbus Chemical Industries Inc,N4335 Temkin Rd,Columbus,WI,53925,43.3511,-89.00069999999998,Dodge,42469,,8316411,NEI
nan,Kemmerer Mine,"SWNW Section 29, Township 21 N, Range 116 W",Lincoln County,WY,83101,41.7296,-110.606,Lincoln,21211,,8419311,NEI
nan,Bunzl Extrusion,764 South Athol Road,Athol,MA,1331,42.5842,-72.2497,Worcester,339999,,8510211,NEI
nan,HEARTHSIDE FOOD SOLUTIONS,312 Rader Rd.,Mc Comb,OH,45858,41.1114,-83.79989999999998,Hancock,311821,,8543911,NEI
nan,Valdez Marine Terminal,West End of Dayville Road,Valdez,AK,99686,61.0867,-146.396,Valdez-Cordova,488320,,865711,NEI
nan,J.R. SIMPLOT COMPANY,12688 SO. COLORADO AVE.,HELM,CA,93627,36.5486,-120.108,Fresno,325998,,8811,NEI
nan,Hexcel Corp,3300 Mallard Fox Dr.,Decatur,AL,35603,34.6555,-87.07089999999998,Morgan,325220,,884811,NEI
nan,Sherwin Alumina Lp,4633 Hwy 361,Gregory,TX,78359,27.8833,-97.2625,San Patricio,331313,,9143811,NEI
nan,Dunmore Corp,145 Wharton Rd,Bristol,PA,19007,40.1175,-74.88219999999998,Bucks,326199,,9245311,NEI
nan,MASCO CABINETRY,217 Lamoka Rd,Sayre,PA,18840,41.9902,-76.575,Bradford,33711,,9248011,NEI
nan,Robinson Nevada Mining Co,4232 W White Pine Co. Rd 44,Ruth,NV,89319,39.2708,-115.013,White Pine,212234,,9371711,NEI
nan,Conocophillips Co Gulf Coast Lubes Plant,None,None,LA,None,30.1488,-93.3451,Calcasieu,324191,,9607411,NEI
nan,HB Fuller Construction Products Inc,1105 S Frontenac,Aurora,IL,60504,41.7349,-88.2305,DuPage,325520,,9730311,NEI
nan,Emd Chemicals Inc.,110 Emd Blvd,Savannah,GA,31407,32.2004,-81.1714,Chatham,325180,,9752211,NEI
nan,W. M. Sheppard Lumber Co. Inc.,Hwy 80 E,Brooklet,GA,30415,32.3708,-81.6567,Bulloch,321999,,9757511,NEI
nan,Plummer Forest Products,732 10th St,Plummer,ID,83851,47.33,-116.88,Benewah,321999,,9774411,NEI
