,TRIFD,FACILITY NAME,PRIMARY NAICS,NAICS 2,NAICS 3,NAICS 4,NAICS 5,NAICS 6,PARENT CO NAME,FRS ID,FRS_ID,FacilityName,Address,City,State,Zip,Latitude,Longitude,County,NAICS,SIC,FacilityID,Source,_merge
208,53081BRDNN2522S,HEXION INC-SHEBOYGAN SITE,325211,325199.0,issues,issues,issues,issues,HEXION HOLDINGS CORP,110000416764.0,issues,issues,issues,issues,issues,issues,issues,issues,issues,issues,issues,issues,issues,left_only
987,77571RHMND13300,BAYPORT_TX,325199,issues,issues,issues,issues,issues,DOW INC,110000463613.0,issues,issues,issues,issues,issues,issues,issues,issues,issues,issues,issues,issues,issues,left_only
1235,08002MYCND616HO,MYCONE DENTAL SUPPLY CO. INC. CHERRY HILL NJ,325211,issues,issues,issues,issues,issues,issues,110000498319.0,issues,issues,issues,issues,issues,issues,issues,issues,issues,issues,issues,issues,issues,left_only
1296,30721MRCNM1202D,POLYVENTIVE - DALTON,325199,issues,issues,issues,issues,issues,POLYVENTIVE LLC,110000359193.0,issues,issues,issues,issues,issues,issues,issues,issues,issues,issues,issues,issues,issues,left_only
1681,90250FLNSL12333,INTERPLASTIC CORP,325211,issues,issues,issues,issues,issues,IP CORP,110012184055.0,issues,issues,issues,issues,issues,issues,issues,issues,issues,issues,issues,issues,issues,left_only
1740,75941BRDNN100WE,HEXION INC - DIBOLL SITE,325211,issues,issues,issues,issues,issues,HEXION HOLDINGS CORP,110000458692.0,issues,issues,issues,issues,issues,issues,issues,issues,issues,issues,issues,issues,issues,left_only
1826,29334KLMRN310SP,TOLL SOLUTIONS LLC,325180,325199.0,issues,issues,issues,issues,issues,110000352984.0,issues,issues,issues,issues,issues,issues,issues,issues,issues,issues,issues,issues,issues,left_only
2036,71801BRDNC185NI,HEXION INC. - HOPE PLANT,325211,325199.0,issues,issues,issues,issues,HEXION HOLDINGS CORP,110000451190.0,issues,issues,issues,issues,issues,issues,issues,issues,issues,issues,issues,issues,issues,left_only
2048,77520LNXSS85WBA,LANXESS CORP-BAYTOWN,325199,issues,issues,issues,issues,issues,LANXESS CORP,110000463098.0,issues,issues,issues,issues,issues,issues,issues,issues,issues,issues,issues,issues,issues,left_only
2158,95826PRCTR8201F,PROCTER & GAMBLE MFG. CO.,325199,issues,issues,issues,issues,issues,THE PROCTER & GAMBLE CO,110017423448.0,issues,issues,issues,issues,issues,issues,issues,issues,issues,issues,issues,issues,issues,left_only
2551,91745HLLBR15017,HILL BROTHERS CHEMICAL CO,325180,424690.0,325510.0,issues,issues,issues,HILL BROTHERS CHEMICAL CO,110000477840.0,issues,issues,issues,issues,issues,issues,issues,issues,issues,issues,issues,issues,issues,left_only
2746,45750CHVRNROUTE,AMERICAS STYRENICS LLC,325211,issues,issues,issues,issues,issues,AMERICAS STYRENICS LLC,110008469754.0,issues,issues,issues,issues,issues,issues,issues,issues,issues,issues,issues,issues,issues,left_only
2752,39521BRGWRPORTB,SABIC INNOVATIVE PLASTICS US LLC,325211,issues,issues,issues,issues,issues,SABIC US HOLDINGS LP,110000607610.0,issues,issues,issues,issues,issues,issues,issues,issues,issues,issues,issues,issues,issues,left_only
2862,43207GRGPC1975W,GEORGIA-PACIFIC CHEMICALS LLC,325211,325199.0,issues,issues,issues,issues,KOCH INDUSTRIES INC,110000493369.0,issues,issues,issues,issues,issues,issues,issues,issues,issues,issues,issues,issues,issues,left_only
3444,25303CWSTV437MA,COVESTRO LLC,325199,issues,issues,issues,issues,issues,COVESTRO LLC,110013764266.0,issues,issues,issues,issues,issues,issues,issues,issues,issues,issues,issues,issues,issues,left_only
3582,32501RZNCH411SO,KRATON CHEMICAL LLC,325211,issues,issues,issues,issues,issues,KRATON CHEMICAL CO LLC,110000362394.0,issues,issues,issues,issues,issues,issues,issues,issues,issues,issues,issues,issues,issues,left_only
3590,42029CLNSL408NM,SEKISUI SPECIALTY CHEMICALS AMERICA LLC,325211,325199.0,issues,issues,issues,issues,SEKISUI AMERICA CORP,110009933395.0,issues,issues,issues,issues,issues,issues,issues,issues,issues,issues,issues,issues,issues,left_only
3696,30120RSRCN8RIVE,INNOVATIVE CHEMICAL TECHNOLOGIES INC.,325199,issues,issues,issues,issues,issues,issues,110013399223.0,issues,issues,issues,issues,issues,issues,issues,issues,issues,issues,issues,issues,issues,left_only
3840,29202CRLNSUSHIG,EASTMAN CHEMICAL CO SOUTH CAROLINA OPERATIONS,325211,issues,issues,issues,issues,issues,EASTMAN CHEMICAL CO,110040866783.0,issues,issues,issues,issues,issues,issues,issues,issues,issues,issues,issues,issues,issues,left_only
3866,44004CCDNT725ST,HUNTSMAN ADVANCED MATERIALS AMERICAS,325199,issues,issues,issues,issues,issues,HUNTSMAN CORP,110000384986.0,issues,issues,issues,issues,issues,issues,issues,issues,issues,issues,issues,issues,issues,left_only
4055,77507FMCCR12000,EVONIK ACTIVE OXYGENS LLC BAYPORT PLANT,325180,issues,issues,issues,issues,issues,EVONIK CORP,110000462838.0,issues,issues,issues,issues,issues,issues,issues,issues,issues,issues,issues,issues,issues,left_only
4077,32602PCRNC5002S,SIVANCE LLC,325199,issues,issues,issues,issues,issues,MILLIKEN & CO,110000520703.0,issues,issues,issues,issues,issues,issues,issues,issues,issues,issues,issues,issues,issues,left_only
4132,77015RCHHL1053H,REICHHOLD LLC 2,325211,issues,issues,issues,issues,issues,REICHHOLD LLC 2,110000461045.0,issues,issues,issues,issues,issues,issues,issues,issues,issues,issues,issues,issues,issues,left_only
4275,60525PNCXX8400J,UOP LLC MCCOOK PLANT,325199,325180.0,541712.0,issues,issues,issues,HONEYWELL INTERNATIONAL INC,110000433638.0,issues,issues,issues,issues,issues,issues,issues,issues,issues,issues,issues,issues,issues,left_only
4277,49738GRGPCROUTE,GEORGIA-PACIFIC CHEMICALS LLC,325211,325199.0,issues,issues,issues,issues,KOCH INDUSTRIES INC,110000593359.0,issues,issues,issues,issues,issues,issues,issues,issues,issues,issues,issues,issues,issues,left_only
4313,23237WKCHM1600B,FUJIFILM WAKO CHEMICALS USA CORP,325199,issues,issues,issues,issues,issues,issues,110000341979.0,issues,issues,issues,issues,issues,issues,issues,issues,issues,issues,issues,issues,issues,left_only
4317,61802PLNGN2401N,APL ENGINEERED MATERIALS INC,325180,issues,issues,issues,issues,issues,ADVANCED LIGHTING TECHNOLOGIES INC,110005907082.0,issues,issues,issues,issues,issues,issues,issues,issues,issues,issues,issues,issues,issues,left_only
4356,29560NNYPLHWY52,NAN YA PLASTICS CORP AMERICA,325211,313110.0,325220.0,issues,issues,issues,NAN YA PLASTICS CORP AMERICA,110000353965.0,issues,issues,issues,issues,issues,issues,issues,issues,issues,issues,issues,issues,issues,left_only
4406,01080MSTNG4SPRI,MUSTANG MOTORCYCLE PRODUCTS LLC,325211,336991.0,issues,issues,issues,issues,MAG INC,110022811402.0,issues,issues,issues,issues,issues,issues,issues,issues,issues,issues,issues,issues,issues,left_only
4408,27262PRCHM1670E,INNOSPEC ACTIVE CHEMICALS,325199,issues,issues,issues,issues,issues,INNOSPEC INC,110000345895.0,issues,issues,issues,issues,issues,issues,issues,issues,issues,issues,issues,issues,issues,left_only
4418,01887CHMGN33IND,CHEMGENES CORP,325199,issues,issues,issues,issues,issues,issues,110003445790.0,issues,issues,issues,issues,issues,issues,issues,issues,issues,issues,issues,issues,issues,left_only
4427,90262CRGLL2801L,POLYNT COMPOSITES USA INC,325211,issues,issues,issues,issues,issues,POLYNT COMPOSITES USA INC,110000474834.0,issues,issues,issues,issues,issues,issues,issues,issues,issues,issues,issues,issues,issues,left_only
4441,45414MLSNC5600B,TATE & LYLE CITRIC ACID,325199,issues,issues,issues,issues,issues,TATE & LYLE INGREDIENTS AMERICAS LLC,110000394742.0,issues,issues,issues,issues,issues,issues,issues,issues,issues,issues,issues,issues,issues,left_only
4498,68008PGL1C650IN,PURAC AMERICA INC.,325199,issues,issues,issues,issues,issues,issues,110057607175.0,issues,issues,issues,issues,issues,issues,issues,issues,issues,issues,issues,issues,issues,left_only
4579,89015THTCH7300L,THATCHER CO OF NEVADA,325180,issues,issues,issues,issues,issues,THATCHER CO,110000579008.0,issues,issues,issues,issues,issues,issues,issues,issues,issues,issues,issues,issues,issues,left_only
4603,72901CPLSN5106W,INEOS COMPOSITES US LLC,325211,issues,issues,issues,issues,issues,INEOS COMPOSITES US LLC,110012818102.0,issues,issues,issues,issues,issues,issues,issues,issues,issues,issues,issues,issues,issues,left_only
4642,47802HYDRT1330L,HYDRITE CHEMICAL CO.,325180,issues,issues,issues,issues,issues,HYDRITE CHEMICAL CO,110064104589.0,issues,issues,issues,issues,issues,issues,issues,issues,issues,issues,issues,issues,issues,left_only
4674,14150GNRLM305SA,3M CO - TONAWANDA,325211,issues,issues,issues,issues,issues,3M CO,110000326727.0,issues,issues,issues,issues,issues,issues,issues,issues,issues,issues,issues,issues,issues,left_only
4776,33166LLDNV8350N,ALLIED UNIVERSAL CORP,325180,issues,issues,issues,issues,issues,ALLIED UNIVERSAL HOLDING CORP,110000871968.0,issues,issues,issues,issues,issues,issues,issues,issues,issues,issues,issues,issues,issues,left_only
4777,43612CHMBN6175A,ARCLIN USA LLC,325211,325199.0,issues,issues,issues,issues,ARCLIN INC,110000384138.0,issues,issues,issues,issues,issues,issues,issues,issues,issues,issues,issues,issues,issues,left_only
5018,61537THGNCRURAL,MEXICHEM SPECIALTY RESINS INC,325211,issues,issues,issues,issues,issues,MEXICHEM SPECIALTY RESINS INC,110018402780.0,issues,issues,issues,issues,issues,issues,issues,issues,issues,issues,issues,issues,issues,left_only
5021,37406LCCHM909MU,NOURYON SURFACE CHEMISTRY LLC,325211,issues,issues,issues,issues,issues,NOURYON CHEMICALS LLC,110011619294.0,issues,issues,issues,issues,issues,issues,issues,issues,issues,issues,issues,issues,issues,left_only
5110,19134PRLTC3620G,PUROLITE LLC,325211,issues,issues,issues,issues,issues,ECOLAB CO,110000336878.0,issues,issues,issues,issues,issues,issues,issues,issues,issues,issues,issues,issues,issues,left_only
5121,60534PLRNC7847W,ELE CORP,325180,issues,issues,issues,issues,issues,issues,110000550378.0,issues,issues,issues,issues,issues,issues,issues,issues,issues,issues,issues,issues,issues,left_only
5436,36201MNSNT300BI,SOLUTIA INC ANNISTON PLANT,325199,issues,issues,issues,issues,issues,EASTMAN CHEMICAL CO,110000368806.0,issues,issues,issues,issues,issues,issues,issues,issues,issues,issues,issues,issues,issues,left_only
5440,71730GRRSN181CO,LYCUS LTD,325199,issues,issues,issues,issues,issues,issues,110000451029.0,issues,issues,issues,issues,issues,issues,issues,issues,issues,issues,issues,issues,issues,left_only
5455,68008MDWST650IN,EVONIK CORP,325199,issues,issues,issues,issues,issues,EVONIK CORP,110040981532.0,issues,issues,issues,issues,issues,issues,issues,issues,issues,issues,issues,issues,issues,left_only
5788,55987CCMPS501W3,CYTEC ENGINEERED MATERIALS INC,325211,issues,issues,issues,issues,issues,SOLVAY HOLDING INC,110008817165.0,issues,issues,issues,issues,issues,issues,issues,issues,issues,issues,issues,issues,issues,left_only
5791,31533FFNCC1415W,OPTIMA CHEMICAL GROUP LLC,325199,issues,issues,issues,issues,issues,issues,110000360644.0,issues,issues,issues,issues,issues,issues,issues,issues,issues,issues,issues,issues,issues,left_only
5836,45229WRGRC4775P,SOLVAY USA INC,325180,issues,issues,issues,issues,issues,SOLVAY USA INC,110000393538.0,issues,issues,issues,issues,issues,issues,issues,issues,issues,issues,issues,issues,issues,left_only
5966,77507BCGSS952BA,LINDE GAS NORTH AMERICA LLC,325120,issues,issues,issues,issues,issues,LINDE GAS N.A. LLC,110067040703.0,issues,issues,issues,issues,issues,issues,issues,issues,issues,issues,issues,issues,issues,left_only
5967,19013NRQYT800WF,ENTEGRIS INC.,325199,issues,issues,issues,issues,issues,ENTEGRIS INC,110000336093.0,issues,issues,issues,issues,issues,issues,issues,issues,issues,issues,issues,issues,issues,left_only
6018,41015FLNSL3535L,INTERPLASTIC CORP-FORT WRIGHT,325211,issues,issues,issues,issues,issues,IP CORP,110001376635.0,issues,issues,issues,issues,issues,issues,issues,issues,issues,issues,issues,issues,issues,left_only
6382,36330MRGNN200WE,MORGAN FUEL LLC,325199,issues,issues,issues,issues,issues,MORGAN INC,110000369119.0,issues,issues,issues,issues,issues,issues,issues,issues,issues,issues,issues,issues,issues,left_only
6561,65769SYNTXFIRST,BCP INGREDIENTS INC.,325199,issues,issues,issues,issues,issues,BALCHEM CORP,110000444788.0,issues,issues,issues,issues,issues,issues,issues,issues,issues,issues,issues,issues,issues,left_only
6713,48213PVSTC6500F,PVS TECHNOLOGIES INC,325180,issues,issues,issues,issues,issues,PVS CHEMICALS INC,110000406784.0,issues,issues,issues,issues,issues,issues,issues,issues,issues,issues,issues,issues,issues,left_only
6715,37406NNDST2651R,NIPPON SHOKUBAI AMERICA INDUSTRIES INC. (FORMERLY NA INDUSTR,325199,issues,issues,issues,issues,issues,issues,110000371856.0,issues,issues,issues,issues,issues,issues,issues,issues,issues,issues,issues,issues,issues,left_only
6826,45418MNSNT1515N,DUPONT ELECTRONIC POLYMERS,325211,issues,issues,issues,issues,issues,DUPONT DE NEMOURS INC,110000394804.0,issues,issues,issues,issues,issues,issues,issues,issues,issues,issues,issues,issues,issues,left_only
7076,12803BRDNC64FAR,HEXION INC-MOREAU FACILITY,325199,issues,issues,issues,issues,issues,HEXION HOLDINGS CORP,110056967581.0,issues,issues,issues,issues,issues,issues,issues,issues,issues,issues,issues,issues,issues,left_only
7696,76031SCHMN2311P,SACHEM INC,325199,issues,issues,issues,issues,issues,SACHEM INC,110000459003.0,issues,issues,issues,issues,issues,issues,issues,issues,issues,issues,issues,issues,issues,left_only
7886,44035NYLNG1301L,3M ELYRIA,325211,issues,issues,issues,issues,issues,3M CO,110000385459.0,issues,issues,issues,issues,issues,issues,issues,issues,issues,issues,issues,issues,issues,left_only
8134,17540DRTCN60EAS,DART CONTAINER CORP OF PENNSYLVANIA,325211,issues,issues,issues,issues,issues,DART CONTAINER CORP,110000333817.0,issues,issues,issues,issues,issues,issues,issues,issues,issues,issues,issues,issues,issues,left_only
8317,67337TSSND515NL,TESSENDERLO KERLEY INC.,325180,325311.0,issues,issues,issues,issues,TESSENDERLO KERLEY INC,110000568920.0,issues,issues,issues,issues,issues,issues,issues,issues,issues,issues,issues,issues,issues,left_only
8342,70664CRTNTPETEM,CERTAINTEED CORP,325211,issues,issues,issues,issues,issues,SAINT-GOBAIN CORP,110000449596.0,issues,issues,issues,issues,issues,issues,issues,issues,issues,issues,issues,issues,issues,left_only
8343,60053RGSTC8210N,REGIS TECHNOLOGIES INC.,325199,issues,issues,issues,issues,issues,issues,110000429661.0,issues,issues,issues,issues,issues,issues,issues,issues,issues,issues,issues,issues,issues,left_only
8456,14303LNCHM2400B,OLIN CORP,325180,issues,issues,issues,issues,issues,OLIN CORP,110000327398.0,issues,issues,issues,issues,issues,issues,issues,issues,issues,issues,issues,issues,issues,left_only
8590,62206CCDNT500MO,OCCIDENTAL CHEMICAL CORP SAUGET PLANT,325199,325180.0,issues,issues,issues,issues,OCCIDENTAL CHEMICAL HOLDING CORP,110000500486.0,issues,issues,issues,issues,issues,issues,issues,issues,issues,issues,issues,issues,issues,left_only
8606,70663STHRN1697D,SOUTHERN IONICS INC,325180,issues,issues,issues,issues,issues,issues,110002069172.0,issues,issues,issues,issues,issues,issues,issues,issues,issues,issues,issues,issues,issues,left_only
8622,70710SHNTC9750L,SHINTECH LOUISIANA LLC - ADDIS PLANT A,325211,issues,issues,issues,issues,issues,C-K TECH INC,110008393354.0,issues,issues,issues,issues,issues,issues,issues,issues,issues,issues,issues,issues,issues,left_only
8625,6183WRGDNV3NAND,REG DANVILLE LLC,325199,issues,issues,issues,issues,issues,RENEWABLE ENERGY GROUP INC,110037141269.0,issues,issues,issues,issues,issues,issues,issues,issues,issues,issues,issues,issues,issues,left_only
8669,77541SHNTS565HW,SHIN-ETSU SILICONES OF AMERICA INC,325199,issues,issues,issues,issues,issues,SHIN-ETSU CHEMICAL,110013362770.0,issues,issues,issues,issues,issues,issues,issues,issues,issues,issues,issues,issues,issues,left_only
8894,90744RPRDS700HE,AIR PRODUCTS & CHEMICALS INC.,325120,issues,issues,issues,issues,issues,AIR PRODUCTS & CHEMICALS INC,110000476084.0,issues,issues,issues,issues,issues,issues,issues,issues,issues,issues,issues,issues,issues,left_only
8941,12188DGSSCSCHOO,EVONIK INDUSTRIES,325180,issues,issues,issues,issues,issues,EVONIK CORP,110019082188.0,issues,issues,issues,issues,issues,issues,issues,issues,issues,issues,issues,issues,issues,left_only
9197,36311SLSSNHIGHW,ARICHEM LLC,325199,issues,issues,issues,issues,issues,issues,110010380694.0,issues,issues,issues,issues,issues,issues,issues,issues,issues,issues,issues,issues,issues,left_only
9384,39120MCPTRRIVER,WORLD ENERGY NATCHEZ LLC,325199,issues,issues,issues,issues,issues,WORLD ENERGY LLC,110000376441.0,issues,issues,issues,issues,issues,issues,issues,issues,issues,issues,issues,issues,issues,left_only
9403,70734LQDCRPOBOX,LINDE GEISMAR FACILITY,325120,325199.0,issues,issues,issues,issues,LINDE INC,110046264760.0,issues,issues,issues,issues,issues,issues,issues,issues,issues,issues,issues,issues,issues,left_only
9559,19136QKRCT7360M,QUAKER CITY CHEMICALS,325199,issues,issues,issues,issues,issues,issues,110000336930.0,issues,issues,issues,issues,issues,issues,issues,issues,issues,issues,issues,issues,issues,left_only
9678,15201PRSSR3419S,PRESSURE CHEMICAL CO,325199,issues,issues,issues,issues,issues,issues,110000329467.0,issues,issues,issues,issues,issues,issues,issues,issues,issues,issues,issues,issues,issues,left_only
9687,29349MLLKN1440C,MILLIKEN CHEMICAL - DEWEY PLANT,325199,issues,issues,issues,issues,issues,MILLIKEN & CO,110000498550.0,issues,issues,issues,issues,issues,issues,issues,issues,issues,issues,issues,issues,issues,left_only
9703,23434LLDCL2301W,SOLENIS LLC,325199,issues,issues,issues,issues,issues,PLATINUM EQUITY LLC,110020677999.0,issues,issues,issues,issues,issues,issues,issues,issues,issues,issues,issues,issues,issues,left_only
10085,46360MRCNC1800E,SHELL CATALYSTS & TECHNOLOGIES LP,325180,issues,issues,issues,issues,issues,SHELL PETROLEUM INC,110000745864.0,issues,issues,issues,issues,issues,issues,issues,issues,issues,issues,issues,issues,issues,left_only
10153,27203TLRMP801PI,STARPET INC,325211,issues,issues,issues,issues,issues,issues,110056970434.0,issues,issues,issues,issues,issues,issues,issues,issues,issues,issues,issues,issues,issues,left_only
10249,62239VRTXCEASTC,HAWKINS INC. - DUPO,325180,issues,issues,issues,issues,issues,HAWKINS INC,110056965565.0,issues,issues,issues,issues,issues,issues,issues,issues,issues,issues,issues,issues,issues,left_only
10256,71483CHMBNHIGHW,ARCLIN USA LLC,325211,325199.0,issues,issues,issues,issues,ARCLIN INC,110000597596.0,issues,issues,issues,issues,issues,issues,issues,issues,issues,issues,issues,issues,issues,left_only
10371,95376LLPRC26700,PIONEER AMERICAS LLC D/B/A OLIN CHLOR ALKALI PRODUCTS TRACY,325180,issues,issues,issues,issues,issues,OLIN CORP,110017211845.0,issues,issues,issues,issues,issues,issues,issues,issues,issues,issues,issues,issues,issues,left_only
10400,98550PNLTC2999J,PANELTECH,325211,issues,issues,issues,issues,issues,issues,110021074790.0,issues,issues,issues,issues,issues,issues,issues,issues,issues,issues,issues,issues,issues,left_only
10431,77507NSSNC12330,NISSAN CHEMICAL AMERICA PASADENA PLANT,325199,issues,issues,issues,issues,issues,NISSAN CHEMICAL AMERICA CORP,110005172357.0,issues,issues,issues,issues,issues,issues,issues,issues,issues,issues,issues,issues,issues,left_only
10435,93501MPRLW18700,KEMIRA WATER SOLUTIONS INC,325180,issues,issues,issues,issues,issues,KEMIRA WATER SOLUTIONS INC,110000729800.0,issues,issues,issues,issues,issues,issues,issues,issues,issues,issues,issues,issues,issues,left_only
10447,73801DPWTR1210A,DEEPWATER CHEMICALS INC.,325199,325180.0,issues,issues,issues,issues,issues,110000454311.0,issues,issues,issues,issues,issues,issues,issues,issues,issues,issues,issues,issues,issues,left_only
10501,07071PLYRT624SC,POLYURETHANE SPECIALTIES CO.IN C.,325211,issues,issues,issues,issues,issues,POLYURETHANE CORP OF AMERICA,110000318834.0,issues,issues,issues,issues,issues,issues,issues,issues,issues,issues,issues,issues,issues,left_only
10520,74015DVNCR1110W,ADVANCE RESEARCH CHEMICALS INC,325180,issues,issues,issues,issues,issues,issues,110000454464.0,issues,issues,issues,issues,issues,issues,issues,issues,issues,issues,issues,issues,issues,left_only
10634,18327HCDVSROUTE,VERTELLUS DWG LLC,325199,325180.0,issues,issues,issues,issues,V GLOBAL HOLDINGS LLC,110011537088.0,issues,issues,issues,issues,issues,issues,issues,issues,issues,issues,issues,issues,issues,left_only
10637,98837MSSLK780RA,MOSES LAKE INDUSTRIES INC,325199,325180.0,issues,issues,issues,issues,issues,110011580093.0,issues,issues,issues,issues,issues,issues,issues,issues,issues,issues,issues,issues,issues,left_only
10708,77015PNNWL2231H,ARKEMA INC,325199,issues,issues,issues,issues,issues,ARKEMA DELAWARE INC,110056638526.0,issues,issues,issues,issues,issues,issues,issues,issues,issues,issues,issues,issues,issues,left_only
10710,01527LWCTT86PRO,LEWCOTT CORP D/B/A BARRDAY COMPOSITE SOLUTIONS,325211,issues,issues,issues,issues,issues,issues,110000308989.0,issues,issues,issues,issues,issues,issues,issues,issues,issues,issues,issues,issues,issues,left_only
10729,44077RCPLS786HA,BVPV STYRENICS LLC,325211,issues,issues,issues,issues,issues,STYROPEK USA INC.,110000385958.0,issues,issues,issues,issues,issues,issues,issues,issues,issues,issues,issues,issues,issues,left_only
10731,27407DWCRN2914P,DDP SPECIALTY ELECTRONIC MATERIALS US9 LLC,325211,issues,issues,issues,issues,issues,DOWDUPONT INC,110000346634.0,issues,issues,issues,issues,issues,issues,issues,issues,issues,issues,issues,issues,issues,left_only
10757,7798WBRSKM751NH,BRASKEM AMERICA INC SEADRIFT PLANT,325211,issues,issues,issues,issues,issues,BRASKEM AMERICA INC.,110007175154.0,issues,issues,issues,issues,issues,issues,issues,issues,issues,issues,issues,issues,issues,left_only
10764,70669RPRDC12TRU,AIR PRODUCTS & CHEMICALS INC,325120,issues,issues,issues,issues,issues,AIR PRODUCTS & CHEMICALS INC,110017619861.0,issues,issues,issues,issues,issues,issues,issues,issues,issues,issues,issues,issues,issues,left_only
10774,77047SYNTC14822,SYNTECH CHEMICALS INC,325199,issues,issues,issues,issues,issues,issues,110000461786.0,issues,issues,issues,issues,issues,issues,issues,issues,issues,issues,issues,issues,issues,left_only
10785,27360STHRN3440D,SOUTHERN RESIN,325211,issues,issues,issues,issues,issues,issues,110000346439.0,issues,issues,issues,issues,issues,issues,issues,issues,issues,issues,issues,issues,issues,left_only
10792,30734LLDNV1405P,ALLIED UNIVERSAL CORP,325180,issues,issues,issues,issues,issues,ALLIED UNIVERSAL HOLDING CORP,110000359308.0,issues,issues,issues,issues,issues,issues,issues,issues,issues,issues,issues,issues,issues,left_only
10815,07114CHMFL92896,CHEM FLUER/FIRMENICH INC,325199,issues,issues,issues,issues,issues,issues,110006175370.0,issues,issues,issues,issues,issues,issues,issues,issues,issues,issues,issues,issues,issues,left_only
10822,61953CBTCRROUTE,CABOT CORP FMO DIV,325180,issues,issues,issues,issues,issues,CABOT CORP,110056963488.0,issues,issues,issues,issues,issues,issues,issues,issues,issues,issues,issues,issues,issues,left_only
10826,53209HRCLS5228N,SOLENIS LLC,325211,issues,issues,issues,issues,issues,PLATINUM EQUITY ADVISORS LLC,110000418575.0,issues,issues,issues,issues,issues,issues,issues,issues,issues,issues,issues,issues,issues,left_only
10833,50703HYDRT2815W,HYDRITE CHEMICAL CO.,325180,issues,issues,issues,issues,issues,HYDRITE CHEMICAL CO,110000593616.0,issues,issues,issues,issues,issues,issues,issues,issues,issues,issues,issues,issues,issues,left_only
10884,32205NNCMP2051N,IFF CHEMICAL HOLDINGS INC,325199,issues,issues,issues,issues,issues,INTERNATIONAL FLAVORS & FRAGRANCES INC,110000361830.0,issues,issues,issues,issues,issues,issues,issues,issues,issues,issues,issues,issues,issues,left_only
10906,60076RSNDN7557S,RESINOID ENGINEERING CORP,325211,issues,issues,issues,issues,issues,RESINOID ENGINEERING CORP,110018099181.0,issues,issues,issues,issues,issues,issues,issues,issues,issues,issues,issues,issues,issues,left_only
10909,18936TWPHL130CO,ITW PERFORMANCE POLYMERS,325211,issues,issues,issues,issues,issues,ILLINOIS TOOL WORKS INC,110000335744.0,issues,issues,issues,issues,issues,issues,issues,issues,issues,issues,issues,issues,issues,left_only
10959,37310RCHCH1200L,INNOVATIVE WATER CARE LLC  DBA SOLENIS,325180,issues,issues,issues,issues,issues,INNOVATIVE WATER CARE LLC,110002335820.0,issues,issues,issues,issues,issues,issues,issues,issues,issues,issues,issues,issues,issues,left_only
10973,27703PSCRP6ELLI,IPS STRUCTURAL ADHESIVES INC.,325180,issues,issues,issues,issues,issues,IPS CORP,110004061005.0,issues,issues,issues,issues,issues,issues,issues,issues,issues,issues,issues,issues,issues,left_only
10974,92376DRTCH2720S,DURA TECHNOLOGIES INC,325211,issues,issues,issues,issues,issues,RDHC GROUP INC,110038070315.0,issues,issues,issues,issues,issues,issues,issues,issues,issues,issues,issues,issues,issues,left_only
10975,63111SPLYM300EA,US POLYMERS - ACCUREZ LLC,325211,issues,issues,issues,issues,issues,issues,110000441157.0,issues,issues,issues,issues,issues,issues,issues,issues,issues,issues,issues,issues,issues,left_only
10986,52809GHRML7001B,PB LEINER USA,325199,issues,issues,issues,issues,issues,TESSENDERLO GROUP INC,110000416032.0,issues,issues,issues,issues,issues,issues,issues,issues,issues,issues,issues,issues,issues,left_only
10990,01730PPLDB2PRES,THERMO FISHER SCIENTIFIC,325211,issues,issues,issues,issues,issues,issues,110017372412.0,issues,issues,issues,issues,issues,issues,issues,issues,issues,issues,issues,issues,issues,left_only
11011,18055BTHLH890FR,BETHLEHEM APPARATUS CO INC,325180,331492.0,issues,issues,issues,issues,issues,110000334932.0,issues,issues,issues,issues,issues,issues,issues,issues,issues,issues,issues,issues,issues,left_only
11012,90670STHRN8851D,PHIBRO-TECH INC.,325180,issues,issues,issues,issues,issues,PHIBRO ANIMAL HEALTH CORP,110000475780.0,issues,issues,issues,issues,issues,issues,issues,issues,issues,issues,issues,issues,issues,left_only
11062,55808MBYSY110SP,TATE & LYLE DULUTH,325199,issues,issues,issues,issues,issues,TATE & LYLE INGREDIENTS AMERICAS LLC,110000426370.0,issues,issues,issues,issues,issues,issues,issues,issues,issues,issues,issues,issues,issues,left_only
11065,93308SLXNS2343P,NUSIL TECHNOLOGY LLC,325199,issues,issues,issues,issues,issues,AVANTOR PERFORMANCE MATERIALS INC,110002925229.0,issues,issues,issues,issues,issues,issues,issues,issues,issues,issues,issues,issues,issues,left_only
11071,28655STRND114IN,HEXION INC - MORGANTON FACILITY,325211,issues,issues,issues,issues,issues,HEXION HOLDINGS CORP,110000351155.0,issues,issues,issues,issues,issues,issues,issues,issues,issues,issues,issues,issues,issues,left_only
11080,30720FRMND134PH,HARCROS CHEMICALS INC,325180,issues,issues,issues,issues,issues,HARCROS CHEMICALS INC,110044310144.0,issues,issues,issues,issues,issues,issues,issues,issues,issues,issues,issues,issues,issues,left_only
11095,79027GDPSTSEHWY,DIMMITT SULFUR PRODUCTS LTD,325180,issues,issues,issues,issues,issues,issues,110067263883.0,issues,issues,issues,issues,issues,issues,issues,issues,issues,issues,issues,issues,issues,left_only
11097,08817KZCHMMEADO,EQUISTAR CHEMICALS LP,325180,issues,issues,issues,issues,issues,LYONDELLBASELL INDUSTRIES,110067001862.0,issues,issues,issues,issues,issues,issues,issues,issues,issues,issues,issues,issues,issues,left_only
11126,29115GLBRNHWY21,GULBRANDSEN INC,325180,issues,issues,issues,issues,issues,issues,110000352109.0,issues,issues,issues,issues,issues,issues,issues,issues,issues,issues,issues,issues,issues,left_only
11137,52553JNMTS1AJIN,AJINOMOTO HEALTH & NUTRITION N.A. INC.,325199,issues,issues,issues,issues,issues,AJINOMOTO HEALTH & NUTRITION N.A. INC,110035869165.0,issues,issues,issues,issues,issues,issues,issues,issues,issues,issues,issues,issues,issues,left_only
11155,48640CBTFM3603S,CABOT FUMED SILICA - MIDLAND PLANT,325180,issues,issues,issues,issues,issues,CABOT CORP,110002343367.0,issues,issues,issues,issues,issues,issues,issues,issues,issues,issues,issues,issues,issues,left_only
11168,62202CHMTC3500M,SOLVAY FLUORIDES LLC,325180,issues,issues,issues,issues,issues,issues,110000500468.0,issues,issues,issues,issues,issues,issues,issues,issues,issues,issues,issues,issues,issues,left_only
11171,6696WNSKNR127RA,NESIKA ENERGY,325199,issues,issues,issues,issues,issues,issues,110033149064.0,issues,issues,issues,issues,issues,issues,issues,issues,issues,issues,issues,issues,issues,left_only
11180,07607STPNC100WH,STEPAN CO MAYWOOD,325199,issues,issues,issues,issues,issues,STEPAN CO,110000320395.0,issues,issues,issues,issues,issues,issues,issues,issues,issues,issues,issues,issues,issues,left_only
11182,90503RGSDR3535D,AIRGAS DRY ICE,325120,issues,issues,issues,issues,issues,AIRGAS USA LLC,110067041953.0,issues,issues,issues,issues,issues,issues,issues,issues,issues,issues,issues,issues,issues,left_only
11196,06412CRYDY67WIN,PURIFICATION TECHNOLOGIES LLC,325199,issues,issues,issues,issues,issues,AVANTOR PERFORMANCE MATERIALS INC,110000316104.0,issues,issues,issues,issues,issues,issues,issues,issues,issues,issues,issues,issues,issues,left_only
11198,46312PRXRNFOOTO,LINDE INC,325120,issues,issues,issues,issues,issues,LINDE INC,110002321381.0,issues,issues,issues,issues,issues,issues,issues,issues,issues,issues,issues,issues,issues,left_only
11240,46375MSNMT1049N,MASON CORP,325180,issues,issues,issues,issues,issues,issues,110000592190.0,issues,issues,issues,issues,issues,issues,issues,issues,issues,issues,issues,issues,issues,left_only
11244,19061SSCHM4000C,ESSCHEM INC.,325211,issues,issues,issues,issues,issues,JUSTI GROUP INC,110000336459.0,issues,issues,issues,issues,issues,issues,issues,issues,issues,issues,issues,issues,issues,left_only
11249,35616RCCRBPOBOX,MESSER LLC,325120,issues,issues,issues,issues,issues,MESSER N.A. INC,110000367647.0,issues,issues,issues,issues,issues,issues,issues,issues,issues,issues,issues,issues,issues,left_only
11268,33611CHMCL5411W,CHEMICAL FORMULATORS INC,325180,issues,issues,issues,issues,issues,ALLIED UNIVERSAL HOLDING CORP,110067259861.0,issues,issues,issues,issues,issues,issues,issues,issues,issues,issues,issues,issues,issues,left_only
11280,77541FRPRT2398V,AIR LIQUIDE FREEPORT HYCO PLANT,325120,issues,issues,issues,issues,issues,AMERICAN AIR LIQUIDE HOLDINGS INC,110005184497.0,issues,issues,issues,issues,issues,issues,issues,issues,issues,issues,issues,issues,issues,left_only
11295,94804RCCRB731WC,MESSER LLC,325120,issues,issues,issues,issues,issues,issues,110000483931.0,issues,issues,issues,issues,issues,issues,issues,issues,issues,issues,issues,issues,issues,left_only
11317,44125RSRCH4353E,RESEARCH ORGANICS LLC,325199,325998.0,325414.0,issues,issues,issues,EMD HOLDING CORP,110000387420.0,issues,issues,issues,issues,issues,issues,issues,issues,issues,issues,issues,issues,issues,left_only
11323,92345VYDCG17434,W. R. GRACE,325180,issues,issues,issues,issues,issues,W R GRACE & CO,110012266546.0,issues,issues,issues,issues,issues,issues,issues,issues,issues,issues,issues,issues,issues,left_only
11327,70051STCKH3606H,EVONIK CORP,325199,issues,issues,issues,issues,issues,EVONIK INDUSTRIES,110000597088.0,issues,issues,issues,issues,issues,issues,issues,issues,issues,issues,issues,issues,issues,left_only
11337,31520LLDNVRT1BO,ALLIED UNIVERSAL CORP,325180,issues,issues,issues,issues,issues,ALLIED UNIVERSAL HOLDING CORP,110000360608.0,issues,issues,issues,issues,issues,issues,issues,issues,issues,issues,issues,issues,issues,left_only
11340,99352DVNCD2101H,FRAMATOME NP,325180,issues,issues,issues,issues,issues,issues,110000491673.0,issues,issues,issues,issues,issues,issues,issues,issues,issues,issues,issues,issues,issues,left_only
11349,39167CRBNCANDRE,AIRGAS CARBONIC,325120,issues,issues,issues,issues,issues,AIRGAS INC,110000708618.0,issues,issues,issues,issues,issues,issues,issues,issues,issues,issues,issues,issues,issues,left_only
11351,89015PNRCH8000L,PIONEER AMERICAS LLC D/B/A OLIN CHLOR ALKALI PRODUCTS,325180,issues,issues,issues,issues,issues,OLIN CORP,110042074457.0,issues,issues,issues,issues,issues,issues,issues,issues,issues,issues,issues,issues,issues,left_only
11369,07928STTNL116SU,ISP CHEMICALS LLC,325199,issues,issues,issues,issues,issues,ASHLAND LLC,110000320803.0,issues,issues,issues,issues,issues,issues,issues,issues,issues,issues,issues,issues,issues,left_only
11390,14094VNCHL555WE,VANCHLOR CO INC,325180,issues,issues,issues,issues,issues,issues,110011542054.0,issues,issues,issues,issues,issues,issues,issues,issues,issues,issues,issues,issues,issues,left_only
11395,63147MDLND10BRE,KEMIRA WATER SOLUTIONS,325180,issues,issues,issues,issues,issues,KEMIRA WATER SOLUTIONS INC,110000441870.0,issues,issues,issues,issues,issues,issues,issues,issues,issues,issues,issues,issues,issues,left_only
11403,0291WSPNRG3DEXT,ASPEN AEROGELS RHODE ISLAND LLC,325180,issues,issues,issues,issues,issues,ASPEN AEROGELS INC,110001663101.0,issues,issues,issues,issues,issues,issues,issues,issues,issues,issues,issues,issues,issues,left_only
11407,33142SNTRY5687N,SENTRY INDUSTRIES INC,325180,issues,issues,issues,issues,issues,issues,110000873047.0,issues,issues,issues,issues,issues,issues,issues,issues,issues,issues,issues,issues,issues,left_only
11411,43465JNSHM30354,JONES-HAMILTON CO,325180,issues,issues,issues,issues,issues,JONES-HAMILTON CO,110000383335.0,issues,issues,issues,issues,issues,issues,issues,issues,issues,issues,issues,issues,issues,left_only
11415,98541MRTNTROUTE,ASCENSUS SPECIALTIES LLC,325180,325199.0,issues,issues,issues,issues,issues,110000490718.0,issues,issues,issues,issues,issues,issues,issues,issues,issues,issues,issues,issues,issues,left_only
11427,30103LGCHM31LGD,LG HAUSYS AMERICA INC,325211,issues,issues,issues,issues,issues,issues,110022814775.0,issues,issues,issues,issues,issues,issues,issues,issues,issues,issues,issues,issues,issues,left_only
11439,75220THDLC2929S,PETRA CHEMICAL CO-DALLAS PLANT,325180,325199.0,issues,issues,issues,issues,DPC INDUSTRIES INC,110000457416.0,issues,issues,issues,issues,issues,issues,issues,issues,issues,issues,issues,issues,issues,left_only
11440,44077PTPRC750BA,PET PROCESSORS LLC,325211,issues,issues,issues,issues,issues,DIEFENTHAL INVESTMENTS,110000385930.0,issues,issues,issues,issues,issues,issues,issues,issues,issues,issues,issues,issues,issues,left_only
11448,19428MNTGM91CNS,MONTGOMERY CHEMICALS,325180,issues,issues,issues,issues,issues,issues,110000925492.0,issues,issues,issues,issues,issues,issues,issues,issues,issues,issues,issues,issues,issues,left_only
11471,90744RLQDC1502W,AIRGAS USA LLC,325120,issues,issues,issues,issues,issues,AMERICAN AIR LIQUIDE HOLDINGS INC,110000758207.0,issues,issues,issues,issues,issues,issues,issues,issues,issues,issues,issues,issues,issues,left_only
11485,95131HLLBR410CH,HILL BROTHERS CHEMICAL CO,325180,424690.0,issues,issues,issues,issues,HILL BROTHERS CHEMICAL CO,110070100798.0,issues,issues,issues,issues,issues,issues,issues,issues,issues,issues,issues,issues,issues,left_only
11488,90220CNTNN2225E,PLASKOLITE WEST LLC.,325211,issues,issues,issues,issues,issues,PLASKOLITE LLC,110000474264.0,issues,issues,issues,issues,issues,issues,issues,issues,issues,issues,issues,issues,issues,left_only
11490,15412MRCNR2WHEE,PVS STEEL SERVICES INC,325180,issues,issues,issues,issues,issues,PVS CHEMICALS INC,110000901463.0,issues,issues,issues,issues,issues,issues,issues,issues,issues,issues,issues,issues,issues,left_only
11497,29605NPPNC1250P,NIPPON CARBIDE INDUSTRIES,325211,issues,issues,issues,issues,issues,issues,110001673779.0,issues,issues,issues,issues,issues,issues,issues,issues,issues,issues,issues,issues,issues,left_only
11500,03051PRFRM4PARK,MORGAN ADVANCED CERAMICS INC,325180,issues,issues,issues,issues,issues,MORGAN ADVANCED CERAMICS INC,110004116661.0,issues,issues,issues,issues,issues,issues,issues,issues,issues,issues,issues,issues,issues,left_only
11501,77590PRXRN172GR,LINDE INC TEXAS CITY SMR,325120,issues,issues,issues,issues,issues,LINDE INC,110022411530.0,issues,issues,issues,issues,issues,issues,issues,issues,issues,issues,issues,issues,issues,left_only
11502,46304MGNTC1111N,PVS TECHNOLOGIES INC.,325180,issues,issues,issues,issues,issues,PVS CHEMICALS INC,110000397721.0,issues,issues,issues,issues,issues,issues,issues,issues,issues,issues,issues,issues,issues,left_only
11508,02780WTRSC177RO,WATERS TECHNOLOGY CORP,325180,issues,issues,issues,issues,issues,issues,110000312073.0,issues,issues,issues,issues,issues,issues,issues,issues,issues,issues,issues,issues,issues,left_only
11510,47615MRCNR2001E,PVS TECHNOLOGIES INC,325180,issues,issues,issues,issues,issues,PVS CHEMICALS INC,110006010707.0,issues,issues,issues,issues,issues,issues,issues,issues,issues,issues,issues,issues,issues,left_only
11513,07305CRLXN230CU,ACRILEX INC,325211,issues,issues,issues,issues,issues,issues,110000319824.0,issues,issues,issues,issues,issues,issues,issues,issues,issues,issues,issues,issues,issues,left_only
11518,01060PRSTR238NO,BI-QEM INC,325211,issues,issues,issues,issues,issues,issues,110000308131.0,issues,issues,issues,issues,issues,issues,issues,issues,issues,issues,issues,issues,issues,left_only
11521,19706THCHLRIVER,KUEHNE CHEMICAL CO INC,325180,issues,issues,issues,issues,issues,KUEHNE CHEMICAL CO INC,110000338563.0,issues,issues,issues,issues,issues,issues,issues,issues,issues,issues,issues,issues,issues,left_only
11524,14150CRBRN168CR,SAINT GOBAIN CORP CERAMIC MATERIALS,325180,issues,issues,issues,issues,issues,SAINT-GOBAIN CORP,110000326692.0,issues,issues,issues,issues,issues,issues,issues,issues,issues,issues,issues,issues,issues,left_only
11525,45324MMPRD1260S,MIAMI PRODUCTS & CHEMICAL CO,325180,issues,issues,issues,issues,issues,issues,110012705803.0,issues,issues,issues,issues,issues,issues,issues,issues,issues,issues,issues,issues,issues,left_only
11529,80501MNSCR1861L,MATHESON TRIGAS LONGMONT CO BRANCH,325180,issues,issues,issues,issues,issues,TAIYO NIPPON SANSO USA INC,110002446835.0,issues,issues,issues,issues,issues,issues,issues,issues,issues,issues,issues,issues,issues,left_only
11532,46368MRCNR6300U,PVS TECHNOLOGIES INC.,325180,issues,issues,issues,issues,issues,PVS CHEMICALS INC,110056963282.0,issues,issues,issues,issues,issues,issues,issues,issues,issues,issues,issues,issues,issues,left_only
11541,08067XYVNYRTE13,OXY VINYLS LP,325211,issues,issues,issues,issues,issues,OCCIDENTAL CHEMICAL HOLDING CORP,110000753694.0,issues,issues,issues,issues,issues,issues,issues,issues,issues,issues,issues,issues,issues,left_only
11546,44004DLTCH1741W,USALCO ASHTABULA PLANT SOUTH,325180,issues,issues,issues,issues,issues,USALCO LLC,110008057262.0,issues,issues,issues,issues,issues,issues,issues,issues,issues,issues,issues,issues,issues,left_only
