FACILITY_ID,STKHGT,STKDIAM,STKTEMP,STKFLOW,STKVEL,FacilityID,FacilityName,Address,City,State,Zip,Latitude,Longitude,County,NAICS,SIC
1019211,375,14,400,,83.76,1019211,GP Cellulose Alabama River Cellulose LLC,2373 Lena Landegger HWY,Perdue Hill,AL,36470,31.5801,-87.4901,Monroe,322121,
1019211,127.1,5.3,224,875.6,38.2,1019211,GP Cellulose Alabama River Cellulose LLC,2373 Lena Landegger HWY,Perdue Hill,AL,36470,31.5801,-87.4901,Monroe,322121,
1019211,,,,,,1019211,GP Cellulose Alabama River Cellulose LLC,2373 Lena Landegger HWY,Perdue Hill,AL,36470,31.5801,-87.4901,Monroe,322121,
1019211,350,4.2,149,,37.4,1019211,GP Cellulose Alabama River Cellulose LLC,2373 Lena Landegger HWY,Perdue Hill,AL,36470,31.5801,-87.4901,Monroe,322121,
1019211,250,14,381,,68.09,1019211,GP Cellulose Alabama River Cellulose LLC,2373 Lena Landegger HWY,Perdue Hill,AL,36470,31.5801,-87.4901,Monroe,322121,
1019211,250,5.38,186,581.9333,25.58,1019211,GP Cellulose Alabama River Cellulose LLC,2373 Lena Landegger HWY,Perdue Hill,AL,36470,31.5801,-87.4901,Monroe,322121,
1019211,290,7.5,162,,19,1019211,GP Cellulose Alabama River Cellulose LLC,2373 Lena Landegger HWY,Perdue Hill,AL,36470,31.5801,-87.4901,Monroe,322121,
1019211,350,5,431,1216.5333,62,1019211,GP Cellulose Alabama River Cellulose LLC,2373 Lena Landegger HWY,Perdue Hill,AL,36470,31.5801,-87.4901,Monroe,322121,
1019211,12,.25,1251,9.15,186.49,1019211,GP Cellulose Alabama River Cellulose LLC,2373 Lena Landegger HWY,Perdue Hill,AL,36470,31.5801,-87.4901,Monroe,322121,
1019211,12,.28,1051,7.4833,121.59,1019211,GP Cellulose Alabama River Cellulose LLC,2373 Lena Landegger HWY,Perdue Hill,AL,36470,31.5801,-87.4901,Monroe,322121,
1019211,30,.17,950,1.7666,77.87,1019211,GP Cellulose Alabama River Cellulose LLC,2373 Lena Landegger HWY,Perdue Hill,AL,36470,31.5801,-87.4901,Monroe,322121,
1019211,5,.42,717,133.3333,950,1019211,GP Cellulose Alabama River Cellulose LLC,2373 Lena Landegger HWY,Perdue Hill,AL,36470,31.5801,-87.4901,Monroe,322121,
1019211,6,.33,1032,34.25,400.64,1019211,GP Cellulose Alabama River Cellulose LLC,2373 Lena Landegger HWY,Perdue Hill,AL,36470,31.5801,-87.4901,Monroe,322121,
1019211,45,5.54,1232,268.4,11.13,1019211,GP Cellulose Alabama River Cellulose LLC,2373 Lena Landegger HWY,Perdue Hill,AL,36470,31.5801,-87.4901,Monroe,322121,
1019211,60,6,225,1165.0,41.2,1019211,GP Cellulose Alabama River Cellulose LLC,2373 Lena Landegger HWY,Perdue Hill,AL,36470,31.5801,-87.4901,Monroe,322121,
1019211,266,4,120,583.3333,46.44,1019211,GP Cellulose Alabama River Cellulose LLC,2373 Lena Landegger HWY,Perdue Hill,AL,36470,31.5801,-87.4901,Monroe,322121,
3679111,317,3.4,184,337.3,38,3679111,Weyerhaeuser Company,1 Bonnybridge Road,Port Wentworth,GA,31407,32.1554,-81.159,Chatham,322110,
3679111,317,12.5,378,5225.8,43,3679111,Weyerhaeuser Company,1 Bonnybridge Road,Port Wentworth,GA,31407,32.1554,-81.159,Chatham,322110,
3679111,,,,,,3679111,Weyerhaeuser Company,1 Bonnybridge Road,Port Wentworth,GA,31407,32.1554,-81.159,Chatham,322110,
3679111,127.1,5.3,224,875.6,38.2,3679111,Weyerhaeuser Company,1 Bonnybridge Road,Port Wentworth,GA,31407,32.1554,-81.159,Chatham,322110,
3679111,150,5,350,816.4,41.6,3679111,Weyerhaeuser Company,1 Bonnybridge Road,Port Wentworth,GA,31407,32.1554,-81.159,Chatham,322110,
3679111,317,9.5,429,4133.4,59,3679111,Weyerhaeuser Company,1 Bonnybridge Road,Port Wentworth,GA,31407,32.1554,-81.159,Chatham,322110,
3679111,317,9.7,429,4133.4,57,3679111,Weyerhaeuser Company,1 Bonnybridge Road,Port Wentworth,GA,31407,32.1554,-81.159,Chatham,322110,
3679111,30,3.2,100,159.0,19.8,3679111,Weyerhaeuser Company,1 Bonnybridge Road,Port Wentworth,GA,31407,32.1554,-81.159,Chatham,322110,
3679111,60,8.9,140,5098.0,82,3679111,Weyerhaeuser Company,1 Bonnybridge Road,Port Wentworth,GA,31407,32.1554,-81.159,Chatham,322110,
3679111,30,4.9,180,24.8,1.3,3679111,Weyerhaeuser Company,1 Bonnybridge Road,Port Wentworth,GA,31407,32.1554,-81.159,Chatham,322110,
3679111,155,1.5,140,106.0,60.4,3679111,Weyerhaeuser Company,1 Bonnybridge Road,Port Wentworth,GA,31407,32.1554,-81.159,Chatham,322110,
3721011,275,11,315,2184.0,23,3721011,Brunswick Cellulose Inc,West 9th Street,Brunswick,GA,31521,31.1725,-81.5197,Glynn,322110,
3721011,,,,,,3721011,Brunswick Cellulose Inc,West 9th Street,Brunswick,GA,31521,31.1725,-81.5197,Glynn,322110,
3721011,127.1,5.4,224,875.7,38.3,3721011,Brunswick Cellulose Inc,West 9th Street,Brunswick,GA,31521,31.1725,-81.5197,Glynn,322110,
3721011,131,2.5,188,382.0,78,3721011,Brunswick Cellulose Inc,West 9th Street,Brunswick,GA,31521,31.1725,-81.5197,Glynn,322110,
3721011,264,12,406,6850.0,60.6,3721011,Brunswick Cellulose Inc,West 9th Street,Brunswick,GA,31521,31.1725,-81.5197,Glynn,322110,
3721011,228,5.5,169,1377.0,58,3721011,Brunswick Cellulose Inc,West 9th Street,Brunswick,GA,31521,31.1725,-81.5197,Glynn,322110,
3721011,80,1,100,0.3,.4,3721011,Brunswick Cellulose Inc,West 9th Street,Brunswick,GA,31521,31.1725,-81.5197,Glynn,322110,
3721011,85,1,125,3.9,5,3721011,Brunswick Cellulose Inc,West 9th Street,Brunswick,GA,31521,31.1725,-81.5197,Glynn,322110,
3721011,274,12,347,9269.0,82,3721011,Brunswick Cellulose Inc,West 9th Street,Brunswick,GA,31521,31.1725,-81.5197,Glynn,322110,
3721011,272,13,395,4338.0,32.7,3721011,Brunswick Cellulose Inc,West 9th Street,Brunswick,GA,31521,31.1725,-81.5197,Glynn,322110,
3721011,75,10,100,7.9,.1,3721011,Brunswick Cellulose Inc,West 9th Street,Brunswick,GA,31521,31.1725,-81.5197,Glynn,322110,
3721011,100,1.5,100,1.8,1,3721011,Brunswick Cellulose Inc,West 9th Street,Brunswick,GA,31521,31.1725,-81.5197,Glynn,322110,
3721011,40,1,100,0.3,.4,3721011,Brunswick Cellulose Inc,West 9th Street,Brunswick,GA,31521,31.1725,-81.5197,Glynn,322110,
3721011,75,20,100,31.4,.1,3721011,Brunswick Cellulose Inc,West 9th Street,Brunswick,GA,31521,31.1725,-81.5197,Glynn,322110,
3721011,105,2.5,100,98.1,20,3721011,Brunswick Cellulose Inc,West 9th Street,Brunswick,GA,31521,31.1725,-81.5197,Glynn,322110,
3721011,65,12,150,5312.0,47,3721011,Brunswick Cellulose Inc,West 9th Street,Brunswick,GA,31521,31.1725,-81.5197,Glynn,322110,
3721011,75,1,100,0.3,.4,3721011,Brunswick Cellulose Inc,West 9th Street,Brunswick,GA,31521,31.1725,-81.5197,Glynn,322110,
3721011,208,6,100,135.0,5,3721011,Brunswick Cellulose Inc,West 9th Street,Brunswick,GA,31521,31.1725,-81.5197,Glynn,322110,
3721011,100,4,95,753.6,60,3721011,Brunswick Cellulose Inc,West 9th Street,Brunswick,GA,31521,31.1725,-81.5197,Glynn,322110,
3721011,75,12,125,3278.0,29,3721011,Brunswick Cellulose Inc,West 9th Street,Brunswick,GA,31521,31.1725,-81.5197,Glynn,322110,
3721011,274,4,88,477.3,38,3721011,Brunswick Cellulose Inc,West 9th Street,Brunswick,GA,31521,31.1725,-81.5197,Glynn,322110,
3721011,100,2.5,100,147.0,30,3721011,Brunswick Cellulose Inc,West 9th Street,Brunswick,GA,31521,31.1725,-81.5197,Glynn,322110,
3721011,272,11,305,1187.0,12.5,3721011,Brunswick Cellulose Inc,West 9th Street,Brunswick,GA,31521,31.1725,-81.5197,Glynn,322110,
3721011,201,2.1,145,158.7,46.6,3721011,Brunswick Cellulose Inc,West 9th Street,Brunswick,GA,31521,31.1725,-81.5197,Glynn,322110,
3721011,100,2,125,15.7,5,3721011,Brunswick Cellulose Inc,West 9th Street,Brunswick,GA,31521,31.1725,-81.5197,Glynn,322110,
3721011,100,6.5,100,3150.0,95,3721011,Brunswick Cellulose Inc,West 9th Street,Brunswick,GA,31521,31.1725,-81.5197,Glynn,322110,
3721011,40,.5,100,0.1,.5,3721011,Brunswick Cellulose Inc,West 9th Street,Brunswick,GA,31521,31.1725,-81.5197,Glynn,322110,
3721011,75,12,150,6556.0,58,3721011,Brunswick Cellulose Inc,West 9th Street,Brunswick,GA,31521,31.1725,-81.5197,Glynn,322110,
3721011,40,1,100,0.8,1,3721011,Brunswick Cellulose Inc,West 9th Street,Brunswick,GA,31521,31.1725,-81.5197,Glynn,322110,
3721011,264,3.5,170,586.0,61,3721011,Brunswick Cellulose Inc,West 9th Street,Brunswick,GA,31521,31.1725,-81.5197,Glynn,322110,
4054911,228,10,363,3707.088,47.2,4054911,RESOLUTE FP US INC,5300 CURETON FERRY RD,CATAWBA,SC,29704,34.8446,-80.8931,York,322110,
4054911,228,10,405,4893.042,62.3,4054911,RESOLUTE FP US INC,5300 CURETON FERRY RD,CATAWBA,SC,29704,34.8446,-80.8931,York,322110,
4054911,225,11,320,4941.7369,52,4054911,RESOLUTE FP US INC,5300 CURETON FERRY RD,CATAWBA,SC,29704,34.8446,-80.8931,York,322110,
4054911,170,3,141,325.1556,46,4054911,RESOLUTE FP US INC,5300 CURETON FERRY RD,CATAWBA,SC,29704,34.8446,-80.8931,York,322110,
4054911,,,,,,4054911,RESOLUTE FP US INC,5300 CURETON FERRY RD,CATAWBA,SC,29704,34.8446,-80.8931,York,322110,
4054911,70,4.6,125,498.572,30,4054911,RESOLUTE FP US INC,5300 CURETON FERRY RD,CATAWBA,SC,29704,34.8446,-80.8931,York,322110,
4054911,195,7,320,3155.7372,82,4054911,RESOLUTE FP US INC,5300 CURETON FERRY RD,CATAWBA,SC,29704,34.8446,-80.8931,York,322110,
4054911,218,6,148,819.9576,29,4054911,RESOLUTE FP US INC,5300 CURETON FERRY RD,CATAWBA,SC,29704,34.8446,-80.8931,York,322110,
4054911,184,6,500,1300.6223,46,4054911,RESOLUTE FP US INC,5300 CURETON FERRY RD,CATAWBA,SC,29704,34.8446,-80.8931,York,322110,
4054911,50,1.27,450,63.3385,50,4054911,RESOLUTE FP US INC,5300 CURETON FERRY RD,CATAWBA,SC,29704,34.8446,-80.8931,York,322110,
4054911,120,4,375,653.4528,52,4054911,RESOLUTE FP US INC,5300 CURETON FERRY RD,CATAWBA,SC,29704,34.8446,-80.8931,York,322110,
4101811,,,,,,4101811,MEADWESTVACO SC LLC SPECIALTY CHEMICALS,5598 VIRGINIA AVE,NORTH CHARLESTON,SC,None,32.8974,-79.9687,Charleston,325194,
4101811,43,1,650,14.9226,19,4101811,MEADWESTVACO SC LLC SPECIALTY CHEMICALS,5598 VIRGINIA AVE,NORTH CHARLESTON,SC,None,32.8974,-79.9687,Charleston,325194,
4101811,85,6,135,1094.2193,38.7,4101811,MEADWESTVACO SC LLC SPECIALTY CHEMICALS,5598 VIRGINIA AVE,NORTH CHARLESTON,SC,None,32.8974,-79.9687,Charleston,325194,
4101811,89,3.2,510,275.8576,34.3,4101811,MEADWESTVACO SC LLC SPECIALTY CHEMICALS,5598 VIRGINIA AVE,NORTH CHARLESTON,SC,None,32.8974,-79.9687,Charleston,325194,
4101811,24,.5,89,11.5846,59,4101811,MEADWESTVACO SC LLC SPECIALTY CHEMICALS,5598 VIRGINIA AVE,NORTH CHARLESTON,SC,None,32.8974,-79.9687,Charleston,325194,
4101811,100,3.17,100,500.3785,63.4,4101811,MEADWESTVACO SC LLC SPECIALTY CHEMICALS,5598 VIRGINIA AVE,NORTH CHARLESTON,SC,None,32.8974,-79.9687,Charleston,325194,
4101811,55,.67,140,12.375,35.1,4101811,MEADWESTVACO SC LLC SPECIALTY CHEMICALS,5598 VIRGINIA AVE,NORTH CHARLESTON,SC,None,32.8974,-79.9687,Charleston,325194,
4101811,57,.5,200,3.495,17.8,4101811,MEADWESTVACO SC LLC SPECIALTY CHEMICALS,5598 VIRGINIA AVE,NORTH CHARLESTON,SC,None,32.8974,-79.9687,Charleston,325194,
4101811,66,.83,130,24.8888,46,4101811,MEADWESTVACO SC LLC SPECIALTY CHEMICALS,5598 VIRGINIA AVE,NORTH CHARLESTON,SC,None,32.8974,-79.9687,Charleston,325194,
4101811,26,.33,145,2.3093,27,4101811,MEADWESTVACO SC LLC SPECIALTY CHEMICALS,5598 VIRGINIA AVE,NORTH CHARLESTON,SC,None,32.8974,-79.9687,Charleston,325194,
4101811,45,1.3,650,17.1225,12.9,4101811,MEADWESTVACO SC LLC SPECIALTY CHEMICALS,5598 VIRGINIA AVE,NORTH CHARLESTON,SC,None,32.8974,-79.9687,Charleston,325194,
4101811,35,1.3,650,17.1225,12.9,4101811,MEADWESTVACO SC LLC SPECIALTY CHEMICALS,5598 VIRGINIA AVE,NORTH CHARLESTON,SC,None,32.8974,-79.9687,Charleston,325194,
4101811,46,.5,68,6.4795,33,4101811,MEADWESTVACO SC LLC SPECIALTY CHEMICALS,5598 VIRGINIA AVE,NORTH CHARLESTON,SC,None,32.8974,-79.9687,Charleston,325194,
4101811,53,3.2,800,171.3051,21.3,4101811,MEADWESTVACO SC LLC SPECIALTY CHEMICALS,5598 VIRGINIA AVE,NORTH CHARLESTON,SC,None,32.8974,-79.9687,Charleston,325194,
4101811,35,.75,200,2.209,5,4101811,MEADWESTVACO SC LLC SPECIALTY CHEMICALS,5598 VIRGINIA AVE,NORTH CHARLESTON,SC,None,32.8974,-79.9687,Charleston,325194,
4101811,24,.33,200,1.4625,17.1,4101811,MEADWESTVACO SC LLC SPECIALTY CHEMICALS,5598 VIRGINIA AVE,NORTH CHARLESTON,SC,None,32.8974,-79.9687,Charleston,325194,
4182011,290,10.5,360,4000.0,46.1,4182011,Smurfit Stone Container Corporation - West Point,1901 Main St,West Point,VA,23181,37.5392,-76.8053,King William,322121,
4182011,290,5,165,500.0,25.4,4182011,Smurfit Stone Container Corporation - West Point,1901 Main St,West Point,VA,23181,37.5392,-76.8053,King William,322121,
4182011,127.1,5.3,224,875.6,38.2,4182011,Smurfit Stone Container Corporation - West Point,1901 Main St,West Point,VA,23181,37.5392,-76.8053,King William,322121,
4182011,,,,,,4182011,Smurfit Stone Container Corporation - West Point,1901 Main St,West Point,VA,23181,37.5392,-76.8053,King William,322121,
4182011,35,.5,65,8.3333,42.44,4182011,Smurfit Stone Container Corporation - West Point,1901 Main St,West Point,VA,23181,37.5392,-76.8053,King William,322121,
4182011,125,6,160,666.6666,23.5,4182011,Smurfit Stone Container Corporation - West Point,1901 Main St,West Point,VA,23181,37.5392,-76.8053,King William,322121,
4182011,289,4.5,140,666.6666,41.9,4182011,Smurfit Stone Container Corporation - West Point,1901 Main St,West Point,VA,23181,37.5392,-76.8053,King William,322121,
4182011,100,3,200,177.5,25.1,4182011,Smurfit Stone Container Corporation - West Point,1901 Main St,West Point,VA,23181,37.5392,-76.8053,King William,322121,
4182011,100,3,165,116.6666,16.5,4182011,Smurfit Stone Container Corporation - West Point,1901 Main St,West Point,VA,23181,37.5392,-76.8053,King William,322121,
4182011,150,4.8,165,500.0,27.6,4182011,Smurfit Stone Container Corporation - West Point,1901 Main St,West Point,VA,23181,37.5392,-76.8053,King William,322121,
4182011,287,9,340,6333.3334,99.5,4182011,Smurfit Stone Container Corporation - West Point,1901 Main St,West Point,VA,23181,37.5392,-76.8053,King William,322121,
4182011,219,9.8,142,3283.3333,43.5,4182011,Smurfit Stone Container Corporation - West Point,1901 Main St,West Point,VA,23181,37.5392,-76.8053,King William,322121,
4182011,250,7,375,5833.3334,151.6,4182011,Smurfit Stone Container Corporation - West Point,1901 Main St,West Point,VA,23181,37.5392,-76.8053,King William,322121,
4182011,100,3.8,126,,22.1416,4182011,Smurfit Stone Container Corporation - West Point,1901 Main St,West Point,VA,23181,37.5392,-76.8053,King William,322121,
4182011,200,20,116,13629.3336,43.3,4182011,Smurfit Stone Container Corporation - West Point,1901 Main St,West Point,VA,23181,37.5392,-76.8053,King William,322121,
4182011,100,4,60,569.6833,45.3,4182011,Smurfit Stone Container Corporation - West Point,1901 Main St,West Point,VA,23181,37.5392,-76.8053,King William,322121,
4182011,100,3,140,356.0,50.3,4182011,Smurfit Stone Container Corporation - West Point,1901 Main St,West Point,VA,23181,37.5392,-76.8053,King William,322121,
4182011,100,4.3,120,,19.0833,4182011,Smurfit Stone Container Corporation - West Point,1901 Main St,West Point,VA,23181,37.5392,-76.8053,King William,322121,
4182011,100,3,60,1424.9166,201.6,4182011,Smurfit Stone Container Corporation - West Point,1901 Main St,West Point,VA,23181,37.5392,-76.8053,King William,322121,
4182011,100,2.2,60,,7.3433,4182011,Smurfit Stone Container Corporation - West Point,1901 Main St,West Point,VA,23181,37.5392,-76.8053,King William,322121,
4208011,278,7.1,380,,82,4208011,Domtar A. W. Llc-Nekoosa,301 Point Basse Ave.,Nekoosa,WI,54457,44.3154,-89.8995,Wood,322110,
4208011,110,5,226,633.6,31.6,4208011,Domtar A. W. Llc-Nekoosa,301 Point Basse Ave.,Nekoosa,WI,54457,44.3154,-89.8995,Wood,322110,
4208011,,,,,,4208011,Domtar A. W. Llc-Nekoosa,301 Point Basse Ave.,Nekoosa,WI,54457,44.3154,-89.8995,Wood,322110,
4208011,75,.82,68,,62.664,4208011,Domtar A. W. Llc-Nekoosa,301 Point Basse Ave.,Nekoosa,WI,54457,44.3154,-89.8995,Wood,322110,
4208011,193.9,14.009,336,,10.138,4208011,Domtar A. W. Llc-Nekoosa,301 Point Basse Ave.,Nekoosa,WI,54457,44.3154,-89.8995,Wood,322110,
4758811,179,9,363,4586.8145,72.1,4758811,ROCKTENN CP LLC,7320 PAPER MILL RD,FLORENCE,SC,29506,34.1515,-79.5592,Florence,322110,
4758811,,,,,,4758811,ROCKTENN CP LLC,7320 PAPER MILL RD,FLORENCE,SC,29506,34.1515,-79.5592,Florence,322110,
4758811,10,1,72,7.854,10,4758811,ROCKTENN CP LLC,7320 PAPER MILL RD,FLORENCE,SC,29506,34.1515,-79.5592,Florence,322110,
4758811,100,3.5,192,116.4156,12.1,4758811,ROCKTENN CP LLC,7320 PAPER MILL RD,FLORENCE,SC,29506,34.1515,-79.5592,Florence,322110,
4758811,173,6.17,357,3025.801,101.2,4758811,ROCKTENN CP LLC,7320 PAPER MILL RD,FLORENCE,SC,29506,34.1515,-79.5592,Florence,322110,
4758811,150,4,154,387.0438,30.8,4758811,ROCKTENN CP LLC,7320 PAPER MILL RD,FLORENCE,SC,29506,34.1515,-79.5592,Florence,322110,
4758811,20,2.5,198,51.0508,10.4,4758811,ROCKTENN CP LLC,7320 PAPER MILL RD,FLORENCE,SC,29506,34.1515,-79.5592,Florence,322110,
4758811,125,5,450,783.434,39.9,4758811,ROCKTENN CP LLC,7320 PAPER MILL RD,FLORENCE,SC,29506,34.1515,-79.5592,Florence,322110,
4758811,250,12,367,7328.7013,64.8,4758811,ROCKTENN CP LLC,7320 PAPER MILL RD,FLORENCE,SC,29506,34.1515,-79.5592,Florence,322110,
4758811,132,7,368,2147.4338,55.8,4758811,ROCKTENN CP LLC,7320 PAPER MILL RD,FLORENCE,SC,29506,34.1515,-79.5592,Florence,322110,
4880211,2,140,8,140.0,2945,4880211,"COSMO Specialty Fibers, Inc.",1701 First St,Cosmopolis,WA,98537,46.9528,-123.764,Grays Harbor,322130,
4880211,1,,,,,4880211,"COSMO Specialty Fibers, Inc.",1701 First St,Cosmopolis,WA,98537,46.9528,-123.764,Grays Harbor,322130,
4880211,2,127.1,5.3,224.0,875.6,4880211,"COSMO Specialty Fibers, Inc.",1701 First St,Cosmopolis,WA,98537,46.9528,-123.764,Grays Harbor,322130,
4880211,2,110,7.5,137.0,1630,4880211,"COSMO Specialty Fibers, Inc.",1701 First St,Cosmopolis,WA,98537,46.9528,-123.764,Grays Harbor,322130,
4880211,2,50,4,211.0,1172,4880211,"COSMO Specialty Fibers, Inc.",1701 First St,Cosmopolis,WA,98537,46.9528,-123.764,Grays Harbor,322130,
4880211,2,120,3,98.0,250,4880211,"COSMO Specialty Fibers, Inc.",1701 First St,Cosmopolis,WA,98537,46.9528,-123.764,Grays Harbor,322130,
4880211,2,110,1.4,51.0,21,4880211,"COSMO Specialty Fibers, Inc.",1701 First St,Cosmopolis,WA,98537,46.9528,-123.764,Grays Harbor,322130,
4880911,275,14,294,6308.0,41,4880911,Simpson Tacoma Kraft,801 Portland Ave,Tacoma,WA,98421,47.264,-122.428,Pierce,3221,
4880911,,,,,,4880911,Simpson Tacoma Kraft,801 Portland Ave,Tacoma,WA,98421,47.264,-122.428,Pierce,3221,
4880911,127.1,5.3,224,875.6,38.2,4880911,Simpson Tacoma Kraft,801 Portland Ave,Tacoma,WA,98421,47.264,-122.428,Pierce,3221,
4880911,67.5,35.4,92,11857.0,12,4880911,Simpson Tacoma Kraft,801 Portland Ave,Tacoma,WA,98421,47.264,-122.428,Pierce,3221,
4880911,213,9.5,132,2935.3833,41.4166,4880911,Simpson Tacoma Kraft,801 Portland Ave,Tacoma,WA,98421,47.264,-122.428,Pierce,3221,
4880911,120,6.5,288,736.0,22.2,4880911,Simpson Tacoma Kraft,801 Portland Ave,Tacoma,WA,98421,47.264,-122.428,Pierce,3221,
4880911,124,4,142,202.0,16.1,4880911,Simpson Tacoma Kraft,801 Portland Ave,Tacoma,WA,98421,47.264,-122.428,Pierce,3221,
4880911,208,4.5,145,325.0,21.2,4880911,Simpson Tacoma Kraft,801 Portland Ave,Tacoma,WA,98421,47.264,-122.428,Pierce,3221,
4880911,208,4.5,131,312.0,20.4,4880911,Simpson Tacoma Kraft,801 Portland Ave,Tacoma,WA,98421,47.264,-122.428,Pierce,3221,
4880911,123,4.5,160,619.0,38.9,4880911,Simpson Tacoma Kraft,801 Portland Ave,Tacoma,WA,98421,47.264,-122.428,Pierce,3221,
4880911,80,1.3,123,,51,4880911,Simpson Tacoma Kraft,801 Portland Ave,Tacoma,WA,98421,47.264,-122.428,Pierce,3221,
4973611,403,11,161,5359.8839,56.4,4973611,KAPSTONE CHARLESTON KRAFT LLC,5600 VIRGINIA AVE,NORTH CHARLESTON,SC,29406,32.8995,-79.9658,Charleston,322110,
4973611,114,5.83,152,715.4228,26.8,4973611,KAPSTONE CHARLESTON KRAFT LLC,5600 VIRGINIA AVE,NORTH CHARLESTON,SC,29406,32.8995,-79.9658,Charleston,322110,
4973611,213,6,349,1654.0523,58.5,4973611,KAPSTONE CHARLESTON KRAFT LLC,5600 VIRGINIA AVE,NORTH CHARLESTON,SC,29406,32.8995,-79.9658,Charleston,322110,
4973611,257,10,318,5623.4641,71.6,4973611,KAPSTONE CHARLESTON KRAFT LLC,5600 VIRGINIA AVE,NORTH CHARLESTON,SC,29406,32.8995,-79.9658,Charleston,322110,
4973611,411,11.4,354,7206.1833,70.6,4973611,KAPSTONE CHARLESTON KRAFT LLC,5600 VIRGINIA AVE,NORTH CHARLESTON,SC,29406,32.8995,-79.9658,Charleston,322110,
4973611,14,1.48,70,1.7203,1,4973611,KAPSTONE CHARLESTON KRAFT LLC,5600 VIRGINIA AVE,NORTH CHARLESTON,SC,29406,32.8995,-79.9658,Charleston,322110,
4973611,80,1,70,0.7853,1,4973611,KAPSTONE CHARLESTON KRAFT LLC,5600 VIRGINIA AVE,NORTH CHARLESTON,SC,29406,32.8995,-79.9658,Charleston,322110,
4973611,144,1.48,70,1.7203,1,4973611,KAPSTONE CHARLESTON KRAFT LLC,5600 VIRGINIA AVE,NORTH CHARLESTON,SC,29406,32.8995,-79.9658,Charleston,322110,
4973611,12,1.48,70,1.7203,1,4973611,KAPSTONE CHARLESTON KRAFT LLC,5600 VIRGINIA AVE,NORTH CHARLESTON,SC,29406,32.8995,-79.9658,Charleston,322110,
4973611,,,,,,4973611,KAPSTONE CHARLESTON KRAFT LLC,5600 VIRGINIA AVE,NORTH CHARLESTON,SC,29406,32.8995,-79.9658,Charleston,322110,
4973611,104,1.75,79,133.253,55.4,4973611,KAPSTONE CHARLESTON KRAFT LLC,5600 VIRGINIA AVE,NORTH CHARLESTON,SC,29406,32.8995,-79.9658,Charleston,322110,
4973611,117,.28,70,0.0615,1,4973611,KAPSTONE CHARLESTON KRAFT LLC,5600 VIRGINIA AVE,NORTH CHARLESTON,SC,29406,32.8995,-79.9658,Charleston,322110,
4973611,76,.3,70,0.0706,1,4973611,KAPSTONE CHARLESTON KRAFT LLC,5600 VIRGINIA AVE,NORTH CHARLESTON,SC,29406,32.8995,-79.9658,Charleston,322110,
4973611,243,10,370,5364.2821,68.3,4973611,KAPSTONE CHARLESTON KRAFT LLC,5600 VIRGINIA AVE,NORTH CHARLESTON,SC,29406,32.8995,-79.9658,Charleston,322110,
535411,233,6,164,799.9,28.3,535411,ROCKTENN CP LLC,ONE EVERITT AVE,PANAMA CITY,FL,32402,30.1455,-85.6212,Bay,3221,
535411,,,,,,535411,ROCKTENN CP LLC,ONE EVERITT AVE,PANAMA CITY,FL,32402,30.1455,-85.6212,Bay,3221,
535411,233,6,161,797.1,28.2,535411,ROCKTENN CP LLC,ONE EVERITT AVE,PANAMA CITY,FL,32402,30.1455,-85.6212,Bay,3221,
535411,213,7.8,154,4483.3,93.1,535411,ROCKTENN CP LLC,ONE EVERITT AVE,PANAMA CITY,FL,32402,30.1455,-85.6212,Bay,3221,
535411,233,6.5,333,2812.0,84.7,535411,ROCKTENN CP LLC,ONE EVERITT AVE,PANAMA CITY,FL,32402,30.1455,-85.6212,Bay,3221,
535411,85,2.6,133,115.1,21.7,535411,ROCKTENN CP LLC,ONE EVERITT AVE,PANAMA CITY,FL,32402,30.1455,-85.6212,Bay,3221,
535411,61,6.3,166,1224.9,39.3,535411,ROCKTENN CP LLC,ONE EVERITT AVE,PANAMA CITY,FL,32402,30.1455,-85.6212,Bay,3221,
535411,233,6.5,345,2874.4,86.6,535411,ROCKTENN CP LLC,ONE EVERITT AVE,PANAMA CITY,FL,32402,30.1455,-85.6212,Bay,3221,
535411,213,7.8,149,3716.9,77.2,535411,ROCKTENN CP LLC,ONE EVERITT AVE,PANAMA CITY,FL,32402,30.1455,-85.6212,Bay,3221,
535411,56,2.9,173,159.7,24.2,535411,ROCKTENN CP LLC,ONE EVERITT AVE,PANAMA CITY,FL,32402,30.1455,-85.6212,Bay,3221,
535411,127.1,5.3,224,875.6,38.2,535411,ROCKTENN CP LLC,ONE EVERITT AVE,PANAMA CITY,FL,32402,30.1455,-85.6212,Bay,3221,
536311,385,7.3,295,2725.0,66,536311,Georgia-Pacific Consumer Products LP (Savannah River Mill),393 Fort Howard Road,Rincon,GA,31326,32.3311,-81.2018,Effingham,322121,
536311,110,5,226,633.6,31.6,536311,Georgia-Pacific Consumer Products LP (Savannah River Mill),393 Fort Howard Road,Rincon,GA,31326,32.3311,-81.2018,Effingham,322121,
536311,,,,,,536311,Georgia-Pacific Consumer Products LP (Savannah River Mill),393 Fort Howard Road,Rincon,GA,31326,32.3311,-81.2018,Effingham,322121,
536311,89,4.7,102,573.2,33.8,536311,Georgia-Pacific Consumer Products LP (Savannah River Mill),393 Fort Howard Road,Rincon,GA,31326,32.3311,-81.2018,Effingham,322121,
536311,84,1.6,90,21.1,10,536311,Georgia-Pacific Consumer Products LP (Savannah River Mill),393 Fort Howard Road,Rincon,GA,31326,32.3311,-81.2018,Effingham,322121,
536311,7,1,90,47.0,62.6,536311,Georgia-Pacific Consumer Products LP (Savannah River Mill),393 Fort Howard Road,Rincon,GA,31326,32.3311,-81.2018,Effingham,322121,
536311,82,1,90,7.5,10,536311,Georgia-Pacific Consumer Products LP (Savannah River Mill),393 Fort Howard Road,Rincon,GA,31326,32.3311,-81.2018,Effingham,322121,
536311,82,.7,90,3.7,10,536311,Georgia-Pacific Consumer Products LP (Savannah River Mill),393 Fort Howard Road,Rincon,GA,31326,32.3311,-81.2018,Effingham,322121,
536311,20,1,90,39.8,53,536311,Georgia-Pacific Consumer Products LP (Savannah River Mill),393 Fort Howard Road,Rincon,GA,31326,32.3311,-81.2018,Effingham,322121,
536311,15,1.6,90,53.7,26.7,536311,Georgia-Pacific Consumer Products LP (Savannah River Mill),393 Fort Howard Road,Rincon,GA,31326,32.3311,-81.2018,Effingham,322121,
536311,140,2,70,16.7,5.3,536311,Georgia-Pacific Consumer Products LP (Savannah River Mill),393 Fort Howard Road,Rincon,GA,31326,32.3311,-81.2018,Effingham,322121,
536311,123,2,70,17.1,5.4,536311,Georgia-Pacific Consumer Products LP (Savannah River Mill),393 Fort Howard Road,Rincon,GA,31326,32.3311,-81.2018,Effingham,322121,
536311,89,4.6,103,516.0,30.5,536311,Georgia-Pacific Consumer Products LP (Savannah River Mill),393 Fort Howard Road,Rincon,GA,31326,32.3311,-81.2018,Effingham,322121,
536311,89,4.7,103,450.3,26.3,536311,Georgia-Pacific Consumer Products LP (Savannah River Mill),393 Fort Howard Road,Rincon,GA,31326,32.3311,-81.2018,Effingham,322121,
536311,37.3,25,90,7595.0,16.2,536311,Georgia-Pacific Consumer Products LP (Savannah River Mill),393 Fort Howard Road,Rincon,GA,31326,32.3311,-81.2018,Effingham,322121,
536311,62.4,10,90,803.0,10.7,536311,Georgia-Pacific Consumer Products LP (Savannah River Mill),393 Fort Howard Road,Rincon,GA,31326,32.3311,-81.2018,Effingham,322121,
536311,34,.8,1400,100.0,190,536311,Georgia-Pacific Consumer Products LP (Savannah River Mill),393 Fort Howard Road,Rincon,GA,31326,32.3311,-81.2018,Effingham,322121,
536311,20,1,1052,21.6,27.5,536311,Georgia-Pacific Consumer Products LP (Savannah River Mill),393 Fort Howard Road,Rincon,GA,31326,32.3311,-81.2018,Effingham,322121,
536311,11,1,1052,21.0,27.5,536311,Georgia-Pacific Consumer Products LP (Savannah River Mill),393 Fort Howard Road,Rincon,GA,31326,32.3311,-81.2018,Effingham,322121,
536311,65.3,2.2,90,238.0,60,536311,Georgia-Pacific Consumer Products LP (Savannah River Mill),393 Fort Howard Road,Rincon,GA,31326,32.3311,-81.2018,Effingham,322121,
536311,385,7.3,295,2724.6,66,536311,Georgia-Pacific Consumer Products LP (Savannah River Mill),393 Fort Howard Road,Rincon,GA,31326,32.3311,-81.2018,Effingham,322121,
536311,7.3,.5,863,13.4,71,536311,Georgia-Pacific Consumer Products LP (Savannah River Mill),393 Fort Howard Road,Rincon,GA,31326,32.3311,-81.2018,Effingham,322121,
536311,165,12,500,10018.0,88.6,536311,Georgia-Pacific Consumer Products LP (Savannah River Mill),393 Fort Howard Road,Rincon,GA,31326,32.3311,-81.2018,Effingham,322121,
536311,30.5,4.3,390,534.0,37,536311,Georgia-Pacific Consumer Products LP (Savannah River Mill),393 Fort Howard Road,Rincon,GA,31326,32.3311,-81.2018,Effingham,322121,
536311,7.7,.3,943,3.9,57.3,536311,Georgia-Pacific Consumer Products LP (Savannah River Mill),393 Fort Howard Road,Rincon,GA,31326,32.3311,-81.2018,Effingham,322121,
536311,89,4.7,101,539.2,31.5,536311,Georgia-Pacific Consumer Products LP (Savannah River Mill),393 Fort Howard Road,Rincon,GA,31326,32.3311,-81.2018,Effingham,322121,
536311,102,7,179,1539.0,40,536311,Georgia-Pacific Consumer Products LP (Savannah River Mill),393 Fort Howard Road,Rincon,GA,31326,32.3311,-81.2018,Effingham,322121,
536311,93.4,6.3,478,1816.0,61,536311,Georgia-Pacific Consumer Products LP (Savannah River Mill),393 Fort Howard Road,Rincon,GA,31326,32.3311,-81.2018,Effingham,322121,
536311,93,7,196,1495.5,38.9,536311,Georgia-Pacific Consumer Products LP (Savannah River Mill),393 Fort Howard Road,Rincon,GA,31326,32.3311,-81.2018,Effingham,322121,
536311,102,7,193,1643.0,42.7,536311,Georgia-Pacific Consumer Products LP (Savannah River Mill),393 Fort Howard Road,Rincon,GA,31326,32.3311,-81.2018,Effingham,322121,
536311,89,4.7,95,472.6,27.6,536311,Georgia-Pacific Consumer Products LP (Savannah River Mill),393 Fort Howard Road,Rincon,GA,31326,32.3311,-81.2018,Effingham,322121,
536311,90.8,5,269,136.4,7,536311,Georgia-Pacific Consumer Products LP (Savannah River Mill),393 Fort Howard Road,Rincon,GA,31326,32.3311,-81.2018,Effingham,322121,
536311,102,5.8,95,993.0,37.6,536311,Georgia-Pacific Consumer Products LP (Savannah River Mill),393 Fort Howard Road,Rincon,GA,31326,32.3311,-81.2018,Effingham,322121,
536311,3,.1,800,0.5,62.5,536311,Georgia-Pacific Consumer Products LP (Savannah River Mill),393 Fort Howard Road,Rincon,GA,31326,32.3311,-81.2018,Effingham,322121,
536311,50,1.8,90,83.5,31.8,536311,Georgia-Pacific Consumer Products LP (Savannah River Mill),393 Fort Howard Road,Rincon,GA,31326,32.3311,-81.2018,Effingham,322121,
536311,90,4.5,90,1065.6,67,536311,Georgia-Pacific Consumer Products LP (Savannah River Mill),393 Fort Howard Road,Rincon,GA,31326,32.3311,-81.2018,Effingham,322121,
539311,250,8.5,354,8653.6,152.5,539311,TEMPLE INLAND,"238 MAYS BRIDGE ROAD,SW",Rome,GA,30165,34.2534,-85.32909999999998,Floyd,322110,
539311,124.6,5.2,276,745.6,34.5,539311,TEMPLE INLAND,"238 MAYS BRIDGE ROAD,SW",Rome,GA,30165,34.2534,-85.32909999999998,Floyd,322110,
539311,,,,,,539311,TEMPLE INLAND,"238 MAYS BRIDGE ROAD,SW",Rome,GA,30165,34.2534,-85.32909999999998,Floyd,322110,
539311,228,6,360,1665.4,58.9,539311,TEMPLE INLAND,"238 MAYS BRIDGE ROAD,SW",Rome,GA,30165,34.2534,-85.32909999999998,Floyd,322110,
539311,75,.5,70,1.7,8.8,539311,TEMPLE INLAND,"238 MAYS BRIDGE ROAD,SW",Rome,GA,30165,34.2534,-85.32909999999998,Floyd,322110,
539311,90,5,350,954.0,48.6,539311,TEMPLE INLAND,"238 MAYS BRIDGE ROAD,SW",Rome,GA,30165,34.2534,-85.32909999999998,Floyd,322110,
539311,89,4.9,155,564.0,29.72,539311,TEMPLE INLAND,"238 MAYS BRIDGE ROAD,SW",Rome,GA,30165,34.2534,-85.32909999999998,Floyd,322110,
539311,89,5.1,151,451.8,22.3,539311,TEMPLE INLAND,"238 MAYS BRIDGE ROAD,SW",Rome,GA,30165,34.2534,-85.32909999999998,Floyd,322110,
539311,180,12,270,1802.0,15.9,539311,TEMPLE INLAND,"238 MAYS BRIDGE ROAD,SW",Rome,GA,30165,34.2534,-85.32909999999998,Floyd,322110,
539311,30,.5,70,1.7,8.5,539311,TEMPLE INLAND,"238 MAYS BRIDGE ROAD,SW",Rome,GA,30165,34.2534,-85.32909999999998,Floyd,322110,
539311,21,.5,70,1.7,8.5,539311,TEMPLE INLAND,"238 MAYS BRIDGE ROAD,SW",Rome,GA,30165,34.2534,-85.32909999999998,Floyd,322110,
539311,38,4.8,104,623.0,34.4,539311,TEMPLE INLAND,"238 MAYS BRIDGE ROAD,SW",Rome,GA,30165,34.2534,-85.32909999999998,Floyd,322110,
539311,230,4.3,196,335.9,23.4,539311,TEMPLE INLAND,"238 MAYS BRIDGE ROAD,SW",Rome,GA,30165,34.2534,-85.32909999999998,Floyd,322110,
553111,151,9,170,2807.0,44.1,553111,Interstate Paper LLC,2366 Interstate Paper Road,Riceboro,GA,31323,31.7414,-81.4071,Liberty,322130,
553111,127.1,5.3,224,875.6,38.2,553111,Interstate Paper LLC,2366 Interstate Paper Road,Riceboro,GA,31323,31.7414,-81.4071,Liberty,322130,
553111,,,,,,553111,Interstate Paper LLC,2366 Interstate Paper Road,Riceboro,GA,31323,31.7414,-81.4071,Liberty,322130,
553111,50,5,160,296.0,15.1,553111,Interstate Paper LLC,2366 Interstate Paper Road,Riceboro,GA,31323,31.7414,-81.4071,Liberty,322130,
553111,120,8.5,161,1877.0,32.9,553111,Interstate Paper LLC,2366 Interstate Paper Road,Riceboro,GA,31323,31.7414,-81.4071,Liberty,322130,
553111,151,6.5,332,1661.0,49.9,553111,Interstate Paper LLC,2366 Interstate Paper Road,Riceboro,GA,31323,31.7414,-81.4071,Liberty,322130,
553111,55,1,1,0.8,1,553111,Interstate Paper LLC,2366 Interstate Paper Road,Riceboro,GA,31323,31.7414,-81.4071,Liberty,322130,
553111,90,.8,128,17.1,34.1,553111,Interstate Paper LLC,2366 Interstate Paper Road,Riceboro,GA,31323,31.7414,-81.4071,Liberty,322130,
553111,70,1,1,0.8,1,553111,Interstate Paper LLC,2366 Interstate Paper Road,Riceboro,GA,31323,31.7414,-81.4071,Liberty,322130,
555311,300,10,375,5833.0,74.3,555311,PCA Valdosta Mill,5495 Lake Park-Clyattville Road,Clyattville,GA,31601,30.6949,-83.3044,Lowndes,322130,
555311,124.6,5.2,276,745.6,34.5,555311,PCA Valdosta Mill,5495 Lake Park-Clyattville Road,Clyattville,GA,31601,30.6949,-83.3044,Lowndes,322130,
555311,,,,,,555311,PCA Valdosta Mill,5495 Lake Park-Clyattville Road,Clyattville,GA,31601,30.6949,-83.3044,Lowndes,322130,
555311,90,2,100,75.0,24,555311,PCA Valdosta Mill,5495 Lake Park-Clyattville Road,Clyattville,GA,31601,30.6949,-83.3044,Lowndes,322130,
555311,199,5.5,375,713.0,30,555311,PCA Valdosta Mill,5495 Lake Park-Clyattville Road,Clyattville,GA,31601,30.6949,-83.3044,Lowndes,322130,
555311,181,6.7,315,2470.0,70,555311,PCA Valdosta Mill,5495 Lake Park-Clyattville Road,Clyattville,GA,31601,30.6949,-83.3044,Lowndes,322130,
555311,201,11,150,3799.0,40,555311,PCA Valdosta Mill,5495 Lake Park-Clyattville Road,Clyattville,GA,31601,30.6949,-83.3044,Lowndes,322130,
555311,74,8.4,135,1917.0,35,555311,PCA Valdosta Mill,5495 Lake Park-Clyattville Road,Clyattville,GA,31601,30.6949,-83.3044,Lowndes,322130,
555311,45,3,120,141.0,20,555311,PCA Valdosta Mill,5495 Lake Park-Clyattville Road,Clyattville,GA,31601,30.6949,-83.3044,Lowndes,322130,
555311,149,3,174,250.0,35,555311,PCA Valdosta Mill,5495 Lake Park-Clyattville Road,Clyattville,GA,31601,30.6949,-83.3044,Lowndes,322130,
555311,81.6,21.6,129,12351.0,33.6,555311,PCA Valdosta Mill,5495 Lake Park-Clyattville Road,Clyattville,GA,31601,30.6949,-83.3044,Lowndes,322130,
556611,2,305,17.5,396.0,12038,556611,"Rayonier Performance Fibers, LLC",4470 Savannah Hwy,Jesup,GA,31545,31.659,-81.8429,Wayne,322110,
556611,2,127.1,5.3,224.0,875.6,556611,"Rayonier Performance Fibers, LLC",4470 Savannah Hwy,Jesup,GA,31545,31.659,-81.8429,Wayne,322110,
556611,1,,,,,556611,"Rayonier Performance Fibers, LLC",4470 Savannah Hwy,Jesup,GA,31545,31.659,-81.8429,Wayne,322110,
556611,2,264,5.5,165.0,533,556611,"Rayonier Performance Fibers, LLC",4470 Savannah Hwy,Jesup,GA,31545,31.659,-81.8429,Wayne,322110,
556611,2,259,4.3,148.0,770,556611,"Rayonier Performance Fibers, LLC",4470 Savannah Hwy,Jesup,GA,31545,31.659,-81.8429,Wayne,322110,
556611,2,260,11.3,157.0,3782,556611,"Rayonier Performance Fibers, LLC",4470 Savannah Hwy,Jesup,GA,31545,31.659,-81.8429,Wayne,322110,
556611,2,4,.2,600.0,1.2,556611,"Rayonier Performance Fibers, LLC",4470 Savannah Hwy,Jesup,GA,31545,31.659,-81.8429,Wayne,322110,
556611,2,12,.5,908.0,7.6,556611,"Rayonier Performance Fibers, LLC",4470 Savannah Hwy,Jesup,GA,31545,31.659,-81.8429,Wayne,322110,
556611,2,150,6.5,318.0,1128.2,556611,"Rayonier Performance Fibers, LLC",4470 Savannah Hwy,Jesup,GA,31545,31.659,-81.8429,Wayne,322110,
556611,2,150,6,162.0,1147,556611,"Rayonier Performance Fibers, LLC",4470 Savannah Hwy,Jesup,GA,31545,31.659,-81.8429,Wayne,322110,
556611,2,259,12.5,357.0,6625,556611,"Rayonier Performance Fibers, LLC",4470 Savannah Hwy,Jesup,GA,31545,31.659,-81.8429,Wayne,322110,
556611,2,12,.5,908.0,7.5,556611,"Rayonier Performance Fibers, LLC",4470 Savannah Hwy,Jesup,GA,31545,31.659,-81.8429,Wayne,322110,
556611,2,12,.5,600.0,7.5,556611,"Rayonier Performance Fibers, LLC",4470 Savannah Hwy,Jesup,GA,31545,31.659,-81.8429,Wayne,322110,
556611,2,250,4,161.0,270,556611,"Rayonier Performance Fibers, LLC",4470 Savannah Hwy,Jesup,GA,31545,31.659,-81.8429,Wayne,322110,
556611,2,124,4,105.0,522,556611,"Rayonier Performance Fibers, LLC",4470 Savannah Hwy,Jesup,GA,31545,31.659,-81.8429,Wayne,322110,
556611,2,90,4.9,113.0,593.7,556611,"Rayonier Performance Fibers, LLC",4470 Savannah Hwy,Jesup,GA,31545,31.659,-81.8429,Wayne,322110,
556611,2,124,4,108.0,578,556611,"Rayonier Performance Fibers, LLC",4470 Savannah Hwy,Jesup,GA,31545,31.659,-81.8429,Wayne,322110,
556611,2,70,.8,130.0,23.6,556611,"Rayonier Performance Fibers, LLC",4470 Savannah Hwy,Jesup,GA,31545,31.659,-81.8429,Wayne,322110,
5698611,95,5.9,169,917.794,33.57,5698611,INTERNATIONAL PAPER GEORGETOWN MILL,700 S KAMINSKI ST,GEORGETOWN,SC,None,33.3642,-79.30329999999998,Georgetown,322121,
5698611,100,5.17,166,700.5307,33.37,5698611,INTERNATIONAL PAPER GEORGETOWN MILL,700 S KAMINSKI ST,GEORGETOWN,SC,None,33.3642,-79.30329999999998,Georgetown,322121,
5698611,100,4.5,157,515.2997,32.4,5698611,INTERNATIONAL PAPER GEORGETOWN MILL,700 S KAMINSKI ST,GEORGETOWN,SC,None,33.3642,-79.30329999999998,Georgetown,322121,
5698611,280,17.1,420,10828.3879,47.15,5698611,INTERNATIONAL PAPER GEORGETOWN MILL,700 S KAMINSKI ST,GEORGETOWN,SC,None,33.3642,-79.30329999999998,Georgetown,322121,
5698611,250,12.1,170,6174.9709,53.7,5698611,INTERNATIONAL PAPER GEORGETOWN MILL,700 S KAMINSKI ST,GEORGETOWN,SC,None,33.3642,-79.30329999999998,Georgetown,322121,
5698611,,,,,,5698611,INTERNATIONAL PAPER GEORGETOWN MILL,700 S KAMINSKI ST,GEORGETOWN,SC,None,33.3642,-79.30329999999998,Georgetown,322121,
5698611,220,4.5,159,709.3323,44.6,5698611,INTERNATIONAL PAPER GEORGETOWN MILL,700 S KAMINSKI ST,GEORGETOWN,SC,None,33.3642,-79.30329999999998,Georgetown,322121,
5698611,235,7.87,343,2918.7076,60,5698611,INTERNATIONAL PAPER GEORGETOWN MILL,700 S KAMINSKI ST,GEORGETOWN,SC,None,33.3642,-79.30329999999998,Georgetown,322121,
5698611,205,2.99,165,504.0762,71.79,5698611,INTERNATIONAL PAPER GEORGETOWN MILL,700 S KAMINSKI ST,GEORGETOWN,SC,None,33.3642,-79.30329999999998,Georgetown,322121,
5698611,220,4.5,177,519.5939,32.67,5698611,INTERNATIONAL PAPER GEORGETOWN MILL,700 S KAMINSKI ST,GEORGETOWN,SC,None,33.3642,-79.30329999999998,Georgetown,322121,
5698611,87,2,163,37.6991,12,5698611,INTERNATIONAL PAPER GEORGETOWN MILL,700 S KAMINSKI ST,GEORGETOWN,SC,None,33.3642,-79.30329999999998,Georgetown,322121,
5698611,125,2,140,32.2641,10.27,5698611,INTERNATIONAL PAPER GEORGETOWN MILL,700 S KAMINSKI ST,GEORGETOWN,SC,None,33.3642,-79.30329999999998,Georgetown,322121,
5698611,144,3.6,125,360.329,35.4,5698611,INTERNATIONAL PAPER GEORGETOWN MILL,700 S KAMINSKI ST,GEORGETOWN,SC,None,33.3642,-79.30329999999998,Georgetown,322121,
5698611,109,3.9,102,574.5995,48.1,5698611,INTERNATIONAL PAPER GEORGETOWN MILL,700 S KAMINSKI ST,GEORGETOWN,SC,None,33.3642,-79.30329999999998,Georgetown,322121,
5698611,57,1,109,33.301,42.4,5698611,INTERNATIONAL PAPER GEORGETOWN MILL,700 S KAMINSKI ST,GEORGETOWN,SC,None,33.3642,-79.30329999999998,Georgetown,322121,
5698611,70,2.3,163,24.5131,5.9,5698611,INTERNATIONAL PAPER GEORGETOWN MILL,700 S KAMINSKI ST,GEORGETOWN,SC,None,33.3642,-79.30329999999998,Georgetown,322121,
5698611,20,.98,194,17.8015,23.6,5698611,INTERNATIONAL PAPER GEORGETOWN MILL,700 S KAMINSKI ST,GEORGETOWN,SC,None,33.3642,-79.30329999999998,Georgetown,322121,
5698611,50,4.1,179,472.3685,35.76,5698611,INTERNATIONAL PAPER GEORGETOWN MILL,700 S KAMINSKI ST,GEORGETOWN,SC,None,33.3642,-79.30329999999998,Georgetown,322121,
5810011,150,4,550,628.0,50,5810011,RESOLUTE FOREST PRODUCTS - MENOMINEE,701 FOURTH AVE,MENOMINEE,MI,49858,45.108,-87.607,Menominee,322110,
6518011,250,10,332,3330.096,42.4,6518011,DOMTAR PAPER CO LLC MARLBORO MILL,585 WILLAMETTE RD,BENNETTSVILLE,SC,29512,34.6045,-79.7753,Marlboro,322121,
6518011,127.1,5.3,224,875.6,38.2,6518011,DOMTAR PAPER CO LLC MARLBORO MILL,585 WILLAMETTE RD,BENNETTSVILLE,SC,29512,34.6045,-79.7753,Marlboro,322121,
6518011,,,,,,6518011,DOMTAR PAPER CO LLC MARLBORO MILL,585 WILLAMETTE RD,BENNETTSVILLE,SC,29512,34.6045,-79.7753,Marlboro,322121,
6518011,155,8,305,3327.5827,66.2,6518011,DOMTAR PAPER CO LLC MARLBORO MILL,585 WILLAMETTE RD,BENNETTSVILLE,SC,29512,34.6045,-79.7753,Marlboro,322121,
6518011,140,4.5,188,392.8375,24.7,6518011,DOMTAR PAPER CO LLC MARLBORO MILL,585 WILLAMETTE RD,BENNETTSVILLE,SC,29512,34.6045,-79.7753,Marlboro,322121,
6518011,60,6.5,318,1068.4975,32.2,6518011,DOMTAR PAPER CO LLC MARLBORO MILL,585 WILLAMETTE RD,BENNETTSVILLE,SC,29512,34.6045,-79.7753,Marlboro,322121,
6518011,67,3,109,141.372,20,6518011,DOMTAR PAPER CO LLC MARLBORO MILL,585 WILLAMETTE RD,BENNETTSVILLE,SC,29512,34.6045,-79.7753,Marlboro,322121,
6518011,101,3,167,127.9416,18.1,6518011,DOMTAR PAPER CO LLC MARLBORO MILL,585 WILLAMETTE RD,BENNETTSVILLE,SC,29512,34.6045,-79.7753,Marlboro,322121,
6518011,142,4,435,388.3018,30.9,6518011,DOMTAR PAPER CO LLC MARLBORO MILL,585 WILLAMETTE RD,BENNETTSVILLE,SC,29512,34.6045,-79.7753,Marlboro,322121,
6518011,20,.7,80,17.3565,45.1,6518011,DOMTAR PAPER CO LLC MARLBORO MILL,585 WILLAMETTE RD,BENNETTSVILLE,SC,29512,34.6045,-79.7753,Marlboro,322121,
6518011,20,.7,80,0.3848,1,6518011,DOMTAR PAPER CO LLC MARLBORO MILL,585 WILLAMETTE RD,BENNETTSVILLE,SC,29512,34.6045,-79.7753,Marlboro,322121,
6518011,45,1,140,15.708,20,6518011,DOMTAR PAPER CO LLC MARLBORO MILL,585 WILLAMETTE RD,BENNETTSVILLE,SC,29512,34.6045,-79.7753,Marlboro,322121,
6518011,80,1.6,143,21.3126,10.6,6518011,DOMTAR PAPER CO LLC MARLBORO MILL,585 WILLAMETTE RD,BENNETTSVILLE,SC,29512,34.6045,-79.7753,Marlboro,322121,
6518011,45,.98,160,18.8575,25,6518011,DOMTAR PAPER CO LLC MARLBORO MILL,585 WILLAMETTE RD,BENNETTSVILLE,SC,29512,34.6045,-79.7753,Marlboro,322121,
6518011,143,1.5,110,38.1705,21.6,6518011,DOMTAR PAPER CO LLC MARLBORO MILL,585 WILLAMETTE RD,BENNETTSVILLE,SC,29512,34.6045,-79.7753,Marlboro,322121,
6518011,80,5,185,1203.6255,61.3,6518011,DOMTAR PAPER CO LLC MARLBORO MILL,585 WILLAMETTE RD,BENNETTSVILLE,SC,29512,34.6045,-79.7753,Marlboro,322121,
6518011,65,5,100,981.75,50,6518011,DOMTAR PAPER CO LLC MARLBORO MILL,585 WILLAMETTE RD,BENNETTSVILLE,SC,29512,34.6045,-79.7753,Marlboro,322121,
6518011,75,1,68,38.6416,49.2,6518011,DOMTAR PAPER CO LLC MARLBORO MILL,585 WILLAMETTE RD,BENNETTSVILLE,SC,29512,34.6045,-79.7753,Marlboro,322121,
6518011,51,.7,68,19.7041,51.2,6518011,DOMTAR PAPER CO LLC MARLBORO MILL,585 WILLAMETTE RD,BENNETTSVILLE,SC,29512,34.6045,-79.7753,Marlboro,322121,
6518011,75,1,68,0.7853,1,6518011,DOMTAR PAPER CO LLC MARLBORO MILL,585 WILLAMETTE RD,BENNETTSVILLE,SC,29512,34.6045,-79.7753,Marlboro,322121,
6518011,133,3,80,141.372,20,6518011,DOMTAR PAPER CO LLC MARLBORO MILL,585 WILLAMETTE RD,BENNETTSVILLE,SC,29512,34.6045,-79.7753,Marlboro,322121,
6518011,98,.66,80,0.3421,1,6518011,DOMTAR PAPER CO LLC MARLBORO MILL,585 WILLAMETTE RD,BENNETTSVILLE,SC,29512,34.6045,-79.7753,Marlboro,322121,
6761511,106,5.9,176,565.0,20.7,6761511,"NEWPAGE CORPORATION, COATED PAPER",300 PRATT STREET,LUKE,WV,21540,39.4711,-79.0603,Mineral,321,
6761511,,,,,,6761511,"NEWPAGE CORPORATION, COATED PAPER",300 PRATT STREET,LUKE,WV,21540,39.4711,-79.0603,Mineral,321,
6761511,75,1.88,160,49.1333,17.6,6761511,"NEWPAGE CORPORATION, COATED PAPER",300 PRATT STREET,LUKE,WV,21540,39.4711,-79.0603,Mineral,321,
6761511,4,.66,199,4.4833,12.9,6761511,"NEWPAGE CORPORATION, COATED PAPER",300 PRATT STREET,LUKE,WV,21540,39.4711,-79.0603,Mineral,321,
6761511,1,.5,90,0.2192,1.1166,6761511,"NEWPAGE CORPORATION, COATED PAPER",300 PRATT STREET,LUKE,WV,21540,39.4711,-79.0603,Mineral,321,
6761511,6,2.7,95,0.0954,.0166,6761511,"NEWPAGE CORPORATION, COATED PAPER",300 PRATT STREET,LUKE,WV,21540,39.4711,-79.0603,Mineral,321,
6761511,6,2.7,95,0.0953,.0166,6761511,"NEWPAGE CORPORATION, COATED PAPER",300 PRATT STREET,LUKE,WV,21540,39.4711,-79.0603,Mineral,321,
6901611,74,6,98,785.4,27.7,6901611,FIBREK,702 AFR DRIVE,FAIRMONT,WV,26554,39.5239,-80.1239,Marion,32211,
6901611,60,6,325,593.4166,21,6901611,FIBREK,702 AFR DRIVE,FAIRMONT,WV,26554,39.5239,-80.1239,Marion,32211,
6901611,74,6,0,1481.5333,52.3985,6901611,FIBREK,702 AFR DRIVE,FAIRMONT,WV,26554,39.5239,-80.1239,Marion,32211,
7000311,250,14,376,8254.1501,53.6166,7000311,Weyerhaeuser NR Company,3401 Industrial Way,Longview,WA,98632,46.1301,-122.983,Cowlitz,322130,
7000311,,,,,,7000311,Weyerhaeuser NR Company,3401 Industrial Way,Longview,WA,98632,46.1301,-122.983,Cowlitz,322130,
7000311,110,5,226,633.6,31.6,7000311,Weyerhaeuser NR Company,3401 Industrial Way,Longview,WA,98632,46.1301,-122.983,Cowlitz,322130,
7000311,128,7,300,1360.0,35.3,7000311,Weyerhaeuser NR Company,3401 Industrial Way,Longview,WA,98632,46.1301,-122.983,Cowlitz,322130,
7000311,200,8,163,741.0166,14.75,7000311,Weyerhaeuser NR Company,3401 Industrial Way,Longview,WA,98632,46.1301,-122.983,Cowlitz,322130,
7000311,128,7,300,1667.0,43.3,7000311,Weyerhaeuser NR Company,3401 Industrial Way,Longview,WA,98632,46.1301,-122.983,Cowlitz,322130,
7000311,128,8,300,3367.0,67,7000311,Weyerhaeuser NR Company,3401 Industrial Way,Longview,WA,98632,46.1301,-122.983,Cowlitz,322130,
7000311,143,11.3,380,6064.9501,60.4833,7000311,Weyerhaeuser NR Company,3401 Industrial Way,Longview,WA,98632,46.1301,-122.983,Cowlitz,322130,
7000311,107,4,377,814.1666,64.7833,7000311,Weyerhaeuser NR Company,3401 Industrial Way,Longview,WA,98632,46.1301,-122.983,Cowlitz,322130,
7000311,35,22,90,9000.0,23.7,7000311,Weyerhaeuser NR Company,3401 Industrial Way,Longview,WA,98632,46.1301,-122.983,Cowlitz,322130,
7000311,83,2,68,17.0,5.4,7000311,Weyerhaeuser NR Company,3401 Industrial Way,Longview,WA,98632,46.1301,-122.983,Cowlitz,322130,
7000311,90,1.5,96,137.45,77.7833,7000311,Weyerhaeuser NR Company,3401 Industrial Way,Longview,WA,98632,46.1301,-122.983,Cowlitz,322130,
7000311,30,.7,140,23.3333,60.63,7000311,Weyerhaeuser NR Company,3401 Industrial Way,Longview,WA,98632,46.1301,-122.983,Cowlitz,322130,
7000311,200,2,130,167.0,53.2,7000311,Weyerhaeuser NR Company,3401 Industrial Way,Longview,WA,98632,46.1301,-122.983,Cowlitz,322130,
7119911,325,11,350,6769.3501,71.2027,7119911,Sappi Cloquet LLC,2201 Ave B,Cloquet,MN,55720,46.7247,-92.4297,Carlton,322121,
7119911,12,.3,1184,11.45,161.9191,7119911,Sappi Cloquet LLC,2201 Ave B,Cloquet,MN,55720,46.7247,-92.4297,Carlton,322121,
7119911,,,,,,7119911,Sappi Cloquet LLC,2201 Ave B,Cloquet,MN,55720,46.7247,-92.4297,Carlton,322121,
7119911,26.5,1.4,489,95.115,61.7629,7119911,Sappi Cloquet LLC,2201 Ave B,Cloquet,MN,55720,46.7247,-92.4297,Carlton,322121,
7119911,278,10,413,4533.3334,57.6969,7119911,Sappi Cloquet LLC,2201 Ave B,Cloquet,MN,55720,46.7247,-92.4297,Carlton,322121,
7119911,70.2,2.5,81,145.765,29.683,7119911,Sappi Cloquet LLC,2201 Ave B,Cloquet,MN,55720,46.7247,-92.4297,Carlton,322121,
7119911,44.3,1.9,70,90.975,32.0737,7119911,Sappi Cloquet LLC,2201 Ave B,Cloquet,MN,55720,46.7247,-92.4297,Carlton,322121,
7119911,39.4,1.3,74,20.1733,15.1923,7119911,Sappi Cloquet LLC,2201 Ave B,Cloquet,MN,55720,46.7247,-92.4297,Carlton,322121,
7119911,41.4,16,97,5252.4167,26.1128,7119911,Sappi Cloquet LLC,2201 Ave B,Cloquet,MN,55720,46.7247,-92.4297,Carlton,322121,
7119911,300,4.6,173,616.6666,37.0911,7119911,Sappi Cloquet LLC,2201 Ave B,Cloquet,MN,55720,46.7247,-92.4297,Carlton,322121,
7119911,253,8,375,2412.6667,47.9791,7119911,Sappi Cloquet LLC,2201 Ave B,Cloquet,MN,55720,46.7247,-92.4297,Carlton,322121,
7119911,70,9.2,130,1973.5667,29.6764,7119911,Sappi Cloquet LLC,2201 Ave B,Cloquet,MN,55720,46.7247,-92.4297,Carlton,322121,
7119911,275,6,554,1293.75,45.7386,7119911,Sappi Cloquet LLC,2201 Ave B,Cloquet,MN,55720,46.7247,-92.4297,Carlton,322121,
7119911,68,6.7,160,1040.1,29.489,7119911,Sappi Cloquet LLC,2201 Ave B,Cloquet,MN,55720,46.7247,-92.4297,Carlton,322121,
7119911,237,3,180,460.0,65.0505,7119911,Sappi Cloquet LLC,2201 Ave B,Cloquet,MN,55720,46.7247,-92.4297,Carlton,322121,
7119911,256,5.5,360,1853.1667,77.9694,7119911,Sappi Cloquet LLC,2201 Ave B,Cloquet,MN,55720,46.7247,-92.4297,Carlton,322121,
7119911,63.3,2.8,138,138.8533,22.5411,7119911,Sappi Cloquet LLC,2201 Ave B,Cloquet,MN,55720,46.7247,-92.4297,Carlton,322121,
7119911,53,9.9,165,2795.8333,36.3058,7119911,Sappi Cloquet LLC,2201 Ave B,Cloquet,MN,55720,46.7247,-92.4297,Carlton,322121,
7119911,36.5,1.7,132,18.5033,8.1486,7119911,Sappi Cloquet LLC,2201 Ave B,Cloquet,MN,55720,46.7247,-92.4297,Carlton,322121,
7119911,70,1.5,50,16.6666,9.4276,7119911,Sappi Cloquet LLC,2201 Ave B,Cloquet,MN,55720,46.7247,-92.4297,Carlton,322121,
7119911,77,2.2,145,183.3333,48.2093,7119911,Sappi Cloquet LLC,2201 Ave B,Cloquet,MN,55720,46.7247,-92.4297,Carlton,322121,
7119911,50,3,80,716.6666,101.3468,7119911,Sappi Cloquet LLC,2201 Ave B,Cloquet,MN,55720,46.7247,-92.4297,Carlton,322121,
7213511,200,5,155,631.6666,32.2,7213511,International Paper Company,601 County Rd 78,Selma,AL,36703,32.4218,-86.8724,Dallas,322110,
7213511,200,11,369,5112.7809,56.3,7213511,International Paper Company,601 County Rd 78,Selma,AL,36703,32.4218,-86.8724,Dallas,322110,
7213511,110,5,226,633.6,31.6,7213511,International Paper Company,601 County Rd 78,Selma,AL,36703,32.4218,-86.8724,Dallas,322110,
7213511,,,,,,7213511,International Paper Company,601 County Rd 78,Selma,AL,36703,32.4218,-86.8724,Dallas,322110,
7213511,100,6.7,161,665.0,19,7213511,International Paper Company,601 County Rd 78,Selma,AL,36703,32.4218,-86.8724,Dallas,322110,
7213511,200,12,310,9828.1505,86,7213511,International Paper Company,601 County Rd 78,Selma,AL,36703,32.4218,-86.8724,Dallas,322110,
7213511,147,7,287,,37.04,7213511,International Paper Company,601 County Rd 78,Selma,AL,36703,32.4218,-86.8724,Dallas,322110,
7213511,110,6.5,100,833.3333,25.12,7213511,International Paper Company,601 County Rd 78,Selma,AL,36703,32.4218,-86.8724,Dallas,322110,
7213511,200,8.75,400,3466.6667,55.6,7213511,International Paper Company,601 County Rd 78,Selma,AL,36703,32.4218,-86.8724,Dallas,322110,
7213511,204,3.9,159,,38.8,7213511,International Paper Company,601 County Rd 78,Selma,AL,36703,32.4218,-86.8724,Dallas,322110,
7213511,145,8,157,,33.8,7213511,International Paper Company,601 County Rd 78,Selma,AL,36703,32.4218,-86.8724,Dallas,322110,
7213511,107,6.5,100,833.3333,25.12,7213511,International Paper Company,601 County Rd 78,Selma,AL,36703,32.4218,-86.8724,Dallas,322110,
7213511,200,12,361,4866.6667,43,7213511,International Paper Company,601 County Rd 78,Selma,AL,36703,32.4218,-86.8724,Dallas,322110,
7213511,65,1,143,76.5833,97.55,7213511,International Paper Company,601 County Rd 78,Selma,AL,36703,32.4218,-86.8724,Dallas,322110,
7213511,75,2,117,63.5,20.21,7213511,International Paper Company,601 County Rd 78,Selma,AL,36703,32.4218,-86.8724,Dallas,322110,
7213511,95,6,110,2000.0,71,7213511,International Paper Company,601 County Rd 78,Selma,AL,36703,32.4218,-86.8724,Dallas,322110,
7213511,100,6,110,1500.0,53,7213511,International Paper Company,601 County Rd 78,Selma,AL,36703,32.4218,-86.8724,Dallas,322110,
7213511,114,3.9,109,515.2333,43.15,7213511,International Paper Company,601 County Rd 78,Selma,AL,36703,32.4218,-86.8724,Dallas,322110,
7213511,155,3.9,109,515.2333,43.15,7213511,International Paper Company,601 County Rd 78,Selma,AL,36703,32.4218,-86.8724,Dallas,322110,
7213511,30,2,1825,14.8333,4.72,7213511,International Paper Company,601 County Rd 78,Selma,AL,36703,32.4218,-86.8724,Dallas,322110,
7331511,236,9.5,162,6333.3334,89.35,7331511,Newpage Corp,1724 Fort Jefferson Hill Rd,Wickliffe,KY,42087,36.9444,-89.07989999999998,Ballard,322121,
7331511,90,5.75,167,666.6666,25.67,7331511,Newpage Corp,1724 Fort Jefferson Hill Rd,Wickliffe,KY,42087,36.9444,-89.07989999999998,Ballard,322121,
7331511,62,.7,71,12.3666,32.13,7331511,Newpage Corp,1724 Fort Jefferson Hill Rd,Wickliffe,KY,42087,36.9444,-89.07989999999998,Ballard,322121,
7331511,,,,,,7331511,Newpage Corp,1724 Fort Jefferson Hill Rd,Wickliffe,KY,42087,36.9444,-89.07989999999998,Ballard,322121,
7331511,187,5.41,154,516.6666,22.48,7331511,Newpage Corp,1724 Fort Jefferson Hill Rd,Wickliffe,KY,42087,36.9444,-89.07989999999998,Ballard,322121,
7331511,46,5.6,134,1203.0333,48.84,7331511,Newpage Corp,1724 Fort Jefferson Hill Rd,Wickliffe,KY,42087,36.9444,-89.07989999999998,Ballard,322121,
7331511,184,6.9,309,1923.4333,51.44,7331511,Newpage Corp,1724 Fort Jefferson Hill Rd,Wickliffe,KY,42087,36.9444,-89.07989999999998,Ballard,322121,
7331511,234,7.9,358,4473.2167,91.26,7331511,Newpage Corp,1724 Fort Jefferson Hill Rd,Wickliffe,KY,42087,36.9444,-89.07989999999998,Ballard,322121,
7331511,46,5.6,136,1201.85,48.8,7331511,Newpage Corp,1724 Fort Jefferson Hill Rd,Wickliffe,KY,42087,36.9444,-89.07989999999998,Ballard,322121,
7331511,50,.7,68,8.3333,21.65,7331511,Newpage Corp,1724 Fort Jefferson Hill Rd,Wickliffe,KY,42087,36.9444,-89.07989999999998,Ballard,322121,
7331511,62,.7,71,13.5333,35.17,7331511,Newpage Corp,1724 Fort Jefferson Hill Rd,Wickliffe,KY,42087,36.9444,-89.07989999999998,Ballard,322121,
7331511,20,.5,68,8.5,43.29,7331511,Newpage Corp,1724 Fort Jefferson Hill Rd,Wickliffe,KY,42087,36.9444,-89.07989999999998,Ballard,322121,
7331511,100,4.5,120,466.6666,29.34,7331511,Newpage Corp,1724 Fort Jefferson Hill Rd,Wickliffe,KY,42087,36.9444,-89.07989999999998,Ballard,322121,
7331511,234,7.83,323,3583.3334,74.42,7331511,Newpage Corp,1724 Fort Jefferson Hill Rd,Wickliffe,KY,42087,36.9444,-89.07989999999998,Ballard,322121,
7331511,213,3.46,120,583.3333,62.04,7331511,Newpage Corp,1724 Fort Jefferson Hill Rd,Wickliffe,KY,42087,36.9444,-89.07989999999998,Ballard,322121,
7331511,234,7.83,700,3583.3334,74.42,7331511,Newpage Corp,1724 Fort Jefferson Hill Rd,Wickliffe,KY,42087,36.9444,-89.07989999999998,Ballard,322121,
7394911,217.1,9.1,348,3557.6229,54.7,7394911,Halsey Pulp Mill,30480 AMERICAN DR,HALSEY,OR,None,44.3824,-123.158,Linn,322110,
7394911,,,,,,7394911,Halsey Pulp Mill,30480 AMERICAN DR,HALSEY,OR,None,44.3824,-123.158,Linn,322110,
7394911,95.1,5.1,425,629.1886,30.8,7394911,Halsey Pulp Mill,30480 AMERICAN DR,HALSEY,OR,None,44.3824,-123.158,Linn,322110,
7394911,40,5,72,785.0,40,7394911,Halsey Pulp Mill,30480 AMERICAN DR,HALSEY,OR,None,44.3824,-123.158,Linn,322110,
7394911,89.7,2.5,106,232.6741,47.4,7394911,Halsey Pulp Mill,30480 AMERICAN DR,HALSEY,OR,None,44.3824,-123.158,Linn,322110,
7394911,194.4,4.8,166,537.4385,29.7,7394911,Halsey Pulp Mill,30480 AMERICAN DR,HALSEY,OR,None,44.3824,-123.158,Linn,322110,
7394911,108.5,6.5,387,1214.5001,36.6,7394911,Halsey Pulp Mill,30480 AMERICAN DR,HALSEY,OR,None,44.3824,-123.158,Linn,322110,
7394911,114.8,5,202,628.3183,32,7394911,Halsey Pulp Mill,30480 AMERICAN DR,HALSEY,OR,None,44.3824,-123.158,Linn,322110,
7394911,127.1,5.3,224,875.6,38.2,7394911,Halsey Pulp Mill,30480 AMERICAN DR,HALSEY,OR,None,44.3824,-123.158,Linn,322110,
7441011,200,9.83,364,6916.6668,91.14,7441011,Resolute FP US Inc.,17589 Plant Rd,Coosa Pines,AL,35044,33.3267,-86.3579,Talladega,322121,
7441011,127.1,5.3,224,875.6,38.2,7441011,Resolute FP US Inc.,17589 Plant Rd,Coosa Pines,AL,35044,33.3267,-86.3579,Talladega,322121,
7441011,,,,,,7441011,Resolute FP US Inc.,17589 Plant Rd,Coosa Pines,AL,35044,33.3267,-86.3579,Talladega,322121,
7441011,50,4.83,310,902.5833,49.28,7441011,Resolute FP US Inc.,17589 Plant Rd,Coosa Pines,AL,35044,33.3267,-86.3579,Talladega,322121,
7441011,188,5.5,164,433.3333,18.25,7441011,Resolute FP US Inc.,17589 Plant Rd,Coosa Pines,AL,35044,33.3267,-86.3579,Talladega,322121,
7441011,90,4.83,155,642.0,35,7441011,Resolute FP US Inc.,17589 Plant Rd,Coosa Pines,AL,35044,33.3267,-86.3579,Talladega,322121,
7441011,148,1.17,136,31.5,29.5,7441011,Resolute FP US Inc.,17589 Plant Rd,Coosa Pines,AL,35044,33.3267,-86.3579,Talladega,322121,
7441011,96,4,113,603.3333,48,7441011,Resolute FP US Inc.,17589 Plant Rd,Coosa Pines,AL,35044,33.3267,-86.3579,Talladega,322121,
7442111,250,5.8,359,2386.15,90.3,7442111,Georgia Pacific,7530 Hwy 114,Pennington,AL,36916,32.2272,-88.0249,Choctaw,322121,
7442111,127.1,5.3,224,875.6,38.2,7442111,Georgia Pacific,7530 Hwy 114,Pennington,AL,36916,32.2272,-88.0249,Choctaw,322121,
7442111,,,,,,7442111,Georgia Pacific,7530 Hwy 114,Pennington,AL,36916,32.2272,-88.0249,Choctaw,322121,
7442111,250,7.5,419,,56.42,7442111,Georgia Pacific,7530 Hwy 114,Pennington,AL,36916,32.2272,-88.0249,Choctaw,322121,
7442111,260,12,416,,84.9,7442111,Georgia Pacific,7530 Hwy 114,Pennington,AL,36916,32.2272,-88.0249,Choctaw,322121,
7442111,250,7.5,387,,87.8,7442111,Georgia Pacific,7530 Hwy 114,Pennington,AL,36916,32.2272,-88.0249,Choctaw,322121,
7442111,199.5,5,189,,53,7442111,Georgia Pacific,7530 Hwy 114,Pennington,AL,36916,32.2272,-88.0249,Choctaw,322121,
7442111,85,4,230,599.2,47.7,7442111,Georgia Pacific,7530 Hwy 114,Pennington,AL,36916,32.2272,-88.0249,Choctaw,322121,
7442111,81.3,1.5,300,91.9166,52.04,7442111,Georgia Pacific,7530 Hwy 114,Pennington,AL,36916,32.2272,-88.0249,Choctaw,322121,
7442111,90.7,6.25,230,1711.9833,55.83,7442111,Georgia Pacific,7530 Hwy 114,Pennington,AL,36916,32.2272,-88.0249,Choctaw,322121,
7442111,50,2.66,95,300.0,54,7442111,Georgia Pacific,7530 Hwy 114,Pennington,AL,36916,32.2272,-88.0249,Choctaw,322121,
7442111,51.7,1.5,300,85.8,48.57,7442111,Georgia Pacific,7530 Hwy 114,Pennington,AL,36916,32.2272,-88.0249,Choctaw,322121,
7442111,120,5,420,833.3333,42.44,7442111,Georgia Pacific,7530 Hwy 114,Pennington,AL,36916,32.2272,-88.0249,Choctaw,322121,
7442111,250,6.4,169,,29,7442111,Georgia Pacific,7530 Hwy 114,Pennington,AL,36916,32.2272,-88.0249,Choctaw,322121,
7442111,90.3,6.25,230,513.6,16.74,7442111,Georgia Pacific,7530 Hwy 114,Pennington,AL,36916,32.2272,-88.0249,Choctaw,322121,
7442111,85,5.5,95,800.0,33.68,7442111,Georgia Pacific,7530 Hwy 114,Pennington,AL,36916,32.2272,-88.0249,Choctaw,322121,
7442111,70.8,4,230,599.2,47.7,7442111,Georgia Pacific,7530 Hwy 114,Pennington,AL,36916,32.2272,-88.0249,Choctaw,322121,
7442111,81.3,6.25,230,299.6,9.77,7442111,Georgia Pacific,7530 Hwy 114,Pennington,AL,36916,32.2272,-88.0249,Choctaw,322121,
7442111,180,3.7,174,,73,7442111,Georgia Pacific,7530 Hwy 114,Pennington,AL,36916,32.2272,-88.0249,Choctaw,322121,
7442111,22,.17,1021,2.7,119.01,7442111,Georgia Pacific,7530 Hwy 114,Pennington,AL,36916,32.2272,-88.0249,Choctaw,322121,
7442111,85,.67,50,20.0,56.76,7442111,Georgia Pacific,7530 Hwy 114,Pennington,AL,36916,32.2272,-88.0249,Choctaw,322121,
7442111,30,3,150,276.6666,39.16,7442111,Georgia Pacific,7530 Hwy 114,Pennington,AL,36916,32.2272,-88.0249,Choctaw,322121,
7442111,26.5,1.5,150,71.6666,40.58,7442111,Georgia Pacific,7530 Hwy 114,Pennington,AL,36916,32.2272,-88.0249,Choctaw,322121,
7442111,100,3,135,160.0,22.64,7442111,Georgia Pacific,7530 Hwy 114,Pennington,AL,36916,32.2272,-88.0249,Choctaw,322121,
7764711,300,12.5,413,,63,7764711,VERSO PAPER - ANDROSCOGGIN MILL,RILEY RD,JAY,ME,04239,44.5063,-70.2372,Franklin,221112,
7764711,150,2.7,130,,70,7764711,VERSO PAPER - ANDROSCOGGIN MILL,RILEY RD,JAY,ME,04239,44.5063,-70.2372,Franklin,221112,
7764711,,,,,,7764711,VERSO PAPER - ANDROSCOGGIN MILL,RILEY RD,JAY,ME,04239,44.5063,-70.2372,Franklin,221112,
7764711,108,2.5,350,,76,7764711,VERSO PAPER - ANDROSCOGGIN MILL,RILEY RD,JAY,ME,04239,44.5063,-70.2372,Franklin,221112,
7764711,105,2.5,360,,173,7764711,VERSO PAPER - ANDROSCOGGIN MILL,RILEY RD,JAY,ME,04239,44.5063,-70.2372,Franklin,221112,
7764711,5,.3,100,,20,7764711,VERSO PAPER - ANDROSCOGGIN MILL,RILEY RD,JAY,ME,04239,44.5063,-70.2372,Franklin,221112,
7764711,5,.3,100,,31,7764711,VERSO PAPER - ANDROSCOGGIN MILL,RILEY RD,JAY,ME,04239,44.5063,-70.2372,Franklin,221112,
7764711,70,3.4,134,,70,7764711,VERSO PAPER - ANDROSCOGGIN MILL,RILEY RD,JAY,ME,04239,44.5063,-70.2372,Franklin,221112,
7764711,97,5,140,,25,7764711,VERSO PAPER - ANDROSCOGGIN MILL,RILEY RD,JAY,ME,04239,44.5063,-70.2372,Franklin,221112,
7764711,125,1.3,160,,39.4,7764711,VERSO PAPER - ANDROSCOGGIN MILL,RILEY RD,JAY,ME,04239,44.5063,-70.2372,Franklin,221112,
7764711,168,5,154,,15,7764711,VERSO PAPER - ANDROSCOGGIN MILL,RILEY RD,JAY,ME,04239,44.5063,-70.2372,Franklin,221112,
7764711,175,5,165,,13,7764711,VERSO PAPER - ANDROSCOGGIN MILL,RILEY RD,JAY,ME,04239,44.5063,-70.2372,Franklin,221112,
7764711,100,5.2,168,,24,7764711,VERSO PAPER - ANDROSCOGGIN MILL,RILEY RD,JAY,ME,04239,44.5063,-70.2372,Franklin,221112,
7764711,240,15,402,,53.5,7764711,VERSO PAPER - ANDROSCOGGIN MILL,RILEY RD,JAY,ME,04239,44.5063,-70.2372,Franklin,221112,
7764711,220,9,150,,76,7764711,VERSO PAPER - ANDROSCOGGIN MILL,RILEY RD,JAY,ME,04239,44.5063,-70.2372,Franklin,221112,
7764711,100,1,180,,40,7764711,VERSO PAPER - ANDROSCOGGIN MILL,RILEY RD,JAY,ME,04239,44.5063,-70.2372,Franklin,221112,
7764711,100,4.5,164,,29.3,7764711,VERSO PAPER - ANDROSCOGGIN MILL,RILEY RD,JAY,ME,04239,44.5063,-70.2372,Franklin,221112,
7764711,110,5,226,633.6,31.6,7764711,VERSO PAPER - ANDROSCOGGIN MILL,RILEY RD,JAY,ME,04239,44.5063,-70.2372,Franklin,221112,
7920511,303,12,313,6118.5659,54.1,7920511,Blue Ridge Paper Products - Canton Mill,175 Main Street,Canton,NC,28716,35.5356,-82.84189999999998,Haywood,322121,
7920511,75,.2,95,2.6075,83,7920511,Blue Ridge Paper Products - Canton Mill,175 Main Street,Canton,NC,28716,35.5356,-82.84189999999998,Haywood,322121,
7920511,113,2,122,35.814,11.4,7920511,Blue Ridge Paper Products - Canton Mill,175 Main Street,Canton,NC,28716,35.5356,-82.84189999999998,Haywood,322121,
7920511,147,3,131,191.5585,27.1,7920511,Blue Ridge Paper Products - Canton Mill,175 Main Street,Canton,NC,28716,35.5356,-82.84189999999998,Haywood,322121,
7920511,100,1,115,68.3295,87,7920511,Blue Ridge Paper Products - Canton Mill,175 Main Street,Canton,NC,28716,35.5356,-82.84189999999998,Haywood,322121,
7920511,234.5,15.7,393,6393.2501,33.02,7920511,Blue Ridge Paper Products - Canton Mill,175 Main Street,Canton,NC,28716,35.5356,-82.84189999999998,Haywood,322121,
7920511,45,5.2,133,921.693,43.4,7920511,Blue Ridge Paper Products - Canton Mill,175 Main Street,Canton,NC,28716,35.5356,-82.84189999999998,Haywood,322121,
7920511,51,2.9,181,322.3336,48.8,7920511,Blue Ridge Paper Products - Canton Mill,175 Main Street,Canton,NC,28716,35.5356,-82.84189999999998,Haywood,322121,
7920511,63,2.9,181,322.3336,48.8,7920511,Blue Ridge Paper Products - Canton Mill,175 Main Street,Canton,NC,28716,35.5356,-82.84189999999998,Haywood,322121,
7920511,66,1.5,440,1.767,1,7920511,Blue Ridge Paper Products - Canton Mill,175 Main Street,Canton,NC,28716,35.5356,-82.84189999999998,Haywood,322121,
7920511,203,4,150,348.0883,27.7,7920511,Blue Ridge Paper Products - Canton Mill,175 Main Street,Canton,NC,28716,35.5356,-82.84189999999998,Haywood,322121,
7920511,203,4,179,358.1415,28.5,7920511,Blue Ridge Paper Products - Canton Mill,175 Main Street,Canton,NC,28716,35.5356,-82.84189999999998,Haywood,322121,
7920511,203,5.9,161,779.1816,28.5,7920511,Blue Ridge Paper Products - Canton Mill,175 Main Street,Canton,NC,28716,35.5356,-82.84189999999998,Haywood,322121,
7920511,100,4,123,628.3185,50,7920511,Blue Ridge Paper Products - Canton Mill,175 Main Street,Canton,NC,28716,35.5356,-82.84189999999998,Haywood,322121,
7920511,114,8,138,2955.5167,58.79,7920511,Blue Ridge Paper Products - Canton Mill,175 Main Street,Canton,NC,28716,35.5356,-82.84189999999998,Haywood,322121,
7920511,60,1,143,48.9301,62.3,7920511,Blue Ridge Paper Products - Canton Mill,175 Main Street,Canton,NC,28716,35.5356,-82.84189999999998,Haywood,322121,
7920511,,,,,,7920511,Blue Ridge Paper Products - Canton Mill,175 Main Street,Canton,NC,28716,35.5356,-82.84189999999998,Haywood,322121,
7920511,26,2,70,47.1238,15,7920511,Blue Ridge Paper Products - Canton Mill,175 Main Street,Canton,NC,28716,35.5356,-82.84189999999998,Haywood,322121,
7920511,275,8,348,3023.2,60.14,7920511,Blue Ridge Paper Products - Canton Mill,175 Main Street,Canton,NC,28716,35.5356,-82.84189999999998,Haywood,322121,
7920511,40,2,72,3.1415,1,7920511,Blue Ridge Paper Products - Canton Mill,175 Main Street,Canton,NC,28716,35.5356,-82.84189999999998,Haywood,322121,
7920511,57,2,72,3.1415,1,7920511,Blue Ridge Paper Products - Canton Mill,175 Main Street,Canton,NC,28716,35.5356,-82.84189999999998,Haywood,322121,
7920511,125,1.2,77,68.978,60.99,7920511,Blue Ridge Paper Products - Canton Mill,175 Main Street,Canton,NC,28716,35.5356,-82.84189999999998,Haywood,322121,
7920511,203,12,300,5711.4154,50.5,7920511,Blue Ridge Paper Products - Canton Mill,175 Main Street,Canton,NC,28716,35.5356,-82.84189999999998,Haywood,322121,
7920511,56,2.67,70,111.9803,20,7920511,Blue Ridge Paper Products - Canton Mill,175 Main Street,Canton,NC,28716,35.5356,-82.84189999999998,Haywood,322121,
7920511,67.8,.33,70,5.987,70,7920511,Blue Ridge Paper Products - Canton Mill,175 Main Street,Canton,NC,28716,35.5356,-82.84189999999998,Haywood,322121,
7920511,107,2,72,3.1415,1,7920511,Blue Ridge Paper Products - Canton Mill,175 Main Street,Canton,NC,28716,35.5356,-82.84189999999998,Haywood,322121,
7920511,65,4.9,107,337.5475,17.9,7920511,Blue Ridge Paper Products - Canton Mill,175 Main Street,Canton,NC,28716,35.5356,-82.84189999999998,Haywood,322121,
7920511,78.5,.8,85,12.5663,25,7920511,Blue Ridge Paper Products - Canton Mill,175 Main Street,Canton,NC,28716,35.5356,-82.84189999999998,Haywood,322121,
7920511,10,2,72,3.1415,1,7920511,Blue Ridge Paper Products - Canton Mill,175 Main Street,Canton,NC,28716,35.5356,-82.84189999999998,Haywood,322121,
7920511,9,1,77,0.7853,1,7920511,Blue Ridge Paper Products - Canton Mill,175 Main Street,Canton,NC,28716,35.5356,-82.84189999999998,Haywood,322121,
7920511,50,.8,77,0.5025,1,7920511,Blue Ridge Paper Products - Canton Mill,175 Main Street,Canton,NC,28716,35.5356,-82.84189999999998,Haywood,322121,
7920511,27,.8,77,0.5025,1,7920511,Blue Ridge Paper Products - Canton Mill,175 Main Street,Canton,NC,28716,35.5356,-82.84189999999998,Haywood,322121,
7920511,24,2,72,3.1415,1,7920511,Blue Ridge Paper Products - Canton Mill,175 Main Street,Canton,NC,28716,35.5356,-82.84189999999998,Haywood,322121,
7920511,207,5,156,634.209,32.3,7920511,Blue Ridge Paper Products - Canton Mill,175 Main Street,Canton,NC,28716,35.5356,-82.84189999999998,Haywood,322121,
7920511,203,4,179,392.0706,31.2,7920511,Blue Ridge Paper Products - Canton Mill,175 Main Street,Canton,NC,28716,35.5356,-82.84189999999998,Haywood,322121,
7920511,150,9,432,3807.0834,59.84,7920511,Blue Ridge Paper Products - Canton Mill,175 Main Street,Canton,NC,28716,35.5356,-82.84189999999998,Haywood,322121,
7920511,143,2.7,114,89.8911,15.7,7920511,Blue Ridge Paper Products - Canton Mill,175 Main Street,Canton,NC,28716,35.5356,-82.84189999999998,Haywood,322121,
7920511,112,2,105,34.8716,11.1,7920511,Blue Ridge Paper Products - Canton Mill,175 Main Street,Canton,NC,28716,35.5356,-82.84189999999998,Haywood,322121,
7920511,33,.83,129,0.541,1,7920511,Blue Ridge Paper Products - Canton Mill,175 Main Street,Canton,NC,28716,35.5356,-82.84189999999998,Haywood,322121,
7920511,10,.67,120,31.7308,90,7920511,Blue Ridge Paper Products - Canton Mill,175 Main Street,Canton,NC,28716,35.5356,-82.84189999999998,Haywood,322121,
7920511,45,1.83,72,2.6301,1,7920511,Blue Ridge Paper Products - Canton Mill,175 Main Street,Canton,NC,28716,35.5356,-82.84189999999998,Haywood,322121,
7920511,117,1.3,90,47.1198,35.5,7920511,Blue Ridge Paper Products - Canton Mill,175 Main Street,Canton,NC,28716,35.5356,-82.84189999999998,Haywood,322121,
7920511,69,.8,215,1.5581,3.1,7920511,Blue Ridge Paper Products - Canton Mill,175 Main Street,Canton,NC,28716,35.5356,-82.84189999999998,Haywood,322121,
7920511,119,2,72,3.1415,1,7920511,Blue Ridge Paper Products - Canton Mill,175 Main Street,Canton,NC,28716,35.5356,-82.84189999999998,Haywood,322121,
7920511,80,3,122,19.792,2.8,7920511,Blue Ridge Paper Products - Canton Mill,175 Main Street,Canton,NC,28716,35.5356,-82.84189999999998,Haywood,322121,
7920511,151,1.2,131,9.2738,8.2,7920511,Blue Ridge Paper Products - Canton Mill,175 Main Street,Canton,NC,28716,35.5356,-82.84189999999998,Haywood,322121,
7920511,114,4,70,387.3666,30.82,7920511,Blue Ridge Paper Products - Canton Mill,175 Main Street,Canton,NC,28716,35.5356,-82.84189999999998,Haywood,322121,
7920511,165,26.25,325,2592.2925,4.79,7920511,Blue Ridge Paper Products - Canton Mill,175 Main Street,Canton,NC,28716,35.5356,-82.84189999999998,Haywood,322121,
7920511,110,5,226,633.6,31.6,7920511,Blue Ridge Paper Products - Canton Mill,175 Main Street,Canton,NC,28716,35.5356,-82.84189999999998,Haywood,322121,
7980211,241,10,390,4375.5,55.7,7980211,Weyerhaeuser NR Company Vanceboro Pulp,1785 Weyerhaeuser Road,Vanceboro,NC,28586,35.2137,-77.11719999999998,Craven,32211,
7980211,241,10,390,4375.5,55.71,7980211,Weyerhaeuser NR Company Vanceboro Pulp,1785 Weyerhaeuser Road,Vanceboro,NC,28586,35.2137,-77.11719999999998,Craven,32211,
7980211,83,1.2,92,57.7,51.01,7980211,Weyerhaeuser NR Company Vanceboro Pulp,1785 Weyerhaeuser Road,Vanceboro,NC,28586,35.2137,-77.11719999999998,Craven,32211,
7980211,83,1.2,90,77.8333,68.81,7980211,Weyerhaeuser NR Company Vanceboro Pulp,1785 Weyerhaeuser Road,Vanceboro,NC,28586,35.2137,-77.11719999999998,Craven,32211,
7980211,10,5,77,16.6666,.84,7980211,Weyerhaeuser NR Company Vanceboro Pulp,1785 Weyerhaeuser Road,Vanceboro,NC,28586,35.2137,-77.11719999999998,Craven,32211,
7980211,,,,,,7980211,Weyerhaeuser NR Company Vanceboro Pulp,1785 Weyerhaeuser Road,Vanceboro,NC,28586,35.2137,-77.11719999999998,Craven,32211,
7980211,86,4,158,4.4566,.35,7980211,Weyerhaeuser NR Company Vanceboro Pulp,1785 Weyerhaeuser Road,Vanceboro,NC,28586,35.2137,-77.11719999999998,Craven,32211,
7980211,224,6,130,2550.3448,90.2,7980211,Weyerhaeuser NR Company Vanceboro Pulp,1785 Weyerhaeuser Road,Vanceboro,NC,28586,35.2137,-77.11719999999998,Craven,32211,
7980211,25,1,200,1.4483,1.84,7980211,Weyerhaeuser NR Company Vanceboro Pulp,1785 Weyerhaeuser Road,Vanceboro,NC,28586,35.2137,-77.11719999999998,Craven,32211,
7980211,40,.5,200,0.0195,.1,7980211,Weyerhaeuser NR Company Vanceboro Pulp,1785 Weyerhaeuser Road,Vanceboro,NC,28586,35.2137,-77.11719999999998,Craven,32211,
7980211,25,1,150,17.8285,22.7,7980211,Weyerhaeuser NR Company Vanceboro Pulp,1785 Weyerhaeuser Road,Vanceboro,NC,28586,35.2137,-77.11719999999998,Craven,32211,
7980211,82,1.2,127,24.65,21.79,7980211,Weyerhaeuser NR Company Vanceboro Pulp,1785 Weyerhaeuser Road,Vanceboro,NC,28586,35.2137,-77.11719999999998,Craven,32211,
7980211,86,4,150,16.3361,1.3,7980211,Weyerhaeuser NR Company Vanceboro Pulp,1785 Weyerhaeuser Road,Vanceboro,NC,28586,35.2137,-77.11719999999998,Craven,32211,
7980211,25,.83,150,2.2183,4.1,7980211,Weyerhaeuser NR Company Vanceboro Pulp,1785 Weyerhaeuser Road,Vanceboro,NC,28586,35.2137,-77.11719999999998,Craven,32211,
7980211,30,.25,150,2.2285,45.4,7980211,Weyerhaeuser NR Company Vanceboro Pulp,1785 Weyerhaeuser Road,Vanceboro,NC,28586,35.2137,-77.11719999999998,Craven,32211,
7980211,89,.83,50,110.3763,204,7980211,Weyerhaeuser NR Company Vanceboro Pulp,1785 Weyerhaeuser Road,Vanceboro,NC,28586,35.2137,-77.11719999999998,Craven,32211,
7980211,209,12,334,6360.0001,56.23,7980211,Weyerhaeuser NR Company Vanceboro Pulp,1785 Weyerhaeuser Road,Vanceboro,NC,28586,35.2137,-77.11719999999998,Craven,32211,
7980211,52.5,5.3,166,529.1666,23.98,7980211,Weyerhaeuser NR Company Vanceboro Pulp,1785 Weyerhaeuser Road,Vanceboro,NC,28586,35.2137,-77.11719999999998,Craven,32211,
7980211,30,.83,200,0.8656,1.6,7980211,Weyerhaeuser NR Company Vanceboro Pulp,1785 Weyerhaeuser Road,Vanceboro,NC,28586,35.2137,-77.11719999999998,Craven,32211,
7980211,25,2,100,0.314,.1,7980211,Weyerhaeuser NR Company Vanceboro Pulp,1785 Weyerhaeuser Road,Vanceboro,NC,28586,35.2137,-77.11719999999998,Craven,32211,
7980211,45,1.5,171,16.4343,9.3,7980211,Weyerhaeuser NR Company Vanceboro Pulp,1785 Weyerhaeuser Road,Vanceboro,NC,28586,35.2137,-77.11719999999998,Craven,32211,
7980211,82,1,150,17.8285,22.7,7980211,Weyerhaeuser NR Company Vanceboro Pulp,1785 Weyerhaeuser Road,Vanceboro,NC,28586,35.2137,-77.11719999999998,Craven,32211,
7980211,82,1.25,120,200.0,162.97,7980211,Weyerhaeuser NR Company Vanceboro Pulp,1785 Weyerhaeuser Road,Vanceboro,NC,28586,35.2137,-77.11719999999998,Craven,32211,
7980211,97,4,96,753.05,59.92,7980211,Weyerhaeuser NR Company Vanceboro Pulp,1785 Weyerhaeuser Road,Vanceboro,NC,28586,35.2137,-77.11719999999998,Craven,32211,
7980211,20,1,68,0.314,.4,7980211,Weyerhaeuser NR Company Vanceboro Pulp,1785 Weyerhaeuser Road,Vanceboro,NC,28586,35.2137,-77.11719999999998,Craven,32211,
7980211,25,.33,150,0.2223,2.6,7980211,Weyerhaeuser NR Company Vanceboro Pulp,1785 Weyerhaeuser Road,Vanceboro,NC,28586,35.2137,-77.11719999999998,Craven,32211,
7980211,15,.33,68,0.0085,.1,7980211,Weyerhaeuser NR Company Vanceboro Pulp,1785 Weyerhaeuser Road,Vanceboro,NC,28586,35.2137,-77.11719999999998,Craven,32211,
7980211,48,1,170,4.5551,5.8,7980211,Weyerhaeuser NR Company Vanceboro Pulp,1785 Weyerhaeuser Road,Vanceboro,NC,28586,35.2137,-77.11719999999998,Craven,32211,
7980211,35,.67,200,0.8813,2.5,7980211,Weyerhaeuser NR Company Vanceboro Pulp,1785 Weyerhaeuser Road,Vanceboro,NC,28586,35.2137,-77.11719999999998,Craven,32211,
7980211,79,1.1,100,416.6666,438.44,7980211,Weyerhaeuser NR Company Vanceboro Pulp,1785 Weyerhaeuser Road,Vanceboro,NC,28586,35.2137,-77.11719999999998,Craven,32211,
7980211,100,6,150,2.8273,.1,7980211,Weyerhaeuser NR Company Vanceboro Pulp,1785 Weyerhaeuser Road,Vanceboro,NC,28586,35.2137,-77.11719999999998,Craven,32211,
7980211,20,1,110,22.3051,28.4,7980211,Weyerhaeuser NR Company Vanceboro Pulp,1785 Weyerhaeuser Road,Vanceboro,NC,28586,35.2137,-77.11719999999998,Craven,32211,
7980211,60,2,220,33.3333,10.61,7980211,Weyerhaeuser NR Company Vanceboro Pulp,1785 Weyerhaeuser Road,Vanceboro,NC,28586,35.2137,-77.11719999999998,Craven,32211,
7980211,50,.98,170,0.0753,.1,7980211,Weyerhaeuser NR Company Vanceboro Pulp,1785 Weyerhaeuser Road,Vanceboro,NC,28586,35.2137,-77.11719999999998,Craven,32211,
8122711,293,5,170,569.4,29,8122711,International Paper - Riegelwood Mill,865 John L Riegel Road,Riegelwood,NC,28456,34.3522,-78.2125,Columbus,322121,
8122711,293,5,170,569.4136,29,8122711,International Paper - Riegelwood Mill,865 John L Riegel Road,Riegelwood,NC,28456,34.3522,-78.2125,Columbus,322121,
8122711,,,,,,8122711,International Paper - Riegelwood Mill,865 John L Riegel Road,Riegelwood,NC,28456,34.3522,-78.2125,Columbus,322121,
8122711,100,1,75,33.3008,42.4,8122711,International Paper - Riegelwood Mill,865 John L Riegel Road,Riegelwood,NC,28456,34.3522,-78.2125,Columbus,322121,
8122711,18,1.2,75,45.2388,40,8122711,International Paper - Riegelwood Mill,865 John L Riegel Road,Riegelwood,NC,28456,34.3522,-78.2125,Columbus,322121,
8122711,110,2.8,98,396.5443,64.4,8122711,International Paper - Riegelwood Mill,865 John L Riegel Road,Riegelwood,NC,28456,34.3522,-78.2125,Columbus,322121,
8122711,250,9.84,150,3110.3078,40.9,8122711,International Paper - Riegelwood Mill,865 John L Riegel Road,Riegelwood,NC,28456,34.3522,-78.2125,Columbus,322121,
8122711,250,14.8,393,9823.1195,57.1,8122711,International Paper - Riegelwood Mill,865 John L Riegel Road,Riegelwood,NC,28456,34.3522,-78.2125,Columbus,322121,
8122711,258,7,315,2001.1945,52,8122711,International Paper - Riegelwood Mill,865 John L Riegel Road,Riegelwood,NC,28456,34.3522,-78.2125,Columbus,322121,
8122711,75,3.3,73,106.9121,12.5,8122711,International Paper - Riegelwood Mill,865 John L Riegel Road,Riegelwood,NC,28456,34.3522,-78.2125,Columbus,322121,
8122711,75,3.3,125,106.9121,12.5,8122711,International Paper - Riegelwood Mill,865 John L Riegel Road,Riegelwood,NC,28456,34.3522,-78.2125,Columbus,322121,
8122711,50,2,75,36.4423,11.6,8122711,International Paper - Riegelwood Mill,865 John L Riegel Road,Riegelwood,NC,28456,34.3522,-78.2125,Columbus,322121,
8122711,258,9.8,146,3515.0212,46.6,8122711,International Paper - Riegelwood Mill,865 John L Riegel Road,Riegelwood,NC,28456,34.3522,-78.2125,Columbus,322121,
8122711,200,8,73,2513.274,50,8122711,International Paper - Riegelwood Mill,865 John L Riegel Road,Riegelwood,NC,28456,34.3522,-78.2125,Columbus,322121,
8122711,150,5,142,844.303,43,8122711,International Paper - Riegelwood Mill,865 John L Riegel Road,Riegelwood,NC,28456,34.3522,-78.2125,Columbus,322121,
8122711,145,3.9,163,290.2855,24.3,8122711,International Paper - Riegelwood Mill,865 John L Riegel Road,Riegelwood,NC,28456,34.3522,-78.2125,Columbus,322121,
8122711,250,5,170,589.0485,30,8122711,International Paper - Riegelwood Mill,865 John L Riegel Road,Riegelwood,NC,28456,34.3522,-78.2125,Columbus,322121,
8122711,250,5,182,392.699,20,8122711,International Paper - Riegelwood Mill,865 John L Riegel Road,Riegelwood,NC,28456,34.3522,-78.2125,Columbus,322121,
8122711,110,3.6,230,240.2186,23.6,8122711,International Paper - Riegelwood Mill,865 John L Riegel Road,Riegelwood,NC,28456,34.3522,-78.2125,Columbus,322121,
8122711,250,1,181,42.0186,53.5,8122711,International Paper - Riegelwood Mill,865 John L Riegel Road,Riegelwood,NC,28456,34.3522,-78.2125,Columbus,322121,
8122711,127.1,5.3,224,875.6,38.2,8122711,International Paper - Riegelwood Mill,865 John L Riegel Road,Riegelwood,NC,28456,34.3522,-78.2125,Columbus,322121,
8215811,2,300,13,410.0,9976.4001,8215811,"Weyerhaeuser NR Company, Columbus Cellulose Fibers",4335 Carson Road,Columbus,MS,39703,33.3608,-88.458,Lowndes,32211,
8215811,2,110,5,226.0,633.6,8215811,"Weyerhaeuser NR Company, Columbus Cellulose Fibers",4335 Carson Road,Columbus,MS,39703,33.3608,-88.458,Lowndes,32211,
8215811,2,251,15,340.0,9361.1335,8215811,"Weyerhaeuser NR Company, Columbus Cellulose Fibers",4335 Carson Road,Columbus,MS,39703,33.3608,-88.458,Lowndes,32211,
8215811,1,,,,,8215811,"Weyerhaeuser NR Company, Columbus Cellulose Fibers",4335 Carson Road,Columbus,MS,39703,33.3608,-88.458,Lowndes,32211,
8215811,2,152,6,485.0,1435.6,8215811,"Weyerhaeuser NR Company, Columbus Cellulose Fibers",4335 Carson Road,Columbus,MS,39703,33.3608,-88.458,Lowndes,32211,
8215811,2,56,5.1,75.0,250,8215811,"Weyerhaeuser NR Company, Columbus Cellulose Fibers",4335 Carson Road,Columbus,MS,39703,33.3608,-88.458,Lowndes,32211,
8215811,2,50,4.3,70.0,551.55,8215811,"Weyerhaeuser NR Company, Columbus Cellulose Fibers",4335 Carson Road,Columbus,MS,39703,33.3608,-88.458,Lowndes,32211,
8215811,2,165,6,410.0,1732.3333,8215811,"Weyerhaeuser NR Company, Columbus Cellulose Fibers",4335 Carson Road,Columbus,MS,39703,33.3608,-88.458,Lowndes,32211,
8215811,2,250,7.5,174.0,1209.8833,8215811,"Weyerhaeuser NR Company, Columbus Cellulose Fibers",4335 Carson Road,Columbus,MS,39703,33.3608,-88.458,Lowndes,32211,
8215811,2,26,2,160.0,25,8215811,"Weyerhaeuser NR Company, Columbus Cellulose Fibers",4335 Carson Road,Columbus,MS,39703,33.3608,-88.458,Lowndes,32211,
8215811,2,180,2,160.0,153.8666,8215811,"Weyerhaeuser NR Company, Columbus Cellulose Fibers",4335 Carson Road,Columbus,MS,39703,33.3608,-88.458,Lowndes,32211,
8215811,2,71,3.5,93.0,700,8215811,"Weyerhaeuser NR Company, Columbus Cellulose Fibers",4335 Carson Road,Columbus,MS,39703,33.3608,-88.458,Lowndes,32211,
8215811,2,82,5.5,88.0,1666.6667,8215811,"Weyerhaeuser NR Company, Columbus Cellulose Fibers",4335 Carson Road,Columbus,MS,39703,33.3608,-88.458,Lowndes,32211,
8215811,2,71,3,93.0,500,8215811,"Weyerhaeuser NR Company, Columbus Cellulose Fibers",4335 Carson Road,Columbus,MS,39703,33.3608,-88.458,Lowndes,32211,
8215811,2,60,.7,65.0,,8215811,"Weyerhaeuser NR Company, Columbus Cellulose Fibers",4335 Carson Road,Columbus,MS,39703,33.3608,-88.458,Lowndes,32211,
8216311,300,13.5,372,10386.6168,72.6,8216311,Leaf River Cellulose LLC,157 Buck Creek Road,New Augusta,MS,39462,31.2444,-89.0454,Perry,322110,
8216311,,,,,,8216311,Leaf River Cellulose LLC,157 Buck Creek Road,New Augusta,MS,39462,31.2444,-89.0454,Perry,322110,
8216311,127.1,5.3,224,875.6,38.2,8216311,Leaf River Cellulose LLC,157 Buck Creek Road,New Augusta,MS,39462,31.2444,-89.0454,Perry,322110,
8216311,170,5.7,163,951.6666,37.7,8216311,Leaf River Cellulose LLC,157 Buck Creek Road,New Augusta,MS,39462,31.2444,-89.0454,Perry,322110,
8216311,300,5.8,161,641.7,24.3,8216311,Leaf River Cellulose LLC,157 Buck Creek Road,New Augusta,MS,39462,31.2444,-89.0454,Perry,322110,
8216311,300,9.5,350,4739.6167,66.9,8216311,Leaf River Cellulose LLC,157 Buck Creek Road,New Augusta,MS,39462,31.2444,-89.0454,Perry,322110,
8216311,80,3.1,185,268.5666,35.6,8216311,Leaf River Cellulose LLC,157 Buck Creek Road,New Augusta,MS,39462,31.2444,-89.0454,Perry,322110,
8216311,20,1.5,250,26.5,15,8216311,Leaf River Cellulose LLC,157 Buck Creek Road,New Augusta,MS,39462,31.2444,-89.0454,Perry,322110,
8216311,30,.8,250,,15,8216311,Leaf River Cellulose LLC,157 Buck Creek Road,New Augusta,MS,39462,31.2444,-89.0454,Perry,322110,
8240911,10,.5,50,,.1,8240911,"RED SHIELD ACQUISITION, LLC - OLD TOWN",24 PORTLAND ST,OLD TOWN,ME,04468,44.9181,-68.6338,Penobscot,322110,
8240911,,,,,,8240911,"RED SHIELD ACQUISITION, LLC - OLD TOWN",24 PORTLAND ST,OLD TOWN,ME,04468,44.9181,-68.6338,Penobscot,322110,
8335711,160,9,550,280.0,4.4,8335711,Archer-Daniels-Midland Company d/b/a Southern Cellulose Products,103 West 45th Street,Chattanooga,TN,None,34.9962,-85.3185,Hamilton,322110,
8335711,78,4,68,583.3333,46.4,8335711,Archer-Daniels-Midland Company d/b/a Southern Cellulose Products,103 West 45th Street,Chattanooga,TN,None,34.9962,-85.3185,Hamilton,322110,
8335711,50,2.333,440,153.2833,35.8,8335711,Archer-Daniels-Midland Company d/b/a Southern Cellulose Products,103 West 45th Street,Chattanooga,TN,None,34.9962,-85.3185,Hamilton,322110,
8352311,350,19.6,240,13757.0,45,8352311,Weyerhaeuser NR Company - Flint River Operations,2449 Stagecoach Rd,Oglethorpe,GA,31068,32.2531,-84.0691,Macon,322110,
8352311,,,,,,8352311,Weyerhaeuser NR Company - Flint River Operations,2449 Stagecoach Rd,Oglethorpe,GA,31068,32.2531,-84.0691,Macon,322110,
8352311,127.1,5.3,224,875.6,38.2,8352311,Weyerhaeuser NR Company - Flint River Operations,2449 Stagecoach Rd,Oglethorpe,GA,31068,32.2531,-84.0691,Macon,322110,
8352311,230,5,155,584.1,29.8,8352311,Weyerhaeuser NR Company - Flint River Operations,2449 Stagecoach Rd,Oglethorpe,GA,31068,32.2531,-84.0691,Macon,322110,
8352311,150,5,514,996.0,51.6,8352311,Weyerhaeuser NR Company - Flint River Operations,2449 Stagecoach Rd,Oglethorpe,GA,31068,32.2531,-84.0691,Macon,322110,
8352311,40,4,230,1357.0,108.1,8352311,Weyerhaeuser NR Company - Flint River Operations,2449 Stagecoach Rd,Oglethorpe,GA,31068,32.2531,-84.0691,Macon,322110,
8418611,290,4.6,242,545.0,32.8,8418611,Toledo,1400 SE BUTLER BRIDGE ROAD,TOLEDO,OR,97391,44.6122,-123.933,Lincoln,221330,
8418611,40,5,72,785.0,40,8418611,Toledo,1400 SE BUTLER BRIDGE ROAD,TOLEDO,OR,97391,44.6122,-123.933,Lincoln,221330,
8418611,290,15,265,7952.1549,45,8418611,Toledo,1400 SE BUTLER BRIDGE ROAD,TOLEDO,OR,97391,44.6122,-123.933,Lincoln,221330,
8418611,,,,,,8418611,Toledo,1400 SE BUTLER BRIDGE ROAD,TOLEDO,OR,97391,44.6122,-123.933,Lincoln,221330,
8418611,131,5,451,1116.6666,57,8418611,Toledo,1400 SE BUTLER BRIDGE ROAD,TOLEDO,OR,97391,44.6122,-123.933,Lincoln,221330,
8418611,131,5,450,1164.4666,59,8418611,Toledo,1400 SE BUTLER BRIDGE ROAD,TOLEDO,OR,97391,44.6122,-123.933,Lincoln,221330,
8418611,116,7,322,1616.3491,42,8418611,Toledo,1400 SE BUTLER BRIDGE ROAD,TOLEDO,OR,97391,44.6122,-123.933,Lincoln,221330,
8418611,56.2,3.9,123,231.7505,19.4,8418611,Toledo,1400 SE BUTLER BRIDGE ROAD,TOLEDO,OR,97391,44.6122,-123.933,Lincoln,221330,
8418611,102,5,420,2741.6667,140,8418611,Toledo,1400 SE BUTLER BRIDGE ROAD,TOLEDO,OR,97391,44.6122,-123.933,Lincoln,221330,
8418611,124.6,5.2,276,745.6,34.5,8418611,Toledo,1400 SE BUTLER BRIDGE ROAD,TOLEDO,OR,97391,44.6122,-123.933,Lincoln,221330,
842411,250,3.6,160,49.0,4.8,842411,GEORGIA-PACIFIC CONSUMER OPERATIONS LLC,215 County Road 216,PALATKA,FL,None,29.6811,-81.6802,Putnam,32212,
842411,,,,,,842411,GEORGIA-PACIFIC CONSUMER OPERATIONS LLC,215 County Road 216,PALATKA,FL,None,29.6811,-81.6802,Putnam,32212,
842411,118,4,85,378.3,30.1,842411,GEORGIA-PACIFIC CONSUMER OPERATIONS LLC,215 County Road 216,PALATKA,FL,None,29.6811,-81.6802,Putnam,32212,
842411,83,1.3,168,71.4,53,842411,GEORGIA-PACIFIC CONSUMER OPERATIONS LLC,215 County Road 216,PALATKA,FL,None,29.6811,-81.6802,Putnam,32212,
842411,230,12,400,7200.0,63.7,842411,GEORGIA-PACIFIC CONSUMER OPERATIONS LLC,215 County Road 216,PALATKA,FL,None,29.6811,-81.6802,Putnam,32212,
842411,157,9,500,3833.3,60.3,842411,GEORGIA-PACIFIC CONSUMER OPERATIONS LLC,215 County Road 216,PALATKA,FL,None,29.6811,-81.6802,Putnam,32212,
842411,131,4.3,165,746.6,51,842411,GEORGIA-PACIFIC CONSUMER OPERATIONS LLC,215 County Road 216,PALATKA,FL,None,29.6811,-81.6802,Putnam,32212,
842411,237,8,500,3551.7,70.7,842411,GEORGIA-PACIFIC CONSUMER OPERATIONS LLC,215 County Road 216,PALATKA,FL,None,29.6811,-81.6802,Putnam,32212,
842411,118,4,150,383.3,30.5,842411,GEORGIA-PACIFIC CONSUMER OPERATIONS LLC,215 County Road 216,PALATKA,FL,None,29.6811,-81.6802,Putnam,32212,
842411,222,5,155,402.5,20,842411,GEORGIA-PACIFIC CONSUMER OPERATIONS LLC,215 County Road 216,PALATKA,FL,None,29.6811,-81.6802,Putnam,32212,
842411,6,.5,875,,58.8,842411,GEORGIA-PACIFIC CONSUMER OPERATIONS LLC,215 County Road 216,PALATKA,FL,None,29.6811,-81.6802,Putnam,32212,
842411,127.1,5.3,224,875.6,38.2,842411,GEORGIA-PACIFIC CONSUMER OPERATIONS LLC,215 County Road 216,PALATKA,FL,None,29.6811,-81.6802,Putnam,32212,
845811,2,250,7.3,114.0,2360.1,845811,RAYONIER PERFORMANCE FIBERS LLC,W SR A1A AT FOOT OF GUM ST,FERNANDINA BEACH,FL,32035,30.6617,-81.4728,Nassau,3221,
845811,1,,,,,845811,RAYONIER PERFORMANCE FIBERS LLC,W SR A1A AT FOOT OF GUM ST,FERNANDINA BEACH,FL,32035,30.6617,-81.4728,Nassau,3221,
845811,2,180,5,80.0,541.7,845811,RAYONIER PERFORMANCE FIBERS LLC,W SR A1A AT FOOT OF GUM ST,FERNANDINA BEACH,FL,32035,30.6617,-81.4728,Nassau,3221,
845811,2,100,1,101.0,24.3,845811,RAYONIER PERFORMANCE FIBERS LLC,W SR A1A AT FOOT OF GUM ST,FERNANDINA BEACH,FL,32035,30.6617,-81.4728,Nassau,3221,
845811,2,8,.5,617.0,,845811,RAYONIER PERFORMANCE FIBERS LLC,W SR A1A AT FOOT OF GUM ST,FERNANDINA BEACH,FL,32035,30.6617,-81.4728,Nassau,3221,
845811,2,190,10,353.0,3057,845811,RAYONIER PERFORMANCE FIBERS LLC,W SR A1A AT FOOT OF GUM ST,FERNANDINA BEACH,FL,32035,30.6617,-81.4728,Nassau,3221,
845811,2,104,2,118.0,162.1,845811,RAYONIER PERFORMANCE FIBERS LLC,W SR A1A AT FOOT OF GUM ST,FERNANDINA BEACH,FL,32035,30.6617,-81.4728,Nassau,3221,
845811,2,127.1,5.3,224.0,875.6,845811,RAYONIER PERFORMANCE FIBERS LLC,W SR A1A AT FOOT OF GUM ST,FERNANDINA BEACH,FL,32035,30.6617,-81.4728,Nassau,3221,
8505211,66,2,72,35.0,11.14,8505211,Weyerhaeuser NR Company - New Bern Lumber Facility,1785 Weyerhaeuser Road,Vanceboro,NC,28586,35.2174,-77.1149,Craven,321113,
8505211,48,5,77,500.0,25.46,8505211,Weyerhaeuser NR Company - New Bern Lumber Facility,1785 Weyerhaeuser Road,Vanceboro,NC,28586,35.2174,-77.1149,Craven,321113,
8505211,,,,,,8505211,Weyerhaeuser NR Company - New Bern Lumber Facility,1785 Weyerhaeuser Road,Vanceboro,NC,28586,35.2174,-77.1149,Craven,321113,
8505211,30,2.3,77,200.0,48.13,8505211,Weyerhaeuser NR Company - New Bern Lumber Facility,1785 Weyerhaeuser Road,Vanceboro,NC,28586,35.2174,-77.1149,Craven,321113,
8505211,29.5,4,1200,250.0,19.89,8505211,Weyerhaeuser NR Company - New Bern Lumber Facility,1785 Weyerhaeuser Road,Vanceboro,NC,28586,35.2174,-77.1149,Craven,321113,
9619211,272,10,376,5019.1667,63.91,9619211,Domtar Paper Co LLC - Hawesville Operations,58 Wescor Rd,Hawesville,KY,42348,37.8948,-86.6858,Hancock,322121,
9619211,272,10,340,4725.1,60.2,9619211,Domtar Paper Co LLC - Hawesville Operations,58 Wescor Rd,Hawesville,KY,42348,37.8948,-86.6858,Hancock,322121,
9619211,,,,,,9619211,Domtar Paper Co LLC - Hawesville Operations,58 Wescor Rd,Hawesville,KY,42348,37.8948,-86.6858,Hancock,322121,
9619211,266,9.5,318,3998.3334,56.41,9619211,Domtar Paper Co LLC - Hawesville Operations,58 Wescor Rd,Hawesville,KY,42348,37.8948,-86.6858,Hancock,322121,
9619211,266,4,171,288.3333,22.94,9619211,Domtar Paper Co LLC - Hawesville Operations,58 Wescor Rd,Hawesville,KY,42348,37.8948,-86.6858,Hancock,322121,
9619211,148,8,418,928.8333,18.48,9619211,Domtar Paper Co LLC - Hawesville Operations,58 Wescor Rd,Hawesville,KY,42348,37.8948,-86.6858,Hancock,322121,
9619211,203,4,180,462.5,36.8,9619211,Domtar Paper Co LLC - Hawesville Operations,58 Wescor Rd,Hawesville,KY,42348,37.8948,-86.6858,Hancock,322121,
9619211,197,12,354,5591.6667,49.44,9619211,Domtar Paper Co LLC - Hawesville Operations,58 Wescor Rd,Hawesville,KY,42348,37.8948,-86.6858,Hancock,322121,
9619211,35,1,219,309.0,393.43,9619211,Domtar Paper Co LLC - Hawesville Operations,58 Wescor Rd,Hawesville,KY,42348,37.8948,-86.6858,Hancock,322121,
9619211,33,1.3,214,8.8333,6.65,9619211,Domtar Paper Co LLC - Hawesville Operations,58 Wescor Rd,Hawesville,KY,42348,37.8948,-86.6858,Hancock,322121,
9619211,98,3.5,170,165.0,17.15,9619211,Domtar Paper Co LLC - Hawesville Operations,58 Wescor Rd,Hawesville,KY,42348,37.8948,-86.6858,Hancock,322121,
9619211,138,3.9,147,486.75,40.75,9619211,Domtar Paper Co LLC - Hawesville Operations,58 Wescor Rd,Hawesville,KY,42348,37.8948,-86.6858,Hancock,322121,
9619211,59,2,59,6.4666,2.06,9619211,Domtar Paper Co LLC - Hawesville Operations,58 Wescor Rd,Hawesville,KY,42348,37.8948,-86.6858,Hancock,322121,
9619211,170,6.5,190,1416.6666,42.69,9619211,Domtar Paper Co LLC - Hawesville Operations,58 Wescor Rd,Hawesville,KY,42348,37.8948,-86.6858,Hancock,322121,
9619211,79,1,149,66.5,84.67,9619211,Domtar Paper Co LLC - Hawesville Operations,58 Wescor Rd,Hawesville,KY,42348,37.8948,-86.6858,Hancock,322121,
9619211,72,.7,64,10.0,25.98,9619211,Domtar Paper Co LLC - Hawesville Operations,58 Wescor Rd,Hawesville,KY,42348,37.8948,-86.6858,Hancock,322121,
9619211,29,1.5,100,583.3333,330.1,9619211,Domtar Paper Co LLC - Hawesville Operations,58 Wescor Rd,Hawesville,KY,42348,37.8948,-86.6858,Hancock,322121,
7763811,623,11,300,,75,7763811,Luke Paper Company,300 Pratt St,Luke,MD,21540,39.4721,-79.05759999999998,Allegany,322121,
7763811,623,11,300,7127.4,75,7763811,Luke Paper Company,300 Pratt St,Luke,MD,21540,39.4721,-79.05759999999998,Allegany,322121,
7763811,,,,,,7763811,Luke Paper Company,300 Pratt St,Luke,MD,21540,39.4721,-79.05759999999998,Allegany,322121,
7763811,45,1,95,,23,7763811,Luke Paper Company,300 Pratt St,Luke,MD,21540,39.4721,-79.05759999999998,Allegany,322121,
7763811,623,2.5,100,,89,7763811,Luke Paper Company,300 Pratt St,Luke,MD,21540,39.4721,-79.05759999999998,Allegany,322121,
7763811,71,2.25,217,,10,7763811,Luke Paper Company,300 Pratt St,Luke,MD,21540,39.4721,-79.05759999999998,Allegany,322121,
7763811,75,2.17,290,,10,7763811,Luke Paper Company,300 Pratt St,Luke,MD,21540,39.4721,-79.05759999999998,Allegany,322121,
7763811,35,.5,450,,15,7763811,Luke Paper Company,300 Pratt St,Luke,MD,21540,39.4721,-79.05759999999998,Allegany,322121,
7763811,28,.167,72,,10,7763811,Luke Paper Company,300 Pratt St,Luke,MD,21540,39.4721,-79.05759999999998,Allegany,322121,
7763811,200,.333,120,,58,7763811,Luke Paper Company,300 Pratt St,Luke,MD,21540,39.4721,-79.05759999999998,Allegany,322121,
7763811,210,6.5,170,,20,7763811,Luke Paper Company,300 Pratt St,Luke,MD,21540,39.4721,-79.05759999999998,Allegany,322121,
7763811,220,8.58,300,,50,7763811,Luke Paper Company,300 Pratt St,Luke,MD,21540,39.4721,-79.05759999999998,Allegany,322121,
7763811,167,1.33,130,,36,7763811,Luke Paper Company,300 Pratt St,Luke,MD,21540,39.4721,-79.05759999999998,Allegany,322121,
7763811,63,2,310,,10,7763811,Luke Paper Company,300 Pratt St,Luke,MD,21540,39.4721,-79.05759999999998,Allegany,322121,
7763811,616,3.5,140,,2,7763811,Luke Paper Company,300 Pratt St,Luke,MD,21540,39.4721,-79.05759999999998,Allegany,322121,
7763811,130,4,165,,34,7763811,Luke Paper Company,300 Pratt St,Luke,MD,21540,39.4721,-79.05759999999998,Allegany,322121,
7763811,156,9,300,,84,7763811,Luke Paper Company,300 Pratt St,Luke,MD,21540,39.4721,-79.05759999999998,Allegany,322121,
7763811,100,.833,77,,30,7763811,Luke Paper Company,300 Pratt St,Luke,MD,21540,39.4721,-79.05759999999998,Allegany,322121,
7763811,86,3,103,,10,7763811,Luke Paper Company,300 Pratt St,Luke,MD,21540,39.4721,-79.05759999999998,Allegany,322121,
7763811,36,1.5,800,,600,7763811,Luke Paper Company,300 Pratt St,Luke,MD,21540,39.4721,-79.05759999999998,Allegany,322121,
7763811,130,1.17,130,,23,7763811,Luke Paper Company,300 Pratt St,Luke,MD,21540,39.4721,-79.05759999999998,Allegany,322121,
7763811,110,5,226,633.6,31.6,7763811,Luke Paper Company,300 Pratt St,Luke,MD,21540,39.4721,-79.05759999999998,Allegany,322121,
