FRS_ID,FacilityName,Address,City,State,Zip,Latitude,Longitude,County,NAICS,SIC,FacilityID,Source
110041343267.0,GERDAU AMERISTEEL CARTERSVILLE STEEL MILL,384 OLD GRASSDALE RD NE,CARTERSVILLE,GA,30121.0,34.242779,-84.797775,BARTOW COUNTY,331111,,1001103,GHGRP
110041343267.0,Gerdau Ameristeel US Inc.,384 Old Grassdale Rd,Cartersville,GA,30120,34.24277,-84.79763,Bartow,331221,,553311,NEI
110041343267.0,GERDAU AMERISTEEL CARTERSVILLE STEEL MILL,384 OLD GRASSDALE RD NE,CARTERSVILLE,GA,30121,34.242779,-84.797775,BARTOW,331110,,30120TLNTCPEEPL,TRI
110024425237.0,TIMKENSTEEL CORP (1576000613),"1835 DUEBER AVENUE, S.W.",CANTON,OH,44706.0,40.780505,-81.397259,STARK COUNTY,331111,,1003860,GHGRP
110024425237.0,TimkenSteel Corporation - Faircrest Steel Plant (1576222001),"1835 Dueber Avenue, S.W.",Canton,OH,44706,40.76805,-81.42639,Stark,331110,,13572711,NEI
110000599745.0,STRUCTURAL METALS INC,1 STEEL MILL ROAD,SEGUIN,TX,78155.0,29.574556,-98.032806,GUADALUPE COUNTY,331111,,1004259,GHGRP
110000599745.0,STRUCTURAL METALS INC,ONE STEEL MILL DR,SEGUIN,TX,78155,29.580917,-98.034639,GUADALUPE,331110,,78156STRCTPOBOX,TRI
110007846359.0,GERDAU AMERISTEEL,801 Gerdau Dr.,JACKSON,TN,38305.0,35.72409,-88.81766,MADISON COUNTY,331111,,1004493,GHGRP
110007846359.0,GERDAU LONG STEEL NORTH AMERICA - JACKSON MILL,801 GERDAU DRIVE,JACKSON,TN,38305,35.72409,-88.81766,MADISON,331110,,38305FLRDSUSHIG,TRI
110000366817.0,ABC COKE,ONE RAILROAD AVENUE,TARRANT,AL,35217.0,33.580769,-86.781281,JEFFERSON COUNTY,331111,,1004511,GHGRP
110000366817.0,DRUMMOND CO INC ABC COKE DIV,ONE RAILROAD AVE,TARRANT,AL,35217,33.580769,-86.781281,JEFFERSON,324199,,35217BCCKDRAILR,TRI
110022522279.0,"Allegheny & Tsingshan Stainless, LLC",952 Tenth Street,Midland,PA,15059.0,40.63537,-80.44903,BEAVER COUNTY,331111,,1004729,GHGRP
110022522279.0,JEWEL ACQUISITION LLC - MIDLAND PLANT,950 TENTH ST,MIDLAND,PA,15059,40.63537,-80.44903,BEAVER,331110,,15059JLSPC12THS,TRI
110000373480.0,CMC STEEL TENNESSEE,1919 TENNESSEE AVENUE,KNOXVILLE,TN,37921.0,35.97812,-83.95645,KNOX COUNTY,331111,,1006906,GHGRP
110000373480.0,"CMC Steel US, LLC - CMC Steel Tennessee",1919 Tennessee Avenue,Knoxville,TN,37921,35.978684,-83.955264,Knox,331110,,2898511,NEI
110000373480.0,CMC STEEL TENNESSEE,1919 TENNESSEE AVE,KNOXVILLE,TN,37921,35.97812,-83.95645,KNOX,331110,,37921FLRDS1919T,TRI
110000474987.0,Shultz Steel Company,5321 Firestone Blvd.,South Gate,CA,90280.0,33.951482,-118.174885,LOS ANGELES COUNTY,331221,,1011384,GHGRP
110000474987.0,SHULTZ STEEL CO,5321  FIRESTONE BLVD,SOUTH GATE,CA,90280,33.951482,-118.174885,Los Angeles,332112,,4083611,NEI
110000474987.0,SHULTZ STEEL CO,5321 E. FIRESTONE BOULEVARD,SOUTH GATE,CA,90280,33.951482,-118.174885,LOS ANGELES,332111,,90280SHLTZ5321F,TRI
110046475881.0,Titanium Metals Corporation,181 North Water Street,Henderson,NV,89015.0,36.039596,-114.993621,CLARK COUNTY,331419,,1012167,GHGRP
110046475881.0,TIMET (Titanium Metals),8000 West Lake Mead Drive,Henderson,NV,89015,36.04095,-114.99557,Clark,331410,,8177411,NEI
110000325050.0,NUCOR STEEL AUBURN INC,25 QUARRY ROAD,AUBURN,NY,13021,42.9526,-76.5731,Cayuga,331110,,7994811,NEI
110000325050.0,NUCOR STEEL AUBURN INC,25 QUARRY RD,AUBURN,NY,13021,42.9509,-76.57055,CAYUGA,331110,,13021BRNSTQUARR,TRI
110000325050.0,NUCOR STEEL AUBURN INC,25 QUARRY ROAD,AUBURN,NY,13021.0,42.9509,-76.57055,CAYUGA COUNTY,331111,,1006341,GHGRP
110000326772.0,TONAWANDA COKE CORP,3875 RIVER RD,TONAWANDA,NY,14150,42.983638,-78.92728,Erie,331110,,7762811,NEI
110000326772.0,TONAWANDA COKE CORP,3875 RIVER RD.,TONAWANDA,NY,14150.0,42.983638,-78.92728,ERIE COUNTY,324199,,1006875,GHGRP
110000328734.0,"ATI FLAT ROLLED PRODUCTS HOLDINGS, LLC/BRACKENRIDGE",100 RIVER RD,BRACKENRIDGE,PA,15014-1537,40.6081,-79.7291,Allegheny,331110,,7991611,NEI
110000328734.0,ATI FLAT ROLLED PRODUCTS HOLDINGS LLC,100 RIVER RD,BRACKENRIDGE,PA,15014,40.6081,-79.7291,ALLEGHENY,331110,,15014LLGHNRIVER,TRI
110000328734.0,BRACKENRIDGE PLANT,100 RIVER ROAD,BRACKENRIDGE,PA,15014.0,40.6081,-79.7291,ALLEGHENY COUNTY,331111,,1005003,GHGRP
110000328743.0,UNIVERSAL STAINLESS & ALLOY PROD/BRIDGEVILLE,600 MAYER ST,BRIDGEVILLE,PA,15017-2705,40.365268,-80.097299,Allegheny,331110,,8005811,NEI
110000328743.0,UNIVERSAL STAINLESS & ALLOY PRODUCTS INC,600 MAYER ST,BRIDGEVILLE,PA,15017,40.36682,-80.09976,ALLEGHENY,331221,,15017CYTMPMAYER,TRI
110000328743.0,UNIVERSAL STAINLESS BRIDGEVILLE PLT,600 MAYER STREET,BRIDGEVILLE,PA,15017.0,40.36682,-80.09976,ALLEGHENY COUNTY,331111,,1005423,GHGRP
110000329797.0,JESSOP STEEL LLC/WASHINGTON PLT,500 GREEN ST,WASHINGTON,PA,15301-2335,40.17308,-80.27442,Washington,331221,,4967911,NEI
110000329797.0,JESSOP STEEL LLC,500 GREEN ST,WASHINGTON,PA,15301,40.175905,-80.274784,WASHINGTON,331110,,15301JSSPS500GR,TRI
110000329797.0,"JESSOP STEEL, LLC WASHINGTON FACILITY",500 GREEN STREET,WASHINGTON,PA,15301.0,40.175905,-80.274784,WASHINGTON COUNTY,331111,,1004730,GHGRP
110000330188.0,LATROBE SPECIALTY METALS/ A CARPENTER CO,2626 LIGONIER ST,LATROBE,PA,15650-3246,40.30361,-79.37052,Westmoreland,331110,,4104211,NEI
110000330188.0,LATROBE SPECIALTY METALS,2626 LIGONIER ST,LATROBE,PA,15650,40.302598,-79.372804,WESTMORELAND,331110,,15650LTRBS2626L,TRI
110000330188.0,Carpenter Technology - Latrobe Operations,2626 LIGONIER STREET,LATROBE,PA,15650.0,40.302598,-79.372804,WESTMORELAND COUNTY,331111,,1004434,GHGRP
110000330650.0,NORTH AMERICAN HOGANAS INC/STONY CREEK PLT,111 HOGANAS WAY,HOLLSOPPLE,PA,15935-6416,40.192646,-78.933994,Somerset,331110,,5684911,NEI
110000330650.0,NORTH AMERICAN HOGANAS,111 HOGANAS WAY,HOLLSOPPLE,PA,15935,40.192646,-78.933994,SOMERSET,331110,,15935FRSTMRTE60,TRI
110000330650.0,North American Hoganas,111 Hoganas Way,Hollsopple,PA,15935.0,40.192646,-78.933994,SOMERSET COUNTY,331111,,1011242,GHGRP
110000331374.0,ELLWOOD NATL FORGE/IRVINE,1 FRONT ST,IRVINE,PA,16329-1801,41.83957,-79.26844,Warren,332111,,4967711,NEI
110000331374.0,ELLWOOD NATIONAL FORGE CO,1 FRONT ST,IRVINE,PA,16329,41.841555,-79.27005,WARREN,332111,,16329NTNLF1FRON,TRI
110000331374.0,ELLWOOD NATL FORGE,ONE FRONT ST,IRVINE,PA,16329.0,41.841555,-79.27005,WARREN COUNTY,331111,,1001673,GHGRP
110000332916.0,ARCELORMITTAL STEELTON LLC/STEELTON,215 S FRONT ST,STEELTON,PA,17113-2538,40.22988,-76.83691,Dauphin,331221,,7408311,NEI
110000332916.0,CLEVELAND-CLIFFS STEELTON LLC,215 S FRONT ST,STEELTON,PA,17113,40.226389,-76.848611,DAUPHIN,331110,,17113BTHLHFRONT,TRI
110000332916.0,Cleveland-Cliffs Steelton LLC,215 S FRONT ST,STEELTON,PA,17113.0,40.226389,-76.848611,DAUPHIN COUNTY,331111,,1004215,GHGRP
110000342889.0,RES dba Steel Dynamics Roanoke Bar Division,102 Westside Blvd Nw,Roanoke,VA,24038,37.27251,-79.99861,Roanoke city,331110,,6633511,NEI
110000342889.0,STEEL DYNAMICS INC ROANOKE BAR DIV,102 WESTSIDE BLVD,ROANOKE,VA,24017,37.27251,-79.99861,ROANOKE (CITY),331110,,24017RNKLC102WE,TRI
110000342889.0,ROANOKE ELECTRIC STEEL CORPORATION,102 WESTSIDE BOULEVARD,ROANOKE,VA,24017.0,37.27251,-79.99861,ROANOKE CITY,331111,,1000714,GHGRP
110000348589.0,ATI Specialty Materials - Monroe Plant,2020 Ashcraft Avenue,Monroe,NC,28110,34.984,-80.51337,Union,331491,,8032311,NEI
110000348589.0,ATI SPECIALTY MATERIALS - MONROE PLANT,2020 ASHCRAFT AVE,MONROE,NC,28110,34.98548,-80.517139,UNION,331492,,28111TLDYN2020A,TRI
110000348589.0,ATI Allvac - Monroe,2020 ASHCRAFT AVENUE,MONROE,NC,28110.0,34.984,-80.51337,UNION COUNTY,331419,,1006778,GHGRP
110000351887.0,CMC STEEL SOUTH CAROLINA,310 NEW STATE RD,CAYCE,SC,29033,33.962309,-81.05151,Lexington,331110,,4947711,NEI
110000351887.0,CMC STEEL SC,310 NEW STATE RD,CAYCE,SC,29033,33.963256,-81.049798,LEXINGTON,331110,,29033WNLCT310NE,TRI
110000351887.0,CMC Steel SC,310 New State Road,Cayce,SC,29033.0,33.962309,-81.05151,LEXINGTON COUNTY,331111,,1005346,GHGRP
110000353527.0,NUCOR STEEL BERKELEY,1455 HAGAN AVE,HUGER,SC,29450,33.004097,-79.8816,Berkeley,331110,,4953011,NEI
110000353527.0,NUCOR STEEL-BERKELEY,1455 HAGAN AVE,HUGER,SC,29450,33.004097,-79.8816,BERKELEY,331110,,29450NCRST1455H,TRI
110000353527.0,NUCOR STEEL - BERKELEY,1455 HAGAN AVENUE,HUGER,SC,29450.0,33.004097,-79.8816,BERKELEY COUNTY,331111,,1002266,GHGRP
110000366318.0,UNITED STATES STEEL CORPORATION  FAIRFIELD WORKS,5700 Valley RD,Fairfield,AL,35064,33.47813,-86.94834,Jefferson,331110,,1057611,NEI
110000366318.0,UNITED STATES STEEL CORPORATIONFAIRFIELD PIPE MIL,5700 Valley RD,Fairfield,AL,35064,33.48312,-86.92185,Jefferson,331110,,7918711,NEI
110000366318.0,US STEEL CORP-FAIRFIELD WORKS,5700 VALLEY RD,FAIRFIELD,AL,35064,33.4822,-86.9376,JEFFERSON,331110,,35064SSFRFVALLE,TRI
110000366318.0,US Steel (Fairfield Works),5700 VALLEY ROAD,FAIRFIELD,AL,35064.0,33.4833,-86.9261,Jefferson,331111,,1000159,GHGRP
110000370134.0,HOEGANAES CORPORATION,1315 AIRPORT ROAD,GALLATIN,TN,37066,36.37292,-86.4225,Sumner,331513,,5706611,NEI
110000370134.0,HOEGANAES CORP,1315 AIRPORT RD,GALLATIN,TN,37066,36.380556,-86.416111,SUMNER,331110,,37066HGNSC810ST,TRI
110000370134.0,HOEGANAES CORPORATION,1315 AIRPORT ROAD,GALLATIN,TN,37066.0,36.380556,-86.416111,SUMNER COUNTY,331111,,1005515,GHGRP
110000374005.0,Nucor Steel Memphis Inc.,3601 Paul R. Lowry Road,Memphis,TN,38109,35.0483,-90.1646,Shelby,331110,,12569611,NEI
110000374005.0,NUCOR STEEL MEMPHIS INC,3601 PAUL R LOWRY RD,MEMPHIS,TN,38109,35.04991,-90.15314,SHELBY,331110,,38109BRMNG3601P,TRI
110000374005.0,NUCOR STEEL MEMPHIS INC,3601 PAUL R LOWRY ROAD,MEMPHIS,TN,38109.0,35.04991,-90.15314,SHELBY COUNTY,331111,,1003093,GHGRP
110000376664.0,NUCOR STEEL JACKSON INC,3630 4TH STREET,FLOWOOD,MS,39232,32.3135,-90.1345,Rankin,331110,,7290011,NEI
110000376664.0,NUCOR STEEL JACKSON INC,3630 FOURTH ST,FLOWOOD,MS,39232,32.312167,-90.137278,RANKIN,331110,,39208BSCSTFOURT,TRI
110000376664.0,NUCOR STEEL JACKSON INC,3630 4TH STREET,FLOWOOD,MS,39232.0,32.312167,-90.137278,RANKIN COUNTY,331111,,1006144,GHGRP
110000383184.0,Materion Brush Inc. (0362000009),14710 W. Portage River South Road,Elmore,OH,43416-9502,41.48839,-83.21624,Ottawa,331410,,7370511,NEI
110000383184.0,MATERION BRUSH INC,14710 W PORTAGE RIVER S RD,ELMORE,OH,43416,41.48839,-83.21624,OTTAWA,331410,,43416BRSHWSOUTH,TRI
110000383184.0,"Materion Brush, Inc.",14710 W. Portage River S. Rd.,Elmore,OH,43416.0,41.48839,-83.21624,OTTAWA COUNTY,331419,,1011243,GHGRP
110000384487.0,AK Steel - Zanesville Works (0660010006),1724 Linden Avenue,Zanesville,OH,43701-2300,39.9625,-81.99805,Muskingum,331221,,8115811,NEI
110000384487.0,CLEVELAND-CLIFFS STEEL CORP - ZANESVI LLE WORKS,1724 LINDEN AVE,ZANESVILLE,OH,43701,39.96136,-82.00034,MUSKINGUM,331110,,43701RMCDV1724L,TRI
110000384487.0,Cleveland-Cliffs Steel Corporation - Zanesville Works,1724 LINDEN AVENUE,ZANESVILLE,OH,43701.0,39.96136,-82.00034,MUSKINGUM COUNTY,331111,,1003418,GHGRP
110000384673.0,AK Steel-Coshocton Works (0616010039),17400 State Route 16,Coshocton,OH,43812,40.20555,-81.88055,Coshocton,331221,,7921111,NEI
110000384673.0,CLEVELAND-CLIFFS STEEL CORP,17400 STATE RT 16,COSHOCTON,OH,43812,40.20669,-81.88549,COSHOCTON,331110,,43812CSHCTSTATE,TRI
110000384673.0,Cleveland-Cliffs Steel Corporation,17400 STATE ROUTE 16,COSHOCTON,OH,43812.0,40.20669,-81.88549,COSHOCTON COUNTY,331221,,1003417,GHGRP
110000387402.0,Charter Steel - Cleveland Inc (1318171623),4300 East 49th Street,Cuyahoga Heights,OH,44125-1004,41.44315,-81.66051,Cuyahoga,331222,,13435711,NEI
110000387402.0,CHARTER MANUFACTURING CO. INC.,4300 E 49TH ST,CUYAHOGA HEIGHTS,OH,44125,41.442661,-81.66421,CUYAHOGA,331110,,44125MRCNS4300E,TRI
110000387402.0,CHARTER STEEL CLEVELAND *,4300 EAST 49TH STREET,CUYAHOGA HEIGHTS,OH,44125.0,41.442661,-81.66421,CUYAHOGA COUNTY,331111,,1003474,GHGRP
110000391898.0,AK Steel Corp - Mansfield Operations (0370010023),913 Bowman Street,Mansfield,OH,44901-0247,40.7886,-82.5249,Richland,331110,,8050311,NEI
110000391898.0,CLEVELAND-CLIFFS STEEL CORP - MANSFIELD WORKS,913 BOWMAN ST,MANSFIELD,OH,44903,40.78449,-82.52327,RICHLAND,331110,,44901MPRDT913BO,TRI
110000391898.0,Cleveland-Cliffs Steel Corporation - Mansfield Works,913 BOWMAN STREET,MANSFIELD,OH,44903.0,40.78449,-82.52327,RICHLAND COUNTY,331111,,1006530,GHGRP
110000392557.0,AK Steel Corporation (1409010006),1801 Crawford Street,Middletown,OH,45043-0001,39.48028,-84.36417,Butler,331110,,8008811,NEI
110000392557.0,CLEVELAND-CLIFFS INC.,1801 CRAWFORD ST,MIDDLETOWN,OH,45044,39.480699,-84.381196,BUTLER,331110,,45043RMCNC1801C,TRI
110000392557.0,Cleveland-Cliffs Steel Corporation - Middletown Works,1801 CRAWFORD STREET,MIDDLETOWN,OH,45043.0,39.4968,-84.3901,Butler,331111,,1000274,GHGRP
110000397794.0,ArcelorMittal USA LLC,3001 Dickey Rd,East Chicago,IN,46312,41.651165,-87.459167,Lake,331110,,3986611,NEI
110000397794.0,CLEVELAND-CLIFFS STEEL LLC,3001 DICKEY RD,EAST CHICAGO,IN,46312,41.651165,-87.459167,LAKE,331110,,46312LTVST3001D,TRI
110000397794.0,Cleveland-Cliffs Steel LLC,3001 Dickey Road,East Chicago,IN,46312.0,41.651165,-87.459167,LAKE COUNTY,331111,,1000588,GHGRP
110000398212.0,NLMK Indiana,6500 S Boundary Rd,Portage,IN,46368,41.624232,-87.160304,Porter,331110,,8187311,NEI
110000398212.0,NLMK INDIANA,6500 S BOUNDARY RD,PORTAGE,IN,46368,41.62225,-87.161639,PORTER,331110,,46368BTSTL6500S,TRI
110000398212.0,NLMK INDIANA,6500 S. BOUNDARY RD.,PORTAGE,IN,46368.0,41.630222,-87.159444,PORTER COUNTY,331111,,1007866,GHGRP
110000398374.0,US STEEL   GARY WORKS,1 N Broadway,Gary,IN,46402,41.61051,-87.31321,Lake,324199,,8192011,NEI
110000398374.0,USS GARY WORKS,1 N BROADWAY,GARY,IN,46402,41.6125,-87.3114,LAKE,331110,,46402SSGRYONENO,TRI
110000398374.0,US Steel Corp - Gary Works,1 NORTH BROADWAY,GARY,IN,46402.0,41.6133,-87.3281,Lake,331111,,1000418,GHGRP
110000398374.0,"ArcelorMittal Plate, LLC (Gary Plate)",1 N Broadway,Gary,IN,46402,41.608605,-87.337405,Lake,324199,,10697311,NEI
110000399462.0,I N TEK & I N KOTE,30755 Edison Rd Bldg 1,New Carlisle,IN,46552,41.6988,-86.4641,St. Joseph,331221,,4215411,NEI
110000399462.0,I/N KOTE,30755 EDISON RD,NEW CARLISLE,IN,465529695,41.6974,-86.4674,ST JOSEPH,332813,,46552NTKXX30755,TRI
110000399462.0,I/N KOTE,30755 EDISON RD,NEW CARLISLE,IN,465529695,41.6974,-86.4674,ST JOSEPH,331221,,46552NTKXX30755,TRI
110000399462.0,Cleveland-Cliffs Tek Inc. and Cleveland-Cliffs Kote Inc.,30755 EDISON RD,NEW CARLISLE,IN,46552.0,41.6974,-86.4674,ST. JOSEPH COUNTY,331221,,1003581,GHGRP
110000405945.0,Gerdau MacSteel Monroe,3000 E FRONT STREET,MONROE,MI,48161,41.89222,-83.35617,Monroe,331110,,8195511,NEI
110000405945.0,GERDAU MACSTEEL MONROE,3000 E FRONT ST,MONROE,MI,48161,41.897173,-83.361645,MONROE,331110,,48161NRTHS3000E,TRI
110000405945.0,GERDAU MACSTEEL MONROE,3000 EAST FRONT STREET,MONROE,MI,48161.0,41.897173,-83.361645,MONROE COUNTY,331111,,1004411,GHGRP
110000407783.0,Hemlock Semiconductor Operations LLC,12334  Geddes Rd.,HEMLOCK,MI,48626,43.435,-84.161,Saginaw,327992,,7238411,NEI
110000407783.0,HEMLOCK SEMICONDUCTOR OPERATIONS LLC,12334 GEDDES RD,HEMLOCK,MI,48626,43.430944,-84.157228,SAGINAW,331410,,48626HMLCK12334,TRI
110000407783.0,HEMLOCK SEMICONDUCTOR OPERATIONS LLC,"12334 Geddes Rd., P.O. Box 80",Hemlock,MI,48626.0,43.430944,-84.157228,SAGINAW COUNTY,331419,,1003967,GHGRP
110000409843.0,Gerdau Special Steel North America - Jackson Mill,3100  BROOKLYN RD,JACKSON,MI,49203,42.202661,-84.363023,Jackson,331110,,8125711,NEI
110000409843.0,GERDAU SPECIAL STEEL NA,3100 BROOKLYN RD,JACKSON,MI,49203,42.202661,-84.363023,JACKSON,331110,,49204QNXCRPOBOX,TRI
110000409843.0,Gerdau Special Steel North America - Jackson Mill,3100 Brooklyn Road,Jackson,MI,49203.0,42.202661,-84.363023,JACKSON COUNTY,331111,,1003965,GHGRP
110000424452.0,Gerdau Ameristeel US Inc - Saint Paul Mill,1678 Red Rock Rd,Saint Paul,MN,55119,44.8954,-93.0106,Ramsey,331110,,7146811,NEI
110000424452.0,GERDAU AMERISTEEL ST PAUL MILL,1678 RED ROCK RD,SAINT PAUL,MN,55119,44.89093,-93.010843,RAMSEY,331221,,55119NRTHS1678R,TRI
110000424452.0,Gerdau Ameristeel: St. Paul Mill,1678 RED ROCK ROAD,SAINT PAUL,MN,55119.0,44.89093,-93.010843,RAMSEY COUNTY,331221,,1005298,GHGRP
110000438679.0,Alton Steel Inc,5 Cut St,Alton,IL,62002-1776,38.884444,-90.143735,Madison,331110,,8221911,NEI
110000438679.0,ALTON STEEL INC,5 CUT ST,ALTON,IL,62002,38.884444,-90.143735,MADISON,331110,,62002LCLDSCUTST,TRI
110000438679.0,ALTON STEEL COMPANY,#5 CUT ST.,ALTON,IL,62002.0,38.88321,-90.14503,MADISON COUNTY,331111,,1003268,GHGRP
110000448132.0,Nucor Steel,2911 E Nucor Rd,Norfolk,NE,68701-9634,42.0767,-97.3605,Stanton,331110,,7286511,NEI
110000448132.0,NUCOR STEEL NEBRASKA,2911 E NUCOR RD,NORFOLK,NE,68701,42.078346,-97.360153,STANTON,331110,,68701NCRSTRURAL,TRI
110000448132.0,NUCOR STEEL NEBRASKA,2911 EAST NUCOR ROAD,NORFOLK,NE,68701.0,42.078346,-97.360153,STANTON COUNTY,331111,,1007695,GHGRP
110000451671.0,ARKANSAS STEEL ASSOCIATES,2803 VAN DYKE ROAD,NEWPORT,AR,72112,35.649844,-91.242894,Jackson,331221,,1083611,NEI
110000451671.0,ARKANSAS STEEL ASSOCIATES LLC,2803 VAN DYKE RD,NEWPORT,AR,72112,35.648518,-91.244662,JACKSON,331110,,72112RKNSSVANDY,TRI
110000451671.0,ARKANSAS STEEL ASSOCIATES,2803 VAN DYKE ROAD,NEWPORT,AR,72112.0,35.648518,-91.244662,JACKSON COUNTY,331221,,1005801,GHGRP
110000452180.0,NUCOR STEEL ARKANSAS,7301 EAST COUNTY ROAD 142,BLYTHEVILLE,AR,72315-0030,35.940833,-89.713889,Mississippi,331110,,1084511,NEI
110000452180.0,NUCOR STEEL-ARKANSAS,7301 E COUNTY RD 142,BLYTHEVILLE,AR,72315,35.941,-89.727,MISSISSIPPI,331110,,72315NCRST7301E,TRI
110000452180.0,NUCOR STEEL - ARKANSAS,7301 EAST COUNTY ROAD 142,BLYTHEVILLE,AR,72315.0,35.941,-89.727,MISSISSIPPI COUNTY,331111,,1007921,GHGRP
110000453401.0,Gerdau MacSteel Fort Smith,5225 Planters Road,Fort Smith,AR,72916,35.306952,-94.373269,Sebastian,331110,,976111,NEI
110000453401.0,GERDAU-FORT SMITH MILL,5225 PLANTERS RD,FORT SMITH,AR,72916,35.3025,-94.375278,SEBASTIAN,331110,,72902QNXMC4700P,TRI
110000453401.0,GERDAU - FORT SMITH MILL,5225 PLANTERS ROAD,FORT SMITH,AR,72916.0,35.3025,-94.375278,SEBASTIAN COUNTY,331111,,1003052,GHGRP
110000459183.0,CHAPARRAL STEEL MIDLOTHIAN PLANT,US HWY 67  WARD RD IN MIDLOTHIAN,MIDLOTHIAN,TX,76065,32.455664,-97.041183,Ellis,331221,,4836911,NEI
110000459183.0,CHAPARRAL STEEL MIDLOTHIAN LP,300 WARD RD,MIDLOTHIAN,TX,76065,32.458249,-97.036607,ELLIS,331110,,76065CHPRR300WA,TRI
110000459183.0,CHAPARRAL STEEL MIDLOTHIAN PLANT,300 WARD ROAD,MIDLOTHIAN,TX,76065.0,32.458249,-97.036607,ELLIS COUNTY,331111,,1005344,GHGRP
110000467833.0,CF & I STEEL L P,2100 S. FREEWAY,PUEBLO AREA,CO,81006,38.232627,-104.607257,Pueblo,331110,,4350411,NEI
110000467833.0,EVRAZ ROCKY MOUNTAIN STEEL,2100 S FWY,PUEBLO,CO,81004,38.232627,-104.607257,PUEBLO,331110,,81004CFSTL225CA,TRI
110000467833.0,CF & I STEEL L P/ DBA ROCKY MOUNTAIN STEEL MILLS,2100 SOUTH FREEWAY,PUEBLO,CO,81004.0,38.232627,-104.607257,PUEBLO COUNTY,331111,,1003902,GHGRP
110000474353.0,DEMENNO-KERDOON DBA WORLD OIL RECYCLING,2000 N ALAMEDA ST,COMPTON,CA,90222,33.91021,-118.22305,Los Angeles,324191,,6500711,NEI
110000474353.0,DEMENNOKERDOON DBA WORLD OIL RECYCLING,2000 NORTH ALAMEDA STREET,COMPTON,CA,90222,33.910116,-118.221906,LOS ANGELES,324191,,90222DMNNK2000N,TRI
110000474353.0,DEMENNO KERDOON,2000 N. ALAMEDA ST.,COMPTON,CA,90222.0,33.910116,-118.221906,LOS ANGELES COUNTY,324199,,1006861,GHGRP
110000477788.0,TAMCO,12459-B  ARROW ROUTE,RANCHO CUCAMONGA,CA,91739,34.09641,-117.532591,San Bernardino,331110,,4840211,NEI
110000477788.0,TAMCO,12459 ARROW RT STE B,RANCHO CUCAMONGA,CA,91739,34.09787,-117.529362,SAN BERNARDINO,331110,,91739TMCXX12459,TRI
110000477788.0,TAMCO,12459-B Arrow Route,RANCHO CUCAMONGA,CA,91739.0,34.09787,-117.529362,SAN BERNARDINO COUNTY,331111,,1005800,GHGRP
110000483450.0,USS-POSCO INDUSTRIES,900 LOVERIDGE ROAD,PITTSBURG,CA,94565,38.02284,-121.86034,Contra Costa,324199,,6529211,NEI
110000483450.0,USS-UPI LLC,900 LOVERIDGE RD - MS-67,PITTSBURG,CA,94565,38.02305,-121.85565,CONTRA COSTA,331221,,94565SSPSCPOBOX,TRI
110000483450.0,"USS-UPI, LLC",900 LOVERIDGE ROAD,PITTSBURG,CA,94565.0,38.027981,-121.872765,CONTRA COSTA COUNTY,331221,,1004478,GHGRP
110000582977.0,UNION ELEC STEEL CORP/HARMON CREEK,31 UNION ELECTRIC RD,BURGETTSTOWN,PA,15021-2121,40.4077,-80.4053,Washington,331110,,3895111,NEI
110000582977.0,UNION ELECTRIC STEEL CORP,RT 18,BURGETTSTOWN,PA,15021,40.4077,-80.4053,WASHINGTON,333519,,15021NNLCTPOBOX,TRI
110000582977.0,UNION ELEC HARMON CREEK PLT,31 UNION ELECTRIC STEEL ROAD ROUTE 18 NORTH,BURGETTSTOWN,PA,15021.0,40.4077,-80.4053,WASHINGTON COUNTY,333516,,1000399,GHGRP
110000583574.0,IPSCO KOPPEL TUBULARS LLC/KOPPEL PLT,MOUNT ST,KOPPEL,PA,16136,40.8356,-80.31837,Beaver,331110,,8221411,NEI
110000583574.0,IPSCO KOPPEL TUBULARS CORP,6403 6TH AVE,KOPPEL,PA,16136,40.839508,-80.320897,BEAVER,331110,,16136BBCCKMOUNT,TRI
110000583574.0,IPSCO KOPPEL TUBULARS CORP KOPPEL WORKS,6403 6TH STREET,KOPPEL,PA,16136.0,40.839508,-80.320897,BEAVER COUNTY,331111,,1005190,GHGRP
110000589328.0,Nucor Steel Decatur LLC,4301 Iverson Rd,Trinity,AL,35609,34.638906,-87.089036,Morgan,331110,,1000011,NEI
110000589328.0,NUCOR STEEL DECATUR LLC,4301 IVERSON BLVD,TRINITY,AL,35673,34.638906,-87.089036,MORGAN,331110,,35603TRCST4301H,TRI
110000589328.0,NUCOR STEEL DECATUR,4301 IVERSON BOULEVARD,TRINITY,AL,35673.0,34.638906,-87.089036,MORGAN COUNTY,331111,,1005976,GHGRP
110000591226.0,Nucor Steel Gallatin LLC,4831 US 42 W,Ghent,KY,41045,38.7594,-84.996,Gallatin,331110,,7430011,NEI
110000591226.0,NUCOR STEEL GALLATIN LLC,US HWY 42 W,WARSAW,KY,41095,38.766667,-85.004167,GALLATIN,331110,,41096GLLTNUS42W,TRI
110000591226.0,Nucor Steel Gallatin LLC,4831 US 42 W,GHENT,KY,41045.0,38.766667,-85.004167,GALLATIN COUNTY,331111,,1005700,GHGRP
110000592788.0,AK STEEL CORPORATION,6500 N US Hwy 231,Rockport,IN,47635,37.98077,-87.02619,Spencer,331110,,8017311,NEI
110000592788.0,CLEVELAND-CLIFFS STEEL CORP (ROCKPORT WORKS ),6500 NORTH U.S. 231,ROCKPORT,IN,47635,37.9849,-87.0259,SPENCER,331110,,47635KSTLC6500N,TRI
110000592788.0,Cleveland-Cliffs Steel Corporation,6500 N US HIGHWAY 231,ROCKPORT,IN,47635.0,37.9849,-87.0259,SPENCER COUNTY,331111,,1000214,GHGRP
110000599629.0,OPTIMUS STEEL BEAUMONT MILL,100 OLD HIGHWAY 90,ROSE CITY,TX,77662,30.080617,-94.073986,Orange,331221,,5680611,NEI
110000599629.0,OPTIMUS STEEL LLC,100 OLD HWY 90 W,VIDOR,TX,77662,30.082397,-94.074476,ORANGE,331110,,77701NRTHSOLDHI,TRI
110000599629.0,Optimus Steel LLC,100 OLD HIGHWAY 90 WEST,VIDOR,TX,77662.0,30.082397,-94.074476,ORANGE COUNTY,331111,,1007348,GHGRP
110000600154.0,VINTON STEEL,IH 10 & VINTON RD,EL PASO,TX,79901,31.962714,-106.5852,El Paso,331221,,6508311,NEI
110000600154.0,VINTON STEEL LLC,I-10 & VINTON RD,VINTON,TX,79835,31.96534,-106.585052,EL PASO,331110,,79912BRDRSVINTO,TRI
110000600154.0,VINTON STEEL LLC,INTERSTATE 10 AND VINTON ROAD,VINTON,TX,79821.0,31.96534,-106.585052,EL PASO COUNTY,331111,,1003580,GHGRP
110000607558.0,ArcelorMittal Burns Harbor LLC,250 W US Hwy 12,Burns Harbor,IN,46304,41.634,-87.131,Porter,331110,,7376511,NEI
110000607558.0,CLEVELAND-CLIFFS BURNS HARBOR LLC,250 W US HWY 12,BURNS HARBOR,IN,46304,41.634,-87.131,PORTER,331110,,46304BTHLHBURNS,TRI
110000607558.0,Cleveland-Cliffs Burns Harbor LLC,250 W US 12,BURNS HARBOR,IN,46304.0,41.634,-87.131,PORTER COUNTY,331111,,1003962,GHGRP
110000612212.0,Keystone Steel & Wire Co,7000 SW Adams St,Peoria,IL,61641-0001,40.644783,-89.641245,Peoria,331222,,7913311,NEI
110000612212.0,KEYSTONE STEEL & WIRE CO D/B/A LIBERTY STEEL & WIRE PEORIA,7000 SW ADAMS ST,BARTONVILLE,IL,61607,40.642503,-89.645771,PEORIA,331110,,61641KYSTN7000S,TRI
110000612212.0,KEYSTONE STEEL & WIRE CO,7000 SOUTH ADAMS STREET,PEORIA,IL,61641.0,40.642503,-89.645771,PEORIA COUNTY,331111,,1004811,GHGRP
110000741715.0,"Nucor Steel Marion, Inc. (0351010017)",912 Cheney Avenue,Marion,OH,43301-1801,40.5707,-83.1388,Marion,331110,,7434211,NEI
110000741715.0,NUCOR STEEL MARION INC,912 CHENEY AVE,MARION,OH,43302,40.5707,-83.1388,MARION,331110,,43302MRNST912CH,TRI
110000741715.0,"NUCOR STEEL MARION, INC. (0351010017)",912 CHENEY AVE,MARION,OH,43302.0,40.5707,-83.1388,MARION COUNTY,331111,,1007577,GHGRP
110000743562.0,NUCOR-YAMATO STEEL COMPANY,5929 EAST STATE HWY 18,BLYTHEVILLE,AR,72316,35.899166,-89.774723,Mississippi,331110,,1008911,NEI
110000743562.0,NUCOR-YAMATO STEEL CO,5929 E STATE HWY 18,BLYTHEVILLE,AR,72316,35.901866,-89.775643,MISSISSIPPI,331110,,72316NCRYM5929E,TRI
110000743562.0,NUCOR-YAMATO STEEL CO,5929 E. STATE HWY. 18,BLYTHEVILLE,AR,72316.0,35.901866,-89.775643,MISSISSIPPI COUNTY,331111,,1007642,GHGRP
110000745007.0,ARCELORMITTAL PLATE LLC/CONSHOHOCKEN PLT,900 CONSHOHOCKEN RD,CONSHOHOCKEN,PA,19428-1038,40.09095,-75.31707,Montgomery,331110,,6651911,NEI
110000745007.0,CLEVELAND-CLIFFS PLATE LLC CONSHOHOCKEN FACILITY,900 CONSHOHOCKEN RD,CONSHOHOCKEN,PA,19428,40.090954,-75.31707,MONTGOMERY,331110,,19428LKNSSCONSH,TRI
110000745007.0,CLEVELAND-CLIFFS PLATE LLC/CONSHOHOCKEN PLT,900 CONSHOHOCKEN RD,CONSHOHOCKEN,PA,19428.0,40.090954,-75.31707,MONTGOMERY COUNTY,331111,,1003523,GHGRP
110000772913.0,GERDAU,1500 W 3RD Street,WILTON,IA,52778-3002,41.585661,-91.042156,Muscatine,331110,,7892211,NEI
110000772913.0,GERDAU WILTON,1500 W 3RD ST,WILTON,IA,52778,41.585661,-91.042156,MUSCATINE,331110,,52778NRTHSHWY38,TRI
110000772913.0,GERDAU AMERISTEEL US INC,1500 WEST 3RD STREET,WILTON,IA,52778.0,41.585661,-91.042156,MUSCATINE COUNTY,331111,,1003577,GHGRP
110002097766.0,Chaparral Virginia Incorporated,25801 Hofheimer Way,Petersburg,VA,23803,37.179193,-77.447791,Dinwiddie,33111,,6742911,NEI
110002097766.0,CHAPARRAL (VA) INC,25801 HOFHEIMER WAY,PETERSBURG,VA,23803,37.179254,-77.447487,DINWIDDIE,331110,,23803CHPRR25801,TRI
110002097766.0,CHAPARRAL STEEL,25801 HOFHEIMER WAY,PETERSBURG,VA,23803.0,37.179254,-77.447487,DINWIDDIE COUNTY,331111,,1000394,GHGRP
110005981928.0,ARCELORMITTAL PLATE LLC/COATESVILLE,139 MODENA RD,COATESVILLE,PA,19320-4036,39.98301,-75.82791,Chester,331110,,8218411,NEI
110005981928.0,CLEVELAND-CLIFFS  PLATE LLC COATESVILLE FACILITY,139 MODENA RD,COATESVILLE,PA,19320,39.98301,-75.82791,CHESTER,331110,,19320LKNSSMODEN,TRI
110005981928.0,CLEVELAND-CLIFFS PLATE LLC-COATESVILLE,139 MODENA RD,COATESVILLE,PA,19320.0,39.98301,-75.82791,CHESTER COUNTY,331111,,1003668,GHGRP
110006034727.0,SSAB Alabama Inc,"12400 Highway 43, North",Axis,AL,36505,30.943048,-88.012823,Mobile,331110,,985911,NEI
110006034727.0,SSAB ALABAMA INC,12400 HWY 43 N,AXIS,AL,36505,30.943048,-88.012823,MOBILE,331110,,36505PSCST12400,TRI
110006034727.0,SSAB ALABAMA INCORPORATED,12400 HIGHWAY 43 NORTH,AXIS,AL,36505.0,30.943048,-88.012823,MOBILE COUNTY,331111,,1005283,GHGRP
110008148575.0,NUCOR EMS,Unknown,JEWETT,TX,00000,31.345,-96.165,Leon,48811,,12091311,NEI
110008148575.0,NUCOR STEEL,S OF US 79 & E OF FM 39,JEWETT,TX,75846,31.353775,-96.164239,Leon,331221,,4930611,NEI
110008148575.0,NUCOR STEEL - JEWETT TEXAS DIV,8812 HWY 79 W,JEWETT,TX,75846,31.354802,-96.165199,LEON,331110,,75846NCRSTHWY79,TRI
110008148575.0,NUCOR STEEL-TEXAS,8812 US HIGHWAY 79 S,JEWETT,TX,75846.0,31.354802,-96.165199,LEON COUNTY,331111,,1005832,GHGRP
110008524034.0,"SSAB IOWA, INC - MUSCATINE",1770 BILL SHARP BLVD,MUSCATINE,IA,52761,41.482199,-90.821918,Muscatine,331110,,7892311,NEI
110008524034.0,SSAB IOWA INC.,1770 BILL SHARP BLVD,MUSCATINE,IA,52761,41.48553,-90.82278,MUSCATINE,331110,,52761PSCST1770B,TRI
110008524034.0,SSAB Iowa Inc.,1770 BILL SHARP BOULEVARD,MUSCATINE,IA,52761.0,41.48553,-90.82278,MUSCATINE COUNTY,331111,,1002147,GHGRP
110008524034.0,HARSCO METALS,1770 BILL SHARP BLVD,MUSCATINE,IA,52761,41.484507,-90.830153,Muscatine,327992,,3781311,NEI
110008566845.0,NUCOR CORPORATION - DARLINGTON PLANT,300 STEEL MILL RD,DARLINGTON,SC,29540-8759,34.375958,-79.896878,Darlington,331110,,4951411,NEI
110008566845.0,NUCOR STEEL-DARLINGTON,300 STEEL MILL RD,DARLINGTON,SC,29540,34.375958,-79.896878,DARLINGTON,331110,,29532NCRSTBOX52,TRI
110008566845.0,NUCOR STEEL DARLINGTON,300 STEEL MILL RD,DARLINGTON,SC,29540.0,34.375958,-79.896878,DARLINGTON COUNTY,331111,,1007946,GHGRP
110009072984.0,"CMC STEEL US, LLC",16770 REBAR ROAD,JACKSONVILLE,FL,32234-4100,30.281646,-81.97941,Duval,331110,,827611,NEI
110009072984.0,CMC STEEL FLORIDA,16770 REBAR RD,JACKSONVILLE,FL,32234,30.28835,-81.977729,DUVAL,331110,,32234FLRDSHWY21,TRI
110009072984.0,CMC Steel Florida,16770 REBAR ROAD,BALDWIN,FL,32234.0,30.28835,-81.977729,DUVAL COUNTY,331111,,1002216,GHGRP
110010267237.0,CARPENTER TECH CORP/READING PLT,101 BERN ST,READING,PA,19601-1203,40.361105,-75.936838,Berks,331110,,8234611,NEI
110010267237.0,CARPENTER TECHNOLOGY CORP,101 W BERN ST,READING,PA,19601,40.361105,-75.936838,BERKS,331110,,19612CRPNT101WB,TRI
110010267237.0,CARPENTER TECHNOLOGY,101 WEST BERN ST.,READING,PA,19601.0,40.361105,-75.936838,BERKS COUNTY,331111,,1004036,GHGRP
110011945681.0,ArcelorMittal Cleveland LLC (1318001613),3060 Eggers Avenue,Cleveland,OH,44105,41.45,-81.66666,Cuyahoga,331110,,7937411,NEI
110011945681.0,CLEVELAND-CLIFFS CLEVELAND WORKS LLC,3060 EGGERS AVE,CLEVELAND,OH,44105,41.463486,-81.667828,CUYAHOGA,331110,,44105SGCLV3060E,TRI
110011945681.0,Cleveland-Cliffs Cleveland Works LLC,3060 EGGERS AVENUE,CLEVELAND,OH,44105.0,41.4739,-81.6728,Cuyahoga,331111,,1007177,GHGRP
110012474697.0,Gerdau Ameristeel US Inc. Charlotte Steel Mill Div,6601         LAKEVIEW                       RD,Charlotte,NC,28269-2604,35.3408,-80.8271,Mecklenburg,332312,,8048711,NEI
110012474697.0,GERDAU LONG STEEL NA-CHARLOTTE MILL,6601 LAKEVIEW RD,CHARLOTTE,NC,28269,35.33902,-80.82926,MECKLENBURG,332312,,28213FLRDSHWY11,TRI
110012474697.0,"Gerdau Ameristeel US, Inc - Charlotte Mill",6601 LAKEVIEW ROAD,CHARLOTTE,NC,28269.0,35.33902,-80.82926,MECKLENBURG COUNTY,331111,,1003507,GHGRP
110012566767.0,ArcelorMittal Warren (0278000648),2234 Main Ave SW,Warren,OH,44481,41.20555,-80.81555,Trumbull,331110,,8115611,NEI
110012566767.0,CLEVELAND-CLIFFS CLEVELAND WORKS LLC DBA CLEVELAND-CLIFFS WA,2234 MAIN AVE SW,WARREN,OH,44481,41.211242,-80.81682,TRUMBULL,324199,,44482LTVST2234M,TRI
110012566767.0,Cleveland-Cliffs Warren,2234 MAIN AVE SW,WARREN,OH,44481.0,41.211242,-80.81682,TRUMBULL COUNTY,324199,,1003380,GHGRP
110013297823.0,Sterling Steel Co LLC,101 Ave K,Sterling,IL,61081-3229,41.786281,-89.709809,Whiteside,331110,,4097111,NEI
110013297823.0,STERLING STEEL CO LLC,101 AVE K,STERLING,IL,61081,41.786281,-89.709809,WHITESIDE,331110,,61081STRLN101AV,TRI
110013297823.0,STERLING STEEL COMPANY LLC,101 AVENUE K,STERLING,IL,61081.0,41.786281,-89.709809,WHITESIDE COUNTY,331111,,1006269,GHGRP
110013834770.0,"SMI STEEL, INC.",101 50th ST S,Birmingham,AL,35232,33.534104,-86.757929,Jefferson,331110,,1002411,NEI
110013834770.0,SMI STEEL LLC DBA CMC STEEL ALABAMA,101 S 50TH ST,BIRMINGHAM,AL,35212,33.534104,-86.757929,JEFFERSON,331110,,35212SMSTLPOBOX,TRI
110013834770.0,SMI STEEL LLC,101 50TH STREET SOUTH,BIRMINGHAM,AL,35212.0,33.534104,-86.757929,JEFFERSON COUNTY,331111,,1003981,GHGRP
110014402306.0,ATI FLAT ROLLED PRODUCTS HOLDINGS LLC/VANDERGRIFT,130 LINCOLN AVE,VANDERGRIFT,PA,15690-1249,40.6051,-79.5681,Westmoreland,331221,,4780311,NEI
110014402306.0,ATI FLAT ROLLED PRODUCTS HOLDINGS LLC,130 LINCOLN AVE,VANDERGRIFT,PA,15690,40.6,-79.567778,WESTMORELAND,331110,,15690SSVND130LI,TRI
110014402306.0,VANDERGRIFT FACILITY,130 LINCOLN AVENUE,VANDERGRIFT,PA,15690.0,40.6,-79.567778,WESTMORELAND COUNTY,331111,,1005005,GHGRP
110015682215.0,ArcelorMittal Riverdale LLC,13500 S Perry Ave,Riverdale,IL,60827-1148,41.656474,-87.625847,Cook,331110,,10692111,NEI
110015682215.0,CLEVELAND-CLIFFS RIVERDALE LLC,13500 S PERRY AVE,RIVERDALE,IL,60827,41.656474,-87.625847,COOK,331110,,60627CMSTL13500,TRI
110015682215.0,CLEVELAND-CLIFFS RIVERDALE LLC,13500 S PERRY AVE,RIVERDALE,IL,60827.0,41.656474,-87.625847,COOK COUNTY,331111,,1006325,GHGRP
110015969941.0,Nucor Steel Seattle Inc,2424 SW Andover St,Seattle,WA,98106,47.570838,-122.365413,King,331110,,7503711,NEI
110015969941.0,NUCOR STEEL SEATTLE INC,2424 SW ANDOVER,SEATTLE,WA,98106,47.569331,-122.367332,KING,331110,,98106SLMNB2424S,TRI
110015969941.0,NUCOR STEEL SEATTLE INC,2424 SOUTHWEST ANDOVER STREET,SEATTLE,WA,98106.0,47.569331,-122.367332,KING COUNTY,331111,,1000029,GHGRP
110016755304.0,"NorthStar Bluescope Steel, LLC (0326000073)",6767 County Road 9,Delta,OH,43515,41.5687,-84.0485,Fulton,331110,,7921911,NEI
110016755304.0,NORTH STAR BLUESCOPE STEEL LLC,6767 COUNTY RD 9,DELTA,OH,43515,41.5684,-84.03759,FULTON,331110,,43515NRTHS6767C,TRI
110016755304.0,NORTH STAR BLUESCOPE STEEL LLC *,6767 COUNTY ROAD 9,DELTA,OH,43515.0,41.56517,-84.03754,FULTON COUNTY,331111,,1005163,GHGRP
110017410595.0,Nucor Steel,4537 S Nucor Rd,Crawfordsville,IN,47933,39.9747,-86.8301,Montgomery,331110,,8224911,NEI
110017410595.0,NUCOR STEEL,4537 S NUCOR RD,CRAWFORDSVILLE,IN,47933,39.9747,-86.8301,MONTGOMERY,331110,,47933NCRST400SO,TRI
110017410595.0,NUCOR STEEL INDIANA,4537 S NUCOR RD,CRAWFORDSVILLE,IN,47933.0,39.9747,-86.8301,MONTGOMERY COUNTY,331111,,1004151,GHGRP
110018406679.0,Granite City Works of United States Steel Corp,1951 State St,Granite City,IL,62040-4622,38.69439,-90.147709,Madison,331110,,8191211,NEI
110018406679.0,U.S. STEEL GRANITE CITY WORKS,1951 STATE ST,GRANITE CITY,IL,62040,38.6954,-90.1367,MADISON,331110,,62040GRNTC20THS,TRI
110018406679.0,US STEEL - GRANITE CITY,1951 STATE ST,GRANITE CITY,IL,62040.0,38.6954,-90.1367,MADISON COUNTY,331111,,1006041,GHGRP
110020079537.0,Nucor Steel- Nucor Steel,West Nucor Rd,Plymouth,UT,84330,41.8825,-112.1964,Box Elder,331110,,7427611,NEI
110020079537.0,NUCOR STEEL - A DIV OF NUCOR CORP,7825 W 21200 N,PLYMOUTH,UT,84330,41.8825,-112.1964,BOX ELDER,331110,,84330NCRST7285W,TRI
110020079537.0,NUCOR STEEL - UTAH,7285 W 21200 N,PLYMOUTH,UT,84330.0,41.8825,-112.1964,BOX ELDER COUNTY,331111,,1005777,GHGRP
110022524062.0,MID AMERICAN STEEL ROLLING MILL,1327 SMILEY RD,MADILL,OK,73446,34.073418,-96.752668,Marshall,331110,,15524911,NEI
110022524062.0,MID AMERICAN STEEL & WIRE CO LLC,1327 SMILEY RD,MADILL,OK,73446,34.07091,-96.75503,MARSHALL,331110,,73446MDMRC1327S,TRI
110022524062.0,Mid American Steel & Wire,1327 Smiley Road,Madill,OK,73446.0,34.07091,-96.75503,MARSHALL COUNTY,331111,,1004453,GHGRP
110024423131.0,Nucor Steel - Hertford,1505 River Road,Cofield,NC,27922,36.355216,-76.81115,Hertford,331110,,8311911,NEI
110024423131.0,NUCOR STEEL HERTFORD COUNTY,1505 RIVER RD,COFIELD,NC,27922,36.355216,-76.81115,HERTFORD,331110,,27922NCRST1505R,TRI
110024423131.0,NUCOR STEEL HERTFORD COUNTY,1505 RIVER RD,COFIELD,NC,27922.0,36.355216,-76.81115,HERTFORD COUNTY,331111,,1002958,GHGRP
110027376284.0,EVRAZ Inc. NA,14400 N RIVERGATE BLVD,PORTLAND,OR,97203,45.6256,-122.7794,Multnomah,332811,,8521611,NEI
110027376284.0,EVRAZ PORTLAND,14400 N RIVERGATE BLVD,PORTLAND,OR,97203,45.62849,-122.78125,MULTNOMAH,331110,,97203RGNST14400,TRI
110027376284.0,Evraz Oregon Steel,14400 N. Rivergate Blvd,Portland,OR,97203.0,45.62849,-122.78125,MULTNOMAH COUNTY,331111,,1001840,GHGRP
110030735916.0,A Finkl & Sons Co,1355 E 93rd St,Chicago,IL,60619-8004,41.728542,-87.591648,Cook,332111,,10798011,NEI
110030735916.0,A FINKL & SONS CO DBA FINKL STEEL - CHICAGO,1355 E 93RD ST,CHICAGO,IL,60619,41.726794,-87.590059,COOK,331110,,60619VRSNC1355E,TRI
110030735916.0,FINKL & SONS CO,1355 E 93RD ST,CHICAGO,IL,60619.0,41.726794,-87.590059,COOK COUNTY,331111,,1008735,GHGRP
110037377969.0,CMC STEEL FABRICATORS,11444 E GERMANN RD,Mesa,AZ,85212,33.2853,-111.5863,Maricopa,332312,,15450111,NEI
110037377969.0,CMC REBAR ARIZONA,11444 E GERMANN RD,MESA,AZ,85212,33.2853,-111.5863,MARICOPA,332312,,85212CMCRB11444,TRI
110037377969.0,CMC Steel Arizona,11444 E Germann Rd,Mesa,AZ,85212.0,33.2853,-111.5863,MARICOPA COUNTY,331111,,1004038,GHGRP
110038174098.0,Nucor Steel Kankakee Inc,1 Nucor Way,Bourbonnais,IL,60914-3213,41.181332,-87.856643,Kankakee,331110,,5429011,NEI
110038174098.0,NUCOR STEEL KANKAKEE INC,ONE NUCOR WAY,BOURBONNAIS,IL,60914,41.181332,-87.856643,KANKAKEE,331110,,60914BRMNGRR1BO,TRI
110038174098.0,"NUCOR STEEL KANKAKEE, INC.",ONE NUCOR WAY,BOURBONNAIS,IL,60914.0,41.181332,-87.856643,KANKAKEE COUNTY,331111,,1002621,GHGRP
110038769419.0,INMETCO/ELLWOOD CITY,1 INMETCO DR,ELLWOOD CITY,PA,16117-6231,40.85769,-80.27626,Lawrence,331314,,3777011,NEI
110038769419.0,INMETCO,One Inmetco Drive,ELLWOOD CITY,PA,16117.0,40.85769,-80.27626,LAWRENCE COUNTY,331419,,1005752,GHGRP
110040907392.0,STD STEEL/BURNHAM,500 N WALNUT ST,BURNHAM,PA,17009-1644,40.63562,-77.56958,Mifflin,331110,,6581311,NEI
110040907392.0,STANDARD STEEL LLC,500 N WALNUT ST,BURNHAM,PA,17009,40.636944,-77.571944,MIFFLIN,331110,,17009STNDR500WA,TRI
110040907392.0,STD STEEL BURNHAM PLT,500 NORTH WALNUT STREET,BURNHAM,PA,17009.0,40.636944,-77.571944,MIFFLIN COUNTY,331111,,1005536,GHGRP
110040961947.0,"Cascade Steel Rolling Mills, Inc.",3200 N HWY 99W,MCMINNVILLE,OR,97128,45.2289,-123.1627,Yamhill,331110,,7410711,NEI
110040961947.0,CASCADE STEEL ROLLING MILLS INC,3200 NE HIGHWAY 99W,MCMINNVILLE,OR,97128,45.22863,-123.15905,YAMHILL,331110,,97128CSCDS3200N,TRI
110040961947.0,CASCADE STEEL ROLLING MILLS INC,3200 NE HWY 99W,MCMINNVILLE,OR,97128.0,45.22863,-123.15905,YAMHILL COUNTY,331111,,1005755,GHGRP
110040971491.0,CMC New Jersey,NORTH CROSSMAN RD,SAYREVILLE,NJ,08871-0249,40.481073,-74.320495,Middlesex,331110,,7442611,NEI
110040971491.0,CMC STEEL NEW JERSEY,N CROSSMAN RD,SAYREVILLE,NJ,8872,40.479262,-74.321207,MIDDLESEX,331110,,08872NWJRSNORTH,TRI
110040971491.0,CMC Steel New Jersey,NORTH CROSSMAN ROAD,SAYREVILLE,NJ,8872.0,40.479262,-74.321207,MIDDLESEX COUNTY,331111,,1006708,GHGRP
110041192410.0,BD LaPlace LLC - BD Bayou Steel-LaPlace,138 Hwy 3217,Laplace,LA,70068,30.03589,-90.46597,St. John the Baptist,331110,,8025111,NEI
110041192410.0,BD LAPLACE LLC,138 HWY 3217,LA PLACE,LA,70068,30.03686,-90.46454,ST. JOHN THE BAPTIST PARISH,331110,,70069BYSTLRIVER,TRI
110041192410.0,"BD LAPLACE, LLC",138 HWY 3217,LAPLACE,LA,70068.0,30.03686,-90.46454,ST. JOHN THE BAPTIST PARISH,331111,,1000330,GHGRP
110041596902.0,STEEL DYNAMICS COLUMBUS,1945 AIRPORT ROAD,COLUMBUS,MS,39701,33.4477,-88.5728,Lowndes,331110,,12603611,NEI
110041596902.0,STEEL DYNAMICS INC FLAT ROLL GROUP COLUMBUS DIV,1945 AIRPORT RD,COLUMBUS,MS,39701,33.443611,-88.575556,LOWNDES,331110,,39701SVRCR1INDU,TRI
110041596902.0,"Steel Dynamics Columbus, LLC",1945 Airport Road,Columbus,MS,39703.0,33.445278,-88.582778,LOWNDES COUNTY,331111,,1004616,GHGRP
110042026170.0,Nucor Tuscaloosa,1700 Holt Rd,Tuscaloosa,AL,35404,33.233603,-87.508751,Tuscaloosa,331110,,1003711,NEI
110042026170.0,NUCOR STEEL TUSCALOOSA INC,1700 HOLT RD NE,TUSCALOOSA,AL,35404,33.23375,-87.50693,TUSCALOOSA,331110,,35404TSCLS1500H,TRI
110042026170.0,"Nucor Steel Tuscaloosa, Inc.",1700 Holt Road NE,Tuscaloosa,AL,35404.0,33.23375,-87.50693,TUSCALOOSA COUNTY,331111,,1003457,GHGRP
110042043384.0,USS/CLAIRTON WORKS,400 STATE ST,CLAIRTON,PA,15025-1855,40.30139,-79.87189,Allegheny,331110,,8204511,NEI
110042043384.0,USS-CLAIRTON PLANT,400 STATE ST MS 71,CLAIRTON,PA,15025,40.305088,-79.876911,ALLEGHENY,324199,,15025SSCLR400ST,TRI
110042043384.0,US Steel (Clairton Coke),400 STATE ST,CLAIRTON,PA,15025.0,40.3097,-79.8819,Allegheny,324199,,1000124,GHGRP
110042081939.0,"MOUNTAIN STATE CARBON, LLC",1851 Main Street,FOLLANSBEE,WV,26037,40.34361,-80.60667,Brooke,324199,,4864311,NEI
110042081939.0,Jupiter Aluminum Corporation - Beech Bottom Plant,2481 River Road,BEECH BOTTOM,WV,26030,40.2156,-80.6577,Brooke,332812,,6234611,NEI
110042081939.0,MOUNTAIN STATE CARBON LLC,1851 MAIN ST,FOLLANSBEE,WV,26037,40.34361,-80.60667,BROOKE,324199,,26037WHLNGROUTE,TRI
110042081939.0,MOUNTAIN STATE CARBON,1851 MAIN ST,FOLLANSBEE,WV,26037.0,40.34361,-80.60667,BROOKE COUNTY,324199,,1001563,GHGRP
110043801810.0,Mesabi Nugget Delaware LLC,6500 Highway 135 N,Aurora,MN,55705,47.5869,-92.1897,St. Louis,331110,,16000711,NEI
110043801810.0,MESABI NUGGET DELAWARE LLC,6500 Hwy 135 N,Aurora,MN,55705.0,47.586907,-92.234192,ST. LOUIS COUNTY,331111,,1005144,GHGRP
110056956502.0,"DC Alabama, Inc.",Ohio Ferroalloys Rd,Mount Meigs,AL,36057,32.39318,-86.07083,Montgomery,331110,,867511,NEI
110056956502.0,DC ALABAMA INC,1940 OHIO FERRO RD,MOUNT MEIGS,AL,36057,32.393356,-86.070798,MONTGOMERY,331410,,3605WDWCRN194HI,TRI
110056956502.0,DC Alabama Inc.,1940 OHIO FERROALLOYS ROAD,MOUNT MEIGS,AL,36057.0,32.393356,-86.070798,MONTGOMERY COUNTY,331419,,1007056,GHGRP
110056957645.0,GLOBAL TUNGSTEN & POWDERS CORP/HAWES STREET PLT,HAWES ST,TOWANDA,PA,18848,41.78778,-76.44532,Bradford,331410,,8217911,NEI
110056957645.0,GLOBAL TUNGSTEN & POWDERS CORP,1 HAWES ST,TOWANDA,PA,18848,41.786389,-76.445278,BRADFORD,331410,,18848GTPRDHAWES,TRI
110056957645.0,GLOBAL TUNGSTEN & POWDERS CORP,3 HAWES STREET,TOWANDA,PA,18848.0,41.786389,-76.445278,BRADFORD COUNTY,331419,,1001891,GHGRP
110056970461.0,Steel Dynamics Incorporated Engineered,8000 N CR 225 E,Pittsboro,IN,46167,39.877415,-86.48426,Hendricks,331110,,9662811,NEI
110056970461.0,STEEL DYNAMICS INC-ENGINEERED BAR PRODUCTS DIV,8000 N COUNTY RD 225E,PITTSBORO,IN,46167,39.876783,-86.482113,HENDRICKS,331110,,46167QLTCH8000N,TRI
110056970461.0,"STEEL DYNAMICS, INC. (SDI)",8000 NORTH COUNTY ROAD 225 EAST,PITTSBORO,IN,46167.0,39.876783,-86.482113,HENDRICKS COUNTY,331111,,1003688,GHGRP
110056970461.0,HARSCO CORP MULTISERV PLANT 85,C/O Sdi 8000 N County Rd 225 E,Pittsboro,IN,46167,39.87436,-86.48789,Hendricks,327992,,9662411,NEI
110057474193.0,"NUCOR STEEL BIRMINGHAM,INC.",2301 Shuttlesworth DR,Birmingham,AL,35234,33.54495,-86.80547,Jefferson,331110,,1001311,NEI
110057474193.0,NUCOR STEEL BIRMINGHAM INC,2301 F L SHUTTLESWORTH DR,BIRMINGHAM,AL,35234,33.54539,-86.8093,JEFFERSON,331110,,35234BRMNG4301F,TRI
110057474193.0,NUCOR STEEL BIRMINGHAM INC,2301 FL SHUTTLESWORTH DRIVE,BIRMINGHAM,AL,35234.0,33.54539,-86.8093,JEFFERSON COUNTY,331111,,1004152,GHGRP
110060497001.0,AK STEEL - DEARBORN WORKS,4001  MILLER ROAD,DEARBORN,MI,48120,42.3002,-83.1715,Wayne,331110,,8483711,NEI
110060497001.0,CLEVELAND-CLIFFS STEEL CORP DEARBORN WORKS,4001 MILLER RD,DEARBORN,MI,48120,42.301742,-83.162934,WAYNE,331110,,48121RGSTL3001M,TRI
110060497001.0,CLEVELAND-CLIFFS STEEL CORPORATION DEARBORN WORKS,4001 MILLER RD,DEARBORN,MI,48120.0,42.301742,-83.162934,WAYNE COUNTY,331111,,1003403,GHGRP
110063857376.0,CALIFORNIA STEEL INDUSTRIES INC,14000  SAN BERNARDINO AVE,FONTANA,CA,92335,34.077378,-117.499692,San Bernardino,332996,,4839811,NEI
110063857376.0,CALIFORNIA STEEL INDUSTRIES INC.,14000 SAN BERNARDINO AVE,FONTANA,CA,92335,34.07737,-117.499688,SAN BERNARDINO,331110,,92335CLFRN14000,TRI
110063857376.0,CALIFORNIA STEEL INDUSTRIES INC,14000 SAN BERNARDINO AVE.,FONTANA,CA,92335.0,34.07737,-117.499688,SAN BERNARDINO COUNTY,331221,,1006761,GHGRP
110066942526.0,ARCELORMITTAL USA LLC,3210 Watling St,East Chicago,IN,46312,41.6619,-87.4418,Lake,331110,,3986511,NEI
110066942526.0,Indiana Harbor Coke Company LP contract,3210 Watling St MC 2 990,East Chicago,IN,46312,41.65611,-87.450828,Lake,324199,,8182811,NEI
110066942526.0,CLEVELAND-CLIFFS STEEL LLC,3210 WATLING ST MAIL CODE (8-130),EAST CHICAGO,IN,46312,41.656321,-87.450142,LAKE,331110,,46312NLNDS3210W,TRI
110066942526.0,Cleveland-Cliffs Steel LLC,3210 WATLING ST,EAST CHICAGO,IN,46312.0,41.68,-87.4264,Lake,331111,,1000156,GHGRP
110070828184.0,AK STEEL CORP/BUTLER WORKS,1 ARMCO DR,BUTLER,PA,16003-0832,40.82926,-79.94273,Butler,331110,,3892811,NEI
110070828184.0,Cleveland-Cliffs Steel Corporation /BUTLER WORKS,1 ARMCO DR,BUTLER,PA,16003.0,40.82926,-79.94273,BUTLER COUNTY,331111,,1002903,GHGRP
110070881484.0,"Outokumpu Stainless USA, LLC",1 ThyssenKrupp Drive P.O. Box 13000,Calvert,AL,36513,31.1522,-87.9858,Mobile,331110,,15259211,NEI
110070881484.0,OUTOKUMPU STAINLESS USA LLC,1 STEEL DR,CALVERT,AL,36513,31.1522,-87.9858,MOBILE,331110,,3651WTHYSS1THYS,TRI
110070881484.0,"Outokumpu Stainless USA, LLC",1 ThyssenKrupp Drive,Calvert,AL,36513.0,31.1522,-87.9858,MOBILE COUNTY,331111,,1010763,GHGRP
110002852315.0,FORGED METALS INC,10685  BEECH AVE,FONTANA,CA,92337,34.060102,-117.471269,San Bernardino,331221,,13480511,NEI
110002852315.0,Forged Metals Inc,10685 Beech Ave,Fontana,CA,92335,34.04996,-117.471,San Bernardino,332111,,3260211,NEI
110002852315.0,FORGED METALS INC,10685 BEECH AVE,FONTANA,CA,92337,34.05982,-117.47128,SAN BERNARDINO,332112,,92337FRGDM1685B,TRI
110020888930.0,"M. ARGUESO & CO., INC. (DBA PARAMELT)",2817 MCCRACKEN ST,MUSKEGON,MI,49441,43.2017,-86.2936,Muskegon,324199,,13655711,NEI
110020888930.0,M. ARGUESO & CO. INC. (D.B.A PARAMELT),2817 MCCRACKEN ST,MUSKEGON,MI,49441,43.2017,-86.2936,MUSKEGON,325998,,49441MRGSC2817M,TRI
110038458816.0,"Skyline Steel, LLC (0684010138)",12355 State Route 7,Belpre,OH,45714,39.32389,-81.56333,Washington,331221,,14709711,NEI
110038458816.0,SKYLINE STEEL LLC-BELPRE,12355 STATE RT 7,BELPRE,OH,45714,39.32212,-81.56289,WASHINGTON,332312,,45714SKYLN12355,TRI
110000487688.0,"Blount, Inc.",4909 SE INTERNATIONAL WAY,MILWAUKIE,OR,97222-0080,45.4356,-122.6127,Clackamas,331513,,18100811,NEI
110000487688.0,OREGON TOOL INC.,4909 SE INTERNATIONAL WAY,MILWAUKIE,OR,97222,45.434908,-122.611907,CLACKAMAS,332216,,97222MRKND4909S,TRI
110000466148.0,Penatek Inds  Inc,6830 E. Business Loop 20,Odessa,TX,79762,31.8775,-102.30332,Ector,331513,,3117411,NEI
110000466148.0,PENATEK,6830 E BUSINESS LOOP 20,ODESSA,TX,79762,31.881037,-102.297502,ECTOR,331511,,79762PNTKN6830E,TRI
110000330204.0,LEHIGH SPECIALTY MELTING/LATROBE,107 GERTRUDE ST,LATROBE,PA,15650-2963,40.30763,-79.38055,Westmoreland,331513,,3188811,NEI
110000330204.0,LEHIGH SPECIALTY MELTING INC,107 GERTRUDE ST,LATROBE,PA,15650,40.30961,-79.38214,WESTMORELAND,331110,,15650STNDR107GE,TRI
110060335524.0,Jewell Coke Company LLP,1034 Dismal River Road,Vansant,VA,24656,37.23434,-82.03706,Buchanan,324199,,4034811,NEI
110060335524.0,JEWELL COKE CO LP,1034 DISMAL RIVER RD,OAKWOOD,VA,24631,37.234409,-82.036899,BUCHANAN,331110,,24656JWLLCHWY46,TRI
110013830818.0,PACIFIC ALLOY CASTINGS INC,5900-10 E FIRESTONE BLVD,SOUTH GATE,CA,90280,33.94858,-118.16148,Los Angeles,331513,,4085511,NEI
110013830818.0,PACIFIC ALLOY CASTINGS,5900 E FIRESTONE BLVD,SOUTH GATE,CA,90280,33.94857,-118.15949,LOS ANGELES,331511,,90280PCFCL5900E,TRI
110011142566.0,Enterprise Products Operating LLC - Baton Rouge Fractionator & Propylene Concent,2220 N River Rd,Port Allen,LA,70767,30.48102,-91.20434,West Baton Rouge,324199,,5358511,NEI
110011142566.0,ENTERPRISE PRODUCTS OPERATING LLC BATON ROUGE FRACTIONATOR,2220 N RIVER RD,PORT ALLEN,LA,70767,30.480556,-91.202778,WEST BATON ROUGE PARISH,325110,,70767NTRPR2220N,TRI
110000427119.0,Flint Hills Resources Pine Bend LLC - Marshall,901 7th St N,Marshall,MN,56258,44.45909,-95.79029,Lyon,324199,,6368111,NEI
110000427119.0,FLINT HILLS RESOURCES PINE BEND LLC MARSHALL,901 N 7TH ST,MARSHALL,MN,56258,44.46068,-95.78854,LYON,324121,,56258KCHMT901N7,TRI
110008820099.0,Flint Hills Resources Pine Bend LLC - Savage,12101 Yosemite Ave S,Savage,MN,55378,44.78265,-93.35291,Scott,324199,,6936811,NEI
110008820099.0,FLINT HILLS RESOURCES PINE BEND LLC SAVAGE,12101 YOSEMITE AVE S,SAVAGE,MN,55378,44.78023,-93.35302,SCOTT,324121,,55378KCHMT12101,TRI
110000491575.0,Spokane Industries Inc,3808 N. Sullivan Rd. Bldg. #1,Spokane,WA,99216,47.69333,-117.18138,Spokane,331513,,7077911,NEI
110000491575.0,SPOKANE INDUSTRIES,3808 N SULLIVAN RD BLDG 1,SPOKANE VALLEY,WA,99216,47.692642,-117.182697,SPOKANE,331511,,99220SPKNSBUILD,TRI
110001444884.0,Flint Hills Resources Pine Bend LLC - St Paul,2209 Childs Rd,Saint Paul,MN,55106,44.9293,-93.0464,Ramsey,324199,,7160611,NEI
110001444884.0,FLINT HILLS RESOURCES PINE BEND LLC ST PAUL,2209 CHILDS RD,SAINT PAUL,MN,55106,44.930356,-93.046224,RAMSEY,324121,,55106KCHMT2209C,TRI
110056963282.0,MIDWEST STEEL,Unknown,PORTAGE,IN,00000,41.6084,-87.1764,Porter,48811,,11345211,NEI
110056963282.0,PVS Steel Services Inc,6300 US Hwy 12,Portage,IN,46368,41.627413,-87.172705,Porter,325998,,4691611,NEI
110056963282.0,U S STEEL MIDWEST PLANT,6300 US Hwy 12,Portage,IN,46368,41.6263,-87.1724,Porter,331221,,7376811,NEI
110056963282.0,US STEEL CORP MIDWEST PLANT,6300 US HWY 12,PORTAGE,IN,46368,41.620389,-87.170278,PORTER,331221,,46368MDWSTROUTE,TRI
110003098861.0,US STEEL   EAST CHICAGO,101 E 129th St,East Chicago,IN,46312,41.658333,-87.471389,Lake,331221,,8164611,NEI
110003098861.0,USS EAST CHICAGO TIN,101 E 129TH ST,EAST CHICAGO,IN,46312,41.661115,-87.47818,LAKE,331221,,46312SSSTC101E1,TRI
110003098861.0,US STEEL - EAST CHICAGO TIN,101 EAST 129TH STREET,EAST CHICAGO,IN,46312.0,41.661115,-87.47818,LAKE COUNTY,331112,,1001832,GHGRP
110000747032.0,"MetalTek International, Sandusky International Division (0322020117)",510 W Water St,Sandusky,OH,44870,41.4554,-82.7159,Erie,331513,,8259711,NEI
110000747032.0,SANDUSKY INTERNATIONAL INC.,615 W MARKET ST,SANDUSKY,OH,44870,41.4554,-82.7159,ERIE,331529,,44871SNDSK615WE,TRI
110000486625.0,Eagle Foundry Co.,23123 SE EAGLE CREEK RD,EAGLE CREEK,OR,97022,45.35525,-122.35391,Clackamas,331513,,8417611,NEI
110000486625.0,EAGLE FOUNDRY CO,23123 SE EAGLE CREEK RD,EAGLE CREEK,OR,97022,45.35525,-122.35391,CLACKAMAS,331511,,97022GLFND23123,TRI
110000482264.0,KEARNEYS MANUFACTURING,2660 S DEARING AVE,FRESNO,CA,93725,36.70464,-119.73677,Fresno,331513,,9011,NEI
110000482264.0,KEARNEYS BRASS WORKS INC,2660 S DEARING AVE,FRESNO,CA,93725,36.7046,-119.7368,Fresno,331529,,484311,NEI
110000581264.0,ELECTRIC BOAT CORPORATION,165 DILLABUR AVE,NORTH KINGSTOWN,RI,02852,41.59019,-71.42132,Washington,3366,,6639711,NEI
110000581264.0,GENERAL DYNAMICS ELECTRIC BOAT CORP,165 DILLABUR AVE,NORTH KINGSTOWN,RI,2852,41.592514,-71.41953,WASHINGTON,336611,,02852GNRLDQUONS,TRI
110008470724.0,US STEEL CORP/IRVIN PLT,CAMP HOLLOW RD,DRAVOSBURG,PA,15034,40.33819,-79.903,Allegheny,331110,,7409411,NEI
110008470724.0,USS MON VALLEY WORKS - IRVIN PLANT,CAMP HOLLOW RD,WEST MIFFLIN,PA,15122,40.354338,-79.889542,ALLEGHENY,331221,,15034SSRVNPOBOX,TRI
110007336579.0,WHEMCO/MIDLAND,1 12TH ST,MIDLAND,PA,15059-1645,40.63089,-80.44485,Beaver,331110,,7872811,NEI
110007336579.0,WHEMCO-STEEL CASTINGS INC,12 TH ST,MIDLAND,PA,15059,40.63318,-80.44596,BEAVER,331513,,15059WSTHMONE12,TRI
110001045262.0,CCX INC/BRAEBURN ALLOY STEEL,101 BRAEBURN RD,LOWER BURRELL,PA,15068-2259,40.61806,-79.7125,Westmoreland,331110,,9190611,NEI
110001045262.0,BRAEBURN ALLOY STEEL ROLLING MILL FAC,101 BRAEBURN RD,LOWER BURRELL,PA,15068,40.61299,-79.71541,WESTMORELAND,331221,,1506WBRBRN11BRA,TRI
110000330259.0,DURALOY TECHNOLOGIES/SCOTTDALE,120 BRIDGE ST,SCOTTDALE,PA,15683-1748,40.0996,-79.5847,Westmoreland,331511,,4104011,NEI
110000330259.0,DURALOY TECHNOLOGIES INC,120 BRIDGE ST,SCOTTDALE,PA,15683,40.0996,-79.5847,WESTMORELAND,331513,,15683BLWKNBRIDG,TRI
110001144066.0,GAUTIER STEEL LTD/JOHNSTOWN PLT,80 CLINTON ST,JOHNSTOWN,PA,15901-2200,40.38056,-78.9167,Cambria,331110,,3674811,NEI
110001144066.0,GAUTIER STEEL LTD.,80 CLINTON ST,JOHNSTOWN,PA,15901,40.328407,-78.91558,CAMBRIA,331221,,15907GTRXX119WA,TRI
110000332596.0,FROG SWITCH & MFG CO/CARLISLE,600 E HIGH ST,CARLISLE,PA,17013-2608,40.2012,-77.17685,Cumberland,331110,,7872411,NEI
110000332596.0,FROG SWITCH & MANUFACTURING CO,600 E HIGH STREET.,CARLISLE,PA,17013,40.2012,-77.17685,CUMBERLAND,331513,,17013THFRG600EH,TRI
110000334576.0,Goulds Pumps ITT Ind,500 E. Centre St.,Ashland,PA,17921,40.785,-76.3234,Schuylkill,333914,,4736911,NEI
110000334576.0,ASHLAND FOUNDRY & MACHINE WORKS,500 E CENTRE ST,ASHLAND,PA,17921,40.7852,-76.3253,SCHUYLKILL,331513,,17921GLDSPEASTC,TRI
110038161921.0,US STEEL CORP/FAIRLESS HILLS,FAIRLESS WORKS,FAIRLESS HILLS,PA,19030,40.15669,-74.74543,Bucks,331110,,4718311,NEI
110038161921.0,US STEEL FAIRLESS HILLS WORKS,S END PENNSYLVANIA AVE,FAIRLESS HILLS,PA,19030,40.165112,-74.845832,BUCKS,331221,,19030SSFRLMAILS,TRI
110001276976.0,BONSAL AMERICAN INC,10300 Pulaski Hwy.,White Marsh,MD,21162,39.36583,-76.44,Baltimore,327999,,5169111,NEI
110001276976.0,OLDCASTLE APG MID-ATLANTIC WHITE MARSH MD,10300 PULASKI HWY,WHITE MARSH,MD,21162,39.36945,-76.43618,BALTIMORE,324199,,21162MRCNS10300,TRI
110001276976.0,OLDCASTLE APG MID-ATLANTIC WHITE MARSH MD,10300 PULASKI HWY,WHITE MARSH,MD,21162,39.36945,-76.43618,BALTIMORE,327999,,21162MRCNS10300,TRI
110000586027.0,KOPPERS FOLLANSBEE,810 KOPPERS ROAD,FOLLANSBEE,WV,26037-0665,40.33917,-80.60556,Brooke,32519,,6234511,NEI
110000586027.0,KOPPERS FOLLANSBEE TAR PLANT,810 KOPPERS RD,FOLLANSBEE,WV,26037,40.339596,-80.606822,BROOKE,324199,,26037KPPRSKOPPE,TRI
110043694204.0,Steel Warehouse of Tennessee LLC,600 River Terminal Road,Chattanooga,TN,37406-1731,35.07227,-85.27291,Hamilton,423510,,17954811,NEI
110043694204.0,STEEL WAREHOUSE OF CHATTANOOGA,600 RIVER TERMINAL,CHATTANOOGA,TN,37406,35.0723,-85.27399,HAMILTON,331221,,3740WSTLWR6RIVE,TRI
110000375246.0,MAGOTTEAUX PULASKI,2360 INDUSTRIAL PARK ROAD,PULASKI,TN,38478,35.2186,-87.05944,Giles,331511,,4761011,NEI
110000375246.0,MAGOTTEAUX INC,2360 IND US TRIAL PARK DR,PULASKI,TN,38478,35.2186,-87.05944,GILES,331513,,38478MRCNM2360I,TRI
110004593609.0,Consolidated Metal Products (1431072125),1028 DEPOT ST,Cincinnati,OH,45204,39.10769,-84.55172,Hamilton,332722,,14724611,NEI
110004593609.0,CONSOLIDATED METAL PRODUCTS,1028 DEPOT ST,CINCINNATI,OH,45204,39.10827,-84.55147,HAMILTON,331221,,45204CNSLD1028D,TRI
110000400851.0,"Valbruna Slater Stainless, Inc",2400 Taylor Street West,Fort Wayne,IN,46802,41.06951,-85.17186,Allen,331511,,4543911,NEI
110000400851.0,VALBRUNA SLATER STAINLESS INC,2400 TAYLOR ST W,FORT WAYNE,IN,46802,41.06762,-85.17348,ALLEN,331221,,46801SLTRS2400T,TRI
110005980750.0,JEFFBOAT LLC,1030 E Market St,Jeffersonville,IN,47130,38.277007,-85.724414,Clark,48839,,8198411,NEI
110005980750.0,OLD JB LLC,1030 E MARKET ST,JEFFERSONVILLE,IN,47130,38.277218,-85.726092,CLARK,336611,,47130JFFBT1030E,TRI
110000402831.0,New Castle Stainless Plate LLC,549 W SR 38,New Castle,IN,47362,39.928662,-85.395636,Henry,331110,,7376311,NEI
110000402831.0,NEW CASTLE STAINLESS PLATE LLC,549 W SR 38,NEW CASTLE,IN,47362,39.930278,-85.394167,HENRY,331221,,47362VSTNCSTRD3,TRI
110000404660.0,International Casting Corp,37087 Green St.,New Baltimore,MI,48047,42.68693,-82.7286,Macomb,331511,,4001011,NEI
110000404660.0,INTERNATIONAL CASTING CORP,37087 GREEN ST,NEW BALTIMORE,MI,48047,42.68617,-82.72945,MACOMB,331513,,48047NTRNT37087,TRI
110022411282.0,Omega Castings Inc,301 Fritz Keiper Blvd Fort Custer/Industrial Park,Battle Creek,MI,49015,42.33667,-85.28778,Calhoun,333922,,9550311,NEI
110022411282.0,OMEGA CASTINGS INC,301 FRITZ KEIPER BLVD FORT CUSTER INDUSTRIAL PARK,BATTLE CREEK,MI,49037,42.33667,-85.28778,CALHOUN,331513,,49015MGCST31FRI,TRI
110001929496.0,WENTHE-DAVIDSON ENGINEERING CO,16300 W Rogers Dr,New Berlin,WI,53151-2249,43.00783,-88.11579,Waukesha,332439,,4209811,NEI
110001929496.0,WENTHE-DAVIDSON ENGINEERING CO .,16300 W ROGERS DR,NEW BERLIN,WI,53151,43.00771,-88.11667,WAUKESHA,331221,,53151WNTHD16300,TRI
110000418058.0,WAUKESHA FOUNDRY INC,1300 Lincoln Ave,Waukesha,WI,53186-5389,43.00967,-88.21141,Waukesha,331511,,6480511,NEI
110000418058.0,WAUKESHA FOUNDRY INC,1300 LINCOLN AVE,WAUKESHA,WI,53186,43.00984,-88.20845,WAUKESHA,331513,,53186WKSHF1300L,TRI
110000418478.0,BADGER ALLOYS,5120 W State St,Milwaukee,WI,53208-2689,43.0449,-87.9784,Milwaukee,331511,,12692611,NEI
110000418478.0,BADGER ALLOYS,5120 W STATE ST,MILWAUKEE,WI,53208,43.04449,-87.9782,MILWAUKEE,331513,,53208BDGRL5120W,TRI
110000421099.0,WINSERT INC,2645 Industrial Pkwy S,Marinette,WI,54143-3820,45.0824,-87.6447,Marinette,331511,,7095611,NEI
110000421099.0,WINSERT INC,2645 IND US TRIAL PKWY,MARINETTE,WI,54143,45.08223,-87.64337,MARINETTE,331513,,54143WNSRT2645I,TRI
110000432292.0,Chicago Heights Steel,211 E Main,Chicago Heights,IL,60411-4270,41.498429,-87.628773,Cook,331110,,1763311,NEI
110000432292.0,CHICAGO HEIGHTS STEEL,211 E MAIN ST,CHICAGO HEIGHTS,IL,60411,41.498429,-87.628773,COOK,331221,,60411CHCGH211EM,TRI
110040911403.0,North Star Steel Arizona,3000 Hwy 66 South,Kingman,AZ,86413,35.13361,-114.09139,Mohave,331110,,1135111,NEI
110040911403.0,NUCOR STEEL KINGMAN LLC,3000 W OLD HWY 66,KINGMAN,AZ,86413,35.13361,-114.091393,MOHAVE,331221,,86402NRTHS3000H,TRI
110014337413.0,NATL STEEL & SHIPBUILDING A GENERAL DYNAMICS CO,2798 HARBOR DRIVE,SAN DIEGO,CA,92113,32.69,-117.134,San Diego,488390,,1471811,NEI
110014337413.0,GENERAL DYNAMICS (NASSCO),2798 HARBOR DR,SAN DIEGO,CA,92113,32.69109,-117.1337,SAN DIEGO,336611,,92138NTNLSHARBO,TRI
110000476002.0,THE JANKOVICH CO PARAMOUNT FIXED FACILITY,14066 GARFIELD AVE,PARAMOUNT,CA,90723,33.90574,-118.16889,LOS ANGELES,424710,,90723WSTRN14066,TRI
110000476002.0,Western Petroleum Inc,14066 Garfield,Paramount,CA,90723,33.90499,-118.16666,Los Angeles,324199,,7875311,NEI
110018953532.0,CHEVRON PRODUCTS COMPANY,17881  GOTHARD ST,HUNTINGTON BEACH,CA,92647,33.703025,-117.999913,Orange,424710,,4940211,NEI
110018953532.0,CHEVRON HUNTINGTON BEACH TERMINAL,17881 GOTHARD ST,HUNTINGTON BEACH,CA,92647,33.70264,-117.9999,ORANGE,424710,,92647HNTNG17881,TRI
110018953532.0,Chevron U S A  Inc Unit No 01,14881 Gothard St,Huntington Beach,CA,92647,33.70319,-118.00012,Orange,324199,,391311,NEI
nan,Charter Waste Landfill,12035 West Murphy Road,Odessa,TX,79764.0,31.745833,-102.546661,ECTOR COUNTY,562212,,1002509,GHGRP
nan,"EPL Oil & Gas, Inc. - SP 77 A",None,Offshore,LA,0.0,28.8308,-89.4061,ORLEANS PARISH,211111,,1010333,GHGRP
nan,CVEA Cogeneration Project,Mile 2.5 Dayville Rd.,Valdez,AK,99686,61.0843,-146.2518,Chugach Census Area,221112,,1025411,NEI
nan,Glennallen Diesel Plant,Mile 187 Glenn Hwy,Glennallen,AK,99588,62.1186,-145.5294,Copper River Census Area,221112,,1025511,NEI
nan,Valdez Diesel Power Plant,West Egan Dr,Valdez,AK,99686,61.1352,-146.3533,Chugach Census Area,221112,,1025611,NEI
nan,ST LABRE MISSION,Unknown,ASHLAND,MT,00000,45.6,-106.2672,None,48811,,11140311,NEI
nan,BONANZA POWER PLANT,Unknown,BONANZA,UT,00000,40.0822,-109.2915,None,48811,,11446411,NEI
nan,ANIMAS AIR PARK HELIPORT,Unknown,DURANGO,CO,00000,37.2031,-107.8678,None,48811,,12014511,NEI
nan,Orca Power Plant,103 Orca Road,Cordova,AK,99574,60.556,-145.7535,Chugach Census Area,221112,,12660911,NEI
nan,HAARP Facility - The High Frequency Active Auroral Research Program,"Milepost 11.3, Tok Cut-Off",Gakona,AK,99586,62.3917,-145.1295,Copper River Census Area,611310,,12662511,NEI
nan,"MARYSVILLE ETHANOL, LLC",2512 BUSHA HIGHWAY,MARYSVILLE,MI,48040,42.8825,-82.4948,St. Clair,325193,,13657811,NEI
nan,Road Runner / Pacific Pride 4-260086,61313 Highway 97 South,Toppenish,WA,98949,46.369727,-120.32017,None,44711,,17310811,NEI
nan,WEST JAMESON TREATING FACILITY,FROM ROBERT LEE TAKE TX-208 N FOR 17.6 MILES. TAKE SLIGHT LEFT ONTO RANCH RD 1672 FOR 0.8 MILES. TAK,SILVER,TX,76949,32.049872,-100.693333,Coke,486210,,17910311,NEI
nan,OZONA GAS PLANT,2 M S OF SH 163,OZONA,TX,76943,30.673311,-101.20485,Crockett,211130,,6475911,NEI
nan,Marathon Petroleum Co LP,4663 W Airline Hwy,Garyville,LA,70051-0000,30.06947,-90.59586,St. John the Baptist,424710,,8018511,NEI
nan,Valdez Marine Terminal,West End of Dayville Road,Valdez,AK,99686,61.0861,-146.3892,Chugach Census Area,488320,,865711,NEI
nan,Pender Muni,Unknown,Pender,NE,00000,42.11389,-96.72893,None,48811,,9410311,NEI
nan,Animas Air Park,Unknown,Durango,CO,00000,37.20389,-107.86861,None,48811,,9811311,NEI
nan,CHEMAID LABORATORIES INC.,100 MAYHILL ST,SADDLE BROOK,NJ,7663,40.89923,-74.08892,BERGEN,325620,,0766WCHMDL1MAYH,TRI
nan,ZEUS CO INC BNJ,134 CHUBB WAY,SOMERVILLE,NJ,8876,40.556792,-74.705768,SOMERSET,326121,,0887WZSNDS134CH,TRI
nan,BLOMMER CHOCOLATE CO/E GREENVILLE PLT,1101 BLOMMER DR,EAST GREENVILLE,PA,18041,40.41568,-75.51236,MONTGOMERY,311351,,1804WBLMMR111BL,TRI
nan,ZEUS CO INC GSC,201 ZEUS LN,GASTON,SC,29053,33.844495,-81.023743,CALHOUN,326121,,2905WZSCMP21ZEU,TRI
nan,OCEANAGOLD HAILE GOLD MINE,6911 SNOWY OWL RD,KERSHAW,SC,29067,34.597431,-80.532552,LANCASTER,212221,,2906WCNGLD6911S,TRI
nan,ZEUS CO INC OSC,646 MAGNOLIA STREET,ORANGEBURG,SC,29115,33.48712,-80.85432,ORANGEBURG,326121,,2911WZSNDS646MA,TRI
nan,GITI TIRE MANUFACTURING CO (USA) LTD,1000 GITI DRIVE,RICHBURG,SC,29729,34.748817,-81.047644,CHESTER,326211,,2972WGTTRM1GITI,TRI
nan,ZEUS CO INC ASC,2499 LEVELS CHURCH RD,AIKEN,SC,29801,33.544633,-81.681224,AIKEN,326121,,2980WZSCMP2499L,TRI
nan,EBROFROST N.A. INC.,2360 PROSPECT,MEMPHIS,TN,38106,35.08205,-90.03704,SHELBY,311212,,3810WBRFRS236PR,TRI
nan,RIVIANA FOODS,2314 S. LAUDERDALE STREET,MEMPHIS,TN,38106,35.08368,-90.04458,SHELBY,311212,,3810WRVNFD2314S,TRI
nan,AMERICAN HOOD SYSTEMS INC.,172 REASER CT,ELYRIA,OH,44035,41.36746,-82.07405,LORAIN,332322,,4403WMRCNH172RE,TRI
nan,MODERN FORGE INDIANA LLC,8757 COLORADO ST,MERRILLVILLE,IN,46410,41.45912,-87.29698,LAKE,332111,,4641WMDRNF8757C,TRI
nan,LGC GENOMICS LLC,2434 BISHOP CIR E,DEXTER,MI,48130,42.32499,-83.877,WASHTENAW,325199,,4813WLGCGN2434B,TRI
nan,GEA FARM TECHNOLOGIES INC.,20903 W GALE AVE,GALESVILLE,WI,54630,44.08239,-91.37045,TREMPEALEAU,333111,,5463WGFRMT293WG,TRI
nan,CITYSERVICEVALCON LLC BILLINGS BULK FACILITY,2100 1ST AVE S,BILLINGS,MT,59101,45.783698,-108.494111,YELLOWSTONE,424710,,5910WCTYSR211ST,TRI
nan,BEN TAYLOR INC BULK FACILITY,2122 W ROOSEVELT HWY,SHELBY,MT,59474,48.516828,-111.88737,TOOLE,424710,,5947WBNTYL2122W,TRI
nan,CITYSERVICEVALCON LLC KALISPELL BULK FACILITY,640 W MONTANA ST,KALISPELL,MT,59901,48.19949,-114.32476,FLATHEAD,424710,,5990WCTYSR64WMN,TRI
nan,LAKESIDE CASTING SOLUTIONS,2 LAKESIDE DR,MONROE CITY,MO,63456,39.654759,-91.715791,MONROE,331523,,6345WLKSDC2LAKE,TRI
nan,YODER SMOKERS INC.,1816 E WASP RD,HUTCHINSON,KS,67501,37.927606,-97.894809,RENO,335220,,6750WYDRSM1816E,TRI
nan,REEVE AGRI ENERGY,5665 S OLD HIGHWAY 83,GARDEN CITY,KS,67846,37.87925,-100.88353,FINNEY,325193,,6784WRVGRN5665S,TRI
nan,MUELLER SUPPLY CO INC.,6914 HWY 2,OAK GROVE,LA,71263,32.858227,-91.411359,WEST CARROLL PARISH,332311,,7126WMLLRN6914H,TRI
nan,SUN COAST RESOURCES- ENID,5110 E OWEN K GARRIOTT RD,ENID,OK,73701,36.39754,-97.80105,GARFIELD,424710,,7370WSNCST511EW,TRI
nan,SUN COAST RESOURCES,2294 S BUFFALO ST,BUFFALO,TX,75831,31.45061,-96.05031,LEON,424710,,7583WSNCST11SBU,TRI
nan,HUNTSMAN BUILDING SOLUTIONS,3315 EAST DIV STREET,ARLINGTON,TX,76011,32.743039,-97.049116,TARRANT,325211,,7601WHNTSM3315E,TRI
nan,SUN COAST RESOURCES,6922 CAVALCADE,HOUSTON,TX,77028,29.800408,-95.302828,HARRIS,424710,,7702WSNCST6922C,TRI
nan,SUN COAST RESOURCES EDNA WAREHOUSE,176 US HIGHWAY 59 S,EDNA,TX,77957,28.97802,-96.66417,JACKSON,424710,,7795WSNCST176US,TRI
nan,SUN COAST RESOURCES,7759 JOHNNY MORRIS RD,AUSTIN,TX,78724,30.311393,-97.636723,TRAVIS,424710,,7872WSNCST7759J,TRI
nan,SUN COAST RESOURCES- MIDLAND,5606 E COUNTY ROAD 128,MIDLAND,TX,79706,31.967052,-101.972818,MIDLAND,424710,,7970WSNCST566EC,TRI
nan,KDC / ONE - THIBIANT INTERNATIONAL,20320 PRAIRIE STREET,CHATSWORTH,CA,91311,34.240923,-118.58636,LOS ANGELES,325620,,9131WTHBNT232PR,TRI
nan,IMPERIAL WESTERN PRODUCTS INC,86600 AVENUE 54,COACHELLA,CA,92236,33.65771,-116.15811,RIVERSIDE,325199,,9223WMPRLW866AB,TRI
nan,BETTS CO,2843 S MAPLE AVE,FRESNO,CA,93725,36.706914,-119.745621,FRESNO,332613,,9372WBTTSC2843S,TRI
nan,GEA FARM TECHNOLOGIES INC.  DBA GEA WS WEST,2717 S 4TH ST,FRESNO,CA,93725,36.70299,-119.76687,FRESNO,325611,,9372WGFRMT2717S,TRI
nan,ECOLUBE RECOVERY LLC,11535 N FORCE AVE,PORTLAND,OR,97217,45.60602,-122.69291,MULTNOMAH,324199,,9721WCLBRC11535,TRI
nan,FARWEST FABRICATORS,7537 POSTMA RD,MOXEE,WA,98936,46.563889,-120.396942,YAKIMA,332322,,9893WFRWST7537P,TRI
