TRIFD,FACILITY NAME,PRIMARY NAICS,NAICS 2,NAICS 3,NAICS 4,NAICS 5,NAICS 6,PARENT CO NAME,FRS ID,FRS_ID,FacilityName,Address,City,State,Zip,Latitude,Longitude,County,NAICS,SIC,FacilityID,Source,_merge,FRS_ID_Issues
issues,issues,issues,issues,issues,issues,issues,issues,issues,issues,110056959929.0,POET BIOREFINING-FOSTORIA,2111 SAND US KY ST,FOSTORIA,OH,44830,41.17562,-83.3806,SENECA,325194,nan,4483WPTBRF2111S,TRI,right_only,False
issues,issues,issues,issues,issues,issues,issues,issues,issues,issues,110017436130.0,CARGILL CORN MILLING,17540 MONROE-WAPELLO ROAD,EDDYVILLE,IA,52553,41.16226,-92.6361,MONROE,311221,nan,52553CRGLLRR1CO,TRI,right_only,False
issues,issues,issues,issues,issues,issues,issues,issues,issues,issues,110059765696.0,CARGILL CORN MILLING NORTH AMERICA,650 INDUSTRIAL PARK DRIVE,BLAIR,NE,680082649,41.53397,-96.0979,WASHINGTON,311221,nan,68008CRGLL650IN,TRI,right_only,False
issues,issues,issues,issues,issues,issues,issues,issues,issues,issues,110059765696.0,CARGILL CORN MILLING NORTH AMERICA,650 INDUSTRIAL PARK DRIVE,BLAIR,NE,680082649,41.53397,-96.0979,WASHINGTON,325211,nan,68008CRGLL650IN,TRI,right_only,False
issues,issues,issues,issues,issues,issues,issues,issues,issues,issues,nan,CHEMAID LABORATORIES INC.,100 MAYHILL ST,SADDLE BROOK,NJ,7663,40.89923,-74.08892,BERGEN,325620,nan,0766WCHMDL1MAYH,TRI,right_only,False
issues,issues,issues,issues,issues,issues,issues,issues,issues,issues,nan,ZEUS CO INC BNJ,134 CHUBB WAY,SOMERVILLE,NJ,8876,40.556792,-74.705768,SOMERSET,326121,nan,0887WZSNDS134CH,TRI,right_only,False
issues,issues,issues,issues,issues,issues,issues,issues,issues,issues,nan,BLOMMER CHOCOLATE CO/E GREENVILLE PLT,1101 BLOMMER DR,EAST GREENVILLE,PA,18041,40.41568,-75.51236,MONTGOMERY,311351,nan,1804WBLMMR111BL,TRI,right_only,False
issues,issues,issues,issues,issues,issues,issues,issues,issues,issues,nan,ZEUS CO INC GSC,201 ZEUS LN,GASTON,SC,29053,33.844495,-81.023743,CALHOUN,326121,nan,2905WZSCMP21ZEU,TRI,right_only,False
issues,issues,issues,issues,issues,issues,issues,issues,issues,issues,nan,OCEANAGOLD HAILE GOLD MINE,6911 SNOWY OWL RD,KERSHAW,SC,29067,34.597431,-80.532552,LANCASTER,212221,nan,2906WCNGLD6911S,TRI,right_only,False
issues,issues,issues,issues,issues,issues,issues,issues,issues,issues,nan,ZEUS CO INC OSC,646 MAGNOLIA STREET,ORANGEBURG,SC,29115,33.48712,-80.85432,ORANGEBURG,326121,nan,2911WZSNDS646MA,TRI,right_only,False
issues,issues,issues,issues,issues,issues,issues,issues,issues,issues,nan,GITI TIRE MANUFACTURING CO (USA) LTD,1000 GITI DRIVE,RICHBURG,SC,29729,34.748817,-81.047644,CHESTER,326211,nan,2972WGTTRM1GITI,TRI,right_only,False
issues,issues,issues,issues,issues,issues,issues,issues,issues,issues,nan,ZEUS CO INC ASC,2499 LEVELS CHURCH RD,AIKEN,SC,29801,33.544633,-81.681224,AIKEN,326121,nan,2980WZSCMP2499L,TRI,right_only,False
issues,issues,issues,issues,issues,issues,issues,issues,issues,issues,nan,EBROFROST N.A. INC.,2360 PROSPECT,MEMPHIS,TN,38106,35.08205,-90.03704,SHELBY,311212,nan,3810WBRFRS236PR,TRI,right_only,False
issues,issues,issues,issues,issues,issues,issues,issues,issues,issues,nan,RIVIANA FOODS,2314 S. LAUDERDALE STREET,MEMPHIS,TN,38106,35.08368,-90.04458,SHELBY,311212,nan,3810WRVNFD2314S,TRI,right_only,False
issues,issues,issues,issues,issues,issues,issues,issues,issues,issues,nan,AMERICAN HOOD SYSTEMS INC.,172 REASER CT,ELYRIA,OH,44035,41.36746,-82.07405,LORAIN,332322,nan,4403WMRCNH172RE,TRI,right_only,False
issues,issues,issues,issues,issues,issues,issues,issues,issues,issues,nan,MODERN FORGE INDIANA LLC,8757 COLORADO ST,MERRILLVILLE,IN,46410,41.45912,-87.29698,LAKE,332111,nan,4641WMDRNF8757C,TRI,right_only,False
issues,issues,issues,issues,issues,issues,issues,issues,issues,issues,nan,LGC GENOMICS LLC,2434 BISHOP CIR E,DEXTER,MI,48130,42.32499,-83.877,WASHTENAW,325199,nan,4813WLGCGN2434B,TRI,right_only,False
issues,issues,issues,issues,issues,issues,issues,issues,issues,issues,nan,GEA FARM TECHNOLOGIES INC.,20903 W GALE AVE,GALESVILLE,WI,54630,44.08239,-91.37045,TREMPEALEAU,333111,nan,5463WGFRMT293WG,TRI,right_only,False
issues,issues,issues,issues,issues,issues,issues,issues,issues,issues,nan,CITYSERVICEVALCON LLC BILLINGS BULK FACILITY,2100 1ST AVE S,BILLINGS,MT,59101,45.783698,-108.494111,YELLOWSTONE,424710,nan,5910WCTYSR211ST,TRI,right_only,False
issues,issues,issues,issues,issues,issues,issues,issues,issues,issues,nan,BEN TAYLOR INC BULK FACILITY,2122 W ROOSEVELT HWY,SHELBY,MT,59474,48.516828,-111.88737,TOOLE,424710,nan,5947WBNTYL2122W,TRI,right_only,False
issues,issues,issues,issues,issues,issues,issues,issues,issues,issues,nan,CITYSERVICEVALCON LLC KALISPELL BULK FACILITY,640 W MONTANA ST,KALISPELL,MT,59901,48.19949,-114.32476,FLATHEAD,424710,nan,5990WCTYSR64WMN,TRI,right_only,False
issues,issues,issues,issues,issues,issues,issues,issues,issues,issues,nan,LAKESIDE CASTING SOLUTIONS,2 LAKESIDE DR,MONROE CITY,MO,63456,39.654759,-91.715791,MONROE,331523,nan,6345WLKSDC2LAKE,TRI,right_only,False
issues,issues,issues,issues,issues,issues,issues,issues,issues,issues,nan,YODER SMOKERS INC.,1816 E WASP RD,HUTCHINSON,KS,67501,37.927606,-97.894809,RENO,335220,nan,6750WYDRSM1816E,TRI,right_only,False
issues,issues,issues,issues,issues,issues,issues,issues,issues,issues,nan,REEVE AGRI ENERGY,5665 S OLD HIGHWAY 83,GARDEN CITY,KS,67846,37.87925,-100.88353,FINNEY,325193,nan,6784WRVGRN5665S,TRI,right_only,False
issues,issues,issues,issues,issues,issues,issues,issues,issues,issues,nan,MUELLER SUPPLY CO INC.,6914 HWY 2,OAK GROVE,LA,71263,32.858227,-91.411359,WEST CARROLL PARISH,332311,nan,7126WMLLRN6914H,TRI,right_only,False
issues,issues,issues,issues,issues,issues,issues,issues,issues,issues,nan,SUN COAST RESOURCES- ENID,5110 E OWEN K GARRIOTT RD,ENID,OK,73701,36.39754,-97.80105,GARFIELD,424710,nan,7370WSNCST511EW,TRI,right_only,False
issues,issues,issues,issues,issues,issues,issues,issues,issues,issues,nan,SUN COAST RESOURCES,2294 S BUFFALO ST,BUFFALO,TX,75831,31.45061,-96.05031,LEON,424710,nan,7583WSNCST11SBU,TRI,right_only,False
issues,issues,issues,issues,issues,issues,issues,issues,issues,issues,nan,HUNTSMAN BUILDING SOLUTIONS,3315 EAST DIV STREET,ARLINGTON,TX,76011,32.743039,-97.049116,TARRANT,325211,nan,7601WHNTSM3315E,TRI,right_only,False
issues,issues,issues,issues,issues,issues,issues,issues,issues,issues,nan,SUN COAST RESOURCES,6922 CAVALCADE,HOUSTON,TX,77028,29.800408,-95.302828,HARRIS,424710,nan,7702WSNCST6922C,TRI,right_only,False
issues,issues,issues,issues,issues,issues,issues,issues,issues,issues,nan,SUN COAST RESOURCES EDNA WAREHOUSE,176 US HIGHWAY 59 S,EDNA,TX,77957,28.97802,-96.66417,JACKSON,424710,nan,7795WSNCST176US,TRI,right_only,False
issues,issues,issues,issues,issues,issues,issues,issues,issues,issues,nan,SUN COAST RESOURCES,7759 JOHNNY MORRIS RD,AUSTIN,TX,78724,30.311393,-97.636723,TRAVIS,424710,nan,7872WSNCST7759J,TRI,right_only,False
issues,issues,issues,issues,issues,issues,issues,issues,issues,issues,nan,SUN COAST RESOURCES- MIDLAND,5606 E COUNTY ROAD 128,MIDLAND,TX,79706,31.967052,-101.972818,MIDLAND,424710,nan,7970WSNCST566EC,TRI,right_only,False
issues,issues,issues,issues,issues,issues,issues,issues,issues,issues,nan,KDC / ONE - THIBIANT INTERNATIONAL,20320 PRAIRIE STREET,CHATSWORTH,CA,91311,34.240923,-118.58636,LOS ANGELES,325620,nan,9131WTHBNT232PR,TRI,right_only,False
issues,issues,issues,issues,issues,issues,issues,issues,issues,issues,nan,IMPERIAL WESTERN PRODUCTS INC,86600 AVENUE 54,COACHELLA,CA,92236,33.65771,-116.15811,RIVERSIDE,325199,nan,9223WMPRLW866AB,TRI,right_only,False
issues,issues,issues,issues,issues,issues,issues,issues,issues,issues,nan,BETTS CO,2843 S MAPLE AVE,FRESNO,CA,93725,36.706914,-119.745621,FRESNO,332613,nan,9372WBTTSC2843S,TRI,right_only,False
issues,issues,issues,issues,issues,issues,issues,issues,issues,issues,nan,GEA FARM TECHNOLOGIES INC.  DBA GEA WS WEST,2717 S 4TH ST,FRESNO,CA,93725,36.70299,-119.76687,FRESNO,325611,nan,9372WGFRMT2717S,TRI,right_only,False
issues,issues,issues,issues,issues,issues,issues,issues,issues,issues,nan,ECOLUBE RECOVERY LLC,11535 N FORCE AVE,PORTLAND,OR,97217,45.60602,-122.69291,MULTNOMAH,324199,nan,9721WCLBRC11535,TRI,right_only,False
issues,issues,issues,issues,issues,issues,issues,issues,issues,issues,nan,FARWEST FABRICATORS,7537 POSTMA RD,MOXEE,WA,98936,46.563889,-120.396942,YAKIMA,332322,nan,9893WFRWST7537P,TRI,right_only,False
