FACILITY_ID,STKHGT,STKDIAM,STKTEMP,STKFLOW,STKVEL,FacilityID,FacilityName,Address,City,State,Zip,Latitude,Longitude,County,NAICS,SIC,UrbanRural
15490411,73,3.25,460,494.2,59.6,15490411,PRYOR CHEMICAL,4463 HUNT ST,PRYOR,OK,74362,36.24268,-95.27871,Mayes,325311,,
15490411,78,2,105,,156.4,15490411,PRYOR CHEMICAL,4463 HUNT ST,PRYOR,OK,74362,36.24268,-95.27871,Mayes,325311,,
15490411,101,2.5,675,,181.1,15490411,PRYOR CHEMICAL,4463 HUNT ST,PRYOR,OK,74362,36.24268,-95.27871,Mayes,325311,,
15490411,30,2.98,265,203.0166,29.096,15490411,PRYOR CHEMICAL,4463 HUNT ST,PRYOR,OK,74362,36.24268,-95.27871,Mayes,325311,,
15490411,24,.33,180,0.9116,10.66,15490411,PRYOR CHEMICAL,4463 HUNT ST,PRYOR,OK,74362,36.24268,-95.27871,Mayes,325311,,
15490411,22,.5,180,0.9116,4.6,15490411,PRYOR CHEMICAL,4463 HUNT ST,PRYOR,OK,74362,36.24268,-95.27871,Mayes,325311,,
15490411,52,4.25,360,79.85,5.57,15490411,PRYOR CHEMICAL,4463 HUNT ST,PRYOR,OK,74362,36.24268,-95.27871,Mayes,325311,,
15490411,15,.5,225,6.1666,31.3939,15490411,PRYOR CHEMICAL,4463 HUNT ST,PRYOR,OK,74362,36.24268,-95.27871,Mayes,325311,,
15490411,91,.5,62,0.005,.0254,15490411,PRYOR CHEMICAL,4463 HUNT ST,PRYOR,OK,74362,36.24268,-95.27871,Mayes,325311,,
15490411,,,,,,15490411,PRYOR CHEMICAL,4463 HUNT ST,PRYOR,OK,74362,36.24268,-95.27871,Mayes,325311,,
15490411,63,2.5,550,,55,15490411,PRYOR CHEMICAL,4463 HUNT ST,PRYOR,OK,74362,36.24268,-95.27871,Mayes,325311,,
15490411,38,1.1,90,175.0,177.63,15490411,PRYOR CHEMICAL,4463 HUNT ST,PRYOR,OK,74362,36.24268,-95.27871,Mayes,325311,,
15490411,24,3.5,372,205.3666,21.84,15490411,PRYOR CHEMICAL,4463 HUNT ST,PRYOR,OK,74362,36.24268,-95.27871,Mayes,325311,,
15490411,35,2.7,400,56.6666,9.54,15490411,PRYOR CHEMICAL,4463 HUNT ST,PRYOR,OK,74362,36.24268,-95.27871,Mayes,325311,,
15490411,15,.5,220,6.1666,31.3939,15490411,PRYOR CHEMICAL,4463 HUNT ST,PRYOR,OK,74362,36.24268,-95.27871,Mayes,325311,,
15490411,70,5.75,360,1166.6666,45,15490411,PRYOR CHEMICAL,4463 HUNT ST,PRYOR,OK,74362,36.24268,-95.27871,Mayes,325311,,
16908111,2,325,24,218.0,21036.0837,16908111,"MISSISSIPPI POWER COMPANY, DAVID M RATCL",5835 HIGHWAY 493,DEKALB,MS,39328,32.6538,-88.7574,Kemper,221112,,
16908111,1,,,,,16908111,"MISSISSIPPI POWER COMPANY, DAVID M RATCL",5835 HIGHWAY 493,DEKALB,MS,39328,32.6538,-88.7574,Kemper,221112,,
16908111,2,100,1,200.0,,16908111,"MISSISSIPPI POWER COMPANY, DAVID M RATCL",5835 HIGHWAY 493,DEKALB,MS,39328,32.6538,-88.7574,Kemper,221112,,
16908111,2,300,1.33,230.0,284.4333,16908111,"MISSISSIPPI POWER COMPANY, DAVID M RATCL",5835 HIGHWAY 493,DEKALB,MS,39328,32.6538,-88.7574,Kemper,221112,,
16908111,2,60,5.5,325.0,1174.3333,16908111,"MISSISSIPPI POWER COMPANY, DAVID M RATCL",5835 HIGHWAY 493,DEKALB,MS,39328,32.6538,-88.7574,Kemper,221112,,
16908111,2,150,5.5,1500.0,808.3333,16908111,"MISSISSIPPI POWER COMPANY, DAVID M RATCL",5835 HIGHWAY 493,DEKALB,MS,39328,32.6538,-88.7574,Kemper,221112,,
16908111,2,300,1.33,230.0,279.5833,16908111,"MISSISSIPPI POWER COMPANY, DAVID M RATCL",5835 HIGHWAY 493,DEKALB,MS,39328,32.6538,-88.7574,Kemper,221112,,
16908111,2,64,40,120.0,33333.334,16908111,"MISSISSIPPI POWER COMPANY, DAVID M RATCL",5835 HIGHWAY 493,DEKALB,MS,39328,32.6538,-88.7574,Kemper,221112,,
16908111,2,290,.83,90.0,20.8333,16908111,"MISSISSIPPI POWER COMPANY, DAVID M RATCL",5835 HIGHWAY 493,DEKALB,MS,39328,32.6538,-88.7574,Kemper,221112,,
16908111,2,290,2.5,120.0,213.3333,16908111,"MISSISSIPPI POWER COMPANY, DAVID M RATCL",5835 HIGHWAY 493,DEKALB,MS,39328,32.6538,-88.7574,Kemper,221112,,
16908111,2,20,.5,725.0,13.0166,16908111,"MISSISSIPPI POWER COMPANY, DAVID M RATCL",5835 HIGHWAY 493,DEKALB,MS,39328,32.6538,-88.7574,Kemper,221112,,
17640311,211,5.83,2300,2002.17,75,17640311,Dyno Nobel LA  Ammonia LLC - Ammonia Production Facilty,10800 River Rd,Waggaman,LA,70094,29.96175,-90.26835,Jefferson,325311,,
17640311,151.3,12.46,325,6035.8,49.5,17640311,Dyno Nobel LA  Ammonia LLC - Ammonia Production Facilty,10800 River Rd,Waggaman,LA,70094,29.96175,-90.26835,Jefferson,325311,,
17640311,112,7.04,1605,1127.77,29,17640311,Dyno Nobel LA  Ammonia LLC - Ammonia Production Facilty,10800 River Rd,Waggaman,LA,70094,29.96175,-90.26835,Jefferson,325311,,
17640311,,,,,,17640311,Dyno Nobel LA  Ammonia LLC - Ammonia Production Facilty,10800 River Rd,Waggaman,LA,70094,29.96175,-90.26835,Jefferson,325311,,
17640311,100,.83,2300,7.67,14,17640311,Dyno Nobel LA  Ammonia LLC - Ammonia Production Facilty,10800 River Rd,Waggaman,LA,70094,29.96175,-90.26835,Jefferson,325311,,
17640311,211,7.67,2300,7023.17,152,17640311,Dyno Nobel LA  Ammonia LLC - Ammonia Production Facilty,10800 River Rd,Waggaman,LA,70094,29.96175,-90.26835,Jefferson,325311,,
17640311,40,.5,2300,6.83,34,17640311,Dyno Nobel LA  Ammonia LLC - Ammonia Production Facilty,10800 River Rd,Waggaman,LA,70094,29.96175,-90.26835,Jefferson,325311,,
17640311,30,1.66,900,158.08,72.5,17640311,Dyno Nobel LA  Ammonia LLC - Ammonia Production Facilty,10800 River Rd,Waggaman,LA,70094,29.96175,-90.26835,Jefferson,325311,,
17640311,206.3,2.25,104,782.9,196.9,17640311,Dyno Nobel LA  Ammonia LLC - Ammonia Production Facilty,10800 River Rd,Waggaman,LA,70094,29.96175,-90.26835,Jefferson,325311,,
17928211,202,2.44,105,453.066,96.8539,17928211,IOWA FERTILIZER COMPANY,3550 180TH ST,WEVER,IA,52658,40.6921,-91.2309,Lee,325311,,
17928211,10,1.17,900,25.6603,23.8575,17928211,IOWA FERTILIZER COMPANY,3550 180TH ST,WEVER,IA,52658,40.6921,-91.2309,Lee,325311,,
17928211,,,,,,17928211,IOWA FERTILIZER COMPANY,3550 180TH ST,WEVER,IA,52658,40.6921,-91.2309,Lee,325311,,
17928211,115,7.08,1660,1000.0,25.3903,17928211,IOWA FERTILIZER COMPANY,3550 180TH ST,WEVER,IA,52658,40.6921,-91.2309,Lee,325311,,
17928211,28,2.08,885,511.7767,150.5529,17928211,IOWA FERTILIZER COMPANY,3550 180TH ST,WEVER,IA,52658,40.6921,-91.2309,Lee,325311,,
17928211,6,.5,68,0.0166,.0848,17928211,IOWA FERTILIZER COMPANY,3550 180TH ST,WEVER,IA,52658,40.6921,-91.2309,Lee,325311,,
17928211,90,1.83,70,38.3333,14.5683,17928211,IOWA FERTILIZER COMPANY,3550 180TH ST,WEVER,IA,52658,40.6921,-91.2309,Lee,325311,,
17928211,42,.17,70,0.0166,.7342,17928211,IOWA FERTILIZER COMPANY,3550 180TH ST,WEVER,IA,52658,40.6921,-91.2309,Lee,325311,,
17928211,17.5,1.33,760,180.3144,129.7366,17928211,IOWA FERTILIZER COMPANY,3550 180TH ST,WEVER,IA,52658,40.6921,-91.2309,Lee,325311,,
17928211,85,6,300,1166.2893,41.2324,17928211,IOWA FERTILIZER COMPANY,3550 180TH ST,WEVER,IA,52658,40.6921,-91.2309,Lee,325311,,
17928211,166,.83,2500,2.327,4.2991,17928211,IOWA FERTILIZER COMPANY,3550 180TH ST,WEVER,IA,52658,40.6921,-91.2309,Lee,325311,,
17928211,36,.3,100,0.0166,.2357,17928211,IOWA FERTILIZER COMPANY,3550 180TH ST,WEVER,IA,52658,40.6921,-91.2309,Lee,325311,,
17928211,174,6.6,295,3513.8365,102.6665,17928211,IOWA FERTILIZER COMPANY,3550 180TH ST,WEVER,IA,52658,40.6921,-91.2309,Lee,325311,,
17928211,125,.83,125,9.1981,16.9933,17928211,IOWA FERTILIZER COMPANY,3550 180TH ST,WEVER,IA,52658,40.6921,-91.2309,Lee,325311,,
17928211,200,4.17,2500,8.3773,.6131,17928211,IOWA FERTILIZER COMPANY,3550 180TH ST,WEVER,IA,52658,40.6921,-91.2309,Lee,325311,,
17928211,8.5,.25,1300,22.1383,450.8176,17928211,IOWA FERTILIZER COMPANY,3550 180TH ST,WEVER,IA,52658,40.6921,-91.2309,Lee,325311,,
17928211,146.6,12,240,6123.8994,54.1253,17928211,IOWA FERTILIZER COMPANY,3550 180TH ST,WEVER,IA,52658,40.6921,-91.2309,Lee,325311,,
17928211,60,34,70,17823.3336,19.623,17928211,IOWA FERTILIZER COMPANY,3550 180TH ST,WEVER,IA,52658,40.6921,-91.2309,Lee,325311,,
17928211,170,7.83,110,2839.2453,58.9406,17928211,IOWA FERTILIZER COMPANY,3550 180TH ST,WEVER,IA,52658,40.6921,-91.2309,Lee,325311,,
17928211,60,34,70,18293.3336,20.1405,17928211,IOWA FERTILIZER COMPANY,3550 180TH ST,WEVER,IA,52658,40.6921,-91.2309,Lee,325311,,
17928211,200,8,2500,16.2893,.3239,17928211,IOWA FERTILIZER COMPANY,3550 180TH ST,WEVER,IA,52658,40.6921,-91.2309,Lee,325311,,
17928211,67,3,105,0.0166,.0023,17928211,IOWA FERTILIZER COMPANY,3550 180TH ST,WEVER,IA,52658,40.6921,-91.2309,Lee,325311,,
17928211,51,.64,68,1.3283,4.1273,17928211,IOWA FERTILIZER COMPANY,3550 180TH ST,WEVER,IA,52658,40.6921,-91.2309,Lee,325311,,
2444211,176,1.67,175,180.0,82.1438,2444211,East Dubuque Nitrogen Fertilizers LLC,16675 Rte 20W,East Dubuque,IL,61025-8605,42.44351,-90.556082,Jo Daviess,325311,,
2444211,33,.33,69,0.0333,.3895,2444211,East Dubuque Nitrogen Fertilizers LLC,16675 Rte 20W,East Dubuque,IL,61025-8605,42.44351,-90.556082,Jo Daviess,325311,,
2444211,28,5,387,1233.0,62.7709,2444211,East Dubuque Nitrogen Fertilizers LLC,16675 Rte 20W,East Dubuque,IL,61025-8605,42.44351,-90.556082,Jo Daviess,325311,,
2444211,50,3.1,650,352.7166,46.713,2444211,East Dubuque Nitrogen Fertilizers LLC,16675 Rte 20W,East Dubuque,IL,61025-8605,42.44351,-90.556082,Jo Daviess,325311,,
2444211,166,1.9,1600,248.3333,87.5514,2444211,East Dubuque Nitrogen Fertilizers LLC,16675 Rte 20W,East Dubuque,IL,61025-8605,42.44351,-90.556082,Jo Daviess,325311,,
2444211,50,4.5,500,445.0,27.9685,2444211,East Dubuque Nitrogen Fertilizers LLC,16675 Rte 20W,East Dubuque,IL,61025-8605,42.44351,-90.556082,Jo Daviess,325311,,
2444211,40,1.33,202,61.3333,44.1294,2444211,East Dubuque Nitrogen Fertilizers LLC,16675 Rte 20W,East Dubuque,IL,61025-8605,42.44351,-90.556082,Jo Daviess,325311,,
2444211,99,2.25,152,257.5,64.7362,2444211,East Dubuque Nitrogen Fertilizers LLC,16675 Rte 20W,East Dubuque,IL,61025-8605,42.44351,-90.556082,Jo Daviess,325311,,
2444211,80,3.33,400,178.1333,20.4452,2444211,East Dubuque Nitrogen Fertilizers LLC,16675 Rte 20W,East Dubuque,IL,61025-8605,42.44351,-90.556082,Jo Daviess,325311,,
2444211,147,1.67,212,183.3333,83.665,2444211,East Dubuque Nitrogen Fertilizers LLC,16675 Rte 20W,East Dubuque,IL,61025-8605,42.44351,-90.556082,Jo Daviess,325311,,
2444211,103,4.5,510,1366.6666,85.8959,2444211,East Dubuque Nitrogen Fertilizers LLC,16675 Rte 20W,East Dubuque,IL,61025-8605,42.44351,-90.556082,Jo Daviess,325311,,
2444211,103,4.5,548,1366.6666,85.8959,2444211,East Dubuque Nitrogen Fertilizers LLC,16675 Rte 20W,East Dubuque,IL,61025-8605,42.44351,-90.556082,Jo Daviess,325311,,
2444211,25,5.1,500,300.0,14.6796,2444211,East Dubuque Nitrogen Fertilizers LLC,16675 Rte 20W,East Dubuque,IL,61025-8605,42.44351,-90.556082,Jo Daviess,325311,,
2444211,146,1.5,212,150.0,84.8484,2444211,East Dubuque Nitrogen Fertilizers LLC,16675 Rte 20W,East Dubuque,IL,61025-8605,42.44351,-90.556082,Jo Daviess,325311,,
2444211,50,4.5,400,900.0,56.5656,2444211,East Dubuque Nitrogen Fertilizers LLC,16675 Rte 20W,East Dubuque,IL,61025-8605,42.44351,-90.556082,Jo Daviess,325311,,
2444211,74,3.78,416,329.0,29.3054,2444211,East Dubuque Nitrogen Fertilizers LLC,16675 Rte 20W,East Dubuque,IL,61025-8605,42.44351,-90.556082,Jo Daviess,325311,,
2444211,20,.33,69,0.0333,.3895,2444211,East Dubuque Nitrogen Fertilizers LLC,16675 Rte 20W,East Dubuque,IL,61025-8605,42.44351,-90.556082,Jo Daviess,325311,,
2444211,15,.5,1600,16.6666,84.8484,2444211,East Dubuque Nitrogen Fertilizers LLC,16675 Rte 20W,East Dubuque,IL,61025-8605,42.44351,-90.556082,Jo Daviess,325311,,
2444211,90,3.42,233,498.3333,54.2254,2444211,East Dubuque Nitrogen Fertilizers LLC,16675 Rte 20W,East Dubuque,IL,61025-8605,42.44351,-90.556082,Jo Daviess,325311,,
2444211,176,3.5,600,117.4166,12.1991,2444211,East Dubuque Nitrogen Fertilizers LLC,16675 Rte 20W,East Dubuque,IL,61025-8605,42.44351,-90.556082,Jo Daviess,325311,,
2444211,22,1.5,400,18.3333,10.3703,2444211,East Dubuque Nitrogen Fertilizers LLC,16675 Rte 20W,East Dubuque,IL,61025-8605,42.44351,-90.556082,Jo Daviess,325311,,
2444211,49,1.13,900,86.6666,86.3834,2444211,East Dubuque Nitrogen Fertilizers LLC,16675 Rte 20W,East Dubuque,IL,61025-8605,42.44351,-90.556082,Jo Daviess,325311,,
4956711,216,6.91,130,2392.97,63.7846,4956711,Rock Springs Fertilizer Complex,"15,18N,104W",Sweetwater,WY,82935,41.53841,-109.12746,Sweetwater,32518,,
4956711,70,2,752,206.0884,65.6,4956711,Rock Springs Fertilizer Complex,"15,18N,104W",Sweetwater,WY,82935,41.53841,-109.12746,Sweetwater,32518,,
4956711,50,5,507,541.1393,27.56,4956711,Rock Springs Fertilizer Complex,"15,18N,104W",Sweetwater,WY,82935,41.53841,-109.12746,Sweetwater,32518,,
4956711,150,6.58,345,2242.284,65.94,4956711,Rock Springs Fertilizer Complex,"15,18N,104W",Sweetwater,WY,82935,41.53841,-109.12746,Sweetwater,32518,,
4956711,112,2.35,68,108.434,25,4956711,Rock Springs Fertilizer Complex,"15,18N,104W",Sweetwater,WY,82935,41.53841,-109.12746,Sweetwater,32518,,
4956711,198,5.9,170,1982.4024,72.51,4956711,Rock Springs Fertilizer Complex,"15,18N,104W",Sweetwater,WY,82935,41.53841,-109.12746,Sweetwater,32518,,
4956711,125,2.17,70,92.459,25,4956711,Rock Springs Fertilizer Complex,"15,18N,104W",Sweetwater,WY,82935,41.53841,-109.12746,Sweetwater,32518,,
4956711,,,,,,4956711,Rock Springs Fertilizer Complex,"15,18N,104W",Sweetwater,WY,82935,41.53841,-109.12746,Sweetwater,32518,,
4956711,15,.5,1,0.1963,1,4956711,Rock Springs Fertilizer Complex,"15,18N,104W",Sweetwater,WY,82935,41.53841,-109.12746,Sweetwater,32518,,
4956711,20,.5,100,4.9087,25,4956711,Rock Springs Fertilizer Complex,"15,18N,104W",Sweetwater,WY,82935,41.53841,-109.12746,Sweetwater,32518,,
4956711,255,3.8,1831,743.3333,65.6,4956711,Rock Springs Fertilizer Complex,"15,18N,104W",Sweetwater,WY,82935,41.53841,-109.12746,Sweetwater,32518,,
4956711,38,.5,70,4.9087,25,4956711,Rock Springs Fertilizer Complex,"15,18N,104W",Sweetwater,WY,82935,41.53841,-109.12746,Sweetwater,32518,,
4956711,1,1,1,9.0006,11.46,4956711,Rock Springs Fertilizer Complex,"15,18N,104W",Sweetwater,WY,82935,41.53841,-109.12746,Sweetwater,32518,,
4956711,216,4,103,669.7875,53.3,4956711,Rock Springs Fertilizer Complex,"15,18N,104W",Sweetwater,WY,82935,41.53841,-109.12746,Sweetwater,32518,,
4956711,100,1,200,2.55,3.25,4956711,Rock Springs Fertilizer Complex,"15,18N,104W",Sweetwater,WY,82935,41.53841,-109.12746,Sweetwater,32518,,
4956711,15,.2,1,0.36,11.46,4956711,Rock Springs Fertilizer Complex,"15,18N,104W",Sweetwater,WY,82935,41.53841,-109.12746,Sweetwater,32518,,
4956711,198,9.74,156,1163.8281,15.62,4956711,Rock Springs Fertilizer Complex,"15,18N,104W",Sweetwater,WY,82935,41.53841,-109.12746,Sweetwater,32518,,
4956711,20,1,500,78.5398,100,4956711,Rock Springs Fertilizer Complex,"15,18N,104W",Sweetwater,WY,82935,41.53841,-109.12746,Sweetwater,32518,,
4956711,6,.25,1225,4.9087,100,4956711,Rock Springs Fertilizer Complex,"15,18N,104W",Sweetwater,WY,82935,41.53841,-109.12746,Sweetwater,32518,,
4956711,216,3.5,90,353.0953,36.7,4956711,Rock Springs Fertilizer Complex,"15,18N,104W",Sweetwater,WY,82935,41.53841,-109.12746,Sweetwater,32518,,
4956711,74,.5,70,2.2501,11.46,4956711,Rock Springs Fertilizer Complex,"15,18N,104W",Sweetwater,WY,82935,41.53841,-109.12746,Sweetwater,32518,,
4956711,216,3.5,95,423.3296,44,4956711,Rock Springs Fertilizer Complex,"15,18N,104W",Sweetwater,WY,82935,41.53841,-109.12746,Sweetwater,32518,,
4956711,216,6.92,141,2414.555,64.2,4956711,Rock Springs Fertilizer Complex,"15,18N,104W",Sweetwater,WY,82935,41.53841,-109.12746,Sweetwater,32518,,
4956711,100,8.2,275,2480.8333,47,4956711,Rock Springs Fertilizer Complex,"15,18N,104W",Sweetwater,WY,82935,41.53841,-109.12746,Sweetwater,32518,,
4956711,246,3.2,1831,527.5865,65.6,4956711,Rock Springs Fertilizer Complex,"15,18N,104W",Sweetwater,WY,82935,41.53841,-109.12746,Sweetwater,32518,,
4956711,25,.5,223,15.9,81.1,4956711,Rock Springs Fertilizer Complex,"15,18N,104W",Sweetwater,WY,82935,41.53841,-109.12746,Sweetwater,32518,,
4956711,25,.3,908,2.1166,30,4956711,Rock Springs Fertilizer Complex,"15,18N,104W",Sweetwater,WY,82935,41.53841,-109.12746,Sweetwater,32518,,
6083511,200,7.5,180,2075.0,46.9,6083511,PCS Nitrogen Fertilizer LP - Geismar Facility,5301 Hwy 3115,Geismar,LA,70734,30.21975,-91.05614,Ascension,325311,,
6083511,,,,,,6083511,PCS Nitrogen Fertilizer LP - Geismar Facility,5301 Hwy 3115,Geismar,LA,70734,30.21975,-91.05614,Ascension,325311,,
6083511,5,.5,77,0.137,.7,6083511,PCS Nitrogen Fertilizer LP - Geismar Facility,5301 Hwy 3115,Geismar,LA,70734,30.21975,-91.05614,Ascension,325311,,
6083511,135,6,1000,5654.9,200,6083511,PCS Nitrogen Fertilizer LP - Geismar Facility,5301 Hwy 3115,Geismar,LA,70734,30.21975,-91.05614,Ascension,325311,,
6083511,78,3,200,706.9,100,6083511,PCS Nitrogen Fertilizer LP - Geismar Facility,5301 Hwy 3115,Geismar,LA,70734,30.21975,-91.05614,Ascension,325311,,
6083511,4,.17,890,6.67,294,6083511,PCS Nitrogen Fertilizer LP - Geismar Facility,5301 Hwy 3115,Geismar,LA,70734,30.21975,-91.05614,Ascension,325311,,
6083511,50,4.5,310,771.0,50,6083511,PCS Nitrogen Fertilizer LP - Geismar Facility,5301 Hwy 3115,Geismar,LA,70734,30.21975,-91.05614,Ascension,325311,,
6083511,12,.5,300,0.137,.7,6083511,PCS Nitrogen Fertilizer LP - Geismar Facility,5301 Hwy 3115,Geismar,LA,70734,30.21975,-91.05614,Ascension,325311,,
6083511,5,.3,77,0.071,1,6083511,PCS Nitrogen Fertilizer LP - Geismar Facility,5301 Hwy 3115,Geismar,LA,70734,30.21975,-91.05614,Ascension,325311,,
6083511,48,1,77,6.3,8,6083511,PCS Nitrogen Fertilizer LP - Geismar Facility,5301 Hwy 3115,Geismar,LA,70734,30.21975,-91.05614,Ascension,325311,,
6083511,50,5,330,970.0,50,6083511,PCS Nitrogen Fertilizer LP - Geismar Facility,5301 Hwy 3115,Geismar,LA,70734,30.21975,-91.05614,Ascension,325311,,
6083511,17,1,77,6.3,8,6083511,PCS Nitrogen Fertilizer LP - Geismar Facility,5301 Hwy 3115,Geismar,LA,70734,30.21975,-91.05614,Ascension,325311,,
6083511,110,2,200,463.7,147.6,6083511,PCS Nitrogen Fertilizer LP - Geismar Facility,5301 Hwy 3115,Geismar,LA,70734,30.21975,-91.05614,Ascension,325311,,
6083511,80,1,1000,157.1,200,6083511,PCS Nitrogen Fertilizer LP - Geismar Facility,5301 Hwy 3115,Geismar,LA,70734,30.21975,-91.05614,Ascension,325311,,
6083511,144.1,3.5,317,1048.7,109,6083511,PCS Nitrogen Fertilizer LP - Geismar Facility,5301 Hwy 3115,Geismar,LA,70734,30.21975,-91.05614,Ascension,325311,,
6083511,105,11.3,242,3439.858,34.3,6083511,PCS Nitrogen Fertilizer LP - Geismar Facility,5301 Hwy 3115,Geismar,LA,70734,30.21975,-91.05614,Ascension,325311,,
6083511,78,4.3,1100,334.0059,23,6083511,PCS Nitrogen Fertilizer LP - Geismar Facility,5301 Hwy 3115,Geismar,LA,70734,30.21975,-91.05614,Ascension,325311,,
6083511,38,.7,200,15.9,41.4,6083511,PCS Nitrogen Fertilizer LP - Geismar Facility,5301 Hwy 3115,Geismar,LA,70734,30.21975,-91.05614,Ascension,325311,,
6083511,16,1,77,6.3,8,6083511,PCS Nitrogen Fertilizer LP - Geismar Facility,5301 Hwy 3115,Geismar,LA,70734,30.21975,-91.05614,Ascension,325311,,
6083511,20,1,77,0.079,.1,6083511,PCS Nitrogen Fertilizer LP - Geismar Facility,5301 Hwy 3115,Geismar,LA,70734,30.21975,-91.05614,Ascension,325311,,
6083511,60,4.6,110,33.2,2,6083511,PCS Nitrogen Fertilizer LP - Geismar Facility,5301 Hwy 3115,Geismar,LA,70734,30.21975,-91.05614,Ascension,325311,,
6083511,6,.25,890,10.0,204,6083511,PCS Nitrogen Fertilizer LP - Geismar Facility,5301 Hwy 3115,Geismar,LA,70734,30.21975,-91.05614,Ascension,325311,,
6083511,4,.17,890,5.0,220,6083511,PCS Nitrogen Fertilizer LP - Geismar Facility,5301 Hwy 3115,Geismar,LA,70734,30.21975,-91.05614,Ascension,325311,,
6083511,30,1,77,1.5708,2,6083511,PCS Nitrogen Fertilizer LP - Geismar Facility,5301 Hwy 3115,Geismar,LA,70734,30.21975,-91.05614,Ascension,325311,,
6083511,30,1,77,1.6,2,6083511,PCS Nitrogen Fertilizer LP - Geismar Facility,5301 Hwy 3115,Geismar,LA,70734,30.21975,-91.05614,Ascension,325311,,
6083511,5,.5,77,0.1,.5,6083511,PCS Nitrogen Fertilizer LP - Geismar Facility,5301 Hwy 3115,Geismar,LA,70734,30.21975,-91.05614,Ascension,325311,,
6083511,5,1,77,0.4,.5,6083511,PCS Nitrogen Fertilizer LP - Geismar Facility,5301 Hwy 3115,Geismar,LA,70734,30.21975,-91.05614,Ascension,325311,,
6083511,30,1,80,1.6,2,6083511,PCS Nitrogen Fertilizer LP - Geismar Facility,5301 Hwy 3115,Geismar,LA,70734,30.21975,-91.05614,Ascension,325311,,
6083511,7.7,.5,77,0.4,2,6083511,PCS Nitrogen Fertilizer LP - Geismar Facility,5301 Hwy 3115,Geismar,LA,70734,30.21975,-91.05614,Ascension,325311,,
6083511,22,2.9,77,0.1321,.02,6083511,PCS Nitrogen Fertilizer LP - Geismar Facility,5301 Hwy 3115,Geismar,LA,70734,30.21975,-91.05614,Ascension,325311,,
6083511,60,.8,77,0.05,.1,6083511,PCS Nitrogen Fertilizer LP - Geismar Facility,5301 Hwy 3115,Geismar,LA,70734,30.21975,-91.05614,Ascension,325311,,
6083511,125,2,212,193.2,61.5,6083511,PCS Nitrogen Fertilizer LP - Geismar Facility,5301 Hwy 3115,Geismar,LA,70734,30.21975,-91.05614,Ascension,325311,,
6083511,90,1.33,140,484.0,348.38,6083511,PCS Nitrogen Fertilizer LP - Geismar Facility,5301 Hwy 3115,Geismar,LA,70734,30.21975,-91.05614,Ascension,325311,,
6083511,10,.25,77,0.0833,1.698,6083511,PCS Nitrogen Fertilizer LP - Geismar Facility,5301 Hwy 3115,Geismar,LA,70734,30.21975,-91.05614,Ascension,325311,,
6083511,6,.5,77,0.4,2,6083511,PCS Nitrogen Fertilizer LP - Geismar Facility,5301 Hwy 3115,Geismar,LA,70734,30.21975,-91.05614,Ascension,325311,,
6083511,17,.5,77,0.4,2,6083511,PCS Nitrogen Fertilizer LP - Geismar Facility,5301 Hwy 3115,Geismar,LA,70734,30.21975,-91.05614,Ascension,325311,,
6083511,7.5,.5,77,0.4,2,6083511,PCS Nitrogen Fertilizer LP - Geismar Facility,5301 Hwy 3115,Geismar,LA,70734,30.21975,-91.05614,Ascension,325311,,
6083511,100,4.5,140,1216.7,76.5,6083511,PCS Nitrogen Fertilizer LP - Geismar Facility,5301 Hwy 3115,Geismar,LA,70734,30.21975,-91.05614,Ascension,325311,,
6083511,197,5.8,244,2520.5,95.4,6083511,PCS Nitrogen Fertilizer LP - Geismar Facility,5301 Hwy 3115,Geismar,LA,70734,30.21975,-91.05614,Ascension,325311,,
7001211,180,4.5,73,1382.2,86.9,7001211,Cheyenne Plant,"17,13N,67W",Laramie,WY,82001,41.09528,-104.91466,Laramie,212399,,
7001211,70,5.31,450,406.6666,18.24,7001211,Cheyenne Plant,"17,13N,67W",Laramie,WY,82001,41.09528,-104.91466,Laramie,212399,,
7001211,70,1.08,450,15.5,16.8,7001211,Cheyenne Plant,"17,13N,67W",Laramie,WY,82001,41.09528,-104.91466,Laramie,212399,,
7001211,70,5.31,450,406.6666,18.2,7001211,Cheyenne Plant,"17,13N,67W",Laramie,WY,82001,41.09528,-104.91466,Laramie,212399,,
7001211,92,6.5,104,1028.9,31.2,7001211,Cheyenne Plant,"17,13N,67W",Laramie,WY,82001,41.09528,-104.91466,Laramie,212399,,
7001211,120.8,4.42,463,1235.0,80.5,7001211,Cheyenne Plant,"17,13N,67W",Laramie,WY,82001,41.09528,-104.91466,Laramie,212399,,
7001211,50.7,20,95,10524.3335,33.5,7001211,Cheyenne Plant,"17,13N,67W",Laramie,WY,82001,41.09528,-104.91466,Laramie,212399,,
7001211,54.5,4.65,140,847.3166,50,7001211,Cheyenne Plant,"17,13N,67W",Laramie,WY,82001,41.09528,-104.91466,Laramie,212399,,
7001211,165,3,428,1515.1166,214.3,7001211,Cheyenne Plant,"17,13N,67W",Laramie,WY,82001,41.09528,-104.91466,Laramie,212399,,
7001211,15,.63,806,25.3333,81.3,7001211,Cheyenne Plant,"17,13N,67W",Laramie,WY,82001,41.09528,-104.91466,Laramie,212399,,
7001211,12,.4,973,28.6513,228,7001211,Cheyenne Plant,"17,13N,67W",Laramie,WY,82001,41.09528,-104.91466,Laramie,212399,,
7001211,34,.25,110,0.7363,15,7001211,Cheyenne Plant,"17,13N,67W",Laramie,WY,82001,41.09528,-104.91466,Laramie,212399,,
7001211,8,.33,1,0.0855,1,7001211,Cheyenne Plant,"17,13N,67W",Laramie,WY,82001,41.09528,-104.91466,Laramie,212399,,
7001211,30,.5,1,0.1963,1,7001211,Cheyenne Plant,"17,13N,67W",Laramie,WY,82001,41.09528,-104.91466,Laramie,212399,,
7001211,10,.5,1,2.2501,11.46,7001211,Cheyenne Plant,"17,13N,67W",Laramie,WY,82001,41.09528,-104.91466,Laramie,212399,,
7001211,44,5.51,415,1308.8333,55,7001211,Cheyenne Plant,"17,13N,67W",Laramie,WY,82001,41.09528,-104.91466,Laramie,212399,,
7001211,180,4.5,74,1348.6857,84.8,7001211,Cheyenne Plant,"17,13N,67W",Laramie,WY,82001,41.09528,-104.91466,Laramie,212399,,
7001211,,,,,,7001211,Cheyenne Plant,"17,13N,67W",Laramie,WY,82001,41.09528,-104.91466,Laramie,212399,,
7001211,18,.25,1,0.103,2.1,7001211,Cheyenne Plant,"17,13N,67W",Laramie,WY,82001,41.09528,-104.91466,Laramie,212399,,
7001211,81,3,239,867.3666,122.7,7001211,Cheyenne Plant,"17,13N,67W",Laramie,WY,82001,41.09528,-104.91466,Laramie,212399,,
7001211,31,27.99,95,15824.8336,25.72,7001211,Cheyenne Plant,"17,13N,67W",Laramie,WY,82001,41.09528,-104.91466,Laramie,212399,,
7001211,18,.5,1495,32.35,165,7001211,Cheyenne Plant,"17,13N,67W",Laramie,WY,82001,41.09528,-104.91466,Laramie,212399,,
7001211,10,.5,1,0.1767,.9,7001211,Cheyenne Plant,"17,13N,67W",Laramie,WY,82001,41.09528,-104.91466,Laramie,212399,,
7212911,115,4.42,100,,5,7212911,Cherokee Nitrogen LLC,1080 Industrial Drive,Cherokee,AL,35616,34.806635,-87.936948,Colbert,325311,,
7212911,,,,,,7212911,Cherokee Nitrogen LLC,1080 Industrial Drive,Cherokee,AL,35616,34.806635,-87.936948,Colbert,325311,,
7212911,78.6,4.4,299,621.7,40.1,7212911,Cherokee Nitrogen LLC,1080 Industrial Drive,Cherokee,AL,35616,34.806635,-87.936948,Colbert,325311,,
7212911,40,3.5,537,623.3333,65,7212911,Cherokee Nitrogen LLC,1080 Industrial Drive,Cherokee,AL,35616,34.806635,-87.936948,Colbert,325311,,
7212911,23,2,478,92.5333,29.46,7212911,Cherokee Nitrogen LLC,1080 Industrial Drive,Cherokee,AL,35616,34.806635,-87.936948,Colbert,325311,,
7212911,62,3.33,85,500.0,57.5,7212911,Cherokee Nitrogen LLC,1080 Industrial Drive,Cherokee,AL,35616,34.806635,-87.936948,Colbert,325311,,
7212911,56,3.8,102,862.3333,76.04,7212911,Cherokee Nitrogen LLC,1080 Industrial Drive,Cherokee,AL,35616,34.806635,-87.936948,Colbert,325311,,
7212911,70,.5,400,,1500,7212911,Cherokee Nitrogen LLC,1080 Industrial Drive,Cherokee,AL,35616,34.806635,-87.936948,Colbert,325311,,
7212911,26,.5,212,7.55,38.4,7212911,Cherokee Nitrogen LLC,1080 Industrial Drive,Cherokee,AL,35616,34.806635,-87.936948,Colbert,325311,,
7212911,70,.5,250,8.0633,41.07,7212911,Cherokee Nitrogen LLC,1080 Industrial Drive,Cherokee,AL,35616,34.806635,-87.936948,Colbert,325311,,
7212911,100,4,305,,109.5,7212911,Cherokee Nitrogen LLC,1080 Industrial Drive,Cherokee,AL,35616,34.806635,-87.936948,Colbert,325311,,
7212911,50.5,3.96,304,352.6166,28.8,7212911,Cherokee Nitrogen LLC,1080 Industrial Drive,Cherokee,AL,35616,34.806635,-87.936948,Colbert,325311,,
7212911,45,1.67,210,131.6666,60.1,7212911,Cherokee Nitrogen LLC,1080 Industrial Drive,Cherokee,AL,35616,34.806635,-87.936948,Colbert,325311,,
7212911,13,.4,500,38.9638,310.06,7212911,Cherokee Nitrogen LLC,1080 Industrial Drive,Cherokee,AL,35616,34.806635,-87.936948,Colbert,325311,,
7318611,119,3.3,244,,61,7318611,Koch Fertilizer Beatrice LLC,21178 SW 89th Rd,Beatrice,NE,68310-6772,40.319735,-96.840743,Gage,325311,,
7318611,71,8.76,332,2374.1167,39.5,7318611,Koch Fertilizer Beatrice LLC,21178 SW 89th Rd,Beatrice,NE,68310-6772,40.319735,-96.840743,Gage,325311,,
7433611,217,2.2,104,0.65,.171,7433611,KOCH FERTILIZER PLANT,1619 South 78th,ENID,OK,73701,36.3791,-97.7613,Garfield,325311,,
7433611,,,,,,7433611,KOCH FERTILIZER PLANT,1619 South 78th,ENID,OK,73701,36.3791,-97.7613,Garfield,325311,,
7433611,215,2,377,1681.3,535.17,7433611,KOCH FERTILIZER PLANT,1619 South 78th,ENID,OK,73701,36.3791,-97.7613,Garfield,325311,,
7433611,100,5.5,80,1066.6666,44.9,7433611,KOCH FERTILIZER PLANT,1619 South 78th,ENID,OK,73701,36.3791,-97.7613,Garfield,325311,,
7433611,50,3.2,320,368.3333,45.8,7433611,KOCH FERTILIZER PLANT,1619 South 78th,ENID,OK,73701,36.3791,-97.7613,Garfield,325311,,
7433611,9,.42,1250,15.6333,112.84,7433611,KOCH FERTILIZER PLANT,1619 South 78th,ENID,OK,73701,36.3791,-97.7613,Garfield,325311,,
7433611,215,2,220,1681.3,535.17,7433611,KOCH FERTILIZER PLANT,1619 South 78th,ENID,OK,73701,36.3791,-97.7613,Garfield,325311,,
7433611,28,1.2,627,83.05,73.433,7433611,KOCH FERTILIZER PLANT,1619 South 78th,ENID,OK,73701,36.3791,-97.7613,Garfield,325311,,
7433611,25,.5,210,5.85,29.8,7433611,KOCH FERTILIZER PLANT,1619 South 78th,ENID,OK,73701,36.3791,-97.7613,Garfield,325311,,
7433611,70,3.5,460,294.4333,30.6,7433611,KOCH FERTILIZER PLANT,1619 South 78th,ENID,OK,73701,36.3791,-97.7613,Garfield,325311,,
7433611,70,6.5,163,1016.6666,30.6,7433611,KOCH FERTILIZER PLANT,1619 South 78th,ENID,OK,73701,36.3791,-97.7613,Garfield,325311,,
7433611,191,.3,212,10.9,154,7433611,KOCH FERTILIZER PLANT,1619 South 78th,ENID,OK,73701,36.3791,-97.7613,Garfield,325311,,
7433611,23,1.5,800,10.8333,6.1,7433611,KOCH FERTILIZER PLANT,1619 South 78th,ENID,OK,73701,36.3791,-97.7613,Garfield,325311,,
7433611,9,.42,975,1.1666,8.42,7433611,KOCH FERTILIZER PLANT,1619 South 78th,ENID,OK,73701,36.3791,-97.7613,Garfield,325311,,
7433611,160,4,700,2491.6167,198.28,7433611,KOCH FERTILIZER PLANT,1619 South 78th,ENID,OK,73701,36.3791,-97.7613,Garfield,325311,,
7433611,104,10.5,520,7166.6668,79.17,7433611,KOCH FERTILIZER PLANT,1619 South 78th,ENID,OK,73701,36.3791,-97.7613,Garfield,325311,,
7433611,213,.8,240,96.6,192.179,7433611,KOCH FERTILIZER PLANT,1619 South 78th,ENID,OK,73701,36.3791,-97.7613,Garfield,325311,,
7433611,68,4.2,1610,583.3333,42.1,7433611,KOCH FERTILIZER PLANT,1619 South 78th,ENID,OK,73701,36.3791,-97.7613,Garfield,325311,,
7433611,120,13,300,6166.6667,46.46,7433611,KOCH FERTILIZER PLANT,1619 South 78th,ENID,OK,73701,36.3791,-97.7613,Garfield,325311,,
7433611,70,2.5,1100,0.8666,.177,7433611,KOCH FERTILIZER PLANT,1619 South 78th,ENID,OK,73701,36.3791,-97.7613,Garfield,325311,,
7433611,34,2,120,7.9666,2.5,7433611,KOCH FERTILIZER PLANT,1619 South 78th,ENID,OK,73701,36.3791,-97.7613,Garfield,325311,,
7433611,76,3.7,620,516.6666,48,7433611,KOCH FERTILIZER PLANT,1619 South 78th,ENID,OK,73701,36.3791,-97.7613,Garfield,325311,,
7433611,200,6.37,305,694.45,21.76,7433611,KOCH FERTILIZER PLANT,1619 South 78th,ENID,OK,73701,36.3791,-97.7613,Garfield,325311,,
7433611,223,11.25,115,5755.7167,57.9,7433611,KOCH FERTILIZER PLANT,1619 South 78th,ENID,OK,73701,36.3791,-97.7613,Garfield,325311,,
7433611,99,3.5,97,23.0233,2.39,7433611,KOCH FERTILIZER PLANT,1619 South 78th,ENID,OK,73701,36.3791,-97.7613,Garfield,325311,,
7433611,28,.5,961,23.3333,118.9,7433611,KOCH FERTILIZER PLANT,1619 South 78th,ENID,OK,73701,36.3791,-97.7613,Garfield,325311,,
7741911,98,2.9,360,231.6,33.6,7741911,GREEN VALLEY CHEMICAL CORPORATION,1284 N CHERRY ST,CRESTON,IA,50801,41.116891,-94.355137,Union,325311,,
7741911,23,15.14,70,0.18,.001,7741911,GREEN VALLEY CHEMICAL CORPORATION,1284 N CHERRY ST,CRESTON,IA,50801,41.116891,-94.355137,Union,325311,,
7741911,20,.5,100,6.6666,33.953,7741911,GREEN VALLEY CHEMICAL CORPORATION,1284 N CHERRY ST,CRESTON,IA,50801,41.116891,-94.355137,Union,325311,,
7741911,12,.13,70,8.3333,627.5775,7741911,GREEN VALLEY CHEMICAL CORPORATION,1284 N CHERRY ST,CRESTON,IA,50801,41.116891,-94.355137,Union,325311,,
7741911,25,.11,400,9.5033,1000,7741911,GREEN VALLEY CHEMICAL CORPORATION,1284 N CHERRY ST,CRESTON,IA,50801,41.116891,-94.355137,Union,325311,,
7741911,60,4.5,305,106.6666,7,7741911,GREEN VALLEY CHEMICAL CORPORATION,1284 N CHERRY ST,CRESTON,IA,50801,41.116891,-94.355137,Union,325311,,
7741911,8,.5,250,33.3333,170,7741911,GREEN VALLEY CHEMICAL CORPORATION,1284 N CHERRY ST,CRESTON,IA,50801,41.116891,-94.355137,Union,325311,,
7741911,21,2,290,96.7,30.7805,7741911,GREEN VALLEY CHEMICAL CORPORATION,1284 N CHERRY ST,CRESTON,IA,50801,41.116891,-94.355137,Union,325311,,
7890711,2,174.5,11,290.0,2109.3,7890711,"KOCH FERTILIZER FT. DODGE, LLC",3162 200TH ST,Duncombe,IA,50532,42.499657,-94.016942,Webster,325311,,
7890711,2,31.8,20,110.0,8872.6416,7890711,"KOCH FERTILIZER FT. DODGE, LLC",3162 200TH ST,Duncombe,IA,50532,42.499657,-94.016942,Webster,325311,,
7890711,1,,,,,7890711,"KOCH FERTILIZER FT. DODGE, LLC",3162 200TH ST,Duncombe,IA,50532,42.499657,-94.016942,Webster,325311,,
7890711,2,1,1,68.0,.0166,7890711,"KOCH FERTILIZER FT. DODGE, LLC",3162 200TH ST,Duncombe,IA,50532,42.499657,-94.016942,Webster,325311,,
7890711,2,33,26,98.0,15287.0946,7890711,"KOCH FERTILIZER FT. DODGE, LLC",3162 200TH ST,Duncombe,IA,50532,42.499657,-94.016942,Webster,325311,,
7890711,2,75,1,500.0,114.7169,7890711,"KOCH FERTILIZER FT. DODGE, LLC",3162 200TH ST,Duncombe,IA,50532,42.499657,-94.016942,Webster,325311,,
7890711,2,80,1.33,183.0,52.6,7890711,"KOCH FERTILIZER FT. DODGE, LLC",3162 200TH ST,Duncombe,IA,50532,42.499657,-94.016942,Webster,325311,,
7890711,2,125,3.5,260.0,1136.5666,7890711,"KOCH FERTILIZER FT. DODGE, LLC",3162 200TH ST,Duncombe,IA,50532,42.499657,-94.016942,Webster,325311,,
7890711,2,14.7,.9,950.0,143.8166,7890711,"KOCH FERTILIZER FT. DODGE, LLC",3162 200TH ST,Duncombe,IA,50532,42.499657,-94.016942,Webster,325311,,
7890711,2,50,2.5,500.0,164.2666,7890711,"KOCH FERTILIZER FT. DODGE, LLC",3162 200TH ST,Duncombe,IA,50532,42.499657,-94.016942,Webster,325311,,
7890711,3,44,.5,70.0,21.3333,7890711,"KOCH FERTILIZER FT. DODGE, LLC",3162 200TH ST,Duncombe,IA,50532,42.499657,-94.016942,Webster,325311,,
7890711,2,163,2.33,550.0,1333.9622,7890711,"KOCH FERTILIZER FT. DODGE, LLC",3162 200TH ST,Duncombe,IA,50532,42.499657,-94.016942,Webster,325311,,
7890711,2,86,2.5,170.0,325,7890711,"KOCH FERTILIZER FT. DODGE, LLC",3162 200TH ST,Duncombe,IA,50532,42.499657,-94.016942,Webster,325311,,
7890711,2,60,.9,1450.0,534.5597,7890711,"KOCH FERTILIZER FT. DODGE, LLC",3162 200TH ST,Duncombe,IA,50532,42.499657,-94.016942,Webster,325311,,
7890711,2,41.5,26,103.0,15703.8053,7890711,"KOCH FERTILIZER FT. DODGE, LLC",3162 200TH ST,Duncombe,IA,50532,42.499657,-94.016942,Webster,325311,,
7890711,5,27,.33,120.0,.3166,7890711,"KOCH FERTILIZER FT. DODGE, LLC",3162 200TH ST,Duncombe,IA,50532,42.499657,-94.016942,Webster,325311,,
7890711,2,15.5,.5,855.0,60.1666,7890711,"KOCH FERTILIZER FT. DODGE, LLC",3162 200TH ST,Duncombe,IA,50532,42.499657,-94.016942,Webster,325311,,
7890711,2,74,2.75,1420.0,265.6239,7890711,"KOCH FERTILIZER FT. DODGE, LLC",3162 200TH ST,Duncombe,IA,50532,42.499657,-94.016942,Webster,325311,,
7890711,2,65.8,30,105.0,13659.4971,7890711,"KOCH FERTILIZER FT. DODGE, LLC",3162 200TH ST,Duncombe,IA,50532,42.499657,-94.016942,Webster,325311,,
7890711,3,67.6,.25,70.0,.2466,7890711,"KOCH FERTILIZER FT. DODGE, LLC",3162 200TH ST,Duncombe,IA,50532,42.499657,-94.016942,Webster,325311,,
7890711,2,127,12.17,315.0,3582.5472,7890711,"KOCH FERTILIZER FT. DODGE, LLC",3162 200TH ST,Duncombe,IA,50532,42.499657,-94.016942,Webster,325311,,
791211,78.6,4.4,299,621.7,40.1,791211,Dyno Nobel Incorporated,63149 COLUMBIA RIVER HWY,Deer Island,OR,97054-9401,45.9122,-122.8286,Columbia,325311,,
791211,40,5,72,785.0,40,791211,Dyno Nobel Incorporated,63149 COLUMBIA RIVER HWY,Deer Island,OR,97054-9401,45.9122,-122.8286,Columbia,325311,,
791211,60,8,300,1860.0,37,791211,Dyno Nobel Incorporated,63149 COLUMBIA RIVER HWY,Deer Island,OR,97054-9401,45.9122,-122.8286,Columbia,325311,,
791211,,,,,,791211,Dyno Nobel Incorporated,63149 COLUMBIA RIVER HWY,Deer Island,OR,97054-9401,45.9122,-122.8286,Columbia,325311,,
7914611,811,2.3,380,272.5,65.6,7914611,CF Industries Nitrogen LLC - Donaldsonville Nitrogen Complex,39018 Hwy 3089,Donaldsonville,LA,70346-8627,30.09863,-90.95653,Ascension,325311,,
7914611,78.6,4.4,299,621.7,40.1,7914611,CF Industries Nitrogen LLC - Donaldsonville Nitrogen Complex,39018 Hwy 3089,Donaldsonville,LA,70346-8627,30.09863,-90.95653,Ascension,325311,,
7914611,,,,,,7914611,CF Industries Nitrogen LLC - Donaldsonville Nitrogen Complex,39018 Hwy 3089,Donaldsonville,LA,70346-8627,30.09863,-90.95653,Ascension,325311,,
7914611,111,1.3,1832,,65.6,7914611,CF Industries Nitrogen LLC - Donaldsonville Nitrogen Complex,39018 Hwy 3089,Donaldsonville,LA,70346-8627,30.09863,-90.95653,Ascension,325311,,
7914611,213,11,100,2916.6666,30.7,7914611,CF Industries Nitrogen LLC - Donaldsonville Nitrogen Complex,39018 Hwy 3089,Donaldsonville,LA,70346-8627,30.09863,-90.95653,Ascension,325311,,
7914611,100,7.5,300,1700.0,38.5,7914611,CF Industries Nitrogen LLC - Donaldsonville Nitrogen Complex,39018 Hwy 3089,Donaldsonville,LA,70346-8627,30.09863,-90.95653,Ascension,325311,,
7914611,180,2.4,140,37.667,8.3228,7914611,CF Industries Nitrogen LLC - Donaldsonville Nitrogen Complex,39018 Hwy 3089,Donaldsonville,LA,70346-8627,30.09863,-90.95653,Ascension,325311,,
7914611,20,.52,1832,13.2,62.1301,7914611,CF Industries Nitrogen LLC - Donaldsonville Nitrogen Complex,39018 Hwy 3089,Donaldsonville,LA,70346-8627,30.09863,-90.95653,Ascension,325311,,
7914611,160,.87,1832,,65.6,7914611,CF Industries Nitrogen LLC - Donaldsonville Nitrogen Complex,39018 Hwy 3089,Donaldsonville,LA,70346-8627,30.09863,-90.95653,Ascension,325311,,
7914611,118,6,324,1900.0,67.1717,7914611,CF Industries Nitrogen LLC - Donaldsonville Nitrogen Complex,39018 Hwy 3089,Donaldsonville,LA,70346-8627,30.09863,-90.95653,Ascension,325311,,
7914611,213,14,110,4000.0,26,7914611,CF Industries Nitrogen LLC - Donaldsonville Nitrogen Complex,39018 Hwy 3089,Donaldsonville,LA,70346-8627,30.09863,-90.95653,Ascension,325311,,
7914611,18.2,1.5,893,278.5666,157.6,7914611,CF Industries Nitrogen LLC - Donaldsonville Nitrogen Complex,39018 Hwy 3089,Donaldsonville,LA,70346-8627,30.09863,-90.95653,Ascension,325311,,
7914611,138,.87,1832,38.997,65.6,7914611,CF Industries Nitrogen LLC - Donaldsonville Nitrogen Complex,39018 Hwy 3089,Donaldsonville,LA,70346-8627,30.09863,-90.95653,Ascension,325311,,
7914611,12,.66,820,78.3333,228.96,7914611,CF Industries Nitrogen LLC - Donaldsonville Nitrogen Complex,39018 Hwy 3089,Donaldsonville,LA,70346-8627,30.09863,-90.95653,Ascension,325311,,
7914611,12,.66,820,78.33,228.96,7914611,CF Industries Nitrogen LLC - Donaldsonville Nitrogen Complex,39018 Hwy 3089,Donaldsonville,LA,70346-8627,30.09863,-90.95653,Ascension,325311,,
7914611,14.4,.8,350,18.09,36,7914611,CF Industries Nitrogen LLC - Donaldsonville Nitrogen Complex,39018 Hwy 3089,Donaldsonville,LA,70346-8627,30.09863,-90.95653,Ascension,325311,,
7914611,122.8,13,385,6497.4,48.95,7914611,CF Industries Nitrogen LLC - Donaldsonville Nitrogen Complex,39018 Hwy 3089,Donaldsonville,LA,70346-8627,30.09863,-90.95653,Ascension,325311,,
7914611,14,.1,815,3.8055,484.3363,7914611,CF Industries Nitrogen LLC - Donaldsonville Nitrogen Complex,39018 Hwy 3089,Donaldsonville,LA,70346-8627,30.09863,-90.95653,Ascension,325311,,
7914611,10.5,.5,890,21.25,108.25,7914611,CF Industries Nitrogen LLC - Donaldsonville Nitrogen Complex,39018 Hwy 3089,Donaldsonville,LA,70346-8627,30.09863,-90.95653,Ascension,325311,,
7914611,121,13,310,4583.3,35,7914611,CF Industries Nitrogen LLC - Donaldsonville Nitrogen Complex,39018 Hwy 3089,Donaldsonville,LA,70346-8627,30.09863,-90.95653,Ascension,325311,,
7914611,10.6,.5,890,21.25,108.25,7914611,CF Industries Nitrogen LLC - Donaldsonville Nitrogen Complex,39018 Hwy 3089,Donaldsonville,LA,70346-8627,30.09863,-90.95653,Ascension,325311,,
7914611,100.9,21.2,1832,656.2,1.8582,7914611,CF Industries Nitrogen LLC - Donaldsonville Nitrogen Complex,39018 Hwy 3089,Donaldsonville,LA,70346-8627,30.09863,-90.95653,Ascension,325311,,
7914611,120,.36,1832,6.679,65.6,7914611,CF Industries Nitrogen LLC - Donaldsonville Nitrogen Complex,39018 Hwy 3089,Donaldsonville,LA,70346-8627,30.09863,-90.95653,Ascension,325311,,
7914611,97.2,.87,1832,6.619,11.1298,7914611,CF Industries Nitrogen LLC - Donaldsonville Nitrogen Complex,39018 Hwy 3089,Donaldsonville,LA,70346-8627,30.09863,-90.95653,Ascension,325311,,
7914611,100,6,220,1250.8,44.24,7914611,CF Industries Nitrogen LLC - Donaldsonville Nitrogen Complex,39018 Hwy 3089,Donaldsonville,LA,70346-8627,30.09863,-90.95653,Ascension,325311,,
7914611,7.8,.5,400,5.89,30,7914611,CF Industries Nitrogen LLC - Donaldsonville Nitrogen Complex,39018 Hwy 3089,Donaldsonville,LA,70346-8627,30.09863,-90.95653,Ascension,325311,,
7914611,76.9,4.3,1500,313.6,21.6,7914611,CF Industries Nitrogen LLC - Donaldsonville Nitrogen Complex,39018 Hwy 3089,Donaldsonville,LA,70346-8627,30.09863,-90.95653,Ascension,325311,,
7914611,12.7,.5,812,18.47,94.05,7914611,CF Industries Nitrogen LLC - Donaldsonville Nitrogen Complex,39018 Hwy 3089,Donaldsonville,LA,70346-8627,30.09863,-90.95653,Ascension,325311,,
7914611,15,.5,907,34.4,175.5,7914611,CF Industries Nitrogen LLC - Donaldsonville Nitrogen Complex,39018 Hwy 3089,Donaldsonville,LA,70346-8627,30.09863,-90.95653,Ascension,325311,,
7914611,108,1.2,1832,,65.6,7914611,CF Industries Nitrogen LLC - Donaldsonville Nitrogen Complex,39018 Hwy 3089,Donaldsonville,LA,70346-8627,30.09863,-90.95653,Ascension,325311,,
7914611,130,.48,1832,11.25,62.1448,7914611,CF Industries Nitrogen LLC - Donaldsonville Nitrogen Complex,39018 Hwy 3089,Donaldsonville,LA,70346-8627,30.09863,-90.95653,Ascension,325311,,
7914611,161,.95,1832,51.5221,72.6577,7914611,CF Industries Nitrogen LLC - Donaldsonville Nitrogen Complex,39018 Hwy 3089,Donaldsonville,LA,70346-8627,30.09863,-90.95653,Ascension,325311,,
7914611,164,15.4,270,6878.3166,36.84,7914611,CF Industries Nitrogen LLC - Donaldsonville Nitrogen Complex,39018 Hwy 3089,Donaldsonville,LA,70346-8627,30.09863,-90.95653,Ascension,325311,,
7914611,131,6.83,300,2015.0833,55,7914611,CF Industries Nitrogen LLC - Donaldsonville Nitrogen Complex,39018 Hwy 3089,Donaldsonville,LA,70346-8627,30.09863,-90.95653,Ascension,325311,,
7914611,17.4,1.5,886,138.3833,78.3,7914611,CF Industries Nitrogen LLC - Donaldsonville Nitrogen Complex,39018 Hwy 3089,Donaldsonville,LA,70346-8627,30.09863,-90.95653,Ascension,325311,,
7914611,105,10.5,250,4246.0,50,7914611,CF Industries Nitrogen LLC - Donaldsonville Nitrogen Complex,39018 Hwy 3089,Donaldsonville,LA,70346-8627,30.09863,-90.95653,Ascension,325311,,
7914611,100,4.3,1832,11.867,.8168,7914611,CF Industries Nitrogen LLC - Donaldsonville Nitrogen Complex,39018 Hwy 3089,Donaldsonville,LA,70346-8627,30.09863,-90.95653,Ascension,325311,,
7914611,395,26.06,1832,34972.1489,65.6,7914611,CF Industries Nitrogen LLC - Donaldsonville Nitrogen Complex,39018 Hwy 3089,Donaldsonville,LA,70346-8627,30.09863,-90.95653,Ascension,325311,,
7914611,120,.36,1832,6.4167,65.6,7914611,CF Industries Nitrogen LLC - Donaldsonville Nitrogen Complex,39018 Hwy 3089,Donaldsonville,LA,70346-8627,30.09863,-90.95653,Ascension,325311,,
7914611,8.1,.29,1382,49.92,755.72,7914611,CF Industries Nitrogen LLC - Donaldsonville Nitrogen Complex,39018 Hwy 3089,Donaldsonville,LA,70346-8627,30.09863,-90.95653,Ascension,325311,,
7914611,213,13.26,109,10670.0,77.2347,7914611,CF Industries Nitrogen LLC - Donaldsonville Nitrogen Complex,39018 Hwy 3089,Donaldsonville,LA,70346-8627,30.09863,-90.95653,Ascension,325311,,
7914611,100,3.4,250,873.33,96.1514,7914611,CF Industries Nitrogen LLC - Donaldsonville Nitrogen Complex,39018 Hwy 3089,Donaldsonville,LA,70346-8627,30.09863,-90.95653,Ascension,325311,,
7914611,161,.95,1832,,65.6,7914611,CF Industries Nitrogen LLC - Donaldsonville Nitrogen Complex,39018 Hwy 3089,Donaldsonville,LA,70346-8627,30.09863,-90.95653,Ascension,325311,,
7914611,76,4.25,1400,430.0,30,7914611,CF Industries Nitrogen LLC - Donaldsonville Nitrogen Complex,39018 Hwy 3089,Donaldsonville,LA,70346-8627,30.09863,-90.95653,Ascension,325311,,
7914611,395,.48,1832,11.8666,65.62,7914611,CF Industries Nitrogen LLC - Donaldsonville Nitrogen Complex,39018 Hwy 3089,Donaldsonville,LA,70346-8627,30.09863,-90.95653,Ascension,325311,,
7914611,213,11,97,6224.0,65.6,7914611,CF Industries Nitrogen LLC - Donaldsonville Nitrogen Complex,39018 Hwy 3089,Donaldsonville,LA,70346-8627,30.09863,-90.95653,Ascension,325311,,
7914611,395,30,1832,46346.4,65.6,7914611,CF Industries Nitrogen LLC - Donaldsonville Nitrogen Complex,39018 Hwy 3089,Donaldsonville,LA,70346-8627,30.09863,-90.95653,Ascension,325311,,
7914611,76,4.25,1400,363.3,26,7914611,CF Industries Nitrogen LLC - Donaldsonville Nitrogen Complex,39018 Hwy 3089,Donaldsonville,LA,70346-8627,30.09863,-90.95653,Ascension,325311,,
7914611,98,3.35,1292,161.2166,18.29,7914611,CF Industries Nitrogen LLC - Donaldsonville Nitrogen Complex,39018 Hwy 3089,Donaldsonville,LA,70346-8627,30.09863,-90.95653,Ascension,325311,,
7914611,14.8,.67,769,65.0666,186.4,7914611,CF Industries Nitrogen LLC - Donaldsonville Nitrogen Complex,39018 Hwy 3089,Donaldsonville,LA,70346-8627,30.09863,-90.95653,Ascension,325311,,
7914611,221.2,4,99,1193.9166,95,7914611,CF Industries Nitrogen LLC - Donaldsonville Nitrogen Complex,39018 Hwy 3089,Donaldsonville,LA,70346-8627,30.09863,-90.95653,Ascension,325311,,
7914611,148.5,18.4,1832,664.4,2.4976,7914611,CF Industries Nitrogen LLC - Donaldsonville Nitrogen Complex,39018 Hwy 3089,Donaldsonville,LA,70346-8627,30.09863,-90.95653,Ascension,325311,,
7914611,10.9,.66,815,44.75,130.8,7914611,CF Industries Nitrogen LLC - Donaldsonville Nitrogen Complex,39018 Hwy 3089,Donaldsonville,LA,70346-8627,30.09863,-90.95653,Ascension,325311,,
7914611,6.4,.29,1250,10.3333,156.44,7914611,CF Industries Nitrogen LLC - Donaldsonville Nitrogen Complex,39018 Hwy 3089,Donaldsonville,LA,70346-8627,30.09863,-90.95653,Ascension,325311,,
7914611,14.4,1,842,65.0666,82.8,7914611,CF Industries Nitrogen LLC - Donaldsonville Nitrogen Complex,39018 Hwy 3089,Donaldsonville,LA,70346-8627,30.09863,-90.95653,Ascension,325311,,
7914611,35.4,.83,90,,.002,7914611,CF Industries Nitrogen LLC - Donaldsonville Nitrogen Complex,39018 Hwy 3089,Donaldsonville,LA,70346-8627,30.09863,-90.95653,Ascension,325311,,
7914611,45.8,2,77,0.01,.0031,7914611,CF Industries Nitrogen LLC - Donaldsonville Nitrogen Complex,39018 Hwy 3089,Donaldsonville,LA,70346-8627,30.09863,-90.95653,Ascension,325311,,
7914611,20,.5,77,,.003,7914611,CF Industries Nitrogen LLC - Donaldsonville Nitrogen Complex,39018 Hwy 3089,Donaldsonville,LA,70346-8627,30.09863,-90.95653,Ascension,325311,,
7914611,16,.33,70,0.0003,.004,7914611,CF Industries Nitrogen LLC - Donaldsonville Nitrogen Complex,39018 Hwy 3089,Donaldsonville,LA,70346-8627,30.09863,-90.95653,Ascension,325311,,
7914611,35.4,.83,90,0.0016,.003,7914611,CF Industries Nitrogen LLC - Donaldsonville Nitrogen Complex,39018 Hwy 3089,Donaldsonville,LA,70346-8627,30.09863,-90.95653,Ascension,325311,,
7914611,85,.33,80,2.4515,28.07,7914611,CF Industries Nitrogen LLC - Donaldsonville Nitrogen Complex,39018 Hwy 3089,Donaldsonville,LA,70346-8627,30.09863,-90.95653,Ascension,325311,,
7914611,7,.29,1250,11.05,167.2251,7914611,CF Industries Nitrogen LLC - Donaldsonville Nitrogen Complex,39018 Hwy 3089,Donaldsonville,LA,70346-8627,30.09863,-90.95653,Ascension,325311,,
7914611,7.3,.33,77,0.0003,.0038,7914611,CF Industries Nitrogen LLC - Donaldsonville Nitrogen Complex,39018 Hwy 3089,Donaldsonville,LA,70346-8627,30.09863,-90.95653,Ascension,325311,,
7914611,108.3,2.17,120,476.7,128.9,7914611,CF Industries Nitrogen LLC - Donaldsonville Nitrogen Complex,39018 Hwy 3089,Donaldsonville,LA,70346-8627,30.09863,-90.95653,Ascension,325311,,
7914611,60,1.1,77,0.1,.1051,7914611,CF Industries Nitrogen LLC - Donaldsonville Nitrogen Complex,39018 Hwy 3089,Donaldsonville,LA,70346-8627,30.09863,-90.95653,Ascension,325311,,
7914611,202,4.46,230,800.0,51,7914611,CF Industries Nitrogen LLC - Donaldsonville Nitrogen Complex,39018 Hwy 3089,Donaldsonville,LA,70346-8627,30.09863,-90.95653,Ascension,325311,,
7914611,92,2,125,476.7,152,7914611,CF Industries Nitrogen LLC - Donaldsonville Nitrogen Complex,39018 Hwy 3089,Donaldsonville,LA,70346-8627,30.09863,-90.95653,Ascension,325311,,
7914611,29,2,80,0.01,.0031,7914611,CF Industries Nitrogen LLC - Donaldsonville Nitrogen Complex,39018 Hwy 3089,Donaldsonville,LA,70346-8627,30.09863,-90.95653,Ascension,325311,,
7914611,40,.25,77,0.0001,.0034,7914611,CF Industries Nitrogen LLC - Donaldsonville Nitrogen Complex,39018 Hwy 3089,Donaldsonville,LA,70346-8627,30.09863,-90.95653,Ascension,325311,,
7914611,215,3,97,2.1,.3,7914611,CF Industries Nitrogen LLC - Donaldsonville Nitrogen Complex,39018 Hwy 3089,Donaldsonville,LA,70346-8627,30.09863,-90.95653,Ascension,325311,,
7914611,14.3,.33,77,0.0002,.003,7914611,CF Industries Nitrogen LLC - Donaldsonville Nitrogen Complex,39018 Hwy 3089,Donaldsonville,LA,70346-8627,30.09863,-90.95653,Ascension,325311,,
7914611,22,.33,80,2.4515,28.07,7914611,CF Industries Nitrogen LLC - Donaldsonville Nitrogen Complex,39018 Hwy 3089,Donaldsonville,LA,70346-8627,30.09863,-90.95653,Ascension,325311,,
7914611,20,.5,77,0.0006,.0033,7914611,CF Industries Nitrogen LLC - Donaldsonville Nitrogen Complex,39018 Hwy 3089,Donaldsonville,LA,70346-8627,30.09863,-90.95653,Ascension,325311,,
7914611,14.5,.33,77,0.0002,.003,7914611,CF Industries Nitrogen LLC - Donaldsonville Nitrogen Complex,39018 Hwy 3089,Donaldsonville,LA,70346-8627,30.09863,-90.95653,Ascension,325311,,
7914611,12.6,.33,77,0.0003,.0038,7914611,CF Industries Nitrogen LLC - Donaldsonville Nitrogen Complex,39018 Hwy 3089,Donaldsonville,LA,70346-8627,30.09863,-90.95653,Ascension,325311,,
7914611,130,.2,77,0.0001,.005,7914611,CF Industries Nitrogen LLC - Donaldsonville Nitrogen Complex,39018 Hwy 3089,Donaldsonville,LA,70346-8627,30.09863,-90.95653,Ascension,325311,,
7914611,6.4,.29,1250,11.05,167.2251,7914611,CF Industries Nitrogen LLC - Donaldsonville Nitrogen Complex,39018 Hwy 3089,Donaldsonville,LA,70346-8627,30.09863,-90.95653,Ascension,325311,,
7914611,31,.2,77,0.0031,.1,7914611,CF Industries Nitrogen LLC - Donaldsonville Nitrogen Complex,39018 Hwy 3089,Donaldsonville,LA,70346-8627,30.09863,-90.95653,Ascension,325311,,
7914611,1.4,.3,70,0.007,.1,7914611,CF Industries Nitrogen LLC - Donaldsonville Nitrogen Complex,39018 Hwy 3089,Donaldsonville,LA,70346-8627,30.09863,-90.95653,Ascension,325311,,
7914611,199.5,4,225,838.0,67,7914611,CF Industries Nitrogen LLC - Donaldsonville Nitrogen Complex,39018 Hwy 3089,Donaldsonville,LA,70346-8627,30.09863,-90.95653,Ascension,325311,,
7914611,220,1.27,210,291.7,230,7914611,CF Industries Nitrogen LLC - Donaldsonville Nitrogen Complex,39018 Hwy 3089,Donaldsonville,LA,70346-8627,30.09863,-90.95653,Ascension,325311,,
7914611,15,.5,77,0.0006,.0033,7914611,CF Industries Nitrogen LLC - Donaldsonville Nitrogen Complex,39018 Hwy 3089,Donaldsonville,LA,70346-8627,30.09863,-90.95653,Ascension,325311,,
7914611,19,.5,77,0.0006,.0033,7914611,CF Industries Nitrogen LLC - Donaldsonville Nitrogen Complex,39018 Hwy 3089,Donaldsonville,LA,70346-8627,30.09863,-90.95653,Ascension,325311,,
7914611,13,.3,84,0.007,.1,7914611,CF Industries Nitrogen LLC - Donaldsonville Nitrogen Complex,39018 Hwy 3089,Donaldsonville,LA,70346-8627,30.09863,-90.95653,Ascension,325311,,
7914611,14.2,.17,77,0.0001,.0074,7914611,CF Industries Nitrogen LLC - Donaldsonville Nitrogen Complex,39018 Hwy 3089,Donaldsonville,LA,70346-8627,30.09863,-90.95653,Ascension,325311,,
7914611,34,.33,70,0.0003,.0038,7914611,CF Industries Nitrogen LLC - Donaldsonville Nitrogen Complex,39018 Hwy 3089,Donaldsonville,LA,70346-8627,30.09863,-90.95653,Ascension,325311,,
7914611,16,.3,70,0.0003,.0047,7914611,CF Industries Nitrogen LLC - Donaldsonville Nitrogen Complex,39018 Hwy 3089,Donaldsonville,LA,70346-8627,30.09863,-90.95653,Ascension,325311,,
7914611,11.5,.33,120,0.0003,.0038,7914611,CF Industries Nitrogen LLC - Donaldsonville Nitrogen Complex,39018 Hwy 3089,Donaldsonville,LA,70346-8627,30.09863,-90.95653,Ascension,325311,,
7914611,213,.25,97,4.0,81.4545,7914611,CF Industries Nitrogen LLC - Donaldsonville Nitrogen Complex,39018 Hwy 3089,Donaldsonville,LA,70346-8627,30.09863,-90.95653,Ascension,325311,,
7914611,23.7,1,77,0.0023,.003,7914611,CF Industries Nitrogen LLC - Donaldsonville Nitrogen Complex,39018 Hwy 3089,Donaldsonville,LA,70346-8627,30.09863,-90.95653,Ascension,325311,,
7914611,220,.25,167,3.7,75,7914611,CF Industries Nitrogen LLC - Donaldsonville Nitrogen Complex,39018 Hwy 3089,Donaldsonville,LA,70346-8627,30.09863,-90.95653,Ascension,325311,,
7914611,16,.333,77,0.0087,.1,7914611,CF Industries Nitrogen LLC - Donaldsonville Nitrogen Complex,39018 Hwy 3089,Donaldsonville,LA,70346-8627,30.09863,-90.95653,Ascension,325311,,
7914611,215,3,97,2.0,.2828,7914611,CF Industries Nitrogen LLC - Donaldsonville Nitrogen Complex,39018 Hwy 3089,Donaldsonville,LA,70346-8627,30.09863,-90.95653,Ascension,325311,,
7914611,15.6,.3,77,0.0002,.003,7914611,CF Industries Nitrogen LLC - Donaldsonville Nitrogen Complex,39018 Hwy 3089,Donaldsonville,LA,70346-8627,30.09863,-90.95653,Ascension,325311,,
7914611,213,1.17,110,0.3225,.3,7914611,CF Industries Nitrogen LLC - Donaldsonville Nitrogen Complex,39018 Hwy 3089,Donaldsonville,LA,70346-8627,30.09863,-90.95653,Ascension,325311,,
7914611,184,5,302,1680.45,85.61,7914611,CF Industries Nitrogen LLC - Donaldsonville Nitrogen Complex,39018 Hwy 3089,Donaldsonville,LA,70346-8627,30.09863,-90.95653,Ascension,325311,,
7914611,92,2,125,408.3,130,7914611,CF Industries Nitrogen LLC - Donaldsonville Nitrogen Complex,39018 Hwy 3089,Donaldsonville,LA,70346-8627,30.09863,-90.95653,Ascension,325311,,
7914611,47.7,.5,77,0.0006,.0033,7914611,CF Industries Nitrogen LLC - Donaldsonville Nitrogen Complex,39018 Hwy 3089,Donaldsonville,LA,70346-8627,30.09863,-90.95653,Ascension,325311,,
7914611,92,2,212,183.3,58,7914611,CF Industries Nitrogen LLC - Donaldsonville Nitrogen Complex,39018 Hwy 3089,Donaldsonville,LA,70346-8627,30.09863,-90.95653,Ascension,325311,,
7914611,29.2,.33,80,0.0003,.0038,7914611,CF Industries Nitrogen LLC - Donaldsonville Nitrogen Complex,39018 Hwy 3089,Donaldsonville,LA,70346-8627,30.09863,-90.95653,Ascension,325311,,
7914611,39,.3,77,0.007,.1,7914611,CF Industries Nitrogen LLC - Donaldsonville Nitrogen Complex,39018 Hwy 3089,Donaldsonville,LA,70346-8627,30.09863,-90.95653,Ascension,325311,,
7914611,23,.333,77,0.0002,.003,7914611,CF Industries Nitrogen LLC - Donaldsonville Nitrogen Complex,39018 Hwy 3089,Donaldsonville,LA,70346-8627,30.09863,-90.95653,Ascension,325311,,
7914611,9.9,.33,80,0.0171,.2,7914611,CF Industries Nitrogen LLC - Donaldsonville Nitrogen Complex,39018 Hwy 3089,Donaldsonville,LA,70346-8627,30.09863,-90.95653,Ascension,325311,,
7914611,113,1,212,4.0,5.1,7914611,CF Industries Nitrogen LLC - Donaldsonville Nitrogen Complex,39018 Hwy 3089,Donaldsonville,LA,70346-8627,30.09863,-90.95653,Ascension,325311,,
7914611,60,2,77,0.314,.1,7914611,CF Industries Nitrogen LLC - Donaldsonville Nitrogen Complex,39018 Hwy 3089,Donaldsonville,LA,70346-8627,30.09863,-90.95653,Ascension,325311,,
7914611,192,6.67,271,2846.5833,81.5,7914611,CF Industries Nitrogen LLC - Donaldsonville Nitrogen Complex,39018 Hwy 3089,Donaldsonville,LA,70346-8627,30.09863,-90.95653,Ascension,325311,,
7914611,31.5,.3,77,0.0002,.003,7914611,CF Industries Nitrogen LLC - Donaldsonville Nitrogen Complex,39018 Hwy 3089,Donaldsonville,LA,70346-8627,30.09863,-90.95653,Ascension,325311,,
7914611,21.7,.67,77,0.0011,.0033,7914611,CF Industries Nitrogen LLC - Donaldsonville Nitrogen Complex,39018 Hwy 3089,Donaldsonville,LA,70346-8627,30.09863,-90.95653,Ascension,325311,,
7914611,29,2,80,0.314,.1,7914611,CF Industries Nitrogen LLC - Donaldsonville Nitrogen Complex,39018 Hwy 3089,Donaldsonville,LA,70346-8627,30.09863,-90.95653,Ascension,325311,,
7914611,24,1,77,3.3,4.2,7914611,CF Industries Nitrogen LLC - Donaldsonville Nitrogen Complex,39018 Hwy 3089,Donaldsonville,LA,70346-8627,30.09863,-90.95653,Ascension,325311,,
7914611,220,1,210,14.1,18,7914611,CF Industries Nitrogen LLC - Donaldsonville Nitrogen Complex,39018 Hwy 3089,Donaldsonville,LA,70346-8627,30.09863,-90.95653,Ascension,325311,,
7914611,180,1,150,360.4,459,7914611,CF Industries Nitrogen LLC - Donaldsonville Nitrogen Complex,39018 Hwy 3089,Donaldsonville,LA,70346-8627,30.09863,-90.95653,Ascension,325311,,
8055411,250,3.5,744,3000.1167,311.825,8055411,WOODWARD COMPLEX,1000 TERRA DR,WOODWARD,OK,73801,36.43771,-99.47111,Woodward,325311,,
8055411,50,5,300,791.6666,40.303,8055411,WOODWARD COMPLEX,1000 TERRA DR,WOODWARD,OK,73801,36.43771,-99.47111,Woodward,325311,,
8055411,36,30,99,16491.9169,22.6,8055411,WOODWARD COMPLEX,1000 TERRA DR,WOODWARD,OK,73801,36.43771,-99.47111,Woodward,325311,,
8055411,40,2,200,194.5666,61.932,8055411,WOODWARD COMPLEX,1000 TERRA DR,WOODWARD,OK,73801,36.43771,-99.47111,Woodward,325311,,
8055411,125,3.5,287,1012.3,105.216,8055411,WOODWARD COMPLEX,1000 TERRA DR,WOODWARD,OK,73801,36.43771,-99.47111,Woodward,325311,,
8055411,35,1.25,120,3.3333,2.716,8055411,WOODWARD COMPLEX,1000 TERRA DR,WOODWARD,OK,73801,36.43771,-99.47111,Woodward,325311,,
8055411,8,.42,627,16.3333,117,8055411,WOODWARD COMPLEX,1000 TERRA DR,WOODWARD,OK,73801,36.43771,-99.47111,Woodward,325311,,
8055411,,,,,,8055411,WOODWARD COMPLEX,1000 TERRA DR,WOODWARD,OK,73801,36.43771,-99.47111,Woodward,325311,,
8055411,25,3.5,350,135.0,14.03,8055411,WOODWARD COMPLEX,1000 TERRA DR,WOODWARD,OK,73801,36.43771,-99.47111,Woodward,325311,,
8055411,182,10.5,400,1441.3833,16.646,8055411,WOODWARD COMPLEX,1000 TERRA DR,WOODWARD,OK,73801,36.43771,-99.47111,Woodward,325311,,
8055411,55,28,80,29466.6672,47.85,8055411,WOODWARD COMPLEX,1000 TERRA DR,WOODWARD,OK,73801,36.43771,-99.47111,Woodward,325311,,
8055411,92,5.5,260,1076.95,45.33,8055411,WOODWARD COMPLEX,1000 TERRA DR,WOODWARD,OK,73801,36.43771,-99.47111,Woodward,325311,,
8055411,67,5.5,400,225.8,9.5,8055411,WOODWARD COMPLEX,1000 TERRA DR,WOODWARD,OK,73801,36.43771,-99.47111,Woodward,325311,,
8055411,50,3,300,569.7166,80.6,8055411,WOODWARD COMPLEX,1000 TERRA DR,WOODWARD,OK,73801,36.43771,-99.47111,Woodward,325311,,
8055411,45,2,1000,7.2,2.291,8055411,WOODWARD COMPLEX,1000 TERRA DR,WOODWARD,OK,73801,36.43771,-99.47111,Woodward,325311,,
8055411,250,3.5,1000,61.015,6.341,8055411,WOODWARD COMPLEX,1000 TERRA DR,WOODWARD,OK,73801,36.43771,-99.47111,Woodward,325311,,
8055411,180,.8,30,32.1833,64.026,8055411,WOODWARD COMPLEX,1000 TERRA DR,WOODWARD,OK,73801,36.43771,-99.47111,Woodward,325311,,
8055411,92,5,260,326.8833,16.65,8055411,WOODWARD COMPLEX,1000 TERRA DR,WOODWARD,OK,73801,36.43771,-99.47111,Woodward,325311,,
8055411,35,1.25,120,3.3333,2.72,8055411,WOODWARD COMPLEX,1000 TERRA DR,WOODWARD,OK,73801,36.43771,-99.47111,Woodward,325311,,
8055411,101,2,1000,207.2333,65,8055411,WOODWARD COMPLEX,1000 TERRA DR,WOODWARD,OK,73801,36.43771,-99.47111,Woodward,325311,,
8055411,10,.5,835,44.15,224.7636,8055411,WOODWARD COMPLEX,1000 TERRA DR,WOODWARD,OK,73801,36.43771,-99.47111,Woodward,325311,,
8055411,10,.42,980,25.1666,181,8055411,WOODWARD COMPLEX,1000 TERRA DR,WOODWARD,OK,73801,36.43771,-99.47111,Woodward,325311,,
8055411,28,1.2,627,83.0,73.43,8055411,WOODWARD COMPLEX,1000 TERRA DR,WOODWARD,OK,73801,36.43771,-99.47111,Woodward,325311,,
8055411,53,22,75,15861.6669,41.72,8055411,WOODWARD COMPLEX,1000 TERRA DR,WOODWARD,OK,73801,36.43771,-99.47111,Woodward,325311,,
8081811,305,5,397,6500.0001,331,8081811,CRNF - Coffeyville,701 E Martin St,Coffeyville,KS,67337,37.046034,-95.60679,Montgomery,325311,,
8081811,145,3,1250,537.2,76,8081811,CRNF - Coffeyville,701 E Martin St,Coffeyville,KS,67337,37.046034,-95.60679,Montgomery,325311,,
8081811,,,,,,8081811,CRNF - Coffeyville,701 E Martin St,Coffeyville,KS,67337,37.046034,-95.60679,Montgomery,325311,,
8081811,70,5.5,1420,490.0,21,8081811,CRNF - Coffeyville,701 E Martin St,Coffeyville,KS,67337,37.046034,-95.60679,Montgomery,325311,,
8081811,30,.25,77,3.6666,75,8081811,CRNF - Coffeyville,701 E Martin St,Coffeyville,KS,67337,37.046034,-95.60679,Montgomery,325311,,
8081811,43,1.13,0,33.4358,33.34,8081811,CRNF - Coffeyville,701 E Martin St,Coffeyville,KS,67337,37.046034,-95.60679,Montgomery,325311,,
8081811,80,2.5,210,63.6666,13,8081811,CRNF - Coffeyville,701 E Martin St,Coffeyville,KS,67337,37.046034,-95.60679,Montgomery,325311,,
8081811,66,1.16,240,96.6666,90,8081811,CRNF - Coffeyville,701 E Martin St,Coffeyville,KS,67337,37.046034,-95.60679,Montgomery,325311,,
8081811,63,1.33,190,400.0,288,8081811,CRNF - Coffeyville,701 E Martin St,Coffeyville,KS,67337,37.046034,-95.60679,Montgomery,325311,,
8081811,50,3.67,582,301.3,29,8081811,CRNF - Coffeyville,701 E Martin St,Coffeyville,KS,67337,37.046034,-95.60679,Montgomery,325311,,
8081811,120,3.5,291,913.3333,95,8081811,CRNF - Coffeyville,701 E Martin St,Coffeyville,KS,67337,37.046034,-95.60679,Montgomery,325311,,
8081811,61,3.33,479,982.3166,113,8081811,CRNF - Coffeyville,701 E Martin St,Coffeyville,KS,67337,37.046034,-95.60679,Montgomery,325311,,
8081811,125,1.12,77,43.3333,44,8081811,CRNF - Coffeyville,701 E Martin St,Coffeyville,KS,67337,37.046034,-95.60679,Montgomery,325311,,
8081811,50,1,77,26.6666,34,8081811,CRNF - Coffeyville,701 E Martin St,Coffeyville,KS,67337,37.046034,-95.60679,Montgomery,325311,,
8081811,100,2,77,143.3333,46,8081811,CRNF - Coffeyville,701 E Martin St,Coffeyville,KS,67337,37.046034,-95.60679,Montgomery,325311,,
8081811,22,1.5,77,41.6666,24,8081811,CRNF - Coffeyville,701 E Martin St,Coffeyville,KS,67337,37.046034,-95.60679,Montgomery,325311,,
8081811,75,2.5,210,63.6666,13,8081811,CRNF - Coffeyville,701 E Martin St,Coffeyville,KS,67337,37.046034,-95.60679,Montgomery,325311,,
8081811,128,.66,210,16.6666,48,8081811,CRNF - Coffeyville,701 E Martin St,Coffeyville,KS,67337,37.046034,-95.60679,Montgomery,325311,,
8081811,8,.66,210,18.85,54,8081811,CRNF - Coffeyville,701 E Martin St,Coffeyville,KS,67337,37.046034,-95.60679,Montgomery,325311,,
8081811,13,.83,210,5.65,10,8081811,CRNF - Coffeyville,701 E Martin St,Coffeyville,KS,67337,37.046034,-95.60679,Montgomery,325311,,
8081811,75,.5,210,7.55,39,8081811,CRNF - Coffeyville,701 E Martin St,Coffeyville,KS,67337,37.046034,-95.60679,Montgomery,325311,,
8081811,39,3,210,68.6666,10,8081811,CRNF - Coffeyville,701 E Martin St,Coffeyville,KS,67337,37.046034,-95.60679,Montgomery,325311,,
8081811,150,2,250,204.1666,65,8081811,CRNF - Coffeyville,701 E Martin St,Coffeyville,KS,67337,37.046034,-95.60679,Montgomery,325311,,
8081811,62,3.75,1200,110.0,10,8081811,CRNF - Coffeyville,701 E Martin St,Coffeyville,KS,67337,37.046034,-95.60679,Montgomery,325311,,
8081811,59,1,1074,471.24,600,8081811,CRNF - Coffeyville,701 E Martin St,Coffeyville,KS,67337,37.046034,-95.60679,Montgomery,325311,,
8081811,250,1.66,250,788.3333,361,8081811,CRNF - Coffeyville,701 E Martin St,Coffeyville,KS,67337,37.046034,-95.60679,Montgomery,325311,,
8081811,150,4,69,1041.6666,83,8081811,CRNF - Coffeyville,701 E Martin St,Coffeyville,KS,67337,37.046034,-95.60679,Montgomery,325311,,
8081811,31.9,1,60,0.7854,1,8081811,CRNF - Coffeyville,701 E Martin St,Coffeyville,KS,67337,37.046034,-95.60679,Montgomery,325311,,
8081811,78.6,4.4,299,621.7,40.1,8081811,CRNF - Coffeyville,701 E Martin St,Coffeyville,KS,67337,37.046034,-95.60679,Montgomery,325311,,
8081911,139,11,300,2495.2667,26,8081911,Koch Fertilizer Dodge City,11559 E US Hwy 50,Dodge City,KS,67801,37.777013,-99.929746,Ford,325311,,
8081911,,,,,,8081911,Koch Fertilizer Dodge City,11559 E US Hwy 50,Dodge City,KS,67801,37.777013,-99.929746,Ford,325311,,
8081911,33,1,198,63.6333,81,8081911,Koch Fertilizer Dodge City,11559 E US Hwy 50,Dodge City,KS,67801,37.777013,-99.929746,Ford,325311,,
8081911,83,1.25,140,264.1333,216,8081911,Koch Fertilizer Dodge City,11559 E US Hwy 50,Dodge City,KS,67801,37.777013,-99.929746,Ford,325311,,
8081911,3,.42,1550,25.1166,181.2898,8081911,Koch Fertilizer Dodge City,11559 E US Hwy 50,Dodge City,KS,67801,37.777013,-99.929746,Ford,325311,,
8081911,50,2.42,420,725.1,158,8081911,Koch Fertilizer Dodge City,11559 E US Hwy 50,Dodge City,KS,67801,37.777013,-99.929746,Ford,325311,,
8081911,50,2.5,500,205.9166,42,8081911,Koch Fertilizer Dodge City,11559 E US Hwy 50,Dodge City,KS,67801,37.777013,-99.929746,Ford,325311,,
8086711,411,16,250,,1,8086711,Dakota Gasification Company - Great Plains Synfuels Plant,420 County Road 26,Beulah,ND,58523,47.360814,-101.838222,Mercer,221210,,
8086711,125.5,4,77,,1,8086711,Dakota Gasification Company - Great Plains Synfuels Plant,420 County Road 26,Beulah,ND,58523,47.360814,-101.838222,Mercer,221210,,
8086711,191.8,2.2,77,,1,8086711,Dakota Gasification Company - Great Plains Synfuels Plant,420 County Road 26,Beulah,ND,58523,47.360814,-101.838222,Mercer,221210,,
8086711,111.5,3.3,77,,1,8086711,Dakota Gasification Company - Great Plains Synfuels Plant,420 County Road 26,Beulah,ND,58523,47.360814,-101.838222,Mercer,221210,,
8086711,141,1,181,,1,8086711,Dakota Gasification Company - Great Plains Synfuels Plant,420 County Road 26,Beulah,ND,58523,47.360814,-101.838222,Mercer,221210,,
8086711,,,,,,8086711,Dakota Gasification Company - Great Plains Synfuels Plant,420 County Road 26,Beulah,ND,58523,47.360814,-101.838222,Mercer,221210,,
8086711,52.8,2,77,,1,8086711,Dakota Gasification Company - Great Plains Synfuels Plant,420 County Road 26,Beulah,ND,58523,47.360814,-101.838222,Mercer,221210,,
8086711,167.4,4.8,110,,1,8086711,Dakota Gasification Company - Great Plains Synfuels Plant,420 County Road 26,Beulah,ND,58523,47.360814,-101.838222,Mercer,221210,,
8086711,80,5.8,550,,1,8086711,Dakota Gasification Company - Great Plains Synfuels Plant,420 County Road 26,Beulah,ND,58523,47.360814,-101.838222,Mercer,221210,,
8086711,97.5,4.3,143,,1,8086711,Dakota Gasification Company - Great Plains Synfuels Plant,420 County Road 26,Beulah,ND,58523,47.360814,-101.838222,Mercer,221210,,
8086711,400,23,199,,1,8086711,Dakota Gasification Company - Great Plains Synfuels Plant,420 County Road 26,Beulah,ND,58523,47.360814,-101.838222,Mercer,221210,,
8086711,225,5,1341,,1,8086711,Dakota Gasification Company - Great Plains Synfuels Plant,420 County Road 26,Beulah,ND,58523,47.360814,-101.838222,Mercer,221210,,
8086711,250,5,1700,,1,8086711,Dakota Gasification Company - Great Plains Synfuels Plant,420 County Road 26,Beulah,ND,58523,47.360814,-101.838222,Mercer,221210,,
8086711,136.2,5.8,387,,1,8086711,Dakota Gasification Company - Great Plains Synfuels Plant,420 County Road 26,Beulah,ND,58523,47.360814,-101.838222,Mercer,221210,,
8086711,166.6,3.3,77,,1,8086711,Dakota Gasification Company - Great Plains Synfuels Plant,420 County Road 26,Beulah,ND,58523,47.360814,-101.838222,Mercer,221210,,
8086711,100,4,1500,,1,8086711,Dakota Gasification Company - Great Plains Synfuels Plant,420 County Road 26,Beulah,ND,58523,47.360814,-101.838222,Mercer,221210,,
8086711,80,3,150,,1,8086711,Dakota Gasification Company - Great Plains Synfuels Plant,420 County Road 26,Beulah,ND,58523,47.360814,-101.838222,Mercer,221210,,
8086711,411,1.123,350,,1,8086711,Dakota Gasification Company - Great Plains Synfuels Plant,420 County Road 26,Beulah,ND,58523,47.360814,-101.838222,Mercer,221210,,
8086711,130,.7,1500,,1,8086711,Dakota Gasification Company - Great Plains Synfuels Plant,420 County Road 26,Beulah,ND,58523,47.360814,-101.838222,Mercer,221210,,
8121411,2,175,1.5,680.0,1767.1459,8121411,"CF INDUSTRIES NITROGEN, LLC - PORT NEAL COMPLEX",1182 260TH ST,SERGEANT BLUFF,IA,51054,42.32858,-96.37772,Woodbury,325311,,
8121411,2,72,8,500.0,1032.4528,8121411,"CF INDUSTRIES NITROGEN, LLC - PORT NEAL COMPLEX",1182 260TH ST,SERGEANT BLUFF,IA,51054,42.32858,-96.37772,Woodbury,325311,,
8121411,2,50,3.83,300.0,436.6654,8121411,"CF INDUSTRIES NITROGEN, LLC - PORT NEAL COMPLEX",1182 260TH ST,SERGEANT BLUFF,IA,51054,42.32858,-96.37772,Woodbury,325311,,
8121411,2,65,.67,1700.0,352.5652,8121411,"CF INDUSTRIES NITROGEN, LLC - PORT NEAL COMPLEX",1182 260TH ST,SERGEANT BLUFF,IA,51054,42.32858,-96.37772,Woodbury,325311,,
8121411,2,300,13.08,110.0,11742.3587,8121411,"CF INDUSTRIES NITROGEN, LLC - PORT NEAL COMPLEX",1182 260TH ST,SERGEANT BLUFF,IA,51054,42.32858,-96.37772,Woodbury,325311,,
8121411,2,210,1.17,110.0,21.5094,8121411,"CF INDUSTRIES NITROGEN, LLC - PORT NEAL COMPLEX",1182 260TH ST,SERGEANT BLUFF,IA,51054,42.32858,-96.37772,Woodbury,325311,,
8121411,1,,,,,8121411,"CF INDUSTRIES NITROGEN, LLC - PORT NEAL COMPLEX",1182 260TH ST,SERGEANT BLUFF,IA,51054,42.32858,-96.37772,Woodbury,325311,,
8121411,2,82.8,4,170.0,693.3962,8121411,"CF INDUSTRIES NITROGEN, LLC - PORT NEAL COMPLEX",1182 260TH ST,SERGEANT BLUFF,IA,51054,42.32858,-96.37772,Woodbury,325311,,
8121411,2,322,7.67,1740.0,463.522,8121411,"CF INDUSTRIES NITROGEN, LLC - PORT NEAL COMPLEX",1182 260TH ST,SERGEANT BLUFF,IA,51054,42.32858,-96.37772,Woodbury,325311,,
8121411,2,72.5,8.08,1500.0,242.966,8121411,"CF INDUSTRIES NITROGEN, LLC - PORT NEAL COMPLEX",1182 260TH ST,SERGEANT BLUFF,IA,51054,42.32858,-96.37772,Woodbury,325311,,
8121411,2,8.5,.42,950.0,20.8333,8121411,"CF INDUSTRIES NITROGEN, LLC - PORT NEAL COMPLEX",1182 260TH ST,SERGEANT BLUFF,IA,51054,42.32858,-96.37772,Woodbury,325311,,
8121411,2,98.4,4.92,1530.0,669.5912,8121411,"CF INDUSTRIES NITROGEN, LLC - PORT NEAL COMPLEX",1182 260TH ST,SERGEANT BLUFF,IA,51054,42.32858,-96.37772,Woodbury,325311,,
8121411,2,48.2,37,100.0,22882.5161,8121411,"CF INDUSTRIES NITROGEN, LLC - PORT NEAL COMPLEX",1182 260TH ST,SERGEANT BLUFF,IA,51054,42.32858,-96.37772,Woodbury,325311,,
8121411,3,12.5,.5,1052.0,21.6,8121411,"CF INDUSTRIES NITROGEN, LLC - PORT NEAL COMPLEX",1182 260TH ST,SERGEANT BLUFF,IA,51054,42.32858,-96.37772,Woodbury,325311,,
8121411,2,85,1,200.0,785.3981,8121411,"CF INDUSTRIES NITROGEN, LLC - PORT NEAL COMPLEX",1182 260TH ST,SERGEANT BLUFF,IA,51054,42.32858,-96.37772,Woodbury,325311,,
8121411,5,5.5,.25,70.0,.0166,8121411,"CF INDUSTRIES NITROGEN, LLC - PORT NEAL COMPLEX",1182 260TH ST,SERGEANT BLUFF,IA,51054,42.32858,-96.37772,Woodbury,325311,,
8121411,2,210,.33,105.0,.0166,8121411,"CF INDUSTRIES NITROGEN, LLC - PORT NEAL COMPLEX",1182 260TH ST,SERGEANT BLUFF,IA,51054,42.32858,-96.37772,Woodbury,325311,,
8121411,2,164,3.33,115.0,667.2169,8121411,"CF INDUSTRIES NITROGEN, LLC - PORT NEAL COMPLEX",1182 260TH ST,SERGEANT BLUFF,IA,51054,42.32858,-96.37772,Woodbury,325311,,
8121411,2,130,6.25,235.0,1857.7044,8121411,"CF INDUSTRIES NITROGEN, LLC - PORT NEAL COMPLEX",1182 260TH ST,SERGEANT BLUFF,IA,51054,42.32858,-96.37772,Woodbury,325311,,
8121411,2,70,2,1830.0,1080.1887,8121411,"CF INDUSTRIES NITROGEN, LLC - PORT NEAL COMPLEX",1182 260TH ST,SERGEANT BLUFF,IA,51054,42.32858,-96.37772,Woodbury,325311,,
8121411,2,7,.33,980.0,12.6333,8121411,"CF INDUSTRIES NITROGEN, LLC - PORT NEAL COMPLEX",1182 260TH ST,SERGEANT BLUFF,IA,51054,42.32858,-96.37772,Woodbury,325311,,
8121411,2,120,3.33,330.0,869.4968,8121411,"CF INDUSTRIES NITROGEN, LLC - PORT NEAL COMPLEX",1182 260TH ST,SERGEANT BLUFF,IA,51054,42.32858,-96.37772,Woodbury,325311,,
8121411,2,110,4,170.0,297.1698,8121411,"CF INDUSTRIES NITROGEN, LLC - PORT NEAL COMPLEX",1182 260TH ST,SERGEANT BLUFF,IA,51054,42.32858,-96.37772,Woodbury,325311,,
8121411,2,23,.17,70.0,.0166,8121411,"CF INDUSTRIES NITROGEN, LLC - PORT NEAL COMPLEX",1182 260TH ST,SERGEANT BLUFF,IA,51054,42.32858,-96.37772,Woodbury,325311,,
8121411,2,40,.25,70.0,.0166,8121411,"CF INDUSTRIES NITROGEN, LLC - PORT NEAL COMPLEX",1182 260TH ST,SERGEANT BLUFF,IA,51054,42.32858,-96.37772,Woodbury,325311,,
8121411,2,46.8,37,100.0,23433.7111,8121411,"CF INDUSTRIES NITROGEN, LLC - PORT NEAL COMPLEX",1182 260TH ST,SERGEANT BLUFF,IA,51054,42.32858,-96.37772,Woodbury,325311,,
8121411,2,95,.83,70.0,33.3333,8121411,"CF INDUSTRIES NITROGEN, LLC - PORT NEAL COMPLEX",1182 260TH ST,SERGEANT BLUFF,IA,51054,42.32858,-96.37772,Woodbury,325311,,
8121411,2,18,.5,644.0,25.1698,8121411,"CF INDUSTRIES NITROGEN, LLC - PORT NEAL COMPLEX",1182 260TH ST,SERGEANT BLUFF,IA,51054,42.32858,-96.37772,Woodbury,325311,,
8121411,2,131.2,13.08,330.0,5522.5472,8121411,"CF INDUSTRIES NITROGEN, LLC - PORT NEAL COMPLEX",1182 260TH ST,SERGEANT BLUFF,IA,51054,42.32858,-96.37772,Woodbury,325311,,
8121411,2,80,.83,70.0,25,8121411,"CF INDUSTRIES NITROGEN, LLC - PORT NEAL COMPLEX",1182 260TH ST,SERGEANT BLUFF,IA,51054,42.32858,-96.37772,Woodbury,325311,,
8121411,2,3.8,2.09,1180.0,5.1572,8121411,"CF INDUSTRIES NITROGEN, LLC - PORT NEAL COMPLEX",1182 260TH ST,SERGEANT BLUFF,IA,51054,42.32858,-96.37772,Woodbury,325311,,
8121411,5,86,2.65,68.0,24.9056,8121411,"CF INDUSTRIES NITROGEN, LLC - PORT NEAL COMPLEX",1182 260TH ST,SERGEANT BLUFF,IA,51054,42.32858,-96.37772,Woodbury,325311,,
8121411,2,23,.67,805.0,51.7138,8121411,"CF INDUSTRIES NITROGEN, LLC - PORT NEAL COMPLEX",1182 260TH ST,SERGEANT BLUFF,IA,51054,42.32858,-96.37772,Woodbury,325311,,
8121411,2,89,3.33,500.0,1358.4905,8121411,"CF INDUSTRIES NITROGEN, LLC - PORT NEAL COMPLEX",1182 260TH ST,SERGEANT BLUFF,IA,51054,42.32858,-96.37772,Woodbury,325311,,
8121411,2,50,3.83,300.0,477.9874,8121411,"CF INDUSTRIES NITROGEN, LLC - PORT NEAL COMPLEX",1182 260TH ST,SERGEANT BLUFF,IA,51054,42.32858,-96.37772,Woodbury,325311,,
8121411,2,90,8.92,245.0,3374.2453,8121411,"CF INDUSTRIES NITROGEN, LLC - PORT NEAL COMPLEX",1182 260TH ST,SERGEANT BLUFF,IA,51054,42.32858,-96.37772,Woodbury,325311,,
8121411,2,50,.54,2000.0,34.0377,8121411,"CF INDUSTRIES NITROGEN, LLC - PORT NEAL COMPLEX",1182 260TH ST,SERGEANT BLUFF,IA,51054,42.32858,-96.37772,Woodbury,325311,,
8121411,2,4.9,.25,1050.0,8.6666,8121411,"CF INDUSTRIES NITROGEN, LLC - PORT NEAL COMPLEX",1182 260TH ST,SERGEANT BLUFF,IA,51054,42.32858,-96.37772,Woodbury,325311,,
8185111,180,4.2,110,1000.0,72.18,8185111,VERDIGRIS PLANT,6606 EAST 540 RD,CLAREMORE,OK,74019-2534,36.23454,-95.7174,Rogers,325311,,
8185111,120,13,330,3583.3334,27,8185111,VERDIGRIS PLANT,6606 EAST 540 RD,CLAREMORE,OK,74019-2534,36.23454,-95.7174,Rogers,325311,,
8185111,50,5,302,684.9333,34.88,8185111,VERDIGRIS PLANT,6606 EAST 540 RD,CLAREMORE,OK,74019-2534,36.23454,-95.7174,Rogers,325311,,
8185111,123,1.5,110,381.1833,216,8185111,VERDIGRIS PLANT,6606 EAST 540 RD,CLAREMORE,OK,74019-2534,36.23454,-95.7174,Rogers,325311,,
8185111,,,,,,8185111,VERDIGRIS PLANT,6606 EAST 540 RD,CLAREMORE,OK,74019-2534,36.23454,-95.7174,Rogers,325311,,
8185111,170,1.2,180,186.6666,165.05,8185111,VERDIGRIS PLANT,6606 EAST 540 RD,CLAREMORE,OK,74019-2534,36.23454,-95.7174,Rogers,325311,,
8185111,152,3.1,660,289.85,37.558,8185111,VERDIGRIS PLANT,6606 EAST 540 RD,CLAREMORE,OK,74019-2534,36.23454,-95.7174,Rogers,325311,,
8185111,120,1.6,385,55.5,27.614,8185111,VERDIGRIS PLANT,6606 EAST 540 RD,CLAREMORE,OK,74019-2534,36.23454,-95.7174,Rogers,325311,,
8185111,48,6.8,380,458.3333,12.62,8185111,VERDIGRIS PLANT,6606 EAST 540 RD,CLAREMORE,OK,74019-2534,36.23454,-95.7174,Rogers,325311,,
8185111,75,4.8,300,466.6666,25.79,8185111,VERDIGRIS PLANT,6606 EAST 540 RD,CLAREMORE,OK,74019-2534,36.23454,-95.7174,Rogers,325311,,
8185111,120,1.6,330,55.5,27.614,8185111,VERDIGRIS PLANT,6606 EAST 540 RD,CLAREMORE,OK,74019-2534,36.23454,-95.7174,Rogers,325311,,
8185111,170,1.2,185,200.0,176.838,8185111,VERDIGRIS PLANT,6606 EAST 540 RD,CLAREMORE,OK,74019-2534,36.23454,-95.7174,Rogers,325311,,
8185111,120,13,385,3583.3334,27,8185111,VERDIGRIS PLANT,6606 EAST 540 RD,CLAREMORE,OK,74019-2534,36.23454,-95.7174,Rogers,325311,,
8185111,25,.3,136,0.1833,2.71,8185111,VERDIGRIS PLANT,6606 EAST 540 RD,CLAREMORE,OK,74019-2534,36.23454,-95.7174,Rogers,325311,,
8185111,50,.1,100,0.0166,2.1212,8185111,VERDIGRIS PLANT,6606 EAST 540 RD,CLAREMORE,OK,74019-2534,36.23454,-95.7174,Rogers,325311,,
8185111,13,.5,200,0.9666,4.92,8185111,VERDIGRIS PLANT,6606 EAST 540 RD,CLAREMORE,OK,74019-2534,36.23454,-95.7174,Rogers,325311,,
8185111,12,.5,200,0.9666,4.92,8185111,VERDIGRIS PLANT,6606 EAST 540 RD,CLAREMORE,OK,74019-2534,36.23454,-95.7174,Rogers,325311,,
8185111,106,4.2,150,9.55,.69,8185111,VERDIGRIS PLANT,6606 EAST 540 RD,CLAREMORE,OK,74019-2534,36.23454,-95.7174,Rogers,325311,,
8185111,127,2.9,200,180.15,26.217,8185111,VERDIGRIS PLANT,6606 EAST 540 RD,CLAREMORE,OK,74019-2534,36.23454,-95.7174,Rogers,325311,,
8185111,28,1.2,627,83.05,73.433,8185111,VERDIGRIS PLANT,6606 EAST 540 RD,CLAREMORE,OK,74019-2534,36.23454,-95.7174,Rogers,325311,,
8185111,110,1,150,96.0,122,8185111,VERDIGRIS PLANT,6606 EAST 540 RD,CLAREMORE,OK,74019-2534,36.23454,-95.7174,Rogers,325311,,
8185111,104,1,150,96.0,122,8185111,VERDIGRIS PLANT,6606 EAST 540 RD,CLAREMORE,OK,74019-2534,36.23454,-95.7174,Rogers,325311,,
8185111,8,.4,960,15.1666,120.6439,8185111,VERDIGRIS PLANT,6606 EAST 540 RD,CLAREMORE,OK,74019-2534,36.23454,-95.7174,Rogers,325311,,
8185111,152,3.3,660,162.95,18.632,8185111,VERDIGRIS PLANT,6606 EAST 540 RD,CLAREMORE,OK,74019-2534,36.23454,-95.7174,Rogers,325311,,
8185111,60,4.5,340,466.6666,29.34,8185111,VERDIGRIS PLANT,6606 EAST 540 RD,CLAREMORE,OK,74019-2534,36.23454,-95.7174,Rogers,325311,,
8185111,112,.67,200,,46,8185111,VERDIGRIS PLANT,6606 EAST 540 RD,CLAREMORE,OK,74019-2534,36.23454,-95.7174,Rogers,325311,,
8185111,76,4.2,150,9.55,.689,8185111,VERDIGRIS PLANT,6606 EAST 540 RD,CLAREMORE,OK,74019-2534,36.23454,-95.7174,Rogers,325311,,
8185111,50,.83,200,,110,8185111,VERDIGRIS PLANT,6606 EAST 540 RD,CLAREMORE,OK,74019-2534,36.23454,-95.7174,Rogers,325311,,
8185111,18,.1,136,0.25,32.54,8185111,VERDIGRIS PLANT,6606 EAST 540 RD,CLAREMORE,OK,74019-2534,36.23454,-95.7174,Rogers,325311,,
8185111,76,4.2,150,9.55,.69,8185111,VERDIGRIS PLANT,6606 EAST 540 RD,CLAREMORE,OK,74019-2534,36.23454,-95.7174,Rogers,325311,,
993511,650,1.1,70,23.7582,25,993511,EL DORADO CHEMICAL COMPANY-EL DORADO,4500 NORTH WEST AVENUE,EL DORADO,AR,71730,33.267144,-92.693601,Union,325311,,
993511,78.6,4.4,299,621.7,40.1,993511,EL DORADO CHEMICAL COMPANY-EL DORADO,4500 NORTH WEST AVENUE,EL DORADO,AR,71730,33.267144,-92.693601,Union,325311,,
993511,,,,,,993511,EL DORADO CHEMICAL COMPANY-EL DORADO,4500 NORTH WEST AVENUE,EL DORADO,AR,71730,33.267144,-92.693601,Union,325311,,
993511,9,.5,961,23.5619,120,993511,EL DORADO CHEMICAL COMPANY-EL DORADO,4500 NORTH WEST AVENUE,EL DORADO,AR,71730,33.267144,-92.693601,Union,325311,,
993511,30,1,75,49.48,63,993511,EL DORADO CHEMICAL COMPANY-EL DORADO,4500 NORTH WEST AVENUE,EL DORADO,AR,71730,33.267144,-92.693601,Union,325311,,
993511,25,2,85,62.8318,20,993511,EL DORADO CHEMICAL COMPANY-EL DORADO,4500 NORTH WEST AVENUE,EL DORADO,AR,71730,33.267144,-92.693601,Union,325311,,
993511,50,6.8,75,762.653,21,993511,EL DORADO CHEMICAL COMPANY-EL DORADO,4500 NORTH WEST AVENUE,EL DORADO,AR,71730,33.267144,-92.693601,Union,325311,,
993511,30,22,98,13418.6847,35.3,993511,EL DORADO CHEMICAL COMPANY-EL DORADO,4500 NORTH WEST AVENUE,EL DORADO,AR,71730,33.267144,-92.693601,Union,325311,,
993511,170,2,250,1075.3671,342.3,993511,EL DORADO CHEMICAL COMPANY-EL DORADO,4500 NORTH WEST AVENUE,EL DORADO,AR,71730,33.267144,-92.693601,Union,325311,,
993511,29.3,18,99,7125.1321,28,993511,EL DORADO CHEMICAL COMPANY-EL DORADO,4500 NORTH WEST AVENUE,EL DORADO,AR,71730,33.267144,-92.693601,Union,325311,,
993511,6,.3,1250,50.0,707,993511,EL DORADO CHEMICAL COMPANY-EL DORADO,4500 NORTH WEST AVENUE,EL DORADO,AR,71730,33.267144,-92.693601,Union,325311,,
993511,70,7,115,2232.1015,58,993511,EL DORADO CHEMICAL COMPANY-EL DORADO,4500 NORTH WEST AVENUE,EL DORADO,AR,71730,33.267144,-92.693601,Union,325311,,
993511,50,4.5,738,632.9916,39.8,993511,EL DORADO CHEMICAL COMPANY-EL DORADO,4500 NORTH WEST AVENUE,EL DORADO,AR,71730,33.267144,-92.693601,Union,325311,,
993511,20,15,90,3534.2917,20,993511,EL DORADO CHEMICAL COMPANY-EL DORADO,4500 NORTH WEST AVENUE,EL DORADO,AR,71730,33.267144,-92.693601,Union,325311,,
993511,50,1,85,39.2699,50,993511,EL DORADO CHEMICAL COMPANY-EL DORADO,4500 NORTH WEST AVENUE,EL DORADO,AR,71730,33.267144,-92.693601,Union,325311,,
993511,70,7,115,2193.617,57,993511,EL DORADO CHEMICAL COMPANY-EL DORADO,4500 NORTH WEST AVENUE,EL DORADO,AR,71730,33.267144,-92.693601,Union,325311,,
993511,8,.4,1450,31.9185,254,993511,EL DORADO CHEMICAL COMPANY-EL DORADO,4500 NORTH WEST AVENUE,EL DORADO,AR,71730,33.267144,-92.693601,Union,325311,,
993511,52,4.3,360,81.3232,5.6,993511,EL DORADO CHEMICAL COMPANY-EL DORADO,4500 NORTH WEST AVENUE,EL DORADO,AR,71730,33.267144,-92.693601,Union,325311,,
993511,20,15,90,7068.5834,40,993511,EL DORADO CHEMICAL COMPANY-EL DORADO,4500 NORTH WEST AVENUE,EL DORADO,AR,71730,33.267144,-92.693601,Union,325311,,
993511,185,5.2,240,930.1878,43.8,993511,EL DORADO CHEMICAL COMPANY-EL DORADO,4500 NORTH WEST AVENUE,EL DORADO,AR,71730,33.267144,-92.693601,Union,325311,,
993511,25,.7,1200,12.5844,32.7,993511,EL DORADO CHEMICAL COMPANY-EL DORADO,4500 NORTH WEST AVENUE,EL DORADO,AR,71730,33.267144,-92.693601,Union,325311,,
993511,185,5.5,655,643.8497,27.1,993511,EL DORADO CHEMICAL COMPANY-EL DORADO,4500 NORTH WEST AVENUE,EL DORADO,AR,71730,33.267144,-92.693601,Union,325311,,
993511,105,10.5,261,4424.7565,51.1,993511,EL DORADO CHEMICAL COMPANY-EL DORADO,4500 NORTH WEST AVENUE,EL DORADO,AR,71730,33.267144,-92.693601,Union,325311,,
993511,150,4,192,544.1238,43.3,993511,EL DORADO CHEMICAL COMPANY-EL DORADO,4500 NORTH WEST AVENUE,EL DORADO,AR,71730,33.267144,-92.693601,Union,325311,,
993511,78,1.7,78,24.2868,10.7,993511,EL DORADO CHEMICAL COMPANY-EL DORADO,4500 NORTH WEST AVENUE,EL DORADO,AR,71730,33.267144,-92.693601,Union,325311,,
993511,15,.5,85,0.0196,.1,993511,EL DORADO CHEMICAL COMPANY-EL DORADO,4500 NORTH WEST AVENUE,EL DORADO,AR,71730,33.267144,-92.693601,Union,325311,,
993511,50,3.5,187,673.4789,70,993511,EL DORADO CHEMICAL COMPANY-EL DORADO,4500 NORTH WEST AVENUE,EL DORADO,AR,71730,33.267144,-92.693601,Union,325311,,
993511,40,.8,120,22.6194,45,993511,EL DORADO CHEMICAL COMPANY-EL DORADO,4500 NORTH WEST AVENUE,EL DORADO,AR,71730,33.267144,-92.693601,Union,325311,,
993511,124.7,.3,50,4.2411,60,993511,EL DORADO CHEMICAL COMPANY-EL DORADO,4500 NORTH WEST AVENUE,EL DORADO,AR,71730,33.267144,-92.693601,Union,325311,,
993511,137,5.5,260,2283.1721,96.1,993511,EL DORADO CHEMICAL COMPANY-EL DORADO,4500 NORTH WEST AVENUE,EL DORADO,AR,71730,33.267144,-92.693601,Union,325311,,
993511,24,.5,139,1.9045,9.7,993511,EL DORADO CHEMICAL COMPANY-EL DORADO,4500 NORTH WEST AVENUE,EL DORADO,AR,71730,33.267144,-92.693601,Union,325311,,
993511,100,1.2,140,123.2761,109,993511,EL DORADO CHEMICAL COMPANY-EL DORADO,4500 NORTH WEST AVENUE,EL DORADO,AR,71730,33.267144,-92.693601,Union,325311,,
17954911,,,,,,17954911,US NITROGEN LLC,471 POTTERTOWN RD,MIDWAY,TN,37809,36.1939,-83.00266,Greene,325311,,
17954911,100,1,200,,50,17954911,US NITROGEN LLC,471 POTTERTOWN RD,MIDWAY,TN,37809,36.1939,-83.00266,Greene,325311,,
