FRS_ID,FacilityName,Address,City,State,Zip,Latitude,Longitude,County,NAICS,SIC,FacilityID,Source
110003266849.0,HONEYWELL INTERNATIONAL INC - BATON ROUGE PLANT,2966 LUPINE AVENUE,BATON ROUGE,LA,70805.0,30.474444,-91.183056,EAST BATON ROUGE PARISH,325120,,1000625,GHGRP
110003266849.0,Honeywell International Inc - Baton Rouge Plant,2966 Lupine Ave,Baton Rouge,LA,70821,30.473,-91.18428,East Baton Rouge,325180,,8467611,NEI
110003266849.0,HONEYWELL INTERNATIONAL INC-BATON ROUGE PLANT,CORNER OF LUPINE & ONTARIO STR EETS,BATON ROUGE,LA,70805,30.474444,-91.183056,EAST BATON ROUGE PARISH,325199,,70805LLDSGCORNE,TRI
110003266849.0,HONEYWELL INTERNATIONAL INC-BATON ROUGE PLANT,CORNER OF LUPINE & ONTARIO STR EETS,BATON ROUGE,LA,70805,30.474444,-91.183056,EAST BATON ROUGE PARISH,325120,,70805LLDSGCORNE,TRI
110003266849.0,HONEYWELL INTERNATIONAL INC-BATON ROUGE PLANT,CORNER OF LUPINE & ONTARIO STR EETS,BATON ROUGE,LA,70805,30.474444,-91.183056,EAST BATON ROUGE PARISH,325180,,70805LLDSGCORNE,TRI
110015670521.0,Bayer CropScience LP - Luling Site,12501 S RIVER RD,LULING,LA,70070.0,29.92444,-90.352217,ST. CHARLES PARISH,325199,,1001989,GHGRP
110015670521.0,Monsanto Co - Luling Plant,12501 River Rd,Luling,LA,70070,29.92294,-90.35569,St. Charles,325320,,5608911,NEI
110015670521.0,BAYER CROPSCIENCE LP,12501 RIVER RD,LULING,LA,70070,29.92444,-90.352217,ST. CHARLES PARISH,325320,,70070MNSNTRIVER,TRI
110000586081.0,CHEMOURS WASHINGTON WORKS,8480 DUPONT ROAD,WASHINGTON,WV,26181.0,39.271944,-81.661667,WOOD COUNTY,325211,,1002176,GHGRP
110000586081.0,DUPONT WASHINGTON WORKS,ROUTE 892,WASHINGTON,WV,26181,39.26944,-81.66999,Wood,325211,,4878911,NEI
110000586081.0,DUPONT WASHINGTON WORKS,8480 DUPONT RD,WASHINGTON,WV,26181,39.26944,-81.66999,WOOD,325211,,26180DPNTWDUPON,TRI
110000586081.0,CHEMOURS WASHINGTON WORKS,8480 DUPONT RD BUILDING 1,WASHINGTON,WV,26181,39.271944,-81.661667,WOOD,325120,,2618WCHMRS848DU,TRI
110000374443.0,COVORO MINING SOLUTIONS LLC,2571 FITE ROAD,MEMPHIS,TN,38127.0,35.27213,-89.97894,SHELBY COUNTY,325188,,1002709,GHGRP
110000374443.0,E  I  Dupont De Nemours & Company  Inc,2571 Fite Road,Memphis,TN,38127,35.267215,-89.977692,Shelby,325180,,4963911,NEI
110000374443.0,COVORO MINING SOLUTIONS LLC,2571 FITE RD,MEMPHIS,TN,38127,35.27213,-89.97894,SHELBY,325180,,38127DPNTM2571F,TRI
110061712687.0,"Sekisui Specialty Chemicals America, LLC - Pasadena",1423 Pasadena Freeway,Pasadena,TX,77506.0,29.716059,-95.189998,HARRIS COUNTY,325120,,1003007,GHGRP
110061712687.0,SEKISUI SPECIALTY CHEMICALS AMERICA LLC. - PASADENA PLANT,1423 PASADENA FWY,PASADENA,TX,77506,29.716059,-95.189998,HARRIS,325211,,77506CLNSC1423H,TRI
110007158128.0,"PPG INDUSTRIES, INC.",559 PITTSBURGH ROAD,CIRCLEVILLE,OH,43113.0,39.55713,-82.94526,PICKAWAY COUNTY,325211,,1003304,GHGRP
110007158128.0,PPG Industries - ERU (0165010146),559 Pittsburgh Road,Circleville,OH,43113,39.55556,-82.94167,Pickaway,562211,,13471611,NEI
110007158128.0,PPG Industries - Resin (0165010145),559 Pittsburgh Road,Circleville,OH,43113,39.55556,-82.94167,Pickaway,325211,,13572511,NEI
110007158128.0,PPG INDUSTRIES OHIO INC CIRCLEVILLE OH,559 PITTSBURGH RD,CIRCLEVILLE,OH,43113,39.55713,-82.94526,PICKAWAY,325211,,43113PPGNDPITTS,TRI
110000378494.0,CHEMOURS LOUISVILLE WORKS,4200 CAMP GROUND ROAD,LOUISVILLE,KY,40216.0,38.21229,-85.83975,JEFFERSON COUNTY,325120,,1004133,GHGRP
110000378494.0,Chemours Company,4200 CAMP GROUND RD,LOUISVILLE,KY,40216-4602,38.21683,-85.84151,Jefferson,325199,,10695411,NEI
110000378494.0,CHEMOURS LOUISVILLE PLANT,4200 CAMP GROUND RD,LOUISVILLE,KY,40216,38.217166,-85.841979,JEFFERSON,325120,,40216DPNTL4200C,TRI
110000367567.0,3M COMPANY,1400 STATE DOCKS RD.,DECATUR,AL,35609.0,34.641667,-87.038611,MORGAN COUNTY,325211,,1004206,GHGRP
110000367567.0,3M Company,1400 State Docks Rd,Decatur,AL,35609,34.64333,-87.04145,Morgan,325998,,999511,NEI
110000367567.0,3M CO - DECATUR,1400 STATE DOCKS RD,DECATUR,AL,35601,34.641512,-87.035275,MORGAN,325998,,35602MCMPNSTATE,TRI
110045447469.0,DAIKIN AMERICA INC.,905 STATE DOCKS ROAD,DECATUR,AL,35601.0,34.630486,-87.039444,MORGAN COUNTY,325211,,1005062,GHGRP
110045447469.0,Daikin America Inc,905 State Docks Rd,Decatur,AL,35609,34.63161,-87.04113,Morgan,325199,,948911,NEI
110045447469.0,DAIKIN AMERICA INC,905 STATE DOCKS RD,DECATUR,AL,35601,34.630486,-87.039444,MORGAN,325211,,35601DKNMRSTATE,TRI
110045447469.0,"MDA Manufacturing, Inc.",905 State Docks Rd,Decatur,AL,35609,34.64062,-87.04145,Morgan,325199,,869411,NEI
110000380061.0,"ARKEMA, INC.",4444 INDUSTRIAL PARKWAY,CALVERT CITY,KY,42029.0,37.056699,-88.365727,MARSHALL COUNTY,325120,,1005721,GHGRP
110000380061.0,Arkema Inc,4444 Industrial Pkwy,Calvert City,KY,42029,37.056117,-88.366455,Marshall,325211,,7366811,NEI
110000380061.0,ARKEMA INC,4444 INDUSTRIAL PKWY,CALVERT CITY,KY,42029,37.056699,-88.365727,MARSHALL,325199,,42029PNNWLALTON,TRI
110033659878.0,HONEYWELL INTERNATIONAL INC - GEISMAR COMPLEX,5525 HWY 3115,GEISMAR,LA,70734.0,30.2219,-91.0515,ASCENSION PARISH,325120,,1006070,GHGRP
110033659878.0,Honeywell International Inc - Geismar Plant,5525 Hwy 3115,Geismar,LA,70734,30.22084,-91.05243,Ascension,325211,,7368711,NEI
110033659878.0,HONEYWELL INTERNATIONAL INC GEISMAR PLANT,5525 HWY 3115,CARVILLE,LA,70721,30.2219,-91.0515,ASCENSION PARISH,325120,,70734LLDSGHWY31,TRI
110035808855.0,"Emery Oleochemicals, LLC",4900 ESTE AVENUE,CINCINNATI,OH,45232.0,39.1792,-84.5053,Hamilton,325199,,1007325,GHGRP
110035808855.0,Emery Oleochemicals LLC (1431074278),4900 Este Avenue,Cincinnati,OH,45232-1491,39.1776,-84.50433,Hamilton,325998,,13571911,NEI
110035808855.0,BASF CORP,4900 ESTE AVENUE,CINCINNATI,OH,45232,39.1782,-84.5041,HAMILTON,325998,,45232CGNSC49EST,TRI
110000398338.0,BP Whiting Business Unit,2815 INDIANAPOLIS BLVD,WHITING,IN,46394.0,41.6703,-87.4803,Lake,324110,,1007339,GHGRP
110000398338.0,BP Products North America Inc Whiting R,2815 Indianapolis Blvd,Whiting,IN,46394,41.663055,-87.479643,Lake,32411,,7247711,NEI
110000398338.0,BP PRODUCTS NA WHITING BUSINESS UNIT,2815 INDIANAPOLIS BLVD,WHITING,IN,46394,41.663055,-87.479643,LAKE,324110,,46394MCLCX2815I,TRI
110000743704.0,Eastman Chemical - Texas Operations,300 KODAK BLVD,LONGVIEW,TX,75602.0,32.4472,-94.6917,Harrison,325199,,1007438,GHGRP
110000743704.0,TEXAS OPERATIONS,HWY 149 KODAK BLVD,LONGVIEW,TX,75607,32.441244,-94.690367,Harrison,325110,,4941511,NEI
110000743704.0,EASTMAN COGENERATION FACILITY,CALLAHAN RD,LONGVIEW,TX,75602,32.447853,-94.690706,Harrison,221121,,7908711,NEI
110000743704.0,EASTMAN CHEMICAL CO TEXAS OPERATIONS,300 KODAK BLVD,LONGVIEW,TX,75602,32.438056,-94.69,HARRISON,325199,,75607TXSSTOFFHI,TRI
110038160584.0,MARTIN OPERATING PTNR LP,484 EAST 6TH STREET,SMACKOVER,AR,71762.0,33.364143,-92.716924,UNION COUNTY,324110,,1007661,GHGRP
110038160584.0,Martin Operating Partnership L.P.,484 East 6th Street,Smackover,AR,71762,33.363731,-92.714928,Union,324191,,17077411,NEI
110038160584.0,MARTIN OPERATING PTNR LP,484 E 6TH ST,SMACKOVER,AR,71762,33.364143,-92.716924,UNION,324110,,71762CRSSLPOBOX,TRI
110000434931.0,W. R. Grace & Co.,4099 W. 71st. Street,Chicago,IL,60629.0,41.763491,-87.723679,COOK COUNTY,325188,,1011462,GHGRP
110000434931.0,WR Grace,4099 W 71st St,Chicago,IL,60629-5839,41.763491,-87.723679,Cook,325180,,8189011,NEI
110000434931.0,W R GRACE & CO,4099 W 71ST ST,CHICAGO,IL,60629,41.763491,-87.723679,COOK,325180,,60629KTLCD4099W,TRI
110070060886.0,SOLVAY Specialty Polymers USA - LLC,600 Spur 119 North,Borger,TX,79007.0,35.697861,-101.355306,HUTCHINSON COUNTY,325211,,1011974,GHGRP
110070060886.0,SOLVAY SPECIALTY POLYMERS USA,600 SPUR 119 N,BORGER,TX,79007,35.700911,-101.354386,Hutchinson,325110,,17737011,NEI
110000494019.0,BASF Corporation,1609 Biddle Avenue,Wyandotte,MI,48192.0,42.219195,-83.14674,WAYNE COUNTY,325199,,1013958,GHGRP
110000494019.0,BASF CORP,1609  BIDDLE AVE,WYANDOTTE,MI,48192,42.219195,-83.14674,Wayne,325199,,8158611,NEI
110000494019.0,BASF CORP,1609 BIDDLE AVE,WYANDOTTE,MI,481923729,42.2183,-83.1459,WAYNE,325211,,48192BSFCR1609B,TRI
110000494019.0,BASF CORP,1609  BIDDLE AVE,WYANDOTTE,MI,48192,42.2215,-83.1472,Wayne,325991,,8083611,NEI
110000494019.0,BASF Corporation,1609 BIDDLE AVE.,WYANDOTTE,MI,48192,42.2183,-83.1459,Wayne,541715,,13671511,NEI
110000336100.0,EVONIK CORP/CHESTER,1200 W FRONT ST,CHESTER,PA,19013-3438,39.8376,-75.37294,Delaware,325130,,4723811,NEI
110000336100.0,EVONIK CORP,1200 W FRONT ST,CHESTER,PA,19013,39.837605,-75.37294,DELAWARE,327999,,19013NRTHM1200W,TRI
110000336100.0,EVONIK CORPORATION,1200 W. FRONT ST.,CHESTER,PA,19013.0,39.837605,-75.37294,DELAWARE COUNTY,325188,,1000297,GHGRP
110000336994.0,ATLANTIC REFINING & MARKETING CORP,Unknown,PHILADELPHIA,PA,00000,39.9198,-75.1966,Philadelphia,48811,,12025611,NEI
110000336994.0,PHILA ENERGY SOL REF/ PES,3144 W PASSYUNK AVE,PHILADELPHIA,PA,19145-5208,39.9147,-75.2005,Philadelphia,324110,,6652211,NEI
110000336994.0,PHILADELPHIA ENERGY SOLUTIONS REFINING PHILADELPHIA REFINERY,3144 PASSYUNK AVE,PHILADELPHIA,PA,19145,39.9147,-75.2005,PHILADELPHIA,324110,,19145TLNTC3144P,TRI
110000336994.0,Philadelphia Refinery,3144 PASSYUNK AVENUE,PHILADELPHIA,PA,19145.0,39.9058,-75.2122,Philadelphia,324110,,1001261,GHGRP
110000350272.0,Elementis Chromium,5408 Holly Shelter Road,Castle Hayne,NC,28429,34.372516,-77.859466,New Hanover,325180,,7923311,NEI
110000350272.0,ELEMENTIS CHROMIUM INC,5408 HOLLY SHELTER RD,CASTLE HAYNE,NC,28429,34.372516,-77.859466,NEW HANOVER,325180,,28429CCDNTOFFST,TRI
110000350272.0,ELEMENTIS CHROMIUM,5408 HOLLY SHELTER ROAD,CASTLE HAYNE,NC,28429.0,34.372516,-77.859466,NEW HANOVER COUNTY,325188,,1005640,GHGRP
110000370508.0,Prince Specialty Products LLC (formerly Prince Erachem Inc.),795 Foote Lane,New Johnsonville,TN,37134,35.9966,-87.979,Humphreys,325180,,5610711,NEI
110000370508.0,VIBRANTZ SPECIALTY PRODUCTS LLC,795 FOOTE LN,NEW JOHNSONVILLE,TN,37134,35.99622,-87.979395,HUMPHREYS,325180,,37134CHMTLFOOTE,TRI
110000370508.0,"ERACHEM COMILOG, INC.",795 FOOTE LANE,NEW JOHNSONVILLE,TN,37134.0,35.99622,-87.979395,HUMPHREYS COUNTY,325188,,1007164,GHGRP
110000373998.0,PMC Biogenix (formerly Crompton Corporation/ Enenco),1231 Pope Street,Memphis,TN,38108,35.166536,-89.959878,Shelby,325992,,5706111,NEI
110000373998.0,PMC BIOGENIX INC,1231 POPE STREET,MEMPHIS,TN,38108.0,35.16677,-89.95893,SHELBY COUNTY,325199,,1005312,GHGRP
110000374087.0,"Valero Refining Co. (Prev. Premcor Refining, Prev. Williams Refining Llc)",543 West Mallory Avenue,Memphis,TN,38109,35.0875,-90.0864,Shelby,32411,,7156111,NEI
110000374087.0,VALERO REFINING CO - TENNESSEE L.L.C.,2385 RIVERPORT ROAD,MEMPHIS,TN,38109,35.085843,-90.083385,SHELBY,324110,,38109MPCPT543WE,TRI
110000374087.0,"VALERO REFINING CO. (PREV. PREMCOR REFINING, PREV. WILLIAMS REFINING LLC)",543 WEST MALLORY AVENUE,MEMPHIS,TN,38109.0,35.085843,-90.083385,SHELBY COUNTY,324110,,1008271,GHGRP
110000374434.0,Lucite International  Inc,2665 Fite Road,Memphis,TN,38127,35.2708,-89.97509,Shelby,325199,,6194311,NEI
110000374434.0,MITSUBISHI CHEMICAL AMERICA INC,2665 FITE RD,MEMPHIS,TN,38127,35.2716,-89.97407,SHELBY,325211,,38127CCRYL2665F,TRI
110000374434.0,LUCITE INTERNATIONAL INC,2665 FITE ROAD,MEMPHIS,TN,38127.0,35.2716,-89.97407,SHELBY COUNTY,325199,,1001214,GHGRP
110000377477.0,"CHEVRON TEXACO PRODUCTS COMPANY, PASCAGO",250 INDUSTRIAL ROAD,PASCAGOULA,MS,39581,30.343733,-88.4938,Jackson,32411,,8384311,NEI
110000377477.0,CHEVRON PRODUCTS CO PASCAGOULA REFINERY,250 INDUSTRIAL RD,PASCAGOULA,MS,39581,30.343733,-88.4938,JACKSON,324110,,39567CHVRNPOBOX,TRI
110000377477.0,Chevron Pascagoula Refinery,250 Industrial Road,Pascagoula,MS,39581.0,30.343733,-88.4938,JACKSON COUNTY,324110,,1003286,GHGRP
110000378207.0,"Clariant Corporation, Louisville West Plant",1227 S 12TH ST,LOUISVILLE,KY,40210-1525,38.2356,-85.77498,Jefferson,325180,,7353111,NEI
110000378207.0,CLARIANT CORP 12TH STREET FACILITY,1227 S 12TH ST,LOUISVILLE,KY,40210,38.233611,-85.7755,JEFFERSON,325180,,40210NTDCT1227S,TRI
110000378207.0,"Clariant Corporation, Louisville Site, West Plant",1227 S. 12th Street,Louisville,KY,40210.0,38.233611,-85.7755,JEFFERSON COUNTY,325188,,1010761,GHGRP
110000381881.0,DuPont Specialty Products - Circleville (0165010004),800 DuPont Road,Circleville,OH,43113-9107,39.56194,-82.96908,Pickaway,326113,,7997011,NEI
110000381881.0,DUPONT CIRCLEVILLE PLANT,800 DUPONT RD,CIRCLEVILLE,OH,43113,39.55762,-82.96377,PICKAWAY,325211,,43113DPNTCUSRT2,TRI
110000381881.0,DUPONT CIRCLEVILLE PLANT,800 DU PONT ROAD,CIRCLEVILLE,OH,43113.0,39.55762,-82.96377,PICKAWAY COUNTY,325211,,1001720,GHGRP
110000384307.0,Chemtrade Refinery Solutions Limited Partnership (0448020014),1400 Otter Creek Road,Oregon,OH,43616-1232,41.68167,-83.45556,Lucas,325180,,8302111,NEI
110000384307.0,CHEMTRADE REFINERY SOLUTIONS LP,1400 OTTER CREEK RD,OREGON,OH,43616,41.681417,-83.457722,LUCAS,325180,,43616CLTNC1400O,TRI
110000384307.0,Chemtrade Refinery Solutions LP,1400 Otter Creek Rd.,Oregon,OH,43616.0,41.681417,-83.457722,LUCAS COUNTY,325188,,1009487,GHGRP
110000395260.0,"American Centrifuge Operating, LLC (0666000000)",3930 U.S. Route 23 South,Piketon,OH,45661-0628,39.00645,-82.99855,Pike,325180,,8450111,NEI
110000395260.0,U.S. DOE PORTSMOUTH GASEOUS DIFFUSION PLANT,3930 US ROUTE 23 SOUTH,PIKETON,OH,45661.0,39.01333,-82.99805,PIKE COUNTY,325188,,1003709,GHGRP
110000410742.0,Occidental Chemical Corporation,1600 S. Madison St.,LUDINGTON,MI,49431,43.9382,-86.4309,Mason,325180,,8112011,NEI
110000410742.0,OCCIDENTAL CHEMICAL CORPORATION - Ludington facility,1600 S. MADISON ST.,LUDINGTON,MI,49431.0,43.939586,-86.434715,MASON COUNTY,325188,,1001708,GHGRP
110000422962.0,SUPERIOR REFINING COMPANY LLC - PETROLEUM BULK STATIONS AND TERMINALS,2407 Stinson Ave,Superior,WI,54880-4486,46.6918,-92.0714,Douglas,424710,,12711911,NEI
110000422962.0,Superior Refining Company LLC,2407 Stinson Ave,Superior,WI,54880-4486,46.6915,-92.072,Douglas,324110,,4864411,NEI
110000422962.0,SUPERIOR REFINING CO LLC,2407 STINSON AVE,SUPERIOR,WI,54880,46.6915,-92.072,DOUGLAS,324110,,54880MRPHY24THA,TRI
110000422962.0,Superior Refining Company LLC,2407 Stinson Ave.,Superior,WI,54880.0,46.6915,-92.072,DOUGLAS COUNTY,324110,,1003472,GHGRP
110000427020.0,Agri-Energy,502 Walnut Ave S,Luverne,MN,56156,43.64752,-96.22463,Rock,325193,,6926711,NEI
110000427020.0,AGRI-ENERGY,502 S WALNUT,LUVERNE,MN,56156,43.648333,-96.224444,ROCK,325193,,56156GRNRG502SW,TRI
110000427020.0,AGRI ENERGY LLC,502 SOUTH WALNUT AVENUE,LUVERNE,MN,56156.0,43.648333,-96.224444,ROCK COUNTY,325199,,1005284,GHGRP
110000434174.0,Vantage Oleochemicals Inc,4650 S Racine Ave,Chicago,IL,60609-3321,41.810961,-87.657293,Cook,325998,,3203811,NEI
110000434174.0,VANTAGE OLEOCHEMICALS,4650 S. RACINE AVE.,CHICAGO,IL,60609.0,41.810961,-87.657293,COOK COUNTY,325199,,1001336,GHGRP
110000437974.0,Evonik Corp,8300 W Rte 24,Mapleton,IL,61547-7500,40.564399,-89.724856,Peoria,325613,,7940111,NEI
110000437974.0,EVONIK CORP,8300 W RT 24,MAPLETON,IL,61547,40.564725,-89.724485,PEORIA,325613,,61547GLDSC8300W,TRI
110000437974.0,EVONIK CORPORATION,8300 WEST ROUTE 24,MAPLETON,IL,61547.0,40.564725,-89.724485,PEORIA COUNTY,325199,,1005465,GHGRP
110000448837.0,Valero Refining - Meraux LLC - Meraux Refinery,2500 E St Bernard Hwy,Meraux,LA,70075,29.93121,-89.94107,St. Bernard,324110,,7355411,NEI
110000448837.0,VALERO REFINING - MERAUX LLC MERAUX REFINERY,2500 E ST BERNARD HWY,MERAUX,LA,70075,29.930517,-89.940643,ST. BERNARD PARISH,324110,,70075MRPHY2500E,TRI
110000448837.0,Valero Terminaling & Distribution Co - Meraux Terminal,2500 E St Bernard Hwy,Meraux,LA,70075,29.9295,-89.94031,St. Bernard,424710,,7204611,NEI
110000448837.0,MERAUX REFINERY,2500 EAST SAINT BERNARD HIGHWAY,MERAUX,LA,70075.0,29.930517,-89.940643,ST. BERNARD PARISH,324110,,1007059,GHGRP
110000450002.0,Deltech Corp - Baton Rouge Facility,11911 Scenic Hwy,Baton Rouge,LA,70807,30.55411,-91.20369,East Baton Rouge,325110,,7226311,NEI
110000450002.0,DELTECH MONOMERS OPCO LLC,11911 SCENIC HWY,BATON ROUGE,LA,70807,30.553364,-91.202428,EAST BATON ROUGE PARISH,325199,,70807HCHST11911,TRI
110000450002.0,Deltech Monomers OpCo,11911 SCENIC HIGHWAY,BATON ROUGE,LA,70807.0,30.553364,-91.202428,EAST BATON ROUGE PARISH,325199,,1002789,GHGRP
110000450100.0,Eco Services Operations Corp - DE - Sulfuric Acid Plant,1301 Airline Hwy,Baton Rouge,LA,70805,30.50936,-91.18806,East Baton Rouge,325180,,8215111,NEI
110000450100.0,Eco Services Baton Rouge Site,1301 AIRLINE HWY.,BATON ROUGE,LA,70807.0,30.50986,-91.18465,EAST BATON ROUGE PARISH,325188,,1003003,GHGRP
110000450100.0,Solvay USA Inc - Solvay Baton Rouge Site - Aroma Performance Facility,1275 Airline Hwy,Baton Rouge,LA,70805,30.51177,-91.19188,East Baton Rouge,325180,,16972411,NEI
110000451038.0,GREAT LAKES CHEMICAL CORP - SOUTH PLANT,324 SOUTHFIELD CUTOFF,EL DORADO,AR,71730,33.1113,-92.6754,Union,325180,,993411,NEI
110000451038.0,LANXESS - SOUTH PLANT,324 SOUTHFIELD CUTOFF,EL DORADO,AR,71730,33.110306,-92.672944,UNION,325180,,71730GRTLKRT7BO,TRI
110000451038.0,LANXESS Corporation - South Plant,324 SOUTHFIELD CUTOFF,EL DORADO,AR,71730.0,33.110306,-92.672944,UNION COUNTY,325188,,1008036,GHGRP
110000451109.0,GREAT LAKES CHEMICAL CORPORATION- Central Plant,2226 HAYNESVILLE HWY,EL DORADO,AR,71730,33.186666,-92.706111,Union,325998,,1101811,NEI
110000451109.0,LANXESS - CENTRAL,2226 HAYNESVILLE HWY,EL DORADO,AR,71730,33.1831,-92.7069,UNION,325180,,71731GRTLKHIGHW,TRI
110000451109.0,LANXESS Corporation - Central Plant,2226 HAYNESVILLE HIGHWAY,EL DORADO,AR,71730.0,33.1831,-92.7069,UNION COUNTY,325188,,1006968,GHGRP
110000460983.0,JACINTOPORT PLANT,16717 JACINTOPORT BOULEVARD,CHANNELVIEW,TX,77530,29.754969,-95.099425,Harris,325110,,4182411,NEI
110000460983.0,MONUMENT CHEMICAL HOUSTON LLC,16717 JACINTOPORT BLVD,HOUSTON,TX,77015,29.75487,-95.10327,HARRIS,325199,,77015JHNNH16717,TRI
110000460983.0,"MONUMENT CHEMICAL HOUSTON, LLC",16717 JACINTOPORT BOULEVARD,HOUSTON,TX,77015.0,29.75487,-95.10327,HARRIS COUNTY,325199,,1004018,GHGRP
110000462936.0,BAYPORT PLANT,12801 BAY AREA BLVD,LA PORTE,TX,77571,29.637778,-95.053333,Harris,325110,,4168911,NEI
110000462936.0,LUBRIZOL CORP BAYPORT FACILITY,12801 BAY AREA BLVD,PASADENA,TX,77507,29.638475,-95.052814,HARRIS,325199,,77507LBRZL12801,TRI
110000462936.0,LUBRIZOL BAYPORT PLANT,12801 BAY AREA BOULEVARD,PASADENA,TX,77507.0,29.638475,-95.052814,HARRIS COUNTY,325199,,1000619,GHGRP
110000463392.0,FREEPORT SITE,602 COPPER RD,FREEPORT,TX,77541,28.999242,-95.394117,Brazoria,325110,,4897511,NEI
110000463392.0,BASF CORP - FREEPORT SITE,602 COPPER RD,FREEPORT,TX,77541,29.002075,-95.399777,BRAZORIA,325199,,77541BSFCR602CO,TRI
110000463392.0,BASF FREEPORT SITE,602 COPPER ROAD,FREEPORT,TX,77541.0,29.002075,-95.399777,BRAZORIA COUNTY,325199,,1001934,GHGRP
110000464168.0,ARKEMA BEAUMONT PLANT,2810 GULF STATES RD,BEAUMONT,TX,77701,30.060128,-94.056614,Jefferson,325110,,6430011,NEI
110000464168.0,ARKEMA INC,2810 GULF STATE RD,BEAUMONT,TX,77701,30.060226,-94.058976,JEFFERSON,325199,,77704PNNWL2052G,TRI
110000464168.0,ARKEMA BEAUMONT PLANT,2810 GULF STATES ROAD,BEAUMONT,TX,77701.0,30.060226,-94.058976,JEFFERSON COUNTY,325199,,1006644,GHGRP
110000464462.0,VALERO PARTNERS THREE RIVERS,301 W LEROY ST,THREE RIVERS,TX,78071,28.459244,-98.189167,Live Oak,424710,,17909311,NEI
110000464462.0,THREE RIVERS REFINERY,301 LEROY ST,THREE RIVERS,TX,78071,28.459956,-98.187578,Live Oak,324110,,6152811,NEI
110000464462.0,VALERO THREE RIVERS REFINERY,301 LEROY ST,THREE RIVERS,TX,78071,28.456667,-98.190277,LIVE OAK,324110,,78071DMNDS301LE,TRI
110000464462.0,DIAMOND SHAMROCK REFINING VALERO,301 LEROY ST.,THREE RIVERS,TX,78071.0,28.456667,-98.190277,LIVE OAK COUNTY,324110,,1008310,GHGRP
110000465103.0,CORPUS CHRISTI WEST PLANT,5900 UP RIVER RD,CORPUS CHRISTI,TX,78412,27.817361,-97.489161,Nueces,324110,,4929811,NEI
110000465103.0,VALERO REFINING-TEXAS LP CORPUS CHRISTI WEST PLANT,5900 UP RIVER RD,CORPUS CHRISTI,TX,78407,27.81775,-97.482552,NUECES,324110,,78469VLRRF5900U,TRI
110000465103.0,VALERO PARTNERS CORPUS CHRISTI WEST,5900 UP RIVER RD,CORPUS CHRISTI,TX,78407,27.817789,-97.487597,Nueces,424710,,17985111,NEI
110000465103.0,VALERO CORPUS CHRISTI REFINERY,5900 UP RIVER ROAD,CORPUS CHRISTI,TX,78407.0,27.81775,-97.482552,NUECES COUNTY,324110,,1008110,GHGRP
110000465719.0,VALERO PARTNERS MCKEE,6701 FM 119,SUNRAY,TX,79086,35.959308,-101.889197,Moore,424710,,17906111,NEI
110000465719.0,VALERO MCKEE REFINERY,6701 FM 119,SUNRAY,TX,79086,35.954514,-101.882525,Moore,324110,,4030511,NEI
110000465719.0,DIAMOND SHAMROCK REFINING CO LP,6701 FM 119,SUNRAY,TX,79086,35.951944,-101.873889,MOORE,324110,,79086DMNDSSTARR,TRI
110000465719.0,"Diamond Shamrock Refining Company, L.P.",6701 FM 119,SUNRAY,TX,79086.0,35.951944,-101.873889,MOORE COUNTY,324110,,1007936,GHGRP
110000469243.0,Tesoro Refining & Marketing Company LLC - Salt Lake City Refinery,474 West 900 North,Salt Lake City,UT,84103,40.791,-111.908,Salt Lake,324110,,7558611,NEI
110000469243.0,TESORO REFINING & MARKETING COMPANY LLC - SLC,474 W 900 N,SALT LAKE CITY,UT,84103,40.791667,-111.902778,SALT LAKE,424710,,84103MCLCM474WE,TRI
110000469243.0,TESORO REFINING & MARKETING COMPANY LLC - SLC,474 W 900 N,SALT LAKE CITY,UT,84103,40.791667,-111.902778,SALT LAKE,324110,,84103MCLCM474WE,TRI
110000469243.0,"Tesoro Refining and Marketing Company, Salt Lake City Refinery",474 West 900 North,Salt Lake City,UT,84103.0,40.791667,-111.902778,SALT LAKE COUNTY,324110,,1006039,GHGRP
110000469920.0,Compass Minerals Ogden Inc. - Production Plant,765 N 10500 W,Ogden,UT,84404,41.280714,-112.231495,Weber,325180,,6734411,NEI
110000469920.0,Compass Minerals Ogden Inc,765 N 10500 W,Ogden,UT,84404.0,41.27432,-112.22376,WEBER COUNTY,325188,,1009764,GHGRP
110000472630.0,HollyFrontier - Artesia Refinery,501 E Main St,Artesia,NM,88210,32.848593,-104.394383,Eddy,32411,,7399911,NEI
110000472630.0,HOLLYFRONTIER NAVAJO REFINING LLC - ARTESIA REFINERY,501 E MAIN ST,ARTESIA,NM,88210,32.848593,-104.394383,EDDY,324110,,88210NVJRF501EA,TRI
110000472630.0,"NAVAJO REFINING COMPANY, LLC - Artesia Refinery",501 East Main Street,ARTESIA,NM,88210.0,32.848593,-104.394383,EDDY COUNTY,324110,,1007972,GHGRP
110000475940.0,PARAMOUNT PETR CORP,14700-08  DOWNEY AVE,PARAMOUNT,CA,90723,33.900113,-118.151406,Los Angeles,324110,,5683611,NEI
110000475940.0,ALTAIR PARAMOUNT LLC,14700 DOWNEY AVE,PARAMOUNT,CA,90723,33.899645,-118.15141,LOS ANGELES,325199,,90723PRMNT14700,TRI
110000475940.0,PARAMOUNT PETROLEUM CORPORATION,14700 DOWNEY AVENUE,PARAMOUNT,CA,90723.0,33.899645,-118.15141,LOS ANGELES COUNTY,324110,,1004362,GHGRP
110000476048.0,VALERO WILMINGTON ASPHALT PLANT,1651  ALAMEDA ST,WILMINGTON,CA,90744,33.79699,-118.23971,Los Angeles,324121,,5682111,NEI
110000476048.0,VALERO WILMINGTON ASPHALT PLANT,1651 ALAMEDA ST,WILMINGTON,CA,90744,33.79699,-118.23971,LOS ANGELES,324110,,90744HNTWY1651A,TRI
110000476048.0,Valero Wilmington Asphalt Plant,1651 Alameda Street,Wilmington,CA,90744.0,33.79699,-118.23971,LOS ANGELES COUNTY,324110,,1010774,GHGRP
110000476208.0,ECO SERVICES OPERATIONS CORP.,20720 S WILMINGTON AVE,CARSON,CA,90810,33.84323,-118.23299,Los Angeles,325180,,67011,NEI
110000476208.0,ECO SERVICES OPERATIONS CORP,20720 S WILMINGTON AVE,CARSON,CA,90746,33.843333,-118.232844,LOS ANGELES,325180,,90746STFFR20720,TRI
110000476208.0,ECO SERVICES DOMINGUEZ,20720 SOUTH WILMINGTON AVENUE,CARSON,CA,90810.0,33.843333,-118.232844,LOS ANGELES COUNTY,325188,,1007539,GHGRP
110000481611.0,KERN OIL & REFINING COMPANY,VARIOUS UNSPECIFIED LOCATIONS,San Joaquin Unified,CA,00000,35.296607,-118.918384,Kern,238910,,17335611,NEI
110000481611.0,KERN OIL & REFINING CO.,PANAMA LN & WEEDPATCH HWY,BAKERSFIELD,CA,93307,35.2956,-118.9184,Kern,324110,,4196711,NEI
110000481611.0,KERN ENERGY,7724 EAST PANAMA LANE,BAKERSFIELD,CA,93307,35.295278,-118.921111,KERN,324110,,93307KRNLRRR677,TRI
110000481611.0,KERN OIL & REFINING,PANAMA LN  WEEDPATCH HWY,LAMONT,CA,93307,35.26698,-118.92334,Kern,924110,,13866611,NEI
110000481611.0,KERN OIL & REFINING CO.,7724 E PANAMA LN,BAKERSFIELD,CA,93307.0,35.295278,-118.921111,KERN COUNTY,324110,,1004267,GHGRP
110000481611.0,KERN OIL & REFINING COMPANY,TEN SECTION,Placeholder,CA,00000,35.28714,-119.20685,Kern,324110,,10281011,NEI
110000481684.0,SAN JOAQUIN REFINING COMPANY,3542 SHELL ST,BAKERSFIELD,CA,93308,35.3972,-119.0467,Kern,326211,,4195511,NEI
110000481684.0,SAN JOAQUIN REFINING CO INC,3500 SHELL STREET,BAKERSFIELD,CA,93308.0,35.39511,-119.04652,KERN COUNTY,324110,,1002565,GHGRP
110000493555.0,Marathon Petroleum Company LP - Canton Refinery (1576002006),2408 Gambrinus Avenue SW,Canton,OH,44706,40.7736,-81.4146,Stark,324110,,13573011,NEI
110000493555.0,MARATHON PETROLEUM CO LP OHIO REFINING DIV,2408 GAMBRINUS AVE SW,CANTON,OH,44706,40.7736,-81.4146,STARK,324110,,44711SHLND2408G,TRI
110000493555.0,Canton Refinery,2408 GAMBRINUS RD. S.W.,CANTON,OH,44706.0,40.7736,-81.4146,STARK COUNTY,324110,,1005390,GHGRP
110000493555.0,MPLX Terminals LLC - Canton Terminal (1576002007),2419 Gambrinus Avenue SW,Canton,OH,44706,40.77295,-81.42106,Stark,424710,,13436611,NEI
110000499069.0,Silver Eagle Refining - Woods Cross Inc.- Petroleum Products Refining,2355 So. 1100 West,Woods Cross,UT,84087,40.866,-111.911,Davis,32411,,8236511,NEI
110000499069.0,SILVER EAGLE REFINING WOODS CROSS,2355 S 1100 W,WOODS CROSS,UT,84087,40.866389,-111.911389,DAVIS,324110,,84087CRYSN2355S,TRI
110000499069.0,Silver Eagle Refining-Woods Cross,2355 SOUTH 1100 WEST,WOODS CROSS,UT,84087.0,40.86631,-111.91187,DAVIS COUNTY,324110,,1006448,GHGRP
110000503722.0,CHOCOLATE BAYOU PLANT,3 M S OF FM 2004 & FM 2917 INTERX,ALVIN,TX,77512,29.226603,-95.200497,Brazoria,325110,,5632411,NEI
110000503722.0,ASCEND PERFORMANCE MATERIALS CHOCOLATE BAYOU PLANT,FM 2917; 8 MI S OF INTX OF HWY 35 & FM 2917,ALVIN,TX,77511,29.250686,-95.211072,Brazoria,325110,,5633311,NEI
110000503722.0,ASCEND PERFORMANCE MATERIALS-CHOCOLATE BAYOU PLANT,1 MONSANTO RD FM 2917,ALVIN,TX,775110000,29.231225,-95.196088,BRAZORIA,325199,,77511SLTNCFM291,TRI
110000503722.0,ASCEND PERFORMANCE MATERIALS-CHOCOLATE BAYOU PLANT,1 MONSANTO RD FM 2917,ALVIN,TX,775110000,29.231225,-95.196088,BRAZORIA,325180,,77511SLTNCFM291,TRI
110000503722.0,CHOCOLATE BAYOU PLANT,ON FM 2917 8 MILES SOUTH OF INTERSECTION OF HWY 35 AND FM 2917,ALVIN,TX,77512,29.251911,-95.210289,Brazoria,325110,,16871811,NEI
110000503722.0,ASCEND PERFORMANCE MATERIALS CHOCOLATE BAYOU FACILITY,None,ALVIN,TX,77512.0,29.2567,-95.2144,BRAZORIA COUNTY,325199,,1002190,GHGRP
110000506079.0,BAYPORT UNDERWOOD PLANT,5761 UNDERWOOD RD,PASADENA,TX,77507,29.630833,-95.079714,Harris,325110,,4926611,NEI
110000506079.0,EQUISTAR CHEMICALS BAYPORT CHEMICALS PLANT,5761 UNDERWOOD RD,PASADENA,TX,77507,29.627167,-95.080194,HARRIS,325199,,77507QSTRC5761U,TRI
110000506079.0,EQUISTAR CHEMICALS LIMITED PARTNERSHIP BAYPORT PLANT,5761 UNDERWOOD ROAD,PASADENA,TX,77507.0,29.627167,-95.080194,HARRIS COUNTY,325199,,1006656,GHGRP
110000547052.0,INEOS Nitriles USA LLC (0302020371),1900 Fort Amanda Rd.,Lima,OH,45804,40.71417,-84.13223,Allen,325199,,13571611,NEI
110000547052.0,"PCS Nitrogen Ohio, L.P. (0302020370)",Fort Amanda & Adgate Roads,Lima,OH,45804,40.7145,-84.13249,Allen,325311,,8102411,NEI
110000547052.0,PCS NITROGEN OHIO L.P.,2200 FORT AMANDA RD,LIMA,OH,45804,40.717499,-84.132274,ALLEN,325311,,45802RCDNH1900F,TRI
110000547052.0,INEOS NITRILES USA LLC,1900 Fort Amanda Rd,Lima,OH,45804.0,40.717499,-84.132274,ALLEN COUNTY,325199,,1002955,GHGRP
110000587179.0,INVISTA SARL CAMDEN PLANT,643 HWY 1 S,LUGOFF,SC,29078,34.233289,-80.657323,Kershaw,325220,,4762411,NEI
110000587179.0,INV CAMDEN PLANT,643 US HWY #1 S,LUGOFF,SC,29078,34.2375,-80.645833,KERSHAW,325220,,29020DPNTCPOBOX,TRI
110000587179.0,INV. Camden Plant,643 HIGHWAY 1 SOUTH,LUGOFF,SC,29078.0,34.2337,-80.658,Kershaw,325211,,1000276,GHGRP
110000589729.0,UOP LLC,1 Linde Drive,Chickasaw,AL,36527,30.75918,-88.07083,Mobile,325180,,1062611,NEI
110000589729.0,HONEYWELL - UOP LLC,1 LINDE DR,CHICKASAW,AL,36611,30.758831,-88.059471,MOBILE,325180,,36611NNCRBLINDE,TRI
110000589729.0,HONEYWELL - UOP LLC,1 LINDE DRIVE,CHICKASAW,AL,36611.0,30.75912,-88.07129,MOBILE COUNTY,325188,,1000628,GHGRP
110000597104.0,Union Carbide Corp - St Charles Operations Site,355 Hwy 3142,Hahnville,LA,70057,29.98792,-90.44442,St. Charles,325110,,7202911,NEI
110000597104.0,ST CHARLES OPERATIONS (TAFT/STAR) UNION CARBIDE CORP,355 LA HWY 3142 (GATE 1),HAHNVILLE,LA,70057,29.9829,-90.4437,ST. CHARLES PARISH,325199,,70057NNCRBHWY31,TRI
110000597104.0,ST CHARLES OPERATIONS (TAFT/STAR) UNION CARBIDE CORP,355 LA HWY 3142 (GATE 1),HAHNVILLE,LA,70057,29.9829,-90.4437,ST. CHARLES PARISH,325211,,70057NNCRBHWY31,TRI
110000597104.0,St Charles Operations (Taft/Star) Union Carbide Corp,355 LA HWY 3142 (GATE 1),TAFT,LA,70057.0,29.9829,-90.4437,ST. CHARLES PARISH,325199,,1007031,GHGRP
110000597337.0,Equilon Enterprises LLC dba Shell Oil Products US - Convent Refinery,10700 Hwy 44,Convent,LA,70723,30.11845,-90.88311,St. James,324110,,8239611,NEI
110000597337.0,CONVENT REFINERY,FOOT OF SUNSHINE BRIDGE- LA HW Y 44,CONVENT,LA,70723,30.11494,-90.90037,ST. JAMES PARISH,324110,,70723TXCRFFOOTO,TRI
110000597337.0,Equilon Enterprises LLC - Convent Terminal,Hwys 70 & 44 jct,Convent,LA,70723,30.10766,-90.90813,St. James,424710,,5273311,NEI
110000597337.0,CONVENT REFINERY,10700 La. 44,CONVENT,LA,70723.0,30.10712,-90.89616,ST. JAMES PARISH,324110,,1004630,GHGRP
110000597346.0,Veolia North America Regeneration Services LLC - Veolia Burnside Plant,3460 Hwy 44,Darrow,LA,70725,30.12339,-90.91343,Ascension,325180,,7914911,NEI
110000597346.0,VEOLIA BURNSIDE PLANT,3460 HWY 44,DARROW,LA,70725,30.125259,-90.912628,ASCENSION PARISH,325180,,70725DPNTB3460H,TRI
110000597346.0,Veolia Burnside Plant,3460 HWY. 44,DARROW,LA,70725.0,30.125259,-90.912628,ASCENSION PARISH,325188,,1002736,GHGRP
110000600378.0,Evanston Refining,"SW Section 23, T15N, R119W",Uinta County,WY,82930,41.264,-110.804,Uinta,32411,,6981111,NEI
110000600378.0,SILVER EAGLE REFINING-EVANSTON,2990 COUNTY RD 180,EVANSTON,WY,82930,41.2616,-110.807,UINTA,324110,,82931XBWHYI80EX,TRI
110000600378.0,"SILVER EAGLE REFINING, INCORPORATED",2990 COUNTY ROAD 180,EVANSTON,WY,82930.0,41.2616,-110.807,UINTA COUNTY,324110,,1009291,GHGRP
110000602544.0,DOW CHEMICAL COMPANY,901 LOVERIDGE ROAD,PITTSBURG,CA,94565,38.02412,-121.85462,Contra Costa,325320,,6530311,NEI
110000602544.0,CORTEVA AGRISCIENCE LLC,901 LOVERIDGE RD,PITTSBURG,CA,94565,38.023129,-121.855352,CONTRA COSTA,325199,,94565DWCHMFOOTO,TRI
110000602544.0,Corteva agriscience - Pittsburg Operations,901 LOVERIDGE ROAD,PITTSBURG,CA,94565.0,38.023129,-121.855352,CONTRA COSTA COUNTY,325199,,1007805,GHGRP
110000605051.0,BASF Corporation,1379 Ciba Road,Mcintosh,AL,36553,31.2789,-88.0043,Washington,325320,,7440611,NEI
110000605051.0,BASF CORP,1379 CIBA RD,MC INTOSH,AL,36553,31.2789,-88.0043,WASHINGTON,325199,,36653CBGGYGEIGY,TRI
110000605051.0,BASF CORPORATION,1379 CIBA RD,MC INTOSH,AL,36553.0,31.2789,-88.0043,WASHINGTON COUNTY,325199,,1003551,GHGRP
110000741243.0,Nouryon Functional Chemicals LLC,13440 Hwy 43 North,Axis,AL,36505,30.9692,-88.0187,Mobile,325998,,949811,NEI
110000741243.0,NOURYON FUNCTIONAL CHEMICALS LLC,13440 HWY 43 N,AXIS,AL,36505,30.969439,-88.0175,MOBILE,325180,,36505KZCHMUSHIG,TRI
110000741243.0,"Akzo Nobel Functional Chemicals, LLC",13440 Highway 43 North,Axis,AL,36505.0,30.969439,-88.0175,MOBILE COUNTY,325188,,1010593,GHGRP
110000743508.0,ALBEMARLE CORPORATION-SOUTH PLANT,2270 Highway 79 South,Magnolia,AR,71753,33.177778,-93.219445,Columbia,3259,,976011,NEI
110000743508.0,ALBEMARLE CORP SOUTH PLANT,2270 HWY 79 S,MAGNOLIA,AR,71753,33.1756,-93.2169,COLUMBIA,325180,,71753THYLCROUTE,TRI
110000743508.0,ALBEMARLE CORPORATION-SOUTH PLANT,2270 HWY 79 SOUTH OF MAGNOLIA,MAGNOLIA,AR,71753.0,33.1756,-93.2169,COLUMBIA COUNTY,325188,,1004307,GHGRP
110000743982.0,P4 PRODUCTION LLC (TV FACILITY),1853 Hwy 34,SODA SPRINGS,ID,83276,42.68873,-111.58698,Caribou,32518,,932011,NEI
110000743982.0,P4 PRODUCTION LLC,1853 HWY 34,SODA SPRINGS,ID,83276,42.687031,-111.5878,CARIBOU,325180,,83276MNSNTHIGHW,TRI
110000743982.0,P4 PRODUCTION LLC,1853 HWY 34,SODA SPRINGS,ID,83276,42.687031,-111.5878,CARIBOU,325998,,83276MNSNTHIGHW,TRI
110000743982.0,P4 PRODUCTION L L C,1853 HIGHWAY 34,SODA SPRINGS,ID,83276.0,42.687031,-111.5878,CARIBOU COUNTY,325188,,1007943,GHGRP
110000746328.0,Westlake Vinyls Co LP,36045 Hwy 30,Geismar,LA,70734,30.19928,-91.02358,Ascension,325199,,7915011,NEI
110000746328.0,WESTLAKE VINYLS CO,36045 HWY 30,GEISMAR,LA,70734,30.208604,-91.011128,ASCENSION PARISH,325211,,70734BRDNCLOUIS,TRI
110000746328.0,WESTLAKE VINYLS CO LP,36045 Highway 30,GEISMAR,LA,70734.0,30.208604,-91.011128,ASCENSION PARISH,325199,,1004900,GHGRP
110000748059.0,PCS Nitrogen Fertilizer LP - Geismar Facility,5301 Hwy 3115,Geismar,LA,70734,30.21975,-91.05614,Ascension,325311,,6083511,NEI
110000748059.0,PCS NITROGEN FERTILIZER LP,HWY 3115 & HWY 30,GEISMAR,LA,70734,30.225784,-91.053154,ASCENSION PARISH,325311,,70734RCDNCHIGHW,TRI
110000748059.0,PCS NITROGEN FERTILIZER LP - GEISMAR AGRICULTURAL NITROGEN & PHOSPHATE PLANT,10886 Hwy 75,GEISMAR,LA,70734.0,30.225784,-91.053154,ASCENSION PARISH,325188,,1003489,GHGRP
110000748095.0,CONROE FACILITY,5451 JEFFERSON CHEMICAL RD,CONROE,TX,77305,30.313056,-95.38605,Montgomery,325110,,4945611,NEI
110000748095.0,HUNTSMAN PETROCHEMICAL LLC,5451 JEFFERSON CHEMICAL RD,CONROE,TX,77301,30.311361,-95.387083,MONTGOMERY,325199,,77301TXCCHJEFFE,TRI
110000748095.0,HUNTSMAN PETROCHEMICAL LLC,5451 JEFFERSON CHEMICAL ROAD,CONROE,TX,77301.0,30.311361,-95.387083,MONTGOMERY COUNTY,325199,,1002993,GHGRP
110000861862.0,PORT ARTHUR CHEMICALS,4241 SAVANNAH AVE,PORT ARTHUR,TX,77640,29.891217,-93.968014,Jefferson,325110,,6430411,NEI
110000861862.0,MOTIVA - PORT ARTHUR CHEMICALS,4241 SAVANNAH AVE,PORT ARTHUR,TX,77640,29.892778,-93.973333,JEFFERSON,325110,,77641TXCCHGATE2,TRI
110000861862.0,Motiva Chemicals LLC,4241 SAVANNAH AVE,PORT ARTHUR,TX,77640.0,29.892778,-93.973333,JEFFERSON COUNTY,325199,,1006891,GHGRP
110000878881.0,PQ CORP/CHESTER,1201 W FRONT ST,CHESTER,PA,19013-3436,39.8404,-75.37236,Delaware,325180,,5456011,NEI
110000878881.0,PQ Corp - Chester Plant,1201 W Front Street,Chester,PA,19013.0,39.840401,-75.372368,DELAWARE COUNTY,325188,,1008044,GHGRP
110001148598.0,Delaware City Refinery,4550 WRANGLE HILL RD,DELAWARE CITY,DE,19706,39.588611,-75.635555,New Castle,32411,,588311,NEI
110001148598.0,DELAWARE CITY REFINERY,4550 WRANGLE HILL RD,DELAWARE CITY,DE,19706,39.591,-75.634,NEW CASTLE,324110,,19706TXCDL2000W,TRI
110001148598.0,Delaware City Refinery,4550 WRANGLE HILL ROAD,DELAWARE CITY,DE,19706.0,39.5936,-75.6337,New Castle,324110,,1007322,GHGRP
110001187144.0,LUNDAY-THAGARD CO DBA WORLD OIL REFINING,9301  GARFIELD AVE,SOUTH GATE,CA,90280,33.945022,-118.166085,Los Angeles,324122,,5797411,NEI
110001187144.0,LUNDAY-THAGARD CO DBA WORLD OIL REFINING,9301 GARFIELD AVE,SOUTH GATE,CA,90280,33.946295,-118.16704,LOS ANGELES,324110,,90280LNDYT9301S,TRI
110001187144.0,LUNDAY-THAGARD COMPANY,9301 SOUTH GARFIELD AVENUE,SOUTH GATE,CA,90280.0,33.946295,-118.16704,LOS ANGELES COUNTY,324110,,1002286,GHGRP
110001387151.0,Carbide Industries LLC,4400 BELLS LN,LOUISVILLE,KY,40211-3727,38.2223,-85.83706,Jefferson,325180,,5832311,NEI
110001387151.0,CARBIDE INDUSTRIES LLC,4400 BELLS LN,LOUISVILLE,KY,40211,38.2219,-85.835574,JEFFERSON,325180,,40201RCCRB4400B,TRI
110001387151.0,Carbide Industries LLC,4400 Bells Lane,Louisville,KY,40211.0,38.2219,-85.835574,JEFFERSON COUNTY,325188,,1005537,GHGRP
110002321381.0,PRAXAIR INC,2551 Dickey Rd,East Chicago,IN,46312,41.6677,-87.4686,Lake,32512,,7250911,NEI
110002321381.0,"LINDE - WHITING, IN 1-4",2551 DICKEY ROAD,EAST CHICAGO,IN,46312.0,41.668631,-87.472829,LAKE COUNTY,325120,,1002119,GHGRP
110002899908.0,CHEVRON REFINERY,Unknown,EL SEGUNDO,CA,00000,33.9142,-118.427,Los Angeles,48811,,11161011,NEI
110002899908.0,CHEVRON PRODUCTS CO.,324 W EL SEGUNDO BLVD,EL SEGUNDO,CA,90245,33.9082,-118.4085,Los Angeles,324110,,4086111,NEI
110002899908.0,CHEVRON PRODUCTS CO. DIV OF CHEVRON USA INC.,324 W EL SEGUNDO BLVD,EL SEGUNDO,CA,90245,33.9082,-118.4085,LOS ANGELES,324110,,90245CHVRN324WE,TRI
110002899908.0,"CHEVRON PRODUCTS, EL SEGUNDO REFINERY",324 W EL SEGUNDO BLVD,EL SEGUNDO,CA,90245.0,33.9082,-118.4085,LOS ANGELES COUNTY,324110,,1007978,GHGRP
110007175154.0,SEADRIFT PLANT,HIGHWAY 185,SEADRIFT,TX,77983,28.510567,-96.770508,Calhoun,325110,,5846511,NEI
110007175154.0,UNION CARBIDE CORP SEADRIFT PLANT,7501 N HWY 185,SEADRIFT,TX,77983,28.510636,-96.771527,CALHOUN,325199,,77979NNCRBPOBOX,TRI
110007175154.0,UCC SEADRIFT OPERATIONS,7501 HIGHWAY 185 NORTH,SEADRIFT,TX,77983.0,28.510636,-96.771527,CALHOUN COUNTY,325199,,1002967,GHGRP
110008361263.0,Marathon Petroleum Co LLC - Catlettsburg Refining,11631 US 23,Catlettsburg,KY,41129,38.377246,-82.597162,Boyd,32411,,7331911,NEI
110008361263.0,CATLETTSBURG REFINING LLC,11631 US RT 23,CATLETTSBURG,KY,41129,38.377246,-82.597162,BOYD,324110,,41114CTLTTPOBOX,TRI
110008361263.0,"Catlettsburg Refining, LLC",11631 US Route 23,Catlettsburg,KY,41129.0,38.375,-82.6042,BOYD COUNTY,324110,,1007913,GHGRP
110010653257.0,UOP LLC - UOP Shreveport Plant,8725 Old Mooringsport Rd,Blanchard,LA,71009,32.61756,-93.92636,Caddo,325180,,7929511,NEI
110010653257.0,UOP-SHREVEPORT PLANT,8725 OLD MOORINGSPORT RD,SHREVEPORT,LA,71107,32.61739,-93.92444,CADDO PARISH,325180,,71009PNCXXHIGHW,TRI
110010653257.0,UOP.LLC SHREVEPORT,8725 OLD MOORINGSPORT RD,SHREVEPORT,LA,71120.0,32.61451,-93.92248,CADDO PARISH,325188,,1000629,GHGRP
110011031052.0,Western Refining - Gallup Refinery,17 miles E of Gallup,Gallup,NM,87301,35.490278,-108.425,McKinley,32411,,8105511,NEI
110011031052.0,WESTERN REFINING SOUTHWEST INC-GALLUP REFINERY,92 GIANT CROSSING ROAD,GALLUP,NM,87301,35.490278,-108.425,MCKINLEY,324110,,87301GNTRFROUTE,TRI
110011031052.0,GALLUP REFINERY,92 Giant Crossing,Jamestown,NM,87347.0,35.490278,-108.425,MCKINLEY COUNTY,324110,,1003355,GHGRP
110012169517.0,"EQUISTAR CHEMICALS, LP",3400 ANAMOSA RD,CLINTON,IA,52732,41.807131,-90.297267,Clinton,325110,,5509711,NEI
110012169517.0,EQUISTAR CHEMICALS CLINTON PLANT,3400 ANAMOSA RD HWY 30 W,CLINTON,IA,52732,41.807,-90.296,CLINTON,325211,,52732QNTMCUSHWY,TRI
110012169517.0,EQUISTAR CHEMICALS CLINTON PLANT,3400 ANAMOSA RD HWY 30 W,CLINTON,IA,52732,41.807,-90.296,CLINTON,325199,,52732QNTMCUSHWY,TRI
110012169517.0,EQUISTAR CHEMICALS LP,3400 ANAMOSA ROAD,CLINTON,IA,52732.0,41.807,-90.296,CLINTON COUNTY,325199,,1002927,GHGRP
110013662009.0,Shell Chemical LP - Norco West Site Facility,16122 River Rd,Norco,LA,70079,30.00468,-90.42359,St. Charles,325199,,8026211,NEI
110013662009.0,HEXION INC,16122 RIVER RD LOT 3,NORCO,LA,70079,29.99806,-90.4,ST. CHARLES PARISH,325199,,70079RSLTN16122,TRI
110013662009.0,HEXION INC.,16122 RIVER RD LOT 3,NORCO,LA,70079.0,29.99806,-90.4,ST. CHARLES PARISH,325199,,1005744,GHGRP
110013662009.0,Union Carbide Norco Catalyst Plant,16122 River Rd,Norco,LA,70079,29.99806,-90.4,St. Charles,325180,,5640011,NEI
110013831201.0,Shell Chemical LP - Norco Chemical Plant - East Site,15536 River Rd,Norco,LA,70079,30.01594,-90.39639,St. Charles,325110,,8239511,NEI
110013831201.0,SHELL NORCO CHEMICAL PLANT,15536 RIVER RD,NORCO,LA,70079,30.000964,-90.403863,ST. CHARLES PARISH,325110,,70079SHLLL1205R,TRI
110013831201.0,SHELL NORCO CHEMICAL PLANT,15536 RIVER RD,NORCO,LA,70079,30.000964,-90.403863,ST. CHARLES PARISH,324110,,70079SHLLL1205R,TRI
110013831201.0,Norco Manufacturing Complex,15536 River Road,Norco,LA,70079.0,30.000964,-90.403863,ST. CHARLES PARISH,324110,,1005911,GHGRP
110014329994.0,FIRST CHEMICAL CORPORATION,1001 INDUSTRIAL ROAD,PASCAGOULA,MS,39581,30.355278,-88.494944,Jackson,325998,,8384911,NEI
110014329994.0,FIRST CHEMICAL CORP,1001 IND US TRIAL RD,PASCAGOULA,MS,39581,30.355278,-88.494944,JACKSON,325110,,39567FRSTC1001I,TRI
110014329994.0,FIRST CHEMICAL CORP,1001 INDUSTRIAL ROAD,PASCAGOULA,MS,39581.0,30.355278,-88.494944,JACKSON COUNTY,325199,,1002589,GHGRP
110015682830.0,PONCA CITY REFINERY,1000 S PINE,PONCA CITY,OK,74601-7501,36.68541,-97.08541,Kay,324110,,7320011,NEI
110015682830.0,PHILLIPS 66 PONCA CITY SITE,1000 S PINE ST,PONCA CITY,OK,746017501,36.6821,-97.0895,KAY,424710,,74603CNCPN1000S,TRI
110015682830.0,PHILLIPS 66 PONCA CITY SITE,1000 S PINE ST,PONCA CITY,OK,746017501,36.6821,-97.0895,KAY,324110,,74603CNCPN1000S,TRI
110015682830.0,PONCA CITY PIPELINE ACTIVITIES,1000 S PINE ST,PONCA CITY,OK,74601,36.68016,-97.09693,Kay,486110,,10722511,NEI
110015682830.0,Phillips 66 Ponca City Refinery,1000 South Pine,Ponca City,OK,74601.0,36.6821,-97.0895,KAY COUNTY,324110,,1001920,GHGRP
110016678969.0,CHS McPherson Refinery,1391 IRON HORSE ROAD,MCPHERSON,KS,67460,38.347278,-97.673846,McPherson,324110,,8067211,NEI
110016678969.0,CHS MCPHERSON REFINERY - SRU,2000 S MAIN ST,MCPHERSON,KS,67460,38.347278,-97.673846,MCPHERSON,325311,,67460NTNLC2000M,TRI
110016678969.0,CHS MCPHERSON REFINERY - SRU,2000 S MAIN ST,MCPHERSON,KS,67460,38.347278,-97.673846,MCPHERSON,324110,,67460NTNLC2000M,TRI
110016678969.0,CHS MCPHERSON REFINERY INC.,2000 SOUTH MAIN STREET,MCPHERSON,KS,67460.0,38.3468,-97.6745,MCPHERSON COUNTY,324110,,1007942,GHGRP
110017418061.0,Sasol Chemicals (USA) LLC - Lake Charles Chemical Complex,2201 Old Spanish Trail,Westlake,LA,70669,30.25171,-93.27232,Calcasieu,325110,,8468011,NEI
110017418061.0,SASOL CHEMICALS (USA) LLC-LAKE CHARLES CHEMICAL COMPLEX,2201 OLD SPANISH TRAIL,WESTLAKE,LA,70669,30.2588,-93.2937,CALCASIEU PARISH,325199,,70669VSTCHOLDSP,TRI
110017418061.0,Sasol Chemicals (USA) LLC - LAKE CHARLES CHEMICAL COMPLEX,2201 OLD SPANISH TRAIL,WESTLAKE,LA,70669.0,30.2588,-93.2937,CALCASIEU PARISH,325199,,1005823,GHGRP
110017419667.0,LION OIL COMPANY,1000 McHenry Ave,EL DORADO,AR,71730,33.195555,-92.681111,Union,32411,,993611,NEI
110017419667.0,LION OIL CO,1000 MCHENRY AVE,EL DORADO,AR,71730,33.200091,-92.675095,UNION,324110,,71730LNLRF1000M,TRI
110017419667.0,LION OIL CO-EL DORADO REFINERY,1000 MCHENRY,EL DORADO,AR,71730.0,33.200091,-92.675095,UNION COUNTY,324110,,1007861,GHGRP
110017579850.0,ICL Specialty Products,440 N. 9TH STREET,LAWRENCE,KS,66044-5424,38.980718,-95.211087,Douglas,325998,,4827011,NEI
110017579850.0,ICL,440 NORTH 9TH STREET,LAWRENCE,KS,66044.0,38.97993,-95.21443,DOUGLAS COUNTY,325188,,1003370,GHGRP
110017746368.0,SABINE RIVER WORKS,FM 1006,ORANGE,TX,77630,30.052211,-93.756314,Orange,325110,,4190211,NEI
110017746368.0,DOW SABINE RIVER OPERATIONS,FARM RD 1006,ORANGE,TX,77630,30.054796,-93.753863,ORANGE,325110,,77631DPNTSFARMR,TRI
110017746368.0,SABINE RIVER OPERATIONS,3055 FARM RD. 1006,ORANGE,TX,77631.0,30.054796,-93.753863,ORANGE COUNTY,325199,,1003382,GHGRP
110017866727.0,Countrymark Refining and Logistics LLC,1200 Refinery Rd,Mount Vernon,IN,47620,37.9419,-87.9109,Posey,32411,,8166011,NEI
110017866727.0,COUNTRYMARK REFINING & LOGISTICS LLC,6701 LOWER NEW HARMONY ROAD,MOUNT VERNON,IN,47620,37.925417,-87.904972,POSEY,324110,,47620NDNFR1200R,TRI
110017866727.0,COUNTRYMARK REFINING & LOGISTICS LLC,1200 REFINERY RD,MT VERNON,IN,47620.0,37.925417,-87.904972,POSEY COUNTY,324110,,1005899,GHGRP
110018270672.0,Solvay USA Inc,1020 State St,Chicago Heights,IL,60411-2908,41.512055,-87.617364,Cook,325180,,10691811,NEI
110018270672.0,Solvay USA,1020 STATE ST,CHICAGO HEIGHTS,IL,60411.0,41.512055,-87.617364,COOK COUNTY,325188,,1006664,GHGRP
110027373045.0,ASCEND PERFORMANCE MATERIALS OPERATIONS,3000 OLD CHEMSTRAND RD,CANTONMENT,FL,32533,30.59903,-87.25021,Escambia,325220,,751411,NEI
110027373045.0,ASCEND PERFORMANCE MATERIALS OPERATIONS LLC,3000 OLD CHEMSTRAND RD,CANTONMENT,FL,325338926,30.596678,-87.251977,ESCAMBIA,325211,,32533MNSNT3000O,TRI
110027373045.0,ASCEND PERFORMANCE MATERIALS OPERATIONS LLC,3000 OLD CHEMSTRAND RD,CANTONMENT,FL,325338926,30.596678,-87.251977,ESCAMBIA,325110,,32533MNSNT3000O,TRI
110027373045.0,Ascend Performance Materials LLC,3000 Old Chemstrand Road,Cantonment,FL,32533.0,30.596678,-87.251977,ESCAMBIA COUNTY,325211,,1004962,GHGRP
110027982565.0,"ERGON - WEST VIRGINIA, INC.",9995 OHIO RIVER BLVD.,NEWELL,WV,26050,40.611,-80.631,Hancock,32411,,4781911,NEI
110027982565.0,ERGON WEST VIRGINIA INC,9995 OHIO RIVER BLVD,NEWELL,WV,26050,40.611414,-80.629099,HANCOCK,324110,,26050RGNWSSTATE,TRI
110027982565.0,ERGON WEST VIRGINIA INC,9995 OHIO RIVER BLVD,NEWELL,WV,26050.0,40.6111,-80.630833,HANCOCK COUNTY,324110,,1007882,GHGRP
110028187049.0,TEXAS CITY CHEMICAL PLANT,2800 FM 519 E,TEXAS CITY,TX,77590,29.363614,-94.904519,Galveston,325110,,3930711,NEI
110028187049.0,BP AMOCO CHEMICAL COMPANY,2800 FM 519 EAST,TEXAS CITY,TX,77590,29.361045,-94.930351,GALVESTON,325110,,77590MCLCM24015,TRI
110028187049.0,INEOS STYROLUTION TEXAS CITY PLANT,2800 FM 519 E,TEXAS CITY,TX,77592,29.358958,-94.931444,Galveston,325110,,10722911,NEI
110028187049.0,INEOS NOVA LLC Texas City Site,2800 FM 519 E,TEXAS CITY,TX,77592.0,29.361045,-94.930351,GALVESTON COUNTY,325199,,1003429,GHGRP
110031267064.0,SHELL DEER PARK REFINERY,Unknown,DEER PARK,TX,00000,29.7151,-95.144,Harris,48811,,12193311,NEI
110031267064.0,DEER PARK PLANT,HWY 225 W OF BATTLEGROUND RD,DEER PARK,TX,77536,29.721106,-95.125025,Harris,324110,,4168511,NEI
110031267064.0,HEXION DEER PARK,5900 LA PORTE FWY,DEER PARK,TX,77536,29.717558,-95.119908,Harris,325211,,4982011,NEI
110031267064.0,DEER PARK REFINING LP,5900 HWY 225 EAST,DEER PARK,TX,77536,29.722222,-95.126944,HARRIS,324110,,77536DRPRK5900H,TRI
110031267064.0,WESTLAKE EPOXY INC.- DEER PARK SITE,5900 HIGHWAY 225 - GATE 7B,DEER PARK,TX,77536,29.722222,-95.126944,HARRIS,325211,,77536RSLTN5900H,TRI
110031267064.0,SHELL CHEMICAL LP,5900 HWY 225 EAST,DEER PARK,TX,77536,29.722222,-95.126944,HARRIS,325110,,77536SHLLLHIGHW,TRI
110031267064.0,SHELL DEER PARK REFINERY,5900 HIGHWAY 225 EAST,DEER PARK,TX,77536.0,29.722222,-95.126944,HARRIS COUNTY,324110,,1007002,GHGRP
110031352649.0,TICONA POLYMERS BISHOP FACILITY,1 M S OF BISHOP ON US HWY 77 BUS,BISHOP,TX,78343,27.572089,-97.821236,Nueces,325110,,4929511,NEI
110031352649.0,OQ CHEMICALS BISHOP LLC,5738 COUNTY ROAD 4 - BISHOP,BISHOP,TX,78343,27.5672,-97.8254,NUECES,325199,,78343XBSHPUSHWY,TRI
110031352649.0,TICONA POLYMERS INCORPORATED,5738 COUNTY ROAD 4,BISHOP,TX,78343.0,27.5672,-97.8254,NUECES COUNTY,325211,,1007868,GHGRP
110031352649.0,BISHOP PLANT,FROM BISHOP TX NORTH CITY LIMITS TAKE BUS HWY 77 SOUTH TO FM 4 TURN RIGHT TO PLANT ENTRANCE,BISHOP,TX,78343,27.567964,-97.826,Nueces,325110,,13389511,NEI
110031409973.0,BAYPORT FACILITY,10601 BAY AREA BLVD,LA PORTE,TX,77571,29.610903,-95.051231,Harris,325110,,4862611,NEI
110031409973.0,DIXIE CHEMICAL CO INC,10601 BAY AREA BLVD,PASADENA,TX,77507,29.612017,-95.050481,HARRIS,325199,,77507DXCHM10701,TRI
110031409973.0,Dixie Chemical Company,10601 Bay Area Blvd,Pasadena,TX,77507.0,29.612017,-95.050481,HARRIS COUNTY,325199,,1005947,GHGRP
110032911669.0,TEXAS CITY REFINERY,LOOP 197 S  14TH ST,TEXAS CITY,TX,77590,29.366606,-94.913181,Galveston,324110,,4033811,NEI
110032911669.0,VALERO REFINING-TEXAS LP,1301 LOOP 197 S,TEXAS CITY,TX,77590,29.369167,-94.911111,GALVESTON,324110,,77592TXSCTLOOP1,TRI
110032911669.0,VALERO REFINING TEXAS CITY REFINERY,1301 LOOP 197 S,TEXAS CITY,TX,77590.0,29.369167,-94.911111,GALVESTON COUNTY,324110,,1008938,GHGRP
110032911669.0,TEXAS CITY TANK FARM,1301 LOOP 197S,TEXAS CITY,TX,77590,29.370703,-94.898881,Galveston,424710,,13380311,NEI
110040620600.0,ERGON REFINING INC,2125 HAINING ROAD,VICKSBURG,MS,39183,32.388369,-90.906375,Warren,32411,,6284911,NEI
110040620600.0,ERGON REFINING INC,2125 HAINING RD,VICKSBURG,MS,39183.0,32.388015,-90.900203,WARREN COUNTY,324110,,1008014,GHGRP
110040941531.0,AKZO NOBEL PULP AND PERFORMANCE CHEMICAL,4374 NASHVILLE FERRY ROAD EAST,COLUMBUS,MS,39702,33.423611,-88.395,Lowndes,32532,,7069811,NEI
110040941531.0,Nouryon Pulp & Performance Chemicals LLC,4374 NASHVILLE FERRY ROAD EAST,COLUMBUS,MS,39702.0,33.423653,-88.395103,LOWNDES COUNTY,325188,,1007767,GHGRP
110041023807.0,VALERO REFINING CO,Unknown,KROTZ SPRINGS,LA,00000,30.5331,-91.7501,St. Landry,48811,,12483611,NEI
110041023807.0,Alon Refining Krotz Springs Inc,"256 S Levee Rd, Hwy 105",Krotz Springs,LA,70750,30.52477,-91.75273,St. Landry,324110,,8240011,NEI
110041023807.0,ALON REFINING KROTZ SPRINGS INC,HWY 105 S,KROTZ SPRINGS,LA,70750,30.526504,-91.748383,ST. LANDRY PARISH,324110,,70750HLLPTHWY10,TRI
110041023807.0,ALON REFINING KROTZ SPRINGS INC,356 S. LEVEE RD,KROTZ SPRINGS,LA,70750.0,30.526504,-91.748383,ST. LANDRY PARISH,324110,,1007622,GHGRP
110041055032.0,W R Grace & Co-Conn - Lake Charles Facility,1800 Davison Rd,Sulphur,LA,70665,30.15605,-93.34075,Calcasieu,325998,,8467811,NEI
110041055032.0,W R GRACE & CO-CONN GRACE,1800 DAVISON RD,SULPHUR,LA,70665,30.156194,-93.339443,CALCASIEU PARISH,325180,,70663WRGRCDAVIS,TRI
110041055032.0,GRACE DAVISON,1800 DAVISON ROAD,SULPHUR,LA,70665.0,30.156194,-93.339443,CALCASIEU PARISH,325188,,1003857,GHGRP
110041133163.0,BAYWAY REFINERY,Unknown,LINDEN,NJ,00000,40.6362,-74.2343,Union,48811,,12323111,NEI
110041133163.0,Phillips 66 Bayway Refinery,1400 PARK AVE,LINDEN,NJ,07036,40.6365,-74.2199,Union,324110,,7903711,NEI
110041133163.0,PHILLIPS 66 CO-BAYWAY REFINERY,1400 PARK AVE,LINDEN,NJ,7036,40.6365,-74.2199,UNION,324110,,07036XXNXX1400P,TRI
110041133163.0,Phillips 66 BAYWAY REFINERY,1400 PARK AVE,LINDEN,NJ,7036.0,40.6365,-74.2199,UNION COUNTY,324110,,1004305,GHGRP
110041135580.0,Marathon Petroleum Company LP - Louisiana Refining Division - Garyville Refinery,4663 W Airline Hwy,Garyville,LA,70051,30.06213,-90.59537,St. John the Baptist,324110,,8241011,NEI
110041135580.0,MARATHON PETROLEUM CO LP,4663 W AIRLINE HWY,GARYVILLE,LA,70051,30.06132,-90.59353,ST. JOHN THE BAPTIST PARISH,324110,,70051MRTHNHWY61,TRI
110041135580.0,Garyville Refinery,155 Sugarcane Road,Garyville,LA,70051.0,30.06132,-90.59353,ST. JOHN THE BAPTIST PARISH,324110,,1003043,GHGRP
110041135580.0,AIR PRODUCTS AND CHEMICALS INC - GARYVILLE,4663 W AIRLINE HWY,GARYVILLE,LA,70051.0,30.09959,-90.648851,ST. JOHN THE BAPTIST PARISH,325120,,1002727,GHGRP
110043785909.0,DuPont Kinston Plant,4693 Hwy 11 North,Grifton,NC,28530,35.3318,-77.4795,Lenoir,325220,,8124911,NEI
110043785909.0,COVATION BIOMATERIALS KINSTON SITE,4693 HIGHWAY 11 N,GRIFTON,NC,28530,35.3306,-77.4772,LENOIR,325211,,28502DPNTKNCHIG,TRI
110043785909.0,DUPONT KINSTON PLANT,"4693 N. C. HIGHWAY, 11 NORTH",Grifton,NC,28530.0,35.3306,-77.4772,LENOIR COUNTY,325211,,1004136,GHGRP
110043973910.0,LANXESS - WEST PLANT,5821 SHULER RD,MAGNOLIA,AR,71753,33.183889,-92.937778,COLUMBIA,325180,,71730GRTLKUNION,TRI
110043973910.0,LANXESS Corporation - West Plant,5821 SHULER ROAD,EL Dorado,AR,71730.0,33.183889,-92.937778,UNION COUNTY,325188,,1008038,GHGRP
110043973910.0,Great Lakes Chemical Corp-West Plant,5821 Shuler Road,Marysville,AR,71753,33.18407,-92.93779,Union,325411,,1016411,NEI
110043993211.0,Shell Catalysts & Technologies LP - Port Allen Plant,1699 Catalyst Dr,Port Allen,LA,70767,30.49374,-91.21979,West Baton Rouge,325180,,9583011,NEI
110043993211.0,SHELL CATALYST & TECHNOLOGIES,1699 CATALYST DR.,PORT ALLEN,LA,70767,30.4943,-91.21708,WEST BATON ROUGE PARISH,325180,,7076WCRTRN1699C,TRI
110043993211.0,Shell Catalysts and Technologies L.P.,1699 Catalyst Drive,Port Allen,LA,70767.0,30.4943,-91.21708,WEST BATON ROUGE PARISH,325188,,1010792,GHGRP
110055592327.0,PPG Industries Inc - Silica Plant,3150 Pete Manena Rd,Westlake,LA,70669,30.22899,-93.29429,Calcasieu,325998,,16858211,NEI
110055592327.0,"PPG Industries, Inc",3150 Pete Manena Rd,Westlake,LA,70669.0,30.230982,-93.292406,CALCASIEU PARISH,325188,,1010877,GHGRP
110056955987.0,ALBEMARLE CORP,2500 N SOUTH ST,PASADENA,TX,77503,29.736667,-95.168056,Harris,325110,,6536811,NEI
110056955987.0,ALBEMARLE CORP PASADENA PLANT,2500 N SOUTH ST,PASADENA,TX,77503,29.742498,-95.165513,HARRIS,325199,,77503LBMRL2500N,TRI
110056955987.0,ALBEMARLE CORPORATION HOUSTON PLANT,2500 N. SOUTH ST.,PASADENA,TX,77503.0,29.742498,-95.165513,HARRIS COUNTY,325199,,1003402,GHGRP
110056956511.0,Dow Silicones Corp,4770 US 42 E,Carrollton,KY,41008-8123,38.7074,-85.1048,Carroll,326199,,8194311,NEI
110056956511.0,DOW SILICONES CORP,4770 US HWY 42,CARROLLTON,KY,41008,38.7074,-85.1048,CARROLL,325199,,41008DWCRNUSHIG,TRI
110056956511.0,DOW SILICONES CORPORATION,4770 HIGHWAY 42 EAST,CARROLLTON,KY,41008.0,38.7074,-85.1048,CARROLL COUNTY,325199,,1002548,GHGRP
110057337458.0,"Kraton Chemical, LLC",1201 West Lathrop Ave,Savannah,GA,31415,32.09636,-81.125537,Chatham,325194,,7416011,NEI
110057337458.0,"Kraton Chemical, LLC",1201 West Lathrop Avenue,Savannah,GA,31415.0,32.09786,-81.12113,CHATHAM COUNTY,325211,,1002542,GHGRP
110059763536.0,GALVESTON BAY REFINERY,2401 5TH AVE S IN TEXAS CITY,TEXAS CITY,TX,77592,29.374119,-94.9213,Galveston,324110,,4835311,NEI
110059763536.0,BLANCHARD REFINING CO LLC,2401 5TH AVE S,TEXAS CITY,TX,77590,29.374444,-94.925,GALVESTON,324110,,7759WBLNCH2415T,TRI
110059763536.0,BLANCHARD REFINING CO LLC,2401 5TH AVE S,TEXAS CITY,TX,77590,29.374444,-94.925,GALVESTON,221112,,7759WBLNCH2415T,TRI
110059763536.0,Galveston Bay Refinery,2401 5TH AVE S IN TEXAS CITY,TEXAS CITY,TX,77592.0,29.3775,-94.9328,GALVESTON COUNTY,324110,,1005585,GHGRP
110066943605.0,BLUE CUBE OPERATIONS FREEPORT,2301 N BRAZOSPORT BLVD,FREEPORT,TX,77541,28.989642,-95.411392,Brazoria,325110,,17735411,NEI
110066943605.0,FREEPORT_OLIN BC,2301 N BRAZOSPORT BLVD,FREEPORT,TX,77541,28.969389,-95.379528,BRAZORIA,325199,,7754WBLCBP231NB,TRI
110066943605.0,"Olin Blue Cube, Freeport, TX","2301 N. Brazosport Blvd., OC-1120",Freeport,TX,77541.0,28.969389,-95.379528,BRAZORIA COUNTY,325199,,1011834,GHGRP
110070828211.0,Marathon Petroleum Co LLC,400 Marathon Ave,Robinson,IL,62454-3400,38.998676,-87.724781,Crawford,324110,,8222511,NEI
110070828211.0,Robinson Refinery,400 S. Marathon Avenue,Robinson,IL,62454.0,39.0,-87.7222,Crawford,324110,,1000099,GHGRP
110070828211.0,Martin Marietta Materials Inc,400 S Marathon Ave,Robinson,IL,62454-3400,39.003307,-87.726171,Crawford,212312,,2667111,NEI
110000463542.0,LA PORTE PLANT,12501 STRANG RD,LA PORTE,TX,77571,29.696944,-95.027778,Harris,325110,,4018511,NEI
110000463542.0,E I DU PONT DE NEMOURS LA PORTE PLANT,12501 STRANG RD.,LA PORTE,TX,77571.0,29.700264,-95.036967,HARRIS COUNTY,325199,,1002003,GHGRP
110000490870.0,SOLVAY CHEMICALS INC,3500 INDUSTRIAL WAY,LONGVIEW,WA,98632,46.136952,-122.982513,COWLITZ,325180,,98632NTRXM3500I,TRI
110000490870.0,SOLVAY CHEMICALS INC,3500 INDUSTRIAL WAY,LONGVIEW,WA,98632.0,46.136952,-122.982513,COWLITZ COUNTY,325188,,1005156,GHGRP
110043782788.0,DEER PARK VCM PLANT,1000 TIDAL RD INSIDE SHELL DEER PARK MFG COMPLEX,DEER PARK,TX,77536,29.716181,-95.123392,Harris,325110,,4778211,NEI
110043782788.0,DEER PARK PVC CAUSTIC PLANT HOUSTON,1000 TIDAL RD,DEER PARK,TX,77536,29.732558,-95.108347,Harris,325180,,4981011,NEI
110043782788.0,OXY VINYLS LP - Deer Park PVC,1000 TIDAL ROAD,DEER PARK,TX,77536.0,29.72613,-95.10802,HARRIS COUNTY,325211,,1001712,GHGRP
110043788719.0,LYONDELLBASELL METHANOL,11603 STRANG RD,LA PORTE,TX,77572,29.706044,-95.055725,Harris,325110,,4055111,NEI
110043788719.0,LA PORTE METHANOL PLANT,11603 STRANG RD,LA PORTE,TX,77571,29.706291,-95.057016,HARRIS,325199,,77571LPRTM11603,TRI
110043788719.0,"LYONDELLBASELL ACETYLS LLC, LA PORTE METHANOL PLANT",11603 STRANG ROAD,LA PORTE,TX,77571.0,29.70231,-95.05492,HARRIS COUNTY,325199,,1004807,GHGRP
110067040703.0,CLEAR LAKE PLANT,9502 BAYPORT BLVD,PASADENA,TX,77507,29.625769,-95.063564,Harris,325120,,10679911,NEI
110067040703.0,CLEAR LAKE OPERATIONS,9502 B BAYPORT BLVD B,PASADENA,TX,77501,29.623028,-95.06155,Harris,325110,,13411211,NEI
110067040703.0,CLEAR LAKE PLANT,9502 BAYPORT BLVD,PASADENA,TX,77507,29.622964,-95.065828,Harris,325110,,4057911,NEI
110067040703.0,ARKEMA INC CLEAR LAKE,9502 B BAYPORT BLVD,PASADENA,TX,77507,29.62139,-95.06389,HARRIS,325110,,77507DWCHM952BB,TRI
110067040703.0,CLARIANT CORP CLEAR LAKE PLANT,9502 BAYPORT BLVD - ETOX UNIT,PASADENA,TX,77507,29.625819,-95.061592,HARRIS,325613,,7750WCLRNT952BA,TRI
110067040703.0,ARKEMA INC CLEAR LAKE,9502 BAYPORT BLVD STE B,PASADENA,TX,77507.0,29.625819,-95.061592,HARRIS COUNTY,325110,,1006797,GHGRP
110067040703.0,"LINDE GAS NORTH AMERICA LLC, CLEARLAKE PLANT",9502 BAYPORT DRIVE,PASADENA,TX,77507.0,29.625819,-95.061592,HARRIS COUNTY,325120,,1003049,GHGRP
110055053926.0,"Total Petrochemical and Refining USA, Inc.",Highway 17 South,Chatom,AL,36518,31.45488,-88.25756,Washington,325211,,1028811,NEI
110055053926.0,TOTALENERGIES PETROCHEMICALS & REFINING USA INC.,16150 JORDAN ST,CHATOM,AL,36518,31.4559,-88.25811,WASHINGTON,325199,,36518RCKLNHIGHW,TRI
110025376448.0,Arkema Inc,13755 US Hwy 43 N,Axis,AL,36505,30.978762,-88.029374,Mobile,325199,,1062311,NEI
110025376448.0,ARKEMA INC,13755 HWY 43 N,AXIS,AL,36505,30.979167,-88.028833,MOBILE,325211,,36505MTCHMHWY43,TRI
110000363302.0,"BRENNTAG MID-SOUTH, INC.",250 Central Florida Pkwy,ORLANDO,FL,32824-7601,28.406966,-81.378089,Orange,325199,,12771311,NEI
110000363302.0,BRENNTAG MID-SOUTH INC.,250 CENTRAL FLORIDA PKWY,ORLANDO,FL,32824,28.406961,-81.378089,ORANGE,424690,,32824PBSCH250CE,TRI
110001122044.0,BIMAX INC/SPRINGFIELD,INDUSTRIAL LN,SHREWSBURY,PA,17327,39.82318,-76.69658,York,325199,,12798611,NEI
110001122044.0,GELEST INC,158 INDUSTRIAL RD,GLEN ROCK,PA,17327,39.818601,-76.6872,YORK,325998,,17327PMXNC158IN,TRI
110018869474.0,MONSANTO COMPANY - MUSCATINE 3670,2500 WIGGENS RD,MUSCATINE,IA,52761,41.349908,-91.085257,Muscatine,325199,,12807511,NEI
110018869474.0,MONSANTO COMPANY - MUSCATINE 6908,2500 WIGGENS RD,MUSCATINE,IA,52761,41.34852,-91.0811,Muscatine,325199,,12807611,NEI
110018869474.0,MONSANTO COMPANY - MUSCATINE 6909,2500 WIGGENS RD,MUSCATINE,IA,52761,41.350135,-91.082669,Muscatine,325320,,12807711,NEI
110018869474.0,BAYER CROPSCIENCE LP,2500 WIGGINS RD,MUSCATINE,IA,52761,41.350469,-91.081619,MUSCATINE,325320,,52761MNSNTWIGGI,TRI
110022523045.0,Commonwealth Agri-Energy LLC,4895 Pembroke Rd,Hopkinsville,KY,42241,36.808306,-87.41475,Christian,325199,,13715611,NEI
110022523045.0,COMMONWEALTH AGRI-ENERGY LLC,4895 PEMBROKE RD,HOPKINSVILLE,KY,42240,36.81342,-87.41009,CHRISTIAN,325193,,42241CMMNW4895P,TRI
110022523045.0,COMMONWEALTH AGRI-ENERGY LLC,4895 PEMBROKE RD,HOPKINSVILLE,KY,42240.0,36.81342,-87.41009,CHRISTIAN COUNTY,325193,,1005115,GHGRP
110027254986.0,PACIFIC ETHANOL MADERA LLC,31470 AVENUE 12,MADERA,CA,93637,36.923137,-119.976078,Madera,325199,,13871011,NEI
110027254986.0,PACIFIC ETHANOL MADERA LLC,31470 AVE 12,MADERA,CA,93638,36.92327,-119.97549,MADERA,325193,,93637PCFCT3147A,TRI
110027254986.0,"Seaboard Energy California, LLC",31470 Avenue 12,Madera,CA,93638.0,36.92327,-119.97549,MADERA COUNTY,325193,,1011577,GHGRP
110056904060.0,"POET Biorefining - Marion, LLC (0351010207)",Hillman-Ford Road,Marion,OH,43302,40.62564,-83.15796,Marion,325199,,14690911,NEI
110056904060.0,POET BIOREFINING-MARION LLC,1660 HILLMAN FORD RD,MARION,OH,43302,40.61855,-83.15954,MARION,325193,,43302PTBRF166HI,TRI
110056904060.0,Marion Ethanol LLC d/b/a Poet Biorefining - Marion,1660 Hillman Ford Road,Marion,OH,43302.0,40.61855,-83.15954,MARION COUNTY,325193,,1004902,GHGRP
110037615694.0,Andersons Marathon Ethanol LLC (0819750245),5278 SEBRING WARNER RD,Greenville,OH,45331,40.08134,-84.59076,Darke,325199,,14712111,NEI
110037615694.0,THE ANDERSONS MARATHON HOLDINGS LLC,5728 E SEBRING WARNER RD,GREENVILLE,OH,45331.0,40.081111,-84.591667,DARKE COUNTY,325193,,1000035,GHGRP
110000388946.0,OMNOVA Solutions Inc. (1667000007),165 S. CLEVELAND AVENUE,Mogadore,OH,44260,41.045663,-81.391134,Portage,325211,,14732011,NEI
110000388946.0,OMNOVA SOLUTIONS INC-MOGADORE PLANT,165 S CLEVELAND AVE,MOGADORE,OH,44260,41.045663,-81.391134,PORTAGE,325212,,44260DVRST165SC,TRI
110030917603.0,Flint Hills Resources Fairmont,1214 Road G,Fairmont,NE,68354-3054,40.616285,-97.604068,Fillmore,325199,,15083411,NEI
110030917603.0,POET BIOREFINING - FAIRMONT LLC,1214 COUNTY RD G,FAIRMONT,NE,68354,40.61137,-97.6014,FILLMORE,325193,,68354BFRMN1214R,TRI
110041625202.0,Arkema Inc - Arkema Emulsion Systems,355 Hwy 3142,Hahnville,LA,70057,29.98553,-90.44728,St. Charles,325211,,15086811,NEI
110041625202.0,ARKEMA COATING RESINS,355 HIGHWAY 3142,HAHNVILLE,LA,70057,29.98553,-90.44728,ST. CHARLES PARISH,325510,,7005WRKMML355HW,TRI
110000818081.0,CARPENTER CO/UPPER MACUNGIE,PO BOX 519,FOGELSVILLE,PA,18051-0519,40.61111,-75.61669,Lehigh,325211,,3038811,NEI
110000818081.0,CARPENTER CO,57A OLIN WAY,FOGELSVILLE,PA,18051,40.58103,-75.60884,LEHIGH,326150,,18051CRPNTSNOWD,TRI
110000433022.0,HB Fuller Adhesives LLC,7440 W Dupont Rd,Morris,IL,60450-8375,41.304952,-88.561651,Grundy,325211,,3349911,NEI
110000433022.0,H.B. FULLER CO,7440 W DUPONT RD,MORRIS,IL,60450,41.304952,-88.561651,GRUNDY,325520,,60450RCHHL7440W,TRI
110000434334.0,Cargill Inc,12201 S Torrence,Chicago,IL,60617-7214,41.676227,-87.555765,Cook,325199,,3359411,NEI
110000434334.0,Cargill Inc,12201 S Torrence Ave,Chicago,IL,60617-7214,41.673085,-87.554745,Cook,424690,,3230411,NEI
110000574423.0,EASTMAN CHEMICAL COMPANY,200 SOUTH WILCOX DRIVE,KINGSPORT,TN,37660,36.52222,-82.5411,Sullivan,325199,,3982311,NEI
110000574423.0,EASTMAN CHEMICAL CO TENNESSEE OPERATIONS,100 EASTMAN RD,KINGSPORT,TN,37660,36.527055,-82.53858,SULLIVAN,325211,,37662TNNSSEASTM,TRI
110017428988.0,"TESORO REFINING & MARKETING CO, LLC",2350 E 223RD ST,CARSON,CA,90810,33.8099,-118.2383,Los Angeles,324110,,4073511,NEI
110017428988.0,TESORO LOS ANGELES REFINERY-CARSON OPERATIONS,24696 S WILMINGTON AVE,CARSON,CA,90745,33.8099,-118.2383,LOS ANGELES,424710,,90749RCPRD1801E,TRI
110017428988.0,TESORO LOS ANGELES REFINERY-CARSON OPERATIONS,24696 S WILMINGTON AVE,CARSON,CA,90745,33.8099,-118.2383,LOS ANGELES,324110,,90749RCPRD1801E,TRI
110017428988.0,TESORO SOCAL PIPELINE COMPANY LLC,1801  SEPULVEDA BLVD,CARSON,CA,90745,33.80885,-118.23624,Los Angeles,424710,,10318211,NEI
110000460885.0,HOUSTON REFINERY,9701 MANCHESTER,HOUSTON,TX,77012,29.721667,-95.253889,Harris,324110,,4182511,NEI
110000460885.0,VALERO REFINING - TEXAS L.P. HOUSTON REFINERY,9701 MANCHESTER,HOUSTON,TX,77012,29.722274,-95.254401,HARRIS,324110,,77012HLLPT9701M,TRI
110000460885.0,VALERO PARTNERS HOUSTON,9701 MANCHESTER ST,HOUSTON,TX,77012,29.716628,-95.251786,Harris,424710,,17907111,NEI
110038705817.0,POLYETHYLENE PLANT,1230 BATTLEGROUND RD,DEER PARK,TX,77536,29.717833,-95.086986,Harris,325211,,4182611,NEI
110038705817.0,INEOS BATTLEGROUND MANUFACTURING COMPLEX,"1230 INDEPENDENCE PARKWAY, SOUTH",LA PORTE,TX,77571,29.718368,-95.08583,HARRIS,325211,,77536SLTXP1230B,TRI
110038705817.0,SOLVAY INTEROX,1230 BATTLEGROUND RD,DEER PARK,TX,77536,29.715608,-95.086847,Harris,325180,,4056611,NEI
110020680789.0,Plains Marketing LP Yorktown,2201 Goodwin Neck Rd,Grafton,VA,23692-0578,37.21022,-76.45366,York,324110,,4195011,NEI
110020680789.0,PLAINS MARKETING LP YORKTOWN,2201 GOODWIN NECK RD,YORKTOWN,VA,23692,37.21022,-76.45366,YORK,424710,,23692MCLCM2201G,TRI
110000431382.0,Engineered Polymer Solutions Inc,1400 N State St,Marengo,IL,60152-2206,42.263109,-88.612888,McHenry,325211,,4558411,NEI
110000431382.0,ENGINEERED POLYMER SOLUTIONS INC.,1400 N STATE ST,MARENGO,IL,60152,42.263109,-88.612888,MCHENRY,325510,,60152THVLS1400N,TRI
110046292677.0,ALBEMARLE/TYRONE QUALITY CHEM,2858 BACK VAIL RD,TYRONE,PA,16686-8100,40.69323,-78.23045,Blair,325199,,4701311,NEI
110046292677.0,W R GRACE & CO,2858 BACK VAIL ROAD,TYRONE,PA,16686,40.693119,-78.230157,BLAIR,325110,,16686QLTYCINDUS,TRI
110000421080.0,CHEMDESIGN PRODUCTS INC,2 Stanton St,Marinette,WI,54143-2543,45.0978,-87.6165,Marinette,325199,,4771011,NEI
110000421080.0,CHEMDESIGN PRODUCTS INC,2 STANTON ST,MARINETTE,WI,54143,45.09713,-87.61406,MARINETTE,325998,,54143SPCLT2STAN,TRI
110017887330.0,EQUILON ENTERPRISES LLC,6451 ROSEDALE HWY,BAKERSFIELD,CA,93308,35.38494,-119.07188,Kern,488490,,13857911,NEI
110017887330.0,ALON BAKERSFIELD REFINERY-soil remediation,6451 ROSEDALE HWY,BAKERSFIELD,CA,93308,35.3809,-119.07242,Kern,486910,,18144711,NEI
110017887330.0,ALON BAKERSFIELD REFINING,6451 ROSEDALE HWY,BAKERSFIELD,CA,93308,35.376411,-119.072393,Kern,324110,,4789411,NEI
110017887330.0,BAKERSFIELD RENEWABLE FUELS LLC - AREAS 1 & 2,6451 ROSEDALE HWY,BAKERSFIELD,CA,93308,35.3825,-119.070556,KERN,324110,,93308TXCRF6451R,TRI
110038495768.0,ADVANSIX INC,4700 BERMUDA ST,PHILADELPHIA,PA,19137,40.00648,-75.07145,Philadelphia,325199,,4950811,NEI
110038495768.0,ADVANSIX RESINS & CHEMICALS LLC,2501 MARGARET,PHILADELPHIA,PA,19137,40.005901,-75.072103,PHILADELPHIA,325110,,19137LLDSGMARGA,TRI
110038495768.0,AdvanSix Resins & Chemicals LLC,2501 MARGARET STREET,PHILADELPHIA,PA,19137.0,40.0067,-75.0686,Philadelphia,325192,,1000089,GHGRP
110000354679.0,MITSUBISHI POLYESTER FILM INC,2001 HOOD RD,GREER,SC,29652,34.923748,-82.261084,Greenville,325211,,4966511,NEI
110000354679.0,MITSUBISHI CHEMICAL AMERICA INC. - POLYESTER FILM DIV,2001 HOOD RD,GREER,SC,29650,34.923436,-82.260666,GREENVILLE,326113,,29651HCHSTHOODR,TRI
110045410872.0,MILLIKEN & CO CHEMICAL ALLEN PLANT,SC HWY 5 & I-85,BLACKSBURG,SC,29702,35.115278,-81.561111,Cherokee,325199,,4967211,NEI
110045410872.0,MILLIKEN CHEMICAL ALLEN PLANT,164 NEW MILLIKEN RD,BLACKSBURG,SC,29702,35.118056,-81.565833,CHEROKEE,325998,,29702MGNLFSCHIG,TRI
110045410872.0,MILLIKEN CHEMICAL ALLEN PLANT,164 NEW MILLIKEN RD,BLACKSBURG,SC,29702,35.118056,-81.565833,CHEROKEE,313310,,29702MGNLFSCHIG,TRI
110000607772.0,ICL-North America Inc - GALLIPOLIS FERRY PLANT,11636 Huntington Road,GALLIPOLIS FERRY,WV,25515,38.77222,-82.20556,Mason,325199,,5002111,NEI
110000607772.0,ICL-IP AMERICA INC,11636 HUNTINGTON,GALLIPOLIS FERRY,WV,25515,38.77222,-82.20556,MASON,325998,,25515KZCHMSTATE,TRI
110017980443.0,BUCKMAN LABORATORIES INC CADET,14664 EAST STATE HIGHWAY 47,CADET,MO,63630,37.98199,-90.68949,Washington,325199,,5219011,NEI
110017980443.0,BUCKMAN LABORATORIES INC.,14664 E STATE HWY 47,CADET,MO,63630,37.983333,-90.690833,WASHINGTON,325998,,63630BCKMNHIGHW,TRI
110056959055.0,"Pinova, Inc.",2801 Cook Street,Brunswick,GA,31520,31.1653,-81.4811,Glynn,325199,,554411,NEI
110056959055.0,"PINOVA,INC.",2801 COOK ST,BRUNSWICK,GA,31520,31.1653,-81.4811,GLYNN,325194,,31520HRCLS2801C,TRI
110021341332.0,TESORO REFINING AND MARKETING COMPANY LLC,"1750 MARINA VISTA WAY, AMORCO",MARTINEZ,CA,94553,38.02738,-122.11726,Contra Costa,424710,,175011,NEI
110021341332.0,TESORO REFINING & MARKETING COMPANY LLC,150 SOLANO WAY,MARTINEZ,CA,94553,38.0251,-122.0639,Contra Costa,324110,,6480811,NEI
110021341332.0,TESORO REFINING & MARKETING CO LLC,150 SOLANO WAY,MARTINEZ,CA,94553,38.0251,-122.0639,CONTRA COSTA,324110,,94553TSCCRAVONR,TRI
110000902621.0,ENGINEERED POLYMER SOLUTIONS INC,5501 E SLAUSON AVE,LOS ANGELES,CA,90040,33.986251,-118.165792,Los Angeles,325211,,6501911,NEI
110000902621.0,ENGINEERED POLYMER SOLUTIONS INC,5501 E SLAUSON AVE,CITY OF COMMERCE,CA,90040,33.987111,-118.165944,LOS ANGELES,325510,,90040THMCC5501E,TRI
110043799958.0,PASADENA PLANT,1423 HWY 225,PASADENA,TX,77506,29.715139,-95.190739,Harris,325211,,6510111,NEI
110043799958.0,PASADENA FACILITY,1423 HWY 225,PASADENA,TX,77501,29.716103,-95.194889,Harris,325120,,6510311,NEI
110040906945.0,Sinclair Refinery,"21,21N,86W",Carbon,WY,82301,41.7814,-107.1045,Carbon,324110,,6512311,NEI
110040906945.0,Sinclair Wyoming Pipeline Control Center,"21,21N,86W",Carbon,WY,82301,41.782,-107.11633,Carbon,424710,,18802111,NEI
110020670610.0,DuPont Teijin Films,3600 Discovery Dr,Chester,VA,23836,37.350627,-77.291096,Chesterfield,325211,,6868311,NEI
110020670610.0,DUPONT TEIJIN FILMS,3600 DISCOVERY DR,CHESTER,VA,23836.0,37.350627,-77.291096,CHESTERFIELD COUNTY,326113,,1003976,GHGRP
110000425861.0,Hawkins Inc,3100 E Hennepin Ave,Minneapolis,MN,55413,44.99161,-93.21001,Hennepin,325199,,7161711,NEI
110000425861.0,HAWKINS INC. - MINNEAPOLIS,3100 E HENNEPIN AVE,MINNEAPOLIS,MN,55413,44.99165,-93.21015,HENNEPIN,424690,,55427HWKNS3100E,TRI
110000321189.0,CPI Operations LLC,4 PARADISE RD,PAULSBORO,NJ,08066,39.844213,-75.2243,Gloucester,324110,,7201411,NEI
110000321189.0,CPI OPERATIONS LLC,4 PARADISE RD,PAULSBORO,NJ,8066,39.840932,-75.226205,GLOUCESTER,324110,,08066SVWLC4PARA,TRI
110000321189.0,CPI Operations LLC,4 PARADISE RD.,PAULSBORO,NJ,8066.0,39.840932,-75.226205,GLOUCESTER COUNTY,324121,,1002103,GHGRP
110000449970.0,ExxonMobil Baton Rouge Chemical Plant,4999 Scenic Hwy,Baton Rouge,LA,70805,30.49456,-91.17459,East Baton Rouge,325211,,7226611,NEI
110000449970.0,EXXONMOBIL BATON ROUGE CHEMICAL PLANT (PART),4999 SCENIC HWY,BATON ROUGE,LA,70805,30.495769,-91.173111,EAST BATON ROUGE PARISH,325110,,70805XXNCH4999S,TRI
110000308435.0,SOLUTIA INC,730 WORCESTER ST,SPRINGFIELD,MA,01151-1089,42.156221,-72.529145,Hampden,325199,,7236411,NEI
110000308435.0,SOLUTIA INC,730 WORCESTER ST,SPRINGFIELD,MA,1151,42.154981,-72.526419,HAMPDEN,326113,,01151MNSNT730WO,TRI
110000308435.0,SOLUTIA INC - INDIAN ORCHARD PLANT,730 WORCESTER STREET,SPRINGFIELD,MA,1151.0,42.154981,-72.526419,HAMPDEN COUNTY,326113,,1002299,GHGRP
110010534261.0,"Toledo Refining Company, LLC. (0448010246)",1819 Woodville Road,Oregon,OH,43616,41.6295,-83.4965,Lucas,324110,,7319811,NEI
110010534261.0,TOLEDO REFINING CO LLC,1819 WOODVILLE RD,OREGON,OH,43616,41.6295,-83.4965,LUCAS,324110,,43616SNRFN1819W,TRI
110010534261.0,Toledo Refining Company,1819 WOODVILLE RD.,OREGON,OH,43616.0,41.6295,-83.4965,LUCAS COUNTY,561210,,1001056,GHGRP
110010534261.0,Toledo Refining Company LLC - WWTU (0448020080),1819 Woodville Road,Oregon,OH,43616-0920,41.63565,-83.49897,Lucas,324110,,13431911,NEI
110010534261.0,"Veolia Water North America Operating Services, LLC (0448011640)",1819 Woodville Road,Oregon,OH,43616,41.63389,-83.30122,Lucas,562998,,10722611,NEI
110069500524.0,Solutia Inc,500 Monsanto Dr,Sauget,IL,62206-1198,38.596726,-90.171576,St. Clair,325199,,7338811,NEI
110069500524.0,FLEXSYS AMERICA LP KRUMMRICH,500 MONSANTO AVE,SAUGET,IL,62206,38.59724,-90.168697,ST. CLAIR,325998,,62206FLXSY500MO,TRI
110000494894.0,Eagle US 2 LLC - Lake Charles Complex,1300 PPG Dr,Westlake,LA,70669,30.22397,-93.28213,Calcasieu,325199,,7354911,NEI
110000494894.0,WESTLAKE US 2 LLC,1300 PPG DR,WESTLAKE,LA,70669,30.2235,-93.2869,CALCASIEU PARISH,325180,,70669PPGNDCOLUM,TRI
110000494894.0,WESTLAKE US 2 LLC,1300 PPG DR,WESTLAKE,LA,70669,30.2235,-93.2869,CALCASIEU PARISH,221112,,70669PPGNDCOLUM,TRI
110000494894.0,WESTLAKE US 2 LLC,1300 PPG DR,WESTLAKE,LA,70669,30.2235,-93.2869,CALCASIEU PARISH,325199,,70669PPGNDCOLUM,TRI
110000494894.0,Eagle US 2 LLC,1300 PPG Drive,WESTLAKE,LA,70669.0,30.221,-93.2826,CALCASIEU PARISH,325181,,1008459,GHGRP
110013886875.0,3M CORDOVA,22614 ROUTE 84 NORTH,CORDOVA,IL,61242.0,41.755,-90.284167,ROCK ISLAND COUNTY,325998,,1006665,GHGRP
110013886875.0,3M Cordova,22614 Rte 84 N,Cordova,IL,61242-9779,41.753782,-90.289643,Rock Island,325211,,7363311,NEI
110013886875.0,3M CO - CORDOVA,22614 RT 84 N,CORDOVA,IL,61242,41.755,-90.284167,ROCK ISLAND,325998,,61242MXXXX22614,TRI
110039498674.0,Evonik Corporation,412 N Main St,Calvert City,KY,42029,37.043889,-88.353056,Marshall,325211,,7366911,NEI
110039498674.0,EVONIK CORP,412 N MAIN ST,CALVERT CITY,KY,42029,37.03723,-88.351153,MARSHALL,325199,,42029RPRDCHIGHW,TRI
110000597248.0,CITGO Petroleum Corp - Lake Charles Manufacturing Complex,4401 Hwy 108 S,Sulphur,LA,70665,30.18091,-93.32122,Calcasieu,324110,,7380411,NEI
110000597248.0,CITGO PETROLEUM CORP,1601 HWY 108 E,SULPHUR,LA,70665,30.18149,-93.324051,CALCASIEU PARISH,324110,,70602CTGPTHIGHW,TRI
110000597248.0,Citgo Petroleum Corp - Lake Charles Truck Loading Facility,4401 Hwy 108 S,Sulphur,LA,70663,30.18337,-93.3275,Calcasieu,424710,,5719311,NEI
110000329617.0,CALGON CARBON CORP/NEVILLE ISLAND PLT,200 NEVILLE RD,PITTSBURGH,PA,15225-1620,40.49203,-80.07844,Allegheny,325199,,7407911,NEI
110000329617.0,CALGON CARBON CORP NEVILLE ISLAND PLANT,200 NEVILLE RD,PITTSBURGH,PA,15225,40.492329,-80.079626,ALLEGHENY,325998,,15225CLGNC200NE,TRI
110000322286.0,LANXESS SOLUTIONS US INC,1000 CONVERY BLVD,PERTH AMBOY,NJ,08861,40.538357,-74.275618,Middlesex,325211,,7444611,NEI
110000322286.0,LANXESS CORP,1000 CONVERY BLVD,PERTH AMBOY,NJ,8861,40.539003,-74.275635,MIDDLESEX,325199,,08862WTCCR1000C,TRI
110000321107.0,Coim USA Inc.,286 MANTUA GRV RD,WEST DEPTFORD,NJ,08066,39.822457,-75.212108,Gloucester,325211,,7701611,NEI
110000321107.0,COIM USA INC,286 MANTUA GROVE RD BUILDING # 1,WEST DEPTFORD,NJ,8066,39.819904,-75.216447,GLOUCESTER,325520,,08066CPLYRMANTU,TRI
110000382309.0,CAPITAL RESIN CORP (0125040238),324 DERING AVENUE,Columbus,OH,43207,39.91389,-82.9875,Franklin,325199,,7751111,NEI
110000382309.0,CAPITAL RESIN CORP,324 DERING AVE,COLUMBUS,OH,43207,39.912778,-82.987222,FRANKLIN,325211,,43207CPTLR324DE,TRI
110043972207.0,BASF Corp,2525 S Kensington Ave,Kankakee,IL,60901-0191,41.085542,-87.880542,Kankakee,325211,,7792011,NEI
110043972207.0,Kensing LLC,2525 SOUTH KENSINGTON AVE,KANKAKEE,IL,60901.0,41.085542,-87.880542,KANKAKEE COUNTY,325613,,1000356,GHGRP
110032885723.0,SPMT / MARCUS HOOK IND COMPLEX,100 GREEN ST,MARCUS HOOK,PA,19061-4800,39.81414,-75.41358,Delaware,493190,,16848711,NEI
110032885723.0,MARCUS HOOK 50 LP/MARCUS HOOK,100 GREEN ST,MARCUS HOOK,PA,19061-4800,39.80991,-75.42749,Delaware,221112,,4724511,NEI
110032885723.0,SUNOCO LLC/MH RACE FUELS,100 GREEN ST,MARCUS HOOK,PA,19061-4800,39.814609,-75.42227,Delaware,324110,,7873611,NEI
110032885723.0,SUNOCO LLC-RACE FUELS,100 GREEN ST,MARCUS HOOK,PA,19061,39.814609,-75.42227,DELAWARE,324110,,19061SNRFNGREEN,TRI
110032885723.0,Marcus Hook Energy Center - MH750,100 Green Street,Marcus Hook,PA,19061.0,39.8083,-75.4225,Delaware,221112,,1000269,GHGRP
110000590691.0,"Georgia Pacific Wood Products LLC, Taylorsville Plant",Highway 28 West,Taylorsville,MS,39168,31.8392,-89.4659,Smith,321212,,7984011,NEI
110000590691.0,"GEORGIA PACIFIC CHEMICALS LLC, TAYLORSVI",HIGHWAY 28 WEST,TAYLORSVILLE,MS,39168,31.8392,-89.4659,Smith,325199,,7984111,NEI
110000590691.0,GEORGIA-PACIFIC LLC,13136 HWY 28 WEST,TAYLORSVILLE,MS,39168,31.8392,-89.4659,SMITH,325211,,39168GRGPCHIGHW,TRI
110000590691.0,GEORGIA-PACIFIC LLC,13136 HWY 28 WEST,TAYLORSVILLE,MS,39168,31.8392,-89.4659,SMITH,321212,,39168GRGPCHIGHW,TRI
110000350628.0,HK Research Corporation,908 Old Lenoir Road,Hickory,NC,28601,35.74538,-81.36026,Catawba,325211,,8106611,NEI
110000350628.0,HK RESEARCH CORP,908 OLD LENOIR RD,HICKORY,NC,28601,35.74538,-81.36026,CATAWBA,326199,,28603HKRSR908LE,TRI
110000380098.0,Estron Chemical Inc,807 N Main St,Calvert City,KY,42029,37.043639,-88.354639,Marshall,325199,,8109411,NEI
110000380098.0,ESTRON CHEMICALS INC,807 NORTH MAIN ST,CALVERT CITY,KY,42029,37.043639,-88.354639,MARSHALL,325211,,42029STRNCHIGHW,TRI
110000408746.0,Allnex USA Inc.,2715 MILLER RD,KALAMAZOO,MI,49001,42.2675,-85.5465,Kalamazoo,325199,,8125211,NEI
110000408746.0,ALLNEX USA INC,2715 MILLER RD,KALAMAZOO,MI,49001,42.269722,-85.545556,KALAMAZOO,325211,,49003MRCNC2715M,TRI
110009846471.0,Hexion Inc. - Fayetteville Facility,1411 Industrial Drive,Fayetteville,NC,28301,35.02915,-78.861916,Cumberland,325199,,8135311,NEI
110009846471.0,HEXION INC-FAYETTEVILLE FACILITY,1411 INDUSTRIAL DR,FAYETTEVILLE,NC,28301,35.02915,-78.861916,CUMBERLAND,325211,,28302BRDNN1411I,TRI
110000309522.0,ROHM AND HAAS ELECTRONIC MATERIALS LLC,455 FOREST ST,MARLBOROUGH,MA,01752-3092,42.331661,-71.591577,Middlesex,325199,,8143311,NEI
110000309522.0,ROHM & HAAS ELECTRONIC MATERIALS LLC,455 FOREST ST,MARLBOROUGH,MA,1752,42.331661,-71.591577,MIDDLESEX,325998,,01752SHPLY455FO,TRI
110013868840.0,NYACOL PRODUCTS INCORPORATED,MEGUNCO RD,ASHLAND,MA,01721-0000,42.258567,-71.473014,Middlesex,325199,,8143811,NEI
110013868840.0,NYACOL NANOTECHNOLOGIES INC,211 MEGUNKO RD,ASHLAND,MA,1721,42.25963,-71.472741,MIDDLESEX,325180,,01721NYCLPMEGUN,TRI
110055027331.0,Dow Silicones Corporation,3901 S Saginaw Rd,MIDLAND,MI,48686,43.5921,-84.205,Midland,325211,,8246211,NEI
110055027331.0,Dow Corning Corporation - Midland Site,3901 S. Saginaw Rd.,Midland,MI,48686.0,43.58891,-84.20784,MIDLAND COUNTY,325998,,1002166,GHGRP
110000487599.0,Portland Operations,2301 N COLUMBIA BLVD,PORTLAND,OR,97217-6954,45.5888,-122.6908,Multnomah,325211,,8418211,NEI
110000487599.0,ARCLIN SURFACES LLC,2301 N COLUMBIA BLVD,PORTLAND,OR,97217,45.588771,-122.690793,MULTNOMAH,322220,,97217RGNVR2301N,TRI
110000586642.0,"CNA Holdings, LLC - Shelby",2525 Blacksburg Road,Grover,NC,28073,35.20909,-81.52645,Cleveland,325211,,8446411,NEI
110000586642.0,Fiber Innovators International,2525 Blacksburg Road,Grover,NC,28073,35.209183,-81.52975,Cleveland,325220,,8447011,NEI
110000597373.0,Rubicon LLC - Geismar Facility,9156 Hwy 75,Geismar,LA,70734,30.19942,-91.00635,Ascension,325199,,8465311,NEI
110000597373.0,RUBICON LLC,9156 HIGHWAY 75,GEISMAR,LA,70734,30.1989,-91.0085,ASCENSION PARISH,325194,,70734RBCNN9156H,TRI
110000597373.0,RUBICON LLC - GEISMAR PLANT,9156 HWY. 75,GEISMAR,LA,70734.0,30.1989,-91.0085,ASCENSION PARISH,325192,,1000592,GHGRP
110000581157.0,MACE POLYMERS & ADDITIVES INC,38 ROBERTS RD,DUDLEY,MA,01571-0000,42.026938,-71.968378,Worcester,325211,,8510111,NEI
110000581157.0,MACE ADHESIVES & COATINGS CO I NC,ROBERTS RD,DUDLEY,MA,1571,42.026938,-71.968378,WORCESTER,325510,,01570MCDHSROBER,TRI
110027375775.0,SNF - Riceboro,One Chemical Plant Road,Riceboro,GA,31323,31.74192,-81.43044,Liberty,325199,,946711,NEI
110027375775.0,FLOCRYL LLC-ACRYLATES,674 CHEMICAL PLANT RD,RICEBORO,GA,31323,31.743668,-81.431776,LIBERTY,325998,,31323NCFMF674CH,TRI
110056961417.0,Indorama Ventures Xylenes & PTA LLC,1401 Finley Island Rd,Decatur,AL,35609,34.64421,-87.06001,Morgan,325199,,999411,NEI
110056961417.0,INDORAMA VENTURES,1401 FINLEY ISLAND RD,DECATUR,AL,35601,34.6415,-87.0589,MORGAN,325110,,35601MCCHMFINLE,TRI
110056961417.0,INDORAMA VENTURES,1401 FINLEY ISLAND RD,DECATUR,AL,35601,34.6415,-87.0589,MORGAN,325211,,35601MCCHMFINLE,TRI
110056961417.0,"Indorama Ventures, Xylenes and PTA, LLC",1401 FINLEY ISLAND ROAD,DECATUR,AL,35601.0,34.64,-87.0583,Morgan,325110,,1000325,GHGRP
110000308845.0,US PACK,300 WHITNEY ST,LEOMINSTER,MA,01453-0000,42.530877,-71.752431,Worcester,325998,,8098511,NEI
110000308845.0,US PACK INC,300 WHITNEY ST,LEOMINSTER,MA,1453,42.53099,-71.75202,WORCESTER,325211,,01453SNNCR300WH,TRI
110000320395.0,STEPAN COMPANY,100 W HUNTER AVE,MAYWOOD,NJ,07607,40.89661,-74.069645,Bergen,325998,,7310611,NEI
110000320395.0,STEPAN CO MAYWOOD,100 W HUNTER AVE,MAYWOOD,NJ,7607,40.8965,-74.06802,BERGEN,325199,,07607STPNC100WH,TRI
110030750364.0,THERMOFISHER SCIENTIFIC,755 RT 202,BRIDGEWATER,NJ,08876,40.571703,-74.664815,Somerset,424690,,12756311,NEI
110030750364.0,FISHER SCIENTIFIC CO. L.L.C.,755 RT 202,BRIDGEWATER,NJ,8807,40.571703,-74.664815,SOMERSET,325199,,08876FSHRS755RT,TRI
110000583663.0,BORCHERS AMERICAS FRANKLIN FAC,TWO MILE RUN RD,SUGARCREEK BORO,PA,16323,41.41245,-79.79753,Venango,325110,,6516711,NEI
110000583663.0,BORCHERS AMERICAS INC.,240 TWO MILE RUN RD,FRANKLIN,PA,16323,41.412453,-79.797531,VENANGO,325199,,16323MNYCHTWOMI,TRI
110000334291.0,LONZA INC/WILLIAMSPORT PLT,3500 TRENTON AVE,WILLIAMSPORT,PA,17701-7924,41.23122,-77.08013,Lycoming,325998,,4120211,NEI
110000334291.0,ARXADA LLC,3500 TRENTON AVE,WILLIAMSPORT,PA,17701,41.230556,-77.080556,LYCOMING,325199,,17701LNZNC3500T,TRI
110000336146.0,3M ASTON/CHESTER TWP,50 MILTON DR,ASTON,PA,19014-2217,39.88054,-75.46053,Delaware,325991,,9185911,NEI
110000336146.0,3M ASTON,50 MILTON DR,CHESTER TOWNSHIP,PA,19013,39.88054,-75.46053,DELAWARE,325211,,19014CSTMC50MIL,TRI
110000337047.0,INEOS COMPOSITES US LLC (FORMERLY ASHLAND),2801 S COLUMBUS BLVD,PHILADELPHIA,PA,19148-5103,39.91194,-75.13806,Philadelphia,326199,,3901011,NEI
110000337047.0,INEOS COMPOSITES PHILADELPHIA PLANT,2801 CHRISTOPHER COLUMBUS BLVD,PHILADELPHIA,PA,19148,39.909557,-75.130454,PHILADELPHIA,325211,,19148SHLND2801S,TRI
110002432779.0,ASCENT CHEMICALS - DANVILLE,1975 OLD RICHMOND RD,DANVILLE,VA,24540,36.60925,-79.3636,PITTSYLVANIA,325199,,24540DNRVRSTATE,TRI
110002432779.0,Danchem Technologies Inc,1975 Old Richmond Rd,Danville,VA,24543,36.60925,-79.3636,Danville city,325211,,5884811,NEI
110000751525.0,"Kao Specialties Americas, LLC",243 Woodbine Street,High Point,NC,27261,35.9219,-80.0286,Guilford,325613,,8393111,NEI
110000751525.0,KAO SPECIALTIES AMERICAS LLC,243 WOODBINE ST,HIGH POINT,NC,27260,35.92333,-80.02967,GUILFORD,325211,,27261HGHPN255BE,TRI
110000345895.0,"Innospec Active Chemicals, LLC",510 West Grimes Avenue,High Point,NC,27260,35.95,-80.0096,Guilford,325611,,8284411,NEI
110000345895.0,INNOSPEC ACTIVE CHEMICALS,510 W GRIMES AVE,HIGH POINT,NC,27260,35.950596,-80.009533,GUILFORD,325199,,27262PRCHM1670E,TRI
110056525835.0,Henkel US Operations Corporation,825 Cedar Springs Road,Salisbury,NC,28147,35.628331,-80.535741,Rowan,325180,,8507411,NEI
110056525835.0,HENKEL US OPERATIONS CORP,825 CEDAR SPRINGS RD,SALISBURY,NC,28147,35.63367,-80.53335,ROWAN,325199,,28144NTNLSCEDAR,TRI
110000559609.0,Chemours Company - Fayetteville Works,22828 NC Highway 87 West,Fayetteville,NC,28306,34.843333,-78.838216,Bladen,32512,,8480711,NEI
110000559609.0,CHEMOURS CO - FAYETTEVILLE WORKS,22828 NC HWY 87 W,FAYETTEVILLE,NC,28306,34.8419,-78.8388,BLADEN,325120,,28302DPNTFHIGHW,TRI
110000542985.0,LUBRIZOL ADVANCED MATERIALS,195 BROOKS BLVD,SPARTANBURG,SC,29307,35.01056,-81.87635,SPARTANBURG,325199,,29302SPCLT195BR,TRI
110000542985.0,Lubrizol Spartanburg,195 Brooks Boulevard,Spartanburg,SC,29302,35.01084,-81.87825,Spartanburg,325613,,2840211,NEI
110000498550.0,MILLIKEN CHEMICAL DEWEY PLANT,1440 CAMPTON RD,INMAN,SC,29349,35.027772,-82.065717,Spartanburg,325998,,4801611,NEI
110000498550.0,MILLIKEN CHEMICAL - DEWEY PLANT,1440 CAMPTON RD,INMAN,SC,29349,35.026944,-82.065833,SPARTANBURG,325199,,29349MLLKN1440C,TRI
110000353206.0,SYNTHOMER USA LLC,200 RAILROAD ST,ROEBUCK,SC,29376,34.876111,-81.971667,SPARTANBURG,325211,,29376BCNDSPOBOX,TRI
110000353206.0,Eastman Chemical Company,200 Railroad St,Roebuck,SC,29376,34.87611,-81.97166,Spartanburg,325110,,4040711,NEI
110038266051.0,LANXESS CORP BUSHY PARK SITE,1530 BUSHY PARK RD,GOOSE CREEK,SC,29445,32.986944,-79.929511,Berkeley,325130,,4952911,NEI
110038266051.0,LANXESS CORP  BUSHY PARK PLANT,1530 BUSHY PARK RD,GOOSE CREEK,SC,29445,32.983796,-79.932678,BERKELEY,325199,,29445LNXSS153BU,TRI
110000354134.0,ETHOX CHEMICALS LLC,1801 PERIMETER RD,GREENVILLE,SC,29605,34.734471,-82.375617,GREENVILLE,325199,,29605THXCHPERIM,TRI
110000354134.0,Ethox Chemicals,1801 Perimeter Road,Greenville,SC,29605,34.73275,-82.37444,Greenville,325613,,4103011,NEI
110050813958.0,GABRIEL PHENOXIES INC,808 CELRIVER RD,ROCK HILL,SC,29730,34.974353,-80.978266,YORK,325211,,2973WGBRLP812CE,TRI
110050813958.0,Inchem Corp,800 Celriver Rd,Rock Hill,SC,29730,34.97472,-80.985,York,325110,,4797211,NEI
110000355507.0,ALLNEX USA INC,403 CARLINE RD,WARRENVILLE,SC,29851,33.518889,-81.845278,AIKEN,325211,,29834VLCHMCARLI,TRI
110000355507.0,CYTEC SURFACE SPECIALTIES,403 Carline Rd.,Langley,SC,29834,33.52166,-81.845,Aiken,3251,,3909111,NEI
110009492361.0,ASCENT CHEMICALS,4325 OLD TASSO RD,CLEVELAND,TN,37312,35.18567,-84.827931,BRADLEY,325199,,37311MNFCT4325O,TRI
110009492361.0,ManufacturerS Chemical L P,4325 Old Tasso Rd.,Cleveland,TN,37312,35.18722,-84.82805,Bradley,325611,,2968911,NEI
110000375184.0,CYTEC INDUSTRIES INC,7910 MT JOY RD,MOUNT PLEASANT,TN,38474,35.5249,-87.2431,MAURY,325199,,38474CMRCSMTJOY,TRI
110000375184.0,"CYTEC INDUSTRIES, INC.",7910 MOUNT JOY ROAD,MT. PLEASANT,TN,38474,35.5249,-87.2431,Maury,325180,,5722911,NEI
110000590842.0,HUNT SOUTHLAND REFINING COMPANY,177 HANEY ROAD,SANDERSVILLE,MS,39477,31.8167,-89.0089,Jones,32411,,7139711,NEI
110000590842.0,HUNT SOUTHLAND REFINING CO-SANDERSVILLE,HWY 11 N,SANDERSVILLE,MS,39477,31.8167,-89.0089,JONES,324110,,39477STHLNHIGHW,TRI
110039523469.0,PolyOne,4250 BELLS LN,LOUISVILLE,KY,40211-2147,38.22196,-85.82975,Jefferson,325991,,8370911,NEI
110039523469.0,GEON PERFORMANCE SOLUTIONS,4250 BELLS LN,LOUISVILLE,KY,40211,38.22333,-85.83079,JEFFERSON,325211,,40211THGNC4200B,TRI
110027373072.0,Westlake Vinyls Inc,2468 Industrial Pkwy,Calvert City,KY,42029,37.048467,-88.33395,Marshall,325998,,5929411,NEI
110027373072.0,WESTLAKE VINYLS INC,2468 IND US TRIAL PKWY,CALVERT CITY,KY,42029,37.051111,-88.334167,MARSHALL,325199,,42029WSTLK2468I,TRI
110000498701.0,Vanderbilt Chemicals LLC,396 Pella Way,Murray,KY,42071,36.647333,-88.300444,Calloway,327992,,7430811,NEI
110000498701.0,VANDERBILT CHEMICALS LLC-MURRAY DIV,396 PELLA WAY,MURRAY,KY,42071,36.647333,-88.300444,CALLOWAY,325199,,42071VNDRBPENNY,TRI
110000380212.0,Ingevity Virginia Corp - Wickliffe Carbon Plant,2025 Beech Grove Rd,Wickliffe,KY,42087,36.950992,-89.065727,Ballard,325998,,5606311,NEI
110000380212.0,INGEVITY VIRGINIA CORP-WICKLIFFE CARBON PLANT,2025 BEECH GROVE RD,WICKLIFFE,KY,42087,36.95,-89.066111,BALLARD,325199,,42087WSTVCHIGHA,TRI
110000380212.0,INGEVITY VIRGINIA CORPORATION - CARBON PLANT,2025 BEECHGROVE RD.,WICKLIFFE,KY,42087.0,36.95,-89.066111,BALLARD COUNTY,325998,,1003749,GHGRP
110000381113.0,Continental Refining Company LLC,501 Refinery Rd,Somerset,KY,42501,37.0716,-84.6092,Pulaski,32411,,7381911,NEI
110000381113.0,CONTINENTAL REFINING CO LLC,501 REFINERY RD,SOMERSET,KY,42501,37.0716,-84.6092,PULASKI,324110,,42501THSMR501RE,TRI
110000384744.0,WILEY COS,1245 S 6TH ST,COSHOCTON,OH,43812,40.2596,-81.86261,COSHOCTON,325199,,43812WLYRG1245S,TRI
110000384744.0,Organic Techs,1245 S. 6th St.,Coshocton,OH,43812,40.25916,-81.86444,Coshocton,3119,,8249611,NEI
110000389213.0,"Emerald Performance Materials, LLC (1677010029)",240 West Emerling Avenue,Akron,OH,44301-1600,41.045666,-81.541763,Summit,325212,,8063311,NEI
110000389213.0,HUNTSMAN ADVANCED MATERIALS AMERICAS LLC,240 W EMERLING AVE,AKRON,OH,44301,41.045666,-81.541763,SUMMIT,325199,,44301BFGDR240WE,TRI
110000390693.0,Ferro Corp,1560 N. Main St.,Orrville,OH,44667,40.83444,-81.76694,Wayne,3251,,938911,NEI
110000390693.0,VIBRANTZ CORP,1560 N MAIN ST,ORRVILLE,OH,44667,40.86012,-81.76366,WAYNE,325199,,44667FRRCR1560N,TRI
110000391656.0,AKZO NOBEL COATINGS INC,300 SPROWL RD,HURON,OH,44839,41.372322,-82.541457,ERIE,325211,,44839THGLD300SP,TRI
110000391656.0,AKZO NOBEL PAINTS LLC,300 Sprowl Rd.,Huron,OH,44839,41.37222,-82.53694,Erie,325510,,8259211,NEI
110000394074.0,BASF Corporation (0819070134),1175 Martin Street,Greenville,OH,45331,40.095,-84.60861,Darke,325510,,8008611,NEI
110000394074.0,BASF CORP,1175 MARTIN ST,GREENVILLE,OH,45331,40.098611,-84.610556,DARKE,325211,,45331BSFCRSTATE,TRI
110000397909.0,ACS TECHNICAL PRODUCTS INC.,420 S COLFAX AVE,GRIFFITH,IN,46319,41.517222,-87.416111,LAKE,325199,,46319MRCNC420SC,TRI
110000397909.0,"American Chemical Services, Inc.",420 S Colfax Ave,Griffith,IN,46319,41.5147,-87.41702,Lake,325998,,7247811,NEI
110000397945.0,DOVER CHEMICAL   HAMMOND WORKS,3000 Sheffield Ave,Hammond,IN,46327,41.6594,-87.5138,Lake,325998,,8235811,NEI
110000397945.0,DOVER CHEMICAL HAMMOND WORKS,3000 SHEFFIELD AVE,HAMMOND,IN,46327,41.6594,-87.5138,LAKE,325199,,46320KLDVS3000S,TRI
110000747167.0,PLASTICS ENGINEERING CO N 15TH ST PLANT,2732 N 15TH ST,SHEBOYGAN,WI,53083-3941,43.7748,-87.7268,Sheboygan,32521,,7696111,NEI
110000747167.0,PLASTICS ENGINEERING CO,2732 N 15TH ST,SHEBOYGAN,WI,53083,43.774167,-87.728889,SHEBOYGAN,325211,,53083PLSTC2732N,TRI
110000417754.0,PPG INDUSTRIES,10800 S 13th St,Oak Creek,WI,53154-6800,42.8484,-87.93,Milwaukee,325510,,12789311,NEI
110000417754.0,PPG INDUSTRIES INC-OAK CREEK,10800 S 13TH ST,OAK CREEK,WI,53154,42.84874,-87.93297,MILWAUKEE,325211,,53154PPGND10800,TRI
110008817165.0,Cytec Engineered Materials Inc,501 W 3rd St,Winona,MN,55987,44.0555,-91.6492,Winona,313320,,6207311,NEI
110008817165.0,CYTEC ENGINEERED MATERIALS INC,501 W 3RD,WINONA,MN,55987,44.05587,-91.6492,WINONA,325211,,55987CCMPS501W3,TRI
110012704546.0,Huntsman,5015 Barnard Mill Rd,Ringwood,IL,60072-9652,42.390247,-88.297319,McHenry,326199,,8221811,NEI
110012704546.0,HUNTSMAN POLYURETHANES,5015 BARNARD MILL RD,RINGWOOD,IL,60072,42.39019,-88.29749,MCHENRY,325211,,60072HNTSM5015B,TRI
110000432871.0,CCI Manufacturing IL Corp,15550 Canal Bank Rd,Lemont,IL,60439-3885,41.682231,-87.993259,Cook,325998,,7411211,NEI
110000432871.0,CCI MANUFACTURING IL CORP,15550 CANAL BANK RD,LEMONT,IL,60439,41.682231,-87.993259,COOK,325199,,60439NTCTM15550,TRI
110000435413.0,Ester Solutions,5851 W 73rd St,Bedford Park,IL,60638-6215,41.758689,-87.767414,Cook,325998,,8189311,NEI
110000435413.0,HALLSTAR CO ESTER SOLUTIONS FACILITY,5851 W 73RD ST,BEDFORD PARK,IL,60638,41.75869,-87.76741,COOK,325199,,60638THCPH5851W,TRI
110016660451.0,Emerald Performance Materials LLC,1550 CR 1450N,Henry,IL,61537-9404,41.135504,-89.339382,Marshall,325998,,4620811,NEI
110016660451.0,EMERALD PERFORMANCE MATERIALS LLC,"1550 COUNTY RD, 1450 N",HENRY,IL,61537,41.135468,-89.339559,MARSHALL,325199,,61537BFGDRRR1BO,TRI
110035813117.0,Lonza Inc,8316 W Rte 24,Mapleton,IL,61547-7500,40.563829,-89.728106,Peoria,325998,,5422811,NEI
110035813117.0,ARXADA LLC,8316 W RT 24,MAPLETON,IL,61547,40.564278,-89.728417,PEORIA,325199,,61547LNZNCUSROU,TRI
110000755521.0,LANXESS Solutions US Inc,8220 W Rte 24,Mapleton,IL,61547-7509,40.565839,-89.721505,Peoria,325998,,4532011,NEI
110000755521.0,LANXESS CORP,8220 W US HIGHWAY 24,MAPLETON,IL,61547,40.565833,-89.721389,PEORIA,325199,,61547SHRXCROUTE,TRI
110056958430.0,Dynachem Inc,Maple Grove Rd,Georgetown,IL,61846,40.00556,-87.643266,Vermilion,325998,,5386211,NEI
110056958430.0,DYNACHEM INC,MAPLE GROVE RD,GEORGETOWN,IL,61846,40.00556,-87.643266,VERMILION,325211,,61846CLNDSMAPLE,TRI
110000438866.0,Chemtrade Solutions LLC,2500 Kingshighway,Fairmont City,IL,62201-2446,38.64466,-90.08912,St. Clair,325130,,4909311,NEI
110000438866.0,CHEMTRADE SOLUTIONS LLC-EAST ST LOUIS,2500 KINGS HWY,EAST SAINT LOUIS,IL,62201,38.64466,-90.08912,ST. CLAIR,325199,,62201GNRLC2500K,TRI
110000441004.0,ELEMENTIS SPECIALTIES INC,5548 MANCHESTER,ST. LOUIS,MO,63110,38.6225,-90.28054,St. Louis city,325998,,7301011,NEI
110000441004.0,ELEMENTIS SPECIALTIES INC.,5548 MANCHESTER AVE,SAINT LOUIS,MO,63110,38.6225,-90.28054,ST LOUIS (CITY),325199,,63110NLCHM5548M,TRI
110000441157.0,US POLYMERS - ACCUREZ LLC,300 EAST PRIMM STREET,SAINT LOUIS,MO,63111,38.54362,-90.25832,ST LOUIS (CITY),325211,,63111SPLYM300EA,TRI
110000441157.0,U S Polymers-U S Polymers,300 E Primm,St. Louis,MO,63111,38.54362,-90.25832,St. Louis city,32551,,7303911,NEI
110000446679.0,Evonik Corp. - Haysville,6601 S Ridge Rd,Haysville,KS,67060,37.573379,-97.427004,Sedgwick,325110,,8066811,NEI
110000446679.0,EVONIK CORP,6601 S RIDGE RD,HAYSVILLE,KS,67060,37.574167,-97.426111,SEDGWICK,325199,,67231RPRDC6601S,TRI
110059765696.0,Cargill Inc,650 Industrial Park Dr,Blair,NE,68008-3000,41.5295,-96.1027,Washington,325193,,10701611,NEI
110059765696.0,CARGILL CORN MILLING NORTH AMERICA,650 INDUSTRIAL PARK DRIVE,BLAIR,NE,680082649,41.53397,-96.0979,WASHINGTON,311221,,68008CRGLL650IN,TRI
110059765696.0,CARGILL CORN MILLING NORTH AMERICA,650 INDUSTRIAL PARK DRIVE,BLAIR,NE,680082649,41.53397,-96.0979,WASHINGTON,325211,,68008CRGLL650IN,TRI
110059765696.0,Cargill Corn Milling North America,650 Industrial park Drive,Blair,NE,68008.0,41.53397,-96.0979,WASHINGTON COUNTY,311221,,1006425,GHGRP
110059765696.0,Cargill Lactic Acid Plant,650 Industrial Park Dr,Blair,NE,68008-2666,41.5306,-96.104658,Washington,325211,,16440911,NEI
110000575244.0,Chevron Oronite Co LLC - Oak Point Plant,10285 Hwy 23 S,Belle Chasse,LA,70037,29.80937,-90.01071,Plaquemines,325998,,8018711,NEI
110000575244.0,CHEVRON ORONITE CO LLC - OAK POINT PLANT,10285 HIGHWAY 23,BELLE CHASSE,LA,70037,29.80825,-90.01,PLAQUEMINES PARISH,325199,,70037CHVRNHIGHW,TRI
110000597131.0,DuPont Specialty Products USA LLC - Pontchartrain Site,586 Hwy 44,Laplace,LA,70068,30.05423,-90.52248,St. John the Baptist,325212,,7204811,NEI
110000597131.0,DUPONT PONTCHARTRAIN WORKS,586 HIGHWAY 44,LA PLACE,LA,70068,30.0589,-90.5241,ST. JOHN THE BAPTIST PARISH,325199,,70069DPNTPHIGHW,TRI
110000597131.0,DU PONT PONTCHARTRAIN WORKS,586 HIGHWAY 44,LA PLACE,LA,70068.0,30.0589,-90.5241,ST. JOHN THE BAPTIST PARISH,325110,,1001715,GHGRP
110045975744.0,Diamond Green Diesel LLC - Green Diesel Plant,14891 E Airline Hwy,Norco,LA,70079,29.99761,-90.38904,St. Charles,325998,,16632811,NEI
110045975744.0,DIAMOND GREEN DIESEL LLC,14891 AIRLINE DR,NORCO,LA,70079,30.0169,-90.40874,ST. CHARLES PARISH,325199,,7007WDMNDG14891,TRI
110049249075.0,Roehm America LLC - MMA Plant,10800 River Rd,Westwego,LA,70094,29.95686,-90.26881,Jefferson,326199,,9588611,NEI
110049249075.0,ROEHM AMERICA LLC,10800 RIVER RD,WESTWEGO,LA,70094,29.958889,-90.270472,JEFFERSON PARISH,325211,,70094CYRND18RIV,TRI
110039073962.0,FLOWCHEM TECHNOLOGIES LLC,289 CUTLASS LP,RAYNE,LA,70578,30.24864,-92.19911,ACADIA PARISH,213112,,7057WFLWCH289CU,TRI
110039073962.0,FLOWCHEM TECHNOLOGIES LLC,289 CUTLASS LP,RAYNE,LA,70578,30.24864,-92.19911,ACADIA PARISH,325199,,7057WFLWCH289CU,TRI
110043973509.0,Westlake Chemical OpCo LP - Westlake Petrochemical Complex,900 Hwy 108,Sulphur,LA,70665,30.17871,-93.36135,Calcasieu,325110,,7929111,NEI
110043973509.0,WESTLAKE PETROCHEMICALS ETHYLENE,900 E HIGHWAY 108,SULPHUR,LA,70665,30.177,-93.357,CALCASIEU PARISH,325211,,70663WSTLK900HA,TRI
110043973509.0,WESTLAKE PETROCHEMICALS ETHYLENE,900 E HIGHWAY 108,SULPHUR,LA,70665,30.177,-93.357,CALCASIEU PARISH,325110,,70663WSTLK900HA,TRI
110043973509.0,Westlake Petrochemicals LLC - Poly III,900 Hwy 108,Sulphur,LA,70663,30.17373,-93.3608,Calcasieu,325211,,7928911,NEI
110000449774.0,Occidental Chemical Corporation - Geismar Facility,8318 Ashland Rd,Geismar,LA,70734,30.18517,-90.98172,Ascension,325180,,7445711,NEI
110000449774.0,OCCIDENTAL CHEMICAL HOLDING CORP - GEISMAR PLANT,8318 ASHLAND RD,GEISMAR,LA,70734,30.1851,-90.9804,ASCENSION PARISH,325199,,70734VLCNMASHLA,TRI
110000449774.0,OCCIDENTAL CHEMICAL CORPORATION - GEISMAR PLANT,8318 ASHLAND ROAD,GEISMAR,LA,70734.0,30.1851,-90.9804,ASCENSION PARISH,325181,,1001706,GHGRP
110046122735.0,DEXCO Polymers LP - Plaquemine Manufacturing Plant,21255 Hwy 1 Bldg 4350,Plaquemine,LA,70764,30.31682,-91.24392,Iberville,325212,,15642211,NEI
110046122735.0,TSRC SPECIALTY MATERIALS LLC,21255 LA HWY 1,PLAQUEMINE,LA,70764,30.317014,-91.243777,IBERVILLE PARISH,325211,,7076WDXCPL21255,TRI
110000449934.0,BASF Corp - Zachary Site,111 W Irene Rd,Zachary,LA,70791,30.61281,-91.23229,East Baton Rouge,325998,,8215011,NEI
110000449934.0,BASF CORP,111 W IRENE RD,ZACHARY,LA,70791,30.61349,-91.23737,EAST BATON ROUGE PARISH,325199,,70791GRNTCHWY61,TRI
110000451029.0,LYCUS LTD,181 COOPER DR,EL DORADO,AR,71730,33.200279,-92.610922,UNION,325199,,71730GRRSN181CO,TRI
110000451029.0,Lycus Ltd.,181 Cooper Dr,El Dorado,AR,71730,33.20036,-92.61153,Union,3251,,10463511,NEI
110000458424.0,PERGAN MARSHALL,710 BUSSEY RD,MARSHALL,TX,75670,32.60815,-94.351322,Harrison,325110,,6809411,NEI
110000458424.0,PERGAN MARSHALL LLC,710 B BUSSEY RD,MARSHALL,TX,75670,32.60748,-94.35046,HARRISON,325199,,75670WTCCROFFHW,TRI
110000461134.0,HOUSTON PLANT,8600 PARK PLACE,HOUSTON,TX,77017,29.7173,-95.241397,Harris,325110,,4168611,NEI
110000461134.0,TPC GROUP LLC,8600 PARK PL BLVD,HOUSTON,TX,77017,29.69845,-95.254597,HARRIS,325199,,77017TXSPT8600P,TRI
110000461134.0,TPC GROUP LLC,8600 PARK PLACE BOULEVARD,HOUSTON,TX,77017.0,29.69845,-95.254597,HARRIS COUNTY,325110,,1005198,GHGRP
110031389192.0,OXEA BAY CITY PLANT,2001 FM 3057 ADMIN BLDG,BAY CITY,TX,77414,28.859336,-96.021167,Matagorda,325110,,13411911,NEI
110031389192.0,OQ CHEMICALS CORP BAY CITY PLANT,2001 FM 3057,BAY CITY,TX,77414,28.861921,-96.020763,MATAGORDA,325199,,77414XCRPB21FM3,TRI
110031389192.0,CELANESE LTD BAY CITY PLANT,2001 FM 3057,BAY CITY,TX,77414,28.861921,-96.020763,MATAGORDA,325199,,77414HCHSTPOBOX,TRI
110012183216.0,Centauri Technologies,5200 Underwood Rd,Pasadena,TX,77507,29.634,-95.08681,Harris,3251,,9134811,NEI
110012183216.0,CENTAURI TECHNOLOGIES,5200 UNDERWOOD RD,PASADENA,TX,77507,29.63565,-95.08689,HARRIS,325199,,77507CNTRT52UND,TRI
110000462856.0,BAYPORT CHEMICAL PLANT,13441 BAY AREA BLVD,PASADENA,TX,77501,29.649192,-95.048314,Harris,325110,,4055511,NEI
110000462856.0,THE GOODYEAR TIRE & RUBBER CO BAYPORT CHEMICAL PLANT,13441 BAY AREA BLVD,PASADENA,TX,77507,29.6469,-95.0479,HARRIS,325199,,77507GDYRB13441,TRI
110000462856.0,GOODYEAR TIRE & RUBBER CO BAYPORT CHEMICAL PLANT,13441 BAY AREA BOULEVARD,PASADENA,TX,77507.0,29.6469,-95.0479,HARRIS COUNTY,325998,,1002991,GHGRP
110044232773.0,PASADENA SITE,12900 BAY PARK RD,PASADENA,TX,77058,29.641153,-95.060644,Harris,325110,,4057711,NEI
110044232773.0,NOURYON FUNCTIONAL CHEMICALS LLC,12900 BAY PARK RD,PASADENA,TX,77507,29.639444,-95.062778,HARRIS,325199,,77507KZCHM13000,TRI
110000462945.0,MFG CHEMICAL PASADENA,9700 BAYPORT BLVD,PASADENA,TX,77507,29.615497,-95.060825,Harris,325110,,6671611,NEI
110000462945.0,SOLENIS LLC,9700 BAYPORT BLVD,PASADENA,TX,77507,29.615556,-95.061389,HARRIS,325199,,77507LNZBY9700B,TRI
110000463034.0,BAYPORT PLANT,11200 BAY AREA BLVD,PASADENA,TX,77507,29.616878,-95.043042,Harris,325110,,4941911,NEI
110000463034.0,MULTI-CHEM GROUP BAYPORT TX FACILITY,11200 BAY AREA BLVD,PASADENA,TX,77507,29.61813,-95.0439,HARRIS,325199,,77507WLCHM11200,TRI
110067263071.0,LUBE ADDITIVES PLANT,1000 N SOUTH ST,PASADENA,TX,77501,29.733028,-95.170017,Harris,325110,,4166811,NEI
110067263071.0,PASADENA PLANT,1000 N SOUTH AVE,PASADENA,TX,77503,29.736694,-95.167253,Harris,325110,,6421611,NEI
110067263071.0,AFTON CHEMICAL CORP,1000 N. SOUTH STREET,PASADENA,TX,77503,29.734056,-95.17,HARRIS,325199,,7750WFTNCH1NSUT,TRI
110000463098.0,COVESTRO INDUSTRIAL PARK BAYTOWN,8500 W BAY RD,BAYTOWN,TX,77520,29.754294,-94.906944,Chambers,325110,,5729211,NEI
110000463098.0,LANXESS CORP BAYTOWN,"W SIDE OF CHAMBER COUNTY NEXT TO CHAMBER/HARRIS CTY LINE, ON CEDAR BAYOU TAKE ST HWY 146 S FROM I-10",BAYTOWN,TX,77520,29.756808,-94.903483,Chambers,325110,,9175811,NEI
110000463098.0,COVESTRO LLC,8500 W BAY RD MS-21,BAYTOWN,TX,77523,29.759767,-94.907294,CHAMBERS,325199,,77520MBYCR8500W,TRI
110000463098.0,LANXESS CORPORATION,8500 WEST BAY RD,BAYTOWN,TX,77520.0,29.759767,-94.907294,CHAMBERS COUNTY,325192,,1004234,GHGRP
110000463249.0,CROSBY FACILITY,16503 RAMSEY RD,CROSBY,TX,77532,29.921794,-95.055133,Harris,325110,,4167811,NEI
110000463249.0,ALTIVIA CROSBY FACILITY,16503 RAMSEY RD,CROSBY,TX,77532,29.9222,-95.0544,HARRIS,325199,,77532KMCNC16503,TRI
110000463258.0,CROSBY FACILITY,18000 CROSBY EASTGATE ROAD,CROSBY,TX,77532,29.948444,-95.022472,Harris,325110,,4018611,NEI
110000463258.0,ARKEMA INC,18000 CROSBY EASTGATE RD,CROSBY,TX,77532,29.948842,-95.021864,HARRIS,325199,,77532PNNWL18000,TRI
110000607576.0,INDORAMA VENTURES OXIDES LLC,3892 US HWY 90,DAYTON,TX,77535,29.999444,-94.9525,LIBERTY,325199,,77535BKRPRUSHWY,TRI
110000607576.0,Dayton Manufacturing Unit,"3892 U.S. Hwy. 90 W., 5 Mi. W. Of Dayton",Houston,TX,77007,30.0002,-94.95294,Liberty,325998,,4030311,NEI
110008160337.0,LAPORTE PAO FACILITY,1230 MILLER CUT OFF RD GATE 10,LA PORTE,TX,77571,29.710594,-95.064147,Harris,325110,,4033911,NEI
110008160337.0,INEOS OLIGOMERS USA LLC,1230 MILLER CUT-OFF RD GATE 10,LA PORTE,TX,77571,29.710851,-95.065571,HARRIS,325199,,77536QNTMC1515M,TRI
110000463374.0,BATTLEGROUND SITE,730 BATTLEGROUND RD,DEER PARK,TX,77536,29.713133,-95.087614,Harris,325110,,4927011,NEI
110000463374.0,NOURYON FUNCTIONAL CHEMICALS LLC,730 INDEPENDENCE PKWY S,LA PORTE,TX,77571,29.687314,-95.12114,HARRIS,325199,,77536TXSLK730BA,TRI
110012256076.0,HUNTSMAN ETHYLENEAMINES,307 CR 624 AT GATE A 38 BLOCK,FREEPORT,TX,77541,28.952539,-95.312589,Brazoria,325110,,5632011,NEI
110012256076.0,HUNTSMAN ETHYLENEAMINES PLANT,307 COUNTY RD 624 A1 A38 BLOCK,FREEPORT,TX,77541,28.9525,-95.313,BRAZORIA,325199,,77541HNTSM307CO,TRI
110000754167.0,PETROCHEMICAL REFINING,PLANT 5 ON CR 229,FREEPORT,TX,77541,28.957703,-95.333108,Brazoria,325998,,5633711,NEI
110000754167.0,CHAMPIONX-FREEPORT,2322 COUNTY RD 229,FREEPORT,TX,77541,28.9578,-95.335,BRAZORIA,325199,,77541NLCCHPODRA,TRI
110000599451.0,FREEPORT PLANT,6213 HWY 332 EAST,FREEPORT,TX,77541,28.988492,-95.361403,Brazoria,325110,,6614511,NEI
110000599451.0,VENCOREX US INC,6213 HWY 332 E,FREEPORT,TX,77541,28.991019,-95.36107,BRAZORIA,325199,,77541RHNPL6213H,TRI
110008170237.0,DOW TEXAS OPERATIONS FREEPORT,2301 N. BRAZOSPORT BLVD. BUILDING B-101,FREEPORT,TX,77541.0,28.9792,-95.3549,BRAZORIA COUNTY,325110,,1002040,GHGRP
110008170237.0,DOW TEXAS OPERATIONS FREEPORT,2301 N BRAZOSPORT BLVD,CLUTE,TX,77541,28.980925,-95.348756,Brazoria,325110,,5632711,NEI
110008170237.0,DOW CHEMICAL CO FREEPORT FACILITY,2301 N BRAZOSPORT BLVD,FREEPORT,TX,775413257,28.9792,-95.3549,BRAZORIA,486990,,77541THDWCBUILD,TRI
110008170237.0,DOW CHEMICAL CO FREEPORT FACILITY,2301 N BRAZOSPORT BLVD,FREEPORT,TX,775413257,28.9792,-95.3549,BRAZORIA,325199,,77541THDWCBUILD,TRI
110017769734.0,LA PORTE VCM PLANT,2400 MILLER CUT OFF RD,LA PORTE,TX,77571,29.727647,-95.074931,Harris,325110,,4057611,NEI
110017769734.0,OXY VINYLS LP LA PORTE VCM PLANT,2400 MILLER CUTOFF RD,LA PORTE,TX,77571,29.72376,-95.07422,HARRIS,325199,,77571LPRTC2400M,TRI
110017769734.0,OXY VINYLS LP - LA PORTE VCM PLANT,2400 MILLER CUT-OFF ROAD,LA PORTE,TX,77571.0,29.72376,-95.07422,HARRIS COUNTY,325181,,1001713,GHGRP
110017769734.0,ETHYLENE PIPELINE EQUIPMENT,2400 MILLER CUT OFF RD,LA PORTE,TX,77571,29.728044,-95.07775,Harris,486910,,17728311,NEI
110017874736.0,LA PORTE PLANT,12455 STRANGE RD,LA PORTE,TX,77571,29.703111,-95.033653,Harris,325110,,9103411,NEI
110017874736.0,THE LYCRA CO LA PORTE PLANT (PREVIOUSLY INVISTA SARL,12455  STRANG RD,LA PORTE,TX,77571,29.69797,-95.03339,HARRIS,325199,,77571NVSTS12455,TRI
110000501341.0,ALTIVIA SPECIALTY CHEMICALS LLC,1901 W H ST,LA PORTE,TX,77571,29.654833,-95.036528,HARRIS,325199,,77571PPGND1901A,TRI
110000501341.0,ALTIVIA CHEMICAL COMPLEX,1901 AVENUE H AT ITS INTERSECTION WITH 16TH STREET,LA PORTE,TX,77571,29.655092,-95.037442,Harris,325110,,6510211,NEI
110000463597.0,LYONDELLBASELL ACETYLS,1350 MILLER CUT OFF RD,LA PORTE,TX,77571,29.714058,-95.061267,Harris,325110,,6671911,NEI
110000463597.0,LYONDELLBASELL ACETYLS LLC,1350 MILLER CUT OFF RD,LA PORTE,TX,77571,29.712222,-95.066667,HARRIS,325199,,77571QNTMC11603,TRI
110034641635.0,LA PORTE COMPLEX,1515 MILLER CUT-OFF ROAD,DEER PARK,TX,77536,29.709733,-95.072317,Harris,325110,,4182311,NEI
110034641635.0,EQUISTAR CHEMICALS LP,1515 MILLER CUT OFF RD,LA PORTE,TX,77571,29.717471,-95.068008,HARRIS,325199,,77571QNTMC1515M,TRI
110034641635.0,EQUISTAR CHEMICALS LAPORTE COMPLEX,1515 MILLER CUT- OFF ROAD,LA PORTE,TX,77571.0,29.717471,-95.068008,HARRIS COUNTY,325110,,1002758,GHGRP
110006533359.0,EAST STORAGE/SPLITTER III FACILITY,316 S MAIN ST,MONT BELVIEU,TX,77580,29.839361,-94.892339,Chambers,325110,,6599811,NEI
110006533359.0,EAST STORAGE / SPLITTER III FACILITY,316 S MAIN ST,MONT BELVIEU,TX,77580,29.840014,-94.892134,CHAMBERS,324110,,77580DMNDS316SO,TRI
110000463864.0,TEXAS CITY OPERATONS,201 BAY ST S,TEXAS CITY,TX,77590,29.378617,-94.898389,Galveston,325110,,6615111,NEI
110000463864.0,EASTMAN CHEMICAL TEXAS CITY INC,201 BAY ST S,TEXAS CITY,TX,77590,29.380301,-94.894036,GALVESTON,325199,,77592STRLN201BA,TRI
110000463864.0,Eastman Chemical Texas City Operations,201 Bay Street South,Texas City,TX,77590.0,29.380301,-94.894036,GALVESTON COUNTY,325110,,1004957,GHGRP
110000463917.0,BEAUMONT PLANT,LOCATED IN THE LUCITE BEAUMONT INDUSTRIAL PARK;  6350 N TWIN CITY HWY,BEAUMONT,TX,77701,30.016106,-94.028661,Jefferson,325110,,6385211,NEI
110000463917.0,JEFFERSON TERMINAL SOUTH LLC,6350 N TWIN CITY HWY,NEDERLAND,TX,77627,30.013916,-94.029616,JEFFERSON,325199,,77627CCRYL6350N,TRI
110022523982.0,INVISTA SARL SABINE RIVER SITE,3055A FM 100,ORANGE,TX,77631,30.051661,-93.759072,Orange,325110,,10678011,NEI
110022523982.0,INV NYLON CHEMICALS AMERICAS ORANGE SITE,3055A FM 1006,ORANGE,TX,77630,30.054167,-93.752208,ORANGE,325199,,77630NVSTS355AF,TRI
110020148008.0,PORT ARTHUR PLANT,2001 SOUTH GULFWAY DRIVE (IN THE OLD CHEVRON REFINERY),PORT ARTHUR,TX,77640,29.849267,-93.980592,Jefferson,325110,,6158411,NEI
110020148008.0,CHEVRON PHILLIPS CHEMICAL CO,2001 S GULFWAY DR,PORT ARTHUR,TX,77640,29.850396,-93.977222,JEFFERSON,325110,,77640CHVRN2001S,TRI
110020148008.0,CHEVRON PHILLIPS CHEMICAL CO,2001 S GULFWAY DR,PORT ARTHUR,TX,77640,29.850396,-93.977222,JEFFERSON,325199,,77640CHVRN2001S,TRI
110020148008.0,"CHEVRON PHILLIPS CHEMICAL COMPANY, LP PORT ARTHUR PLANT",2001 SOUTH GULFWAY DRIVE,PORT ARTHUR,TX,77640.0,29.850396,-93.977222,JEFFERSON COUNTY,325110,,1002146,GHGRP
110000464042.0,KMTEX,2450 S GULFWAY DR PORT ARTHUR,PORT ARTHUR,TX,77640,29.827856,-93.962925,Jefferson,325110,,13381911,NEI
110000464042.0,MONUMENT CHEMICAL PORT ARTHUR LLC,2450 S GULFWAY DR,PORT ARTHUR,TX,77641,29.825641,-93.965034,JEFFERSON,325199,,77641KMCNC2450S,TRI
110000504801.0,PORT NECHES PLANT,2102 SPUR 136,PORT NECHES,TX,77651,29.967542,-93.928719,Jefferson,325110,,4945211,NEI
110000504801.0,TPC GROUP,2102 SPUR 136,PORT NECHES,TX,77651,29.964146,-93.930138,JEFFERSON,325199,,77651TXSPT212SP,TRI
110000464140.0,LNVA - NORTH PLANT REGIONAL TREATMENT PLANT,2655 GULF STATES RD; 1 M E OF BEAUMONT FROM SYCAMORE ST,BEAUMONT,TX,77701,30.061506,-94.064839,Jefferson,221310,,7909511,NEI
110000464140.0,LNVA-NORTH REGIONAL TREATMENT PLANT,2655 GULF STATES RD,BEAUMONT,TX,77701,30.063425,-94.061066,JEFFERSON,324110,,77704NCHSRGULFS,TRI
110000464391.0,VICTORIA SITE,8.5 MI SE OFF FM 404,VICTORIA,TX,77901,28.676111,-96.95,Victoria,325110,,5679711,NEI
110000464391.0,INV NYLON CHEMICALS AMERICAS VICTORIA SITE,2695 OLD BLOOMINGTON RD NORTH,VICTORIA,TX,77905,28.673056,-96.953611,VICTORIA,325199,,77905NVSTS2695L,TRI
110000599807.0,INGLESIDE PLANT,"ON F.M. 361, S. OF S.H. 35",INGLESIDE,TX,78362,27.881392,-97.242439,San Patricio,325110,,5746611,NEI
110000599807.0,OCCIDENTAL CHEMICAL CORP,4133 HWY 361,GREGORY,TX,78359,27.883611,-97.241383,SAN PATRICIO,325199,,78359CCDNTHWY36,TRI
110000746532.0,CHEMOURS FC INGLESIDE PLANT,"ON HWY 361, 1 M W OF INGLESIDE",INGLESIDE,TX,78362,27.876167,-97.246694,San Patricio,325110,,5677911,NEI
110000746532.0,THE CHEMOURS CO,HWY 361,GREGORY,TX,78359,27.875556,-97.244722,SAN PATRICIO,325120,,78362DPNTCHIGHW,TRI
110000600136.0,CHAMPIONX-ODESSA EAST 528,12205 W COUNTY RD 125,ODESSA,TX,79765,31.904455,-102.245483,MIDLAND,325199,,79765NLCXX12205,TRI
110000600136.0,Ondeo Nalco Energy Services  Plant 114,12205 W. County Rd. 125,Odessa,TX,79765-9675,31.90583,-102.24666,Midland,42469,,7650111,NEI
110000467469.0,BOULDER SCIENTIFIC CO - MEAD FACILITY,598 COUNTY HWY 7,MEAD,CO,80542,40.2388,-104.99852,Weld,325998,,898411,NEI
110000467469.0,BOULDER SCIENTIFIC CO LLC - MEAD FACILITY,598 3RD ST,MEAD,CO,80542,40.238056,-104.998056,WELD,325199,,80542BLDRS5983R,TRI
110000469136.0,Holly Corp- HRMC and HEP Woods Cross Operations,393 South 800 West,Woods Cross,UT,84087,40.886022,-111.904759,Davis,32411,,7301411,NEI
110000469136.0,HF SINCLAIR WOODS CROSS REFINING LLC,393 S 800 W,WOODS CROSS,UT,84087,40.886022,-111.904759,DAVIS,324110,,84087PHLLP393SO,TRI
110057930253.0,EVONIK CORP,3305 E 26TH ST,LOS ANGELES,CA,90058,34.01272,-118.21293,LOS ANGELES,325199,,90023PCFCN3305E,TRI
110057930253.0,EVONIK CORPORATION,3305 E 26TH ST,LOS ANGELES,CA,90058,34.0134,-118.2127,Los Angeles,325998,,4084311,NEI
110000476057.0,ULTRAMAR INC,961  LA PALOMA AVE,WILMINGTON,CA,90744,33.76097,-118.26555,Los Angeles,493190,,5634611,NEI
110000476057.0,ULTRAMAR INC. MARINE TERMINAL,961 LA PALOMA ST,WILMINGTON,CA,90744,33.75828,-118.26676,LOS ANGELES,324110,,90744LTRMR961LA,TRI
110000476137.0,NALCO CO - CARSON,2111 E DOMINGUEZ ST,LONG BEACH,CA,90810,33.83922,-118.23044,LOS ANGELES,325199,,90745NLCCH2111E,TRI
110000476137.0,Nalco Chemical Co,2111 E Dominguez St,Carson,CA,90810,33.83998,-118.23191,Los Angeles,425120,,5784811,NEI
110000476315.0,EDGINGTON OIL COMPANY,2400 E ARTESIA BLVD,LONG BEACH,CA,90805,33.874604,-118.163883,Los Angeles,324121,,5683011,NEI
110000476315.0,EDGINGTON OIL CO,2400 E ARTESIA BLVD,LONG BEACH,CA,90805,33.87461,-118.16412,LOS ANGELES,324110,,90805DGNGT2400E,TRI
110000519699.0,TAFT MANUFACTURING LLC,19815 S LAKE RD,TAFT,CA,93268,35.145,-119.2385,Kern,325320,,455111,NEI
110000519699.0,TAFT MANUFACTURING LLC,19815 SOUTH LAKE ROAD,TAFT,CA,93268,35.1444,-119.237778,KERN,325199,,93268TFTCR19815,TRI
110069500463.0,Solenis LLC,3366 NW YEON AVE,PORTLAND,OR,97210,45.5473,-122.709,Multnomah,221330,,890011,NEI
110069500463.0,SOLENIS LLC,3366 NW YEON AVE,PORTLAND,OR,97210,45.547397,-122.709153,MULTNOMAH,325211,,97210HRCLS3366N,TRI
110000423667.0,3M Cottage Grove Center - Site,10746 Innovation Rd,Cottage Grove,MN,55016.0,44.789444,-92.908333,WASHINGTON COUNTY,325998,,1004836,GHGRP
110000423667.0,3M - Cottage Grove - Corporate Incinerator,10746 Innovation Rd Bldg 145,Cottage Grove,MN,55016,44.79046,-92.91405,Washington,562213,,8161811,NEI
110000423667.0,3M COTTAGE GROVE CENTER,10746 INNOVATION RD,COTTAGE GROVE,MN,55016,44.789444,-92.908333,WASHINGTON,325998,,55016MCHMLHIGHW,TRI
110000423667.0,3M - Cottage Grove - Utilities/Support Svcs,10746 Innovation Rd,Cottage Grove,MN,55016,44.79047,-92.91404,Washington,325199,,6772511,NEI
110000423667.0,3M - Cottage Grove - Materials Resource Division,10746 Innovation Rd Bldg 41-1,Cottage Grove,MN,55016,44.79047,-92.91404,Washington,325998,,6772711,NEI
110000423667.0,3M - Cottage Grove - Bldg 133/Traffic Safety,10746 Innovation Rd,Cottage Grove,MN,55016,44.79047,-92.91404,Washington,325199,,6785311,NEI
110000423667.0,3M - Cottage Grove - Specialty Additives,10746 Innovation Rd,Cottage Grove,MN,55016,44.79047,-92.91404,Washington,327212,,6771911,NEI
110000423667.0,3M - Cottage Grove - Bldg 19 & 111,10746 Innovation Rd,Cottage Grove,MN,55016,44.79047,-92.91404,Washington,326113,,13603211,NEI
110000423667.0,3M - Cottage Grove,10746 Innovation Rd,Cottage Grove,MN,55016,44.79047,-92.91404,Washington,326113,,6772811,NEI
110000468182.0,CHAMPIONX-EVANSVILLE PLANT 108,4900 E YELLOWSTONE HWY,EVANSVILLE,WY,82636,42.8574,-106.2547,NATRONA,339999,,82636NLCCH4900E,TRI
110000468182.0,Evansville Plant,4900 E Yellowstone Hwy,Evansville,WY,82636,42.8574,-106.2547,Natrona,325199,,6978011,NEI
110000474834.0,POLYNT COMPOSITES USA INC,2801  LYNWOOD RD,LYNWOOD,CA,90262,33.925923,-118.22282,Los Angeles,561110,,15766211,NEI
110000474834.0,Eastman Chemical Company,2801 Lynwood Rd,Lynwood,CA,90262,33.92587,-118.20845,Los Angeles,325211,,5041511,NEI
110000859508.0,H.B. FULLER CO,12110 HARLAND DR NE,COVINGTON,GA,30014,33.617778,-83.831389,NEWTON,325520,,30209HBFLL12110,TRI
110000859508.0,H  B  Fuller Co,12110 Harland Dr. N.E.,Covington,GA,30014,33.61916,-83.83194,Newton,325211,,2687111,NEI
110004045701.0,COATINGS & ADHESIVES CORP,1901 POPULAR ST NE,LELAND,NC,28451,34.251633,-78.070816,BRUNSWICK,325510,,28451CTNGSRTE74,TRI
110004045701.0,Coatings and Adhesives Corporation,1901 Popular Street,Leland,NC,28451,34.251633,-78.070816,Brunswick,325199,,8511311,NEI
110022832746.0,CENTRAL GREEN FACILITY HOUSTON,16602 CENTRAL GREEN BLVD,HOUSTON,TX,77032,29.961939,-95.374722,Harris,326121,,9101111,NEI
110022832746.0,ENDURO COMPOSITES INC-HOUSTON CENTRAL GREEN FACILITY,16602 CENTRAL GREEN BLVD,HOUSTON,TX,77032,29.96183,-95.37542,Harris,325211,,17056911,NEI
110000388508.0,PPG INDUSTRIES INC BARBERTON,4829 FAIRLAND RD,BARBERTON,OH,44203,40.999581,-81.616821,SUMMIT,325180,,44203PPGND4829F,TRI
110000388508.0,PPG - North Plant (1677020163),4829 Fairland Rd,Barberton,OH,44203-3913,41.00278,-81.61694,Summit,325211,,13471711,NEI
110000327423.0,SAINT GOBAIN INDUSTRIAL CERAMIC INC,6600 WALMORE RD,NIAGARA FALLS,NY,14304,43.10359,-78.92708,NIAGARA,327999,,14304NRTNW6600W,TRI
110000327423.0,Saint-Gobain Niagara Falls,6600 Walmore Rd,Niagara Falls,NY,14304,43.10569,-78.92958,Niagara,325211,,9358411,NEI
110000734670.0,ISLECHEM LLC D.B.A. ACTYLIS BUFFALO,2801 LONG RD,GRAND ISLAND,NY,14072,43.04848,-78.99699,ERIE,325998,,14072XYCHM2801L,TRI
110000734670.0,Islechem L L C,2801 Long Rd.,Grand Island,NY,14072,43.04999,-78.99639,Erie,325199,,7811511,NEI
110000757501.0,Owensboro Grain Ed Oil,1145 Ewing Rd,Owensboro,KY,42302,37.78429,-87.14343,Daviess,311224,,6052911,NEI
110000757501.0,Owensboro Grain Biodiesel LLC,1145 Ewing Rd,Owensboro,KY,42302,37.784408,-87.143344,Daviess,325199,,13418711,NEI
110035869165.0,AJINOMOTO HEARTLAND LLC,1116 HIGHWAY 137,EDDYVILLE,IA,52553-5005,41.14353,-92.64763,Monroe,311119,,7741311,NEI
110035869165.0,"AJINOMOTO FOOD INGREDIENTS, LLC",1 Ajinomoto Dr.,Eddyville,IA,52553,41.1486,-92.64472,Monroe,325199,,3779911,NEI
110067425708.0,Great Plains Mfg. - Salina (1733 Dewey/601 Idlewilde Ct),1733 Dewey St / 601 Idlewilde Ct,Salina,KS,67401,38.850764,-97.588009,Saline,333111,,3122411,NEI
110067425708.0,McShares,1835 E North St,Salina,KS,67401,38.850322,-97.581813,Saline,325199,,15594111,NEI
nan,Charter Waste Landfill,12035 West Murphy Road,Odessa,TX,79764.0,31.745833,-102.546661,ECTOR COUNTY,562212,,1002509,GHGRP
nan,"EPL Oil & Gas, Inc. - SP 77 A",None,Offshore,LA,0.0,28.8308,-89.4061,ORLEANS PARISH,211111,,1010333,GHGRP
nan,CVEA Cogeneration Project,Mile 2.5 Dayville Rd.,Valdez,AK,99686,61.0843,-146.2518,Chugach Census Area,221112,,1025411,NEI
nan,Glennallen Diesel Plant,Mile 187 Glenn Hwy,Glennallen,AK,99588,62.1186,-145.5294,Copper River Census Area,221112,,1025511,NEI
nan,Valdez Diesel Power Plant,West Egan Dr,Valdez,AK,99686,61.1352,-146.3533,Chugach Census Area,221112,,1025611,NEI
nan,ST LABRE MISSION,Unknown,ASHLAND,MT,00000,45.6,-106.2672,None,48811,,11140311,NEI
nan,BONANZA POWER PLANT,Unknown,BONANZA,UT,00000,40.0822,-109.2915,None,48811,,11446411,NEI
nan,ANIMAS AIR PARK HELIPORT,Unknown,DURANGO,CO,00000,37.2031,-107.8678,None,48811,,12014511,NEI
nan,Orca Power Plant,103 Orca Road,Cordova,AK,99574,60.556,-145.7535,Chugach Census Area,221112,,12660911,NEI
nan,HAARP Facility - The High Frequency Active Auroral Research Program,"Milepost 11.3, Tok Cut-Off",Gakona,AK,99586,62.3917,-145.1295,Copper River Census Area,611310,,12662511,NEI
nan,"MARYSVILLE ETHANOL, LLC",2512 BUSHA HIGHWAY,MARYSVILLE,MI,48040,42.8825,-82.4948,St. Clair,325193,,13657811,NEI
nan,Road Runner / Pacific Pride 4-260086,61313 Highway 97 South,Toppenish,WA,98949,46.369727,-120.32017,None,44711,,17310811,NEI
nan,WEST JAMESON TREATING FACILITY,FROM ROBERT LEE TAKE TX-208 N FOR 17.6 MILES. TAKE SLIGHT LEFT ONTO RANCH RD 1672 FOR 0.8 MILES. TAK,SILVER,TX,76949,32.049872,-100.693333,Coke,486210,,17910311,NEI
nan,OZONA GAS PLANT,2 M S OF SH 163,OZONA,TX,76943,30.673311,-101.20485,Crockett,211130,,6475911,NEI
nan,Marathon Petroleum Co LP,4663 W Airline Hwy,Garyville,LA,70051-0000,30.06947,-90.59586,St. John the Baptist,424710,,8018511,NEI
nan,Valdez Marine Terminal,West End of Dayville Road,Valdez,AK,99686,61.0861,-146.3892,Chugach Census Area,488320,,865711,NEI
nan,Pender Muni,Unknown,Pender,NE,00000,42.11389,-96.72893,None,48811,,9410311,NEI
nan,Animas Air Park,Unknown,Durango,CO,00000,37.20389,-107.86861,None,48811,,9811311,NEI
nan,CHEMAID LABORATORIES INC.,100 MAYHILL ST,SADDLE BROOK,NJ,7663,40.89923,-74.08892,BERGEN,325620,,0766WCHMDL1MAYH,TRI
nan,ZEUS CO INC BNJ,134 CHUBB WAY,SOMERVILLE,NJ,8876,40.556792,-74.705768,SOMERSET,326121,,0887WZSNDS134CH,TRI
nan,BLOMMER CHOCOLATE CO/E GREENVILLE PLT,1101 BLOMMER DR,EAST GREENVILLE,PA,18041,40.41568,-75.51236,MONTGOMERY,311351,,1804WBLMMR111BL,TRI
nan,ZEUS CO INC GSC,201 ZEUS LN,GASTON,SC,29053,33.844495,-81.023743,CALHOUN,326121,,2905WZSCMP21ZEU,TRI
nan,OCEANAGOLD HAILE GOLD MINE,6911 SNOWY OWL RD,KERSHAW,SC,29067,34.597431,-80.532552,LANCASTER,212221,,2906WCNGLD6911S,TRI
nan,ZEUS CO INC OSC,646 MAGNOLIA STREET,ORANGEBURG,SC,29115,33.48712,-80.85432,ORANGEBURG,326121,,2911WZSNDS646MA,TRI
nan,GITI TIRE MANUFACTURING CO (USA) LTD,1000 GITI DRIVE,RICHBURG,SC,29729,34.748817,-81.047644,CHESTER,326211,,2972WGTTRM1GITI,TRI
nan,ZEUS CO INC ASC,2499 LEVELS CHURCH RD,AIKEN,SC,29801,33.544633,-81.681224,AIKEN,326121,,2980WZSCMP2499L,TRI
nan,EBROFROST N.A. INC.,2360 PROSPECT,MEMPHIS,TN,38106,35.08205,-90.03704,SHELBY,311212,,3810WBRFRS236PR,TRI
nan,RIVIANA FOODS,2314 S. LAUDERDALE STREET,MEMPHIS,TN,38106,35.08368,-90.04458,SHELBY,311212,,3810WRVNFD2314S,TRI
nan,AMERICAN HOOD SYSTEMS INC.,172 REASER CT,ELYRIA,OH,44035,41.36746,-82.07405,LORAIN,332322,,4403WMRCNH172RE,TRI
nan,MODERN FORGE INDIANA LLC,8757 COLORADO ST,MERRILLVILLE,IN,46410,41.45912,-87.29698,LAKE,332111,,4641WMDRNF8757C,TRI
nan,LGC GENOMICS LLC,2434 BISHOP CIR E,DEXTER,MI,48130,42.32499,-83.877,WASHTENAW,325199,,4813WLGCGN2434B,TRI
nan,GEA FARM TECHNOLOGIES INC.,20903 W GALE AVE,GALESVILLE,WI,54630,44.08239,-91.37045,TREMPEALEAU,333111,,5463WGFRMT293WG,TRI
nan,CITYSERVICEVALCON LLC BILLINGS BULK FACILITY,2100 1ST AVE S,BILLINGS,MT,59101,45.783698,-108.494111,YELLOWSTONE,424710,,5910WCTYSR211ST,TRI
nan,BEN TAYLOR INC BULK FACILITY,2122 W ROOSEVELT HWY,SHELBY,MT,59474,48.516828,-111.88737,TOOLE,424710,,5947WBNTYL2122W,TRI
nan,CITYSERVICEVALCON LLC KALISPELL BULK FACILITY,640 W MONTANA ST,KALISPELL,MT,59901,48.19949,-114.32476,FLATHEAD,424710,,5990WCTYSR64WMN,TRI
nan,LAKESIDE CASTING SOLUTIONS,2 LAKESIDE DR,MONROE CITY,MO,63456,39.654759,-91.715791,MONROE,331523,,6345WLKSDC2LAKE,TRI
nan,YODER SMOKERS INC.,1816 E WASP RD,HUTCHINSON,KS,67501,37.927606,-97.894809,RENO,335220,,6750WYDRSM1816E,TRI
nan,REEVE AGRI ENERGY,5665 S OLD HIGHWAY 83,GARDEN CITY,KS,67846,37.87925,-100.88353,FINNEY,325193,,6784WRVGRN5665S,TRI
nan,MUELLER SUPPLY CO INC.,6914 HWY 2,OAK GROVE,LA,71263,32.858227,-91.411359,WEST CARROLL PARISH,332311,,7126WMLLRN6914H,TRI
nan,SUN COAST RESOURCES- ENID,5110 E OWEN K GARRIOTT RD,ENID,OK,73701,36.39754,-97.80105,GARFIELD,424710,,7370WSNCST511EW,TRI
nan,SUN COAST RESOURCES,2294 S BUFFALO ST,BUFFALO,TX,75831,31.45061,-96.05031,LEON,424710,,7583WSNCST11SBU,TRI
nan,HUNTSMAN BUILDING SOLUTIONS,3315 EAST DIV STREET,ARLINGTON,TX,76011,32.743039,-97.049116,TARRANT,325211,,7601WHNTSM3315E,TRI
nan,SUN COAST RESOURCES,6922 CAVALCADE,HOUSTON,TX,77028,29.800408,-95.302828,HARRIS,424710,,7702WSNCST6922C,TRI
nan,SUN COAST RESOURCES EDNA WAREHOUSE,176 US HIGHWAY 59 S,EDNA,TX,77957,28.97802,-96.66417,JACKSON,424710,,7795WSNCST176US,TRI
nan,SUN COAST RESOURCES,7759 JOHNNY MORRIS RD,AUSTIN,TX,78724,30.311393,-97.636723,TRAVIS,424710,,7872WSNCST7759J,TRI
nan,SUN COAST RESOURCES- MIDLAND,5606 E COUNTY ROAD 128,MIDLAND,TX,79706,31.967052,-101.972818,MIDLAND,424710,,7970WSNCST566EC,TRI
nan,KDC / ONE - THIBIANT INTERNATIONAL,20320 PRAIRIE STREET,CHATSWORTH,CA,91311,34.240923,-118.58636,LOS ANGELES,325620,,9131WTHBNT232PR,TRI
nan,IMPERIAL WESTERN PRODUCTS INC,86600 AVENUE 54,COACHELLA,CA,92236,33.65771,-116.15811,RIVERSIDE,325199,,9223WMPRLW866AB,TRI
nan,BETTS CO,2843 S MAPLE AVE,FRESNO,CA,93725,36.706914,-119.745621,FRESNO,332613,,9372WBTTSC2843S,TRI
nan,GEA FARM TECHNOLOGIES INC.  DBA GEA WS WEST,2717 S 4TH ST,FRESNO,CA,93725,36.70299,-119.76687,FRESNO,325611,,9372WGFRMT2717S,TRI
nan,ECOLUBE RECOVERY LLC,11535 N FORCE AVE,PORTLAND,OR,97217,45.60602,-122.69291,MULTNOMAH,324199,,9721WCLBRC11535,TRI
nan,FARWEST FABRICATORS,7537 POSTMA RD,MOXEE,WA,98936,46.563889,-120.396942,YAKIMA,332322,,9893WFRWST7537P,TRI
