FRS_ID,FacilityName,Address,City,State,Zip,Latitude,Longitude,County,NAICS,SIC,FacilityID,Source
110042043384.0,US Steel (Clairton Coke),400 STATE ST,CLAIRTON,PA,15025,40.3097,-79.8819,Allegheny,324199,,1000124,GHGRP
110042043384.0,USS/CLAIRTON WORKS,400 STATE ST,CLAIRTON,PA,None,40.3055,-79.87699999999998,Allegheny,331110,,8204511,NEI
110042043384.0,USS-CLAIRTON PLANT,400 STATE ST MS 71,CLAIRTON,PA,15025,40.305088,-79.876911,ALLEGHENY,331111,,15025SSCLR400ST,TRI
110008797864.0,US Steel - Keetac,1 MINE ROAD,KEEWATIN,MN,55753,47.41326,-93.06357,SAINT LOUIS,212210,,1001618,GHGRP
110008797864.0,US Steel Corp - Keetac,1 Mine Rd,Keewatin,MN,55753,47.4133,-93.0636,St. Louis,21221,,13598411,NEI
110008799247.0,US STEEL - Minntac,8819 OLD HIGHWAY 169,MOUNTAIN IRON,MN,55768,47.564451,-92.63057,SAINT LOUIS,212210,,1001621,GHGRP
110008799247.0,US Steel Corp - Minntac,8819 Old Highway 169,Mountain Iron,MN,55768,47.5645,-92.6306,St. Louis,21221,,6927911,NEI
110000451369.0,EVRAZ STRATCOR INC,4285 MALVERN ROAD,HOT SPRINGS,AR,71901,34.463889,-92.944167,GARLAND COUNTY,331492,,1002288,GHGRP
110000451369.0,Evraz Stratcor Inc,4285 MALVERN ROAD,HOT SPRINGS,AR,05,34.4739,-92.9631,Garland,212291,,992311,NEI
110000451369.0,US VANADIUM LLC,4285 MALVERN RD,HOT SPRINGS,AR,71901,34.464444,-92.946417,GARLAND,212291,,71901SVNDM5911M,TRI
110012566767.0,ARCELORMITTAL WARREN  (0278000648),2234 MAIN AVE SW,WARREN,OH,44481,41.211242,-80.81682,TRUMBULL,324199,,1003380,GHGRP
110012566767.0,ArcelorMittal Warren (0278000648),2234 Main Ave SW,Warren,OH,44481,41.2042,-80.81579999999998,Trumbull,331110,,8115611,NEI
110012566767.0,CLEVELAND-CLIFFS CLEVELAND WORKS LLC DBA CLEVELAND-CLIFFS WA,2234 MAIN AVE SW,WARREN,OH,44481,41.211242,-80.81682,TRUMBULL,324199,,44482LTVST2234M,TRI
110000384673.0,AK STEEL CORP *,17400 STATE ROUTE 16,COSHOCTON,OH,43812,40.20669,-81.88549,COSHOCTON COUNTY,331221,,1003417,GHGRP
110000384673.0,AK Steel-Coshocton Works (0616010039),17400 State Route 16,Coshocton,OH,43812,40.2056,-81.8805,Coshocton,331221,,7921111,NEI
110000384673.0,CLEVELAND-CLIFFS STEEL CORP,17400 STATE RT 16,COSHOCTON,OH,43812,40.20669,-81.88549,COSHOCTON,331111,,43812CSHCTSTATE,TRI
110000399462.0,IN KOTE IN TEK,30755 EDISON RD,NEW CARLISLE,IN,46552,41.6974,-86.4674,ST JOSEPH,331221,,1003581,GHGRP
110000399462.0,I N TEK & I N KOTE,30755 Edison Rd Bldg 1,New Carlisle,IN,46552,41.694,-86.4723,St. Joseph,332813,,4215411,NEI
110000399462.0,I/N KOTE,30755 EDISON RD,NEW CARLISLE,IN,465529695,41.6974,-86.4674,ST JOSEPH,332813,,46552NTKXX30755,TRI
110000399462.0,I/N KOTE,30755 EDISON RD,NEW CARLISLE,IN,465529695,41.6974,-86.4674,ST JOSEPH,331221,,46552NTKXX30755,TRI
110056954808.0,ArcelorMittal Minorca Mine,5950 Old Highway 53,Virginia,MN,55792,47.559109,-92.518973,SAINT LOUIS,212210,,1003669,GHGRP
110056954808.0,ArcelorMittal Minorca Mine Inc,5950 Old Highway 53 N,Virginia,MN,55792,47.5548,-92.5343,St. Louis,21221,,6237711,NEI
110000434352.0,Horsehead Corp. - Chicago,2701 E. 114TH ST.,CHICAGO,IL,60617,41.687645,-87.554445,COOK,331492,,1004427,GHGRP
110000434352.0,Horsehead Corp,2701 E 114th St,Chicago,IL,60617,41.6876,-87.5544,Cook,325130,,7337011,NEI
110000434352.0,BEFESA ZINC US INC.,2701 E 114TH ST,CHICAGO,IL,60617,41.687371,-87.554861,COOK,331492,,60617HRSHD2701E,TRI
110000483450.0,USS POSCO INDUSTRIES,900 LOVERIDGE ROAD,PITTSBURG,CA,94565,38.02305,-121.85565,CONTRA COSTA,331221,,1004478,GHGRP
110000483450.0,USS-POSCO INDUSTRIES,900 LOVERIDGE ROAD,PITTSBURG,CA,94565,38.0228,-121.86,Contra Costa,324199,,6529211,NEI
110000483450.0,USS-UPI LLC,900 LOVERIDGE RD - MS-67,PITTSBURG,CA,94565,38.02305,-121.85565,CONTRA COSTA,331221,,94565SSPSCPOBOX,TRI
110000603749.0,Horsehead Corp. - Palmerton,900 DELAWARE AVENUE,PALMERTON,PA,18071,40.808331,-75.583339,CARBON COUNTY,331492,,1004723,GHGRP
110000603749.0,HORSEHEAD CORP/PALMERTON,900 DELAWARE AVE,PALMERTON,PA,None,40.8079,-75.5879,Carbon,325130,,7888911,NEI
110000603749.0,BEFESA ZINC US INC.,900 DELAWARE AVE,PALMERTON,PA,18071,40.807928,-75.587928,CARBON,331492,,18071HRSHDDELAW,TRI
110000603749.0,HORSEHEAD CORP/EAST PLT,900 DELAWARE AVENUE,PALMERTON,PA,18071,40.8044,-75.59269999999998,Carbon,331410,,3675711,NEI
110068961225.0,Hibbing Taconite Company,4950 County Highway 5 North,Hibbing,MN,55746,47.476831,-92.967271,SAINT LOUIS,212210,,1005116,GHGRP
110068961225.0,Hibbing Taconite Co,4950 County Highway 5 N,Hibbing,MN,55746,47.4768,-92.9673,St. Louis,21221,,6237611,NEI
110000910453.0,NORTHSHORE MINING CO - SILVER BAY,10 OUTER DRIVE,SILVER BAY,MN,55614,47.286,-91.26,LAKE,212210,,1005276,GHGRP
110000910453.0,Northshore Mining - Silver Bay,10 Outer Dr,Silver Bay,MN,55614,47.2865,-91.2611,Lake,21221,,6319411,NEI
110070834615.0,UNITED TACONITE LLC - FAIRLANE PLANT,8470 Townline Road,FORBES,MN,55738,47.3527,-92.5764,SAINT LOUIS,212210,,1005294,GHGRP
110070834615.0,United Taconite LLC - Fairlane Plant,Highway 16,Forbes,MN,55738,47.3527,-92.5764,St. Louis,21221,,6239611,NEI
110000424452.0,Gerdau Ameristeel: St. Paul Mill,1678 RED ROCK ROAD,SAINT PAUL,MN,55119,44.89093,-93.010843,RAMSEY COUNTY,331221,,1005298,GHGRP
110000424452.0,Gerdau Ameristeel US Inc - St Paul Mill,1678 Red Rock Rd,St. Paul,MN,55119,44.891,-93.0123,Ramsey,331110,,7146811,NEI
110000424452.0,GERDAU AMERISTEEL ST PAUL MILL,1678 RED ROCK RD,SAINT PAUL,MN,55119,44.89093,-93.010843,RAMSEY,331221,,55119NRTHS1678R,TRI
110032634102.0,STEEL DUST RECYCLING LLC,13209 HIGHWAY 96,MILLPORT,AL,35576,33.561822,-88.062285,LAMAR,331492,,1005338,GHGRP
110032634102.0,Steel Dust Recycling LLC,13209 Highway 96,Millport,AL,35576,33.5646,-88.0599,Lamar,331410,,16154411,NEI
110032634102.0,STEEL DUST RECYCLING LLC,13209 HWY 96,MILLPORT,AL,35576,33.5646,-88.0599,LAMAR,331492,,35576STLDS1329H,TRI
110000451671.0,ARK STEEL ASSOCIATES,2803 VAN DYKE ROAD,NEWPORT,AR,72112,35.648518,-91.244662,JACKSON,331221,,1005801,GHGRP
110000451671.0,ARKANSAS STEEL ASSOCIATES,2803 VAN DYKE ROAD,NEWPORT,AR,72112,35.645,-91.2197,Jackson,331221,,1083611,NEI
110000451671.0,ARKANSAS STEEL ASSOCIATES LLC,2803 VAN DYKE RD,NEWPORT,AR,72112,35.648518,-91.244662,JACKSON,331111,,72112RKNSSVANDY,TRI
110000609921.0,EXIDE TECHNOLOGIES,2700 SOUTH INDIANA STREET,LOS ANGELES,CA,90023,34.00591,-118.19432,LOS ANGELES,331492,,1006427,GHGRP
110000609921.0,EXIDE TECHNOLOGIES,2700 S INDIANA ST,VERNON,CA,90058,34.0059,-118.193,Los Angeles,335991,,5635211,NEI
110000609921.0,EXIDE TECHNOLOGIES,2700 S INDIANA ST,LOS ANGELES,CA,90058,34.00591,-118.19432,LOS ANGELES,331492,,90058GNBNC2717S,TRI
110000366657.0,"ERP COKE, L.L.C. COKE PLANT",3500 35TH AVENUE NORTH,BIRMINGHAM,AL,35207,33.557464,-86.799671,JEFFERSON COUNTY,324199,,1006585,GHGRP
110000366657.0,BLUESTONE COKE,3500 35TH AVE N,BIRMINGHAM,AL,35207,33.557464,-86.799671,JEFFERSON,331111,,35207SLSSN35003,TRI
110043973322.0,EAST PENN LYONS SMELTER & BATTERY PLT,1 DEKA ROAD,LYON STATION,PA,19536,40.47166,-75.767,BERKS,331492,,1006818,GHGRP
110043973322.0,EAST PENN MFG CO INC/BATTERY ASSEMBLY,DEKA RD,LYON STATION,PA,19536,40.4716,-75.76699999999998,Berks,335911,,3871911,NEI
110043973322.0,EAST PENN MFG CO INC/SMELTER PLT,DEKA RD,LYON STATION,PA,None,40.4716,-75.76699999999998,Berks,331492,,8234711,NEI
110043973322.0,EAST PENN MANUFACTURING CO INC,DEKA RD,LYON STATION,PA,19536,40.47166,-75.767,BERKS,335912,,19536STPNNDEKAR,TRI
110000474353.0,DEMENNO KERDOON,2000 N. ALAMEDA ST.,COMPTON,CA,90222,33.910116,-118.221906,LOS ANGELES,324199,,1006861,GHGRP
110000474353.0,DEMENNO/KERDOON,2000 N ALAMEDA ST,COMPTON,CA,90222,33.9102,-118.223,Los Angeles,324191,,6500711,NEI
110000474353.0,DEMENNOKERDOON DBA WORLD OIL RECYCLING,2000 NORTH ALAMEDA STREET,COMPTON,CA,90222,33.910116,-118.221906,LOS ANGELES,324191,,90222DMNNK2000N,TRI
110000326772.0,TONAWANDA COKE CORP,3875 RIVER RD.,TONAWANDA,NY,14150,42.983638,-78.92728,ERIE,324199,,1006875,GHGRP
110000326772.0,TONAWANDA COKE CORP,3875 RIVER RD,TONAWANDA,NY,14150,42.98,-78.92,Erie,331110,,7762811,NEI
110000326772.0,TONAWANDA COKE CORP,3875 RIVER RD,TONAWANDA,NY,14150,42.983638,-78.92728,ERIE,324199,,14150TNWND3875R,TRI
110001142228.0,Special Metals Corporation,100 Willowbrook Dr,Dunkirk,NY,14048,42.46902,-79.34162,CHAUTAUQUA COUNTY,332111,,1011742,GHGRP
110001142228.0,Special Metals Corp,100 Willowbrook Ave.,Dunkirk,NY,14048,42.4718,-79.343,Chautauqua,331110,,7821011,NEI
110001142228.0,SPECIAL METALS CORP,WILLOWBROOK AVE,DUNKIRK,NY,14048,42.469,-79.345,CHAUTAUQUA,332112,,14048SPCLMWILLO,TRI
110000589328.0,NUCOR STEEL DECATUR,4301 IVERSON BOULEVARD,TRINITY,AL,35673,34.638906,-87.089036,MORGAN,331111,,1005976,GHGRP
110000589328.0,Nucor Steel Decatur LLC,4301 Iverson Rd,Trinity,AL,35609,34.6389,-87.089,Morgan,331110,,1000011,NEI
110000589328.0,NUCOR STEEL DECATUR LLC,4301 IVERSON BLVD,TRINITY,AL,35673,34.638906,-87.089036,MORGAN,331111,,35603TRCST4301H,TRI
110057474193.0,NUCOR STEEL BIRMINGHAM INC,2301 FL SHUTTLESWORTH DRIVE,BIRMINGHAM,AL,35234,33.54539,-86.8093,JEFFERSON COUNTY,331111,,1004152,GHGRP
110057474193.0,"NUCOR STEEL BIRMINGHAM,INC.",2301 Shuttlesworth DR,Birmingham,AL,35234,33.545,-86.80549999999998,Jefferson,331110,,1001311,NEI
110057474193.0,NUCOR STEEL BIRMINGHAM INC,2301 F L SHUTTLESWORTH DR,BIRMINGHAM,AL,35234,33.54539,-86.8093,JEFFERSON,331111,,35234BRMNG4301F,TRI
110013834770.0,SMI STEEL LLC,101 50TH STREET SOUTH,BIRMINGHAM,AL,35212,33.534104,-86.757929,JEFFERSON,331111,,1003981,GHGRP
110013834770.0,"SMI STEEL, INC.",101 50th ST S,Birmingham,AL,35232,33.5341,-86.7579,Jefferson,331110,,1002411,NEI
110013834770.0,SMI STEEL LLC DBA CMC STEEL ALABAMA,101 S 50TH ST,BIRMINGHAM,AL,35212,33.534104,-86.757929,JEFFERSON,331111,,35212SMSTLPOBOX,TRI
110042026170.0,"Nucor Steel Tuscaloosa, Inc.",1700 Holt Road NE,Tuscaloosa,AL,35404,33.23375,-87.50693,TUSCALOOSA COUNTY,331111,,1003457,GHGRP
110042026170.0,Nucor Tuscaloosa,1700 Holt Rd,Tuscaloosa,AL,35404,33.2354,-87.5087,Tuscaloosa,331110,,1003711,NEI
110042026170.0,NUCOR STEEL TUSCALOOSA INC,1700 HOLT RD NE,TUSCALOOSA,AL,35404,33.23375,-87.50693,TUSCALOOSA,331111,,35404TSCLS1500H,TRI
110000743562.0,NUCOR-YAMATO STEEL CO,5929 E. STATE HWY. 18,BLYTHEVILLE,AR,72316,35.901866,-89.775643,MISSISSIPPI,331111,,1007642,GHGRP
110000743562.0,NUCOR-YAMATO STEEL COMPANY,5929 EAST STATE HWY 18,BLYTHEVILLE,AR,72315,35.8994,-89.77249999999998,Mississippi,331110,,1008911,NEI
110000743562.0,NUCOR-YAMATO STEEL CO,5929 E STATE HWY 18,BLYTHEVILLE,AR,72316,35.901866,-89.775643,MISSISSIPPI,331111,,72316NCRYM5929E,TRI
110001716965.0,TENNESSEE ALLOYS CORPORATION,101 GARNER RD,BRIDGEPORT,AL,35740,34.94458,-85.69987,JACKSON COUNTY,331112,,1003716,GHGRP
110001716965.0,Tennessee Alloys Corporation,101 Garner Rd,Bridgeport,AL,35740,34.9457,-85.7013,Jackson,331110,,1038611,NEI
110001716965.0,TENNESSEE ALLOYS CO,101 GARNER RD,BRIDGEPORT,AL,35740,34.94458,-85.69987,JACKSON,331112,,35740TNNSS101GA,TRI
110000366318.0,UNITED STATES STEEL CORPORATION FAIRFIELD WORKS,5700 Valley RD,Fairfield,AL,35064,33.4806,-86.9367,Jefferson,331110,,1057611,NEI
110000366318.0,US STEEL CORP-FAIRFIELD WORKS,5700 VALLEY RD,FAIRFIELD,AL,35064,33.4822,-86.9376,JEFFERSON,331111,,35064SSFRFVALLE,TRI
110000366318.0,US Steel (Fairfield Works),5700 VALLEY ROAD,FAIRFIELD,AL,35064,33.4833,-86.9261,Jefferson,331111,,1000159,GHGRP
110015682215.0,ARCELORMITTAL RIVERDALE LLC,13500 S PERRY AVE,RIVERDALE,IL,60827,41.656474,-87.625847,COOK,331111,,1006325,GHGRP
110015682215.0,ArcelorMittal Riverdale Inc,13500 S Perry Ave,Riverdale,IL,60827,41.6595,-87.6242,Cook,331110,,10692111,NEI
110015682215.0,CLEVELAND-CLIFFS RIVERDALE LLC,13500 S PERRY AVE,RIVERDALE,IL,60827,41.656474,-87.625847,COOK,331111,,60627CMSTL13500,TRI
110000398374.0,US Steel Corp - Gary Works,1 NORTH BROADWAY,GARY,IN,46402,41.6133,-87.3281,Lake,331111,,1000418,GHGRP
110000398374.0,ARCELORMITTAL PLATE LLCGARY PLATE,1 N Broadway,Gary,IN,46402,41.6086,-87.3374,Lake,324199,,10697311,NEI
110000398374.0,US STEEL GARY WORKS,1 N Broadway,Gary,IN,46402,41.6168,-87.3217,Lake,324199,,8192011,NEI
110000398374.0,USS GARY WORKS,1 N BROADWAY,GARY,IN,46402,41.6125,-87.3114,LAKE,331111,,46402SSGRYONENO,TRI
110000452180.0,NUCOR STEEL - ARKANSAS,7301 EAST COUNTY ROAD 142,BLYTHEVILLE,AR,72315,35.941463,-89.712694,MISSISSIPPI,331111,,1007921,GHGRP
110000452180.0,NUCOR CORPORATION-NUCOR STEEL ARKANSAS,7301 EAST COUNTY ROAD 142,BLYTHEVILLE,AR,72315-0030,35.94,-89.71169999999998,Mississippi,331110,,1084511,NEI
110000452180.0,NUCOR STEEL-ARKANSAS,7301 E COUNTY RD 142,BLYTHEVILLE,AR,72315,35.941,-89.727,MISSISSIPPI,331111,,72315NCRST7301E,TRI
110000374005.0,NUCOR STEEL MEMPHIS INC,3601 PAUL R LOWRY ROAD,MEMPHIS,TN,38109,35.04991,-90.15314,SHELBY COUNTY,331111,,1003093,GHGRP
110000374005.0,Nucor Steel Memphis Inc.,3601 Paul R. Lowry Road,Memphis,TN,38109,35.0486,-90.1644,Shelby,331110,,12569611,NEI
110000374005.0,NUCOR STEEL MEMPHIS INC,3601 PAUL R LOWRY RD,MEMPHIS,TN,38109,35.04991,-90.15314,SHELBY,331111,,38109BRMNG3601P,TRI
110041596902.0,"Steel Dynamics Columbus, LLC",1945 Airport Road,Columbus,MS,39703,33.452944,-88.580278,LOWNDES COUNTY,331111,,1004616,GHGRP
110041596902.0,Severstal Columbus,1945 Airport Road,Columbus,MS,39701,33.4436,-88.57559999999998,Lowndes,331110,,12603611,NEI
110041596902.0,STEEL DYNAMICS INC FLAT ROLL GROUP COLUMBUS DIV,1945 AIRPORT RD,COLUMBUS,MS,39701,33.445278,-88.582778,LOWNDES,331111,,39701SVRCR1INDU,TRI
110041596902.0,STEEL DYNAMICS INC FLAT ROLL GROUP COLUMBUS DIV,1945 AIRPORT RD,COLUMBUS,MS,39701,33.445278,-88.582778,LOWNDES,327320,,39701SVRCR1INDU,TRI
110000389865.0,"Warren Steel Holdings, LLC (0278080015)","4000 Mahoning Avenue, N.W.",Warren,OH,None,41.2709,-80.8501,Trumbull,331110,,13429911,NEI
110000389865.0,WARREN STEEL HOLDINGS LLC,4000 MAHONING AVE NW,WARREN,OH,44483,41.27237,-80.84544,TRUMBULL,331111,,44482CPPRW4000M,TRI
110002852315.0,FIRTH RIXSON,10685 BEECH AVE,FONTANA,CA,92337,34.0601,-117.471,San Bernardino,331221,,13480511,NEI
110002852315.0,Forged Metals Inc,10685 Beech Ave,Fontana,CA,92335,34.05,-117.471,San Bernardino,332111,,3260211,NEI
110002852315.0,FORGED METALS INC,10685 BEECH AVE,FONTANA,CA,92337,34.05982,-117.47128,SAN BERNARDINO,332112,,92337FRGDM1685B,TRI
110024425237.0,TIMKENSTEEL CORP (1576000613),"1835 DUEBER AVENUE, S.W.",CANTON,OH,44706,40.780505,-81.397259,STARK,331111,,1003860,GHGRP
110024425237.0,Harrison Steel Plant (1576222002),"1835 Dueber Avenue, S.W.",Canton,OH,44706,40.7813,-81.396,Stark,331110,,13572911,NEI
110024425237.0,Faircrest Steel (1576222001),"1835 Dueber Avenue, S.W.",Canton,OH,44706,40.7567,-81.43779999999998,Stark,331110,,13572711,NEI
110020888930.0,PARAMELT ARGUESO KINDT,2817 MCCRACKEN ST,MUSKEGON,MI,49441,43.2162,-86.295,Muskegon,324199,,13655711,NEI
110020888930.0,M. ARGUESO & CO. INC. (D.B.A PARAMELT),2817 MCCRACKEN ST,MUSKEGON,MI,49441,43.2017,-86.2936,MUSKEGON,325998,,49441MRGSC2817M,TRI
110012424082.0,TOM NEWHALL BOAT REPAIR,8090 RIO BLANCO ROAD,STOCKTON,CA,95219,38.057,-121.418,San Joaquin,336611,,13851811,NEI
110012424082.0,PARADISE POINT ENGINE & BOAT,8090 RIO BLANCO ROAD,STOCKTON,CA,95219,38.057,-121.418,San Joaquin,811490,,613811,NEI
110018944446.0,ACME CASTINGS INC,6009-21 SANTA FE AVE,HUNTINGTON PARK,CA,90255,33.9869,-118.23,Los Angeles,331513,,14034411,NEI
110018944446.0,ACME CASTINGS INC,6009 S SANTA FE AVE,HUNTINGTON PARK,CA,90255,33.98676,-118.23032,LOS ANGELES,331511,,90255CMCST69SSA,TRI
110008266777.0,"PAC RANCHO, INC.",11000 JERSEY BLVD,RANCHO CUCAMONGA,CA,91730,34.0946,-117.563,San Bernardino,331513,,14080911,NEI
110008266777.0,PAC RANCHO FOUNDRY,11000 JERSEY BLVD,RANCHO CUCAMONGA,CA,91730,34.0946,-117.56449,SAN BERNARDINO,331512,,91730MCSTR11000,TRI
110048959221.0,ThyssenKrupp Steel USA LLC,1 ThyssenKrupp Drive P.O. Box 456,Calvert,AL,36513,31.1516,-87.9918,Mobile,331110,,15089011,NEI
110048959221.0,AM/NS CALVERT LLC,1 AM NS WAY,CALVERT,AL,36513,31.15624,-88.01275,MOBILE,331111,,3656WTHYSS1THYS,TRI
110070881484.0,"Outokumpu Stainless USA, LLC",1 ThyssenKrupp Drive P.O. Box 13000,Calvert,AL,36513,31.1516,-87.9918,Mobile,331110,,15259211,NEI
110070881484.0,OUTOKUMPU STAINLESS USA LLC,1 STEEL DR,CALVERT,AL,36513,31.1522,-87.9858,MOBILE,331111,,3651WTHYSS1THYS,TRI
110005107393.0,CHEMGUARD,204 S 6TH AVE,MANSFIELD,TX,76063,32.5562,-97.1564,Tarrant,324199,,15630811,NEI
110005107393.0,CHEMGUARD INC,204 S 6TH AVE,MANSFIELD,TX,76063,32.55703,-97.15579,TARRANT,325998,,7606WCHMGR24S6T,TRI
110043801810.0,MESABI NUGGET DELAWARE LLC,6500 Hwy 135 N,Aurora,MN,55705,47.586907,-92.234192,ST. LOUIS COUNTY,331111,,1005144,GHGRP
110043801810.0,Mesabi Nugget Delaware LLC,6500 County Road 666,Hoyt Lakes,MN,55750,47.5846,-92.0607,St. Louis,331110,,16000711,NEI
110043801810.0,MESABI NUGGET DELAWARE LLC,6500 HWY 135 N,AURORA,MN,55705,47.586907,-92.234192,ST LOUIS,331111,,5570WMSBNG65HIG,TRI
110033005021.0,PRIME METALS & ALLOYS INC,101 INNOVATION DR,LUCERNEMINES,PA,15748,40.562,-79.15659999999998,Indiana,331110,,16726211,NEI
110033005021.0,PRIME METALS ACQUISITIONS LLC,101 INNOVATION DR,HOMER CITY,PA,15748,40.56195,-79.156642,INDIANA,331111,,15748PRMMT11INN,TRI
110000434236.0,FINKL & SONS CO,2011 N. SOUTHPORT AVE.,CHICAGO,IL,60614,41.91837,-87.66293,COOK,331111,,1006436,GHGRP
110000434236.0,A Finkl & Sons Co,2011 N Southport Ave,Chicago,IL,60614,41.9184,-87.66289999999998,Cook,332111,,1733111,NEI
110000434236.0,A FINKL & SONS CO,2011 N SOUTHPORT AVE,CHICAGO,IL,606144079,41.918367,-87.662925,COOK,331111,,60614FNKLS2011S,TRI
110000432292.0,Chicago Heights Steel,211 E Main,Chicago Heights,IL,60412,41.4984,-87.6288,Cook,331110,,1763311,NEI
110000432292.0,CHICAGO HEIGHTS STEEL,211 E MAIN ST,CHICAGO HEIGHTS,IL,60411,41.498429,-87.628773,COOK,331221,,60411CHCGH211EM,TRI
110000475904.0,CARLTON FORGE WORKS,7743 E. ADAMS ST.,PARAMOUNT,CA,90723,33.89479,-118.16474,LOS ANGELES COUNTY,332112,,1005150,GHGRP
110000475904.0,CARLTON FORGE WORKS,7743 E ADAMS ST,PARAMOUNT,CA,90723,33.8948,-118.165,Los Angeles,332111,,2244711,NEI
110000475904.0,CARLTON FORGE WORKS,7743 E ADAMS ST,PARAMOUNT,CA,90723,33.89479,-118.16474,LOS ANGELES,332112,,90723CRLTN7743E,TRI
110000373480.0,GERDAU AMERISTEEL CORP.,1919 TENNESSEE AVENUE,KNOXVILLE,TN,37921,35.97812,-83.95645,KNOX,331111,,1006906,GHGRP
110000373480.0,Gerdau Ameristeel,1919 Tennessee Avenue,Knoxville,TN,37921,35.9781,-83.9565,Knox,331110,,2898511,NEI
110000373480.0,CMC STEEL TENNESSEE,1919 TENNESSEE AVE,KNOXVILLE,TN,37921,35.97812,-83.95645,KNOX,331111,,37921FLRDS1919T,TRI
110009529135.0,"SANGER BOATS, INC.",3316 E ANNADALE AVE,FRESNO,CA,93725,36.7004,-119.769,Fresno,336611,,307711,NEI
110009529135.0,"SANGER BOATS, INC.",3316 E ANNADALE AVE.,FRESNO,CA,93725,36.701,-119.771,Fresno,811490,,14346311,NEI
110000466148.0,Penatek Inds Inc,6830 E. Business Loop 20,Odessa,TX,79762,31.8775,-102.303,Ector,331513,,3117411,NEI
110000466148.0,PENATEK,6830 E BUSINESS LOOP 20,ODESSA,TX,79762,31.881037,-102.297502,ECTOR,331511,,79762PNTKN6830E,TRI
110000330204.0,LEHIGH SPECIALTY MELTING/LATROBE,107 GERTRUDE ST,LATROBE,PA,None,40.3076,-79.3805,Westmoreland,331513,,3188811,NEI
110000330204.0,LEHIGH SPECIALTY MELTING INC,107 GERTRUDE ST,LATROBE,PA,15650,40.30955,-79.38243,WESTMORELAND,331111,,15650STNDR107GE,TRI
110070828184.0,AK STEEL CORP/BUTLER WORKS,1 ARMCO DR,BUTLER,PA,16003,40.82926,-79.94273,BUTLER,331111,,1002903,GHGRP
110070828184.0,AK STEEL CORP/BUTLER WORKS,1 ARMCO DR,BUTLER,PA,None,40.8293,-79.9427,Butler,331110,,3892811,NEI
110000582977.0,UNION ELEC HARMON CREEK PLT,31 UNION ELECTRIC STEEL ROAD ROUTE 18 NORTH,BURGETTSTOWN,PA,15021,40.411247,-80.408185,WASHINGTON COUNTY,333516,,1000399,GHGRP
110000582977.0,UNION ELEC STEEL CORP/HARMON CREEK,ROUTE 18,BURGETTSTOWN,PA,15021,40.399,-80.4063,Washington,331110,,3895111,NEI
110000582977.0,UNION ELECTRIC STEEL CORP,RT 18,BURGETTSTOWN,PA,15021,40.4077,-80.4053,WASHINGTON,332111,,15021NNLCTPOBOX,TRI
110066942526.0,Indiana Harbor East,3210 Watling Street,East Chicago,IN,46312,41.6674,-87.44169999999998,Lake,331110,,3986511,NEI
110066942526.0,CLEVELAND-CLIFFS STEEL LLC,3210 WATLING ST MAIL CODE (8-130),EAST CHICAGO,IN,46312,41.656321,-87.450142,LAKE,331111,,46312NLNDS3210W,TRI
110066942526.0,Mittal Steel USA - Indiana Harbor East,3210 WATLING ST,EAST CHICAGO,IN,46312,41.68,-87.4264,Lake,331111,,1000156,GHGRP
110066942526.0,"HERITAGE SLAG PRODUCTS, LLC (E.CHICAGO)",3210 WATLING STREET,EAST CHICAGO,IN,46312,41.6542,-87.4475,Lake,327992,,10697411,NEI
110000397794.0,ArcelorMittal Indiana Harbor LLC,3001 Dickey Road,East Chicago,IN,46312,41.651165,-87.459167,LAKE,331111,,1000588,GHGRP
110000397794.0,ARCELORMITTAL INDIANA HARBOR LLC,3001 Dickey Rd,East Chicago,IN,46312,41.6512,-87.45919999999998,Lake,331110,,3986611,NEI
110000397794.0,CLEVELAND-CLIFFS STEEL LLC,3001 DICKEY RD,EAST CHICAGO,IN,46312,41.651165,-87.459167,LAKE,331111,,46312LTVST3001D,TRI
110060335524.0,Jewell Coke Company LLP,1034 Dismal River Road,Vansant,VA,24656,37.2343,-82.03709999999998,Buchanan,324199,,4034811,NEI
110060335524.0,JEWELL COKE CO LP,1034 DISMAL RIVER RD,OAKWOOD,VA,24631,37.234409,-82.036899,BUCHANAN,331111,,24656JWLLCHWY46,TRI
110013830818.0,PACIFIC ALLOY CASTINGS INC,5900-10 E FIRESTONE BLVD,SOUTH GATE,CA,90280,33.9486,-118.161,Los Angeles,331513,,4085511,NEI
110013830818.0,PACIFIC ALLOY CASTINGS,5900 E FIRESTONE BLVD,SOUTH GATE,CA,90280,33.94857,-118.15949,LOS ANGELES,331511,,90280PCFCL5900E,TRI
110013297823.0,STERLING STEEL COMPANY LLC,101 AVENUE K,STERLING,IL,61081,41.786281,-89.709809,WHITESIDE,331111,,1006269,GHGRP
110013297823.0,Sterling Steel Co LLC,101 Avenue K,Sterling,IL,61081,41.7863,-89.7098,Whiteside,331110,,4097111,NEI
110013297823.0,STERLING STEEL CO LLC,101 AVE K,STERLING,IL,61081,41.786281,-89.709809,WHITESIDE,331111,,61081STRLN101AV,TRI
110000330188.0,Carpenter Technology - Latrobe Operations,2626 LIGONIER STREET,LATROBE,PA,15650,40.302598,-79.372804,WESTMORELAND COUNTY,331111,,1004434,GHGRP
110000330188.0,LATROBE SPECIALTY METALS/ A CARPENTER CO,2626 LIGONIER ST,LATROBE,PA,None,40.3036,-79.3705,Westmoreland,331110,,4104211,NEI
110000330188.0,LATROBE SPECIALTY METALS,2626 LIGONIER ST,LATROBE,PA,15650,40.302598,-79.372804,WESTMORELAND,331111,,15650LTRBS2626L,TRI
110007362932.0,"Alumitech of Wabash, Inc.",305 Dimension Avenue,Wabash,IN,46992,40.7836,-85.8151,Wabash,331492,,4148711,NEI
110007362932.0,REAL ALLOY RECYCLING LLC,305 DIMENSION AVE,WABASH,IN,46992,40.78377,-85.81539,WABASH,331314,,46992LMTCH305DI,TRI
110000467833.0,CF & I STEEL L P/ DBA ROCKY MOUNTAIN STEEL MILLS,2100 SOUTH FREEWAY,PUEBLO,CO,81004,38.232627,-104.607257,PUEBLO,331111,,1003902,GHGRP
110000467833.0,CF & I STEEL L P,2100 S. FREEWAY,PUEBLO AREA,CO,81006,38.2315,-104.612,Pueblo,331110,,4350411,NEI
110000467833.0,EVRAZ ROCKY MOUNTAIN STEEL,2100 S FWY,PUEBLO,CO,81004,38.232627,-104.607257,PUEBLO,331111,,81004CFSTL225CA,TRI
110038161921.0,US STEEL CORP/FAIRLESS HILLS,FAIRLESS WORKS,FAIRLESS HILLS,PA,19030,40.1567,-74.7454,Bucks,331110,,4718311,NEI
110038161921.0,US STEEL FAIRLESS HILLS WORKS,S END PENNSYLVANIA AVE,FAIRLESS HILLS,PA,19030,40.165112,-74.845832,BUCKS,331111,,19030SSFRLMAILS,TRI
110000331347.0,FRANKLIN IND CO/FRANKLIN,600 ATLANTIC AVE,FRANKLIN,PA,16323-2206,41.4022,-79.8456,Venango,324199,,4759911,NEI
110000331347.0,FRANKLIN INVESTMENT CORP.,600 ATLANTIC AVE,FRANKLIN,PA,16323,41.40324,-79.84519,VENANGO,331221,,16323FRNKL600AT,TRI
110000331338.0,ELECTRALLOY GO CARLSON/OIL CITY,175 MAIN ST,OIL CITY,PA,None,41.4311,-79.71639999999998,Venango,331110,,4760011,NEI
110000331338.0,ELECTRALLOY,175 MAIN ST,OIL CITY,PA,16301,41.43112,-79.7164,VENANGO,331111,,16301LCTRL175MA,TRI
110010274096.0,LANGELOTH METALLURGICAL/LANGELOTH,10 LANGELOTH PLANT DR,LANGELOTH,PA,15054,40.3635,-80.40099999999998,Washington,331110,,4778911,NEI
110010274096.0,LANGELOTH METALLURGICAL CO,10 LANGELOTH PLANT DR,LANGELOTH,PA,15054,40.36482,-80.40214,WASHINGTON,331112,,15054CLMXMMAINS,TRI
110014402306.0,VANDERGRIFT FACILITY,130 LINCOLN AVENUE,VANDERGRIFT,PA,15690,40.6,-79.567778,WESTMORELAND,331111,,1005005,GHGRP
110014402306.0,ALLEGHENY LUDLUM LLC/VANDERGRIFT,130 LINCOLN AVE,VANDERGRIFT,PA,None,40.6053,-79.5732,Westmoreland,331221,,4780311,NEI
110014402306.0,ATI FLAT ROLLED PRODUCTS HOLDINGS LLC,130 LINCOLN AVE,VANDERGRIFT,PA,15690,40.6,-79.567778,WESTMORELAND,331111,,15690SSVND130LI,TRI
110009515417.0,Charter Steel,1658 Cold Springs Rd,Saukville,WI,53080,43.3968,-87.94799999999998,Ozaukee,331110,,4784511,NEI
110009515417.0,CHARTER STEEL-SAUKVILLE,1658 COLD SPRINGS RD,SAUKVILLE,WI,53080,43.39694,-87.94966,OZAUKEE,331111,,53080CHRTR1658C,TRI
110000421259.0,"The Vollrath Company, Llc",23 Kilbourn St,Kewaunee,WI,54216,44.4575,-87.4995,Kewaunee,332111,,4788311,NEI
110000421259.0,VOLLRATH CO LLC,23 KILBOURN ST,KEWAUNEE,WI,54216,44.4575,-87.4995,KEWAUNEE,332214,,54216THVLL23KIL,TRI
110000459183.0,CHAPARRAL STEEL MIDLOTHIAN PLANT,300 WARD ROAD,MIDLOTHIAN,TX,76065,32.458249,-97.036607,ELLIS,331111,,1005344,GHGRP
110000459183.0,CHAPARRAL STEEL MIDLOTHIAN PLANT,US HWY 67 @ WARD RD IN MIDLOTHIAN,MIDLOTHIAN,TX,76065,32.4561,-97.0353,Ellis,331221,,4836911,NEI
110000459183.0,CHAPARRAL STEEL MIDLOTHIAN LP,300 WARD RD,MIDLOTHIAN,TX,76065,32.458249,-97.036607,ELLIS,331111,,76065CHPRR300WA,TRI
110000477788.0,TAMCO,12459-B Arrow Route,RANCHO CUCAMONGA,CA,91739,34.09787,-117.529362,SAN BERNARDINO,331111,,1005800,GHGRP
110000477788.0,TAMCO,12459-B ARROW ROUTE,RANCHO CUCAMONGA,CA,91739,34.099,-117.533,San Bernardino,331110,,4840211,NEI
110000477788.0,TAMCO,12459 ARROW RT STE B,RANCHO CUCAMONGA,CA,91739,34.09787,-117.529362,SAN BERNARDINO,331111,,91739TMCXX12459,TRI
110008148575.0,NUCOR STEEL-TEXAS,8812 US HIGHWAY 79 S,JEWETT,TX,75846,31.354802,-96.165199,LEON,331111,,1005832,GHGRP
110008148575.0,NUCOR EMS,Unknown,JEWETT,TX,00000,31.345,-96.165,Leon,48811,,12091311,NEI
110008148575.0,NUCOR STEEL,S OF US 79 & E OF FM 39,JEWETT,TX,75846,31.3522,-96.1646,Leon,331221,,4930611,NEI
110008148575.0,NUCOR STEEL - JEWETT TEXAS DIV,8812 HWY 79 W,JEWETT,TX,75846,31.354802,-96.165199,LEON,331111,,75846NCRSTHWY79,TRI
110000351887.0,CMC Steel SC,310 New State Road,Cayce,SC,29033,33.963256,-81.049798,LEXINGTON,331111,,1005346,GHGRP
110000351887.0,CMC STEEL SOUTH CAROLINA,310 NEW STATE RD,CAYCE,SC,29033,33.9623,-81.0515,Lexington,331110,,4947711,NEI
110000351887.0,CMC STEEL SC,310 NEW STATE RD,CAYCE,SC,29033,33.963256,-81.049798,LEXINGTON,331111,,29033WNLCT310NE,TRI
110008566845.0,NUCOR STEEL DARLINGTON,300 STEEL MILL RD,DARLINGTON,SC,29540,34.375958,-79.896878,DARLINGTON,331111,,1007946,GHGRP
110008566845.0,NUCOR STEEL DARLINGTON,300 STEEL MILL RD,DARLINGTON,SC,None,34.376,-79.8969,Darlington,331110,,4951411,NEI
110008566845.0,NUCOR STEEL-DARLINGTON,300 STEEL MILL RD,DARLINGTON,SC,29540,34.375958,-79.896878,DARLINGTON,331111,,29532NCRSTBOX52,TRI
110000353527.0,NUCOR STEEL - BERKELEY,1455 HAGAN AVENUE,HUGER,SC,29450,33.006008,-79.882331,BERKELEY,331111,,1002266,GHGRP
110000353527.0,NUCOR STEEL BERKELEY,1455 HAGAN AVE,HUGER,SC,29450,33.0041,-79.8816,Berkeley,331110,,4953011,NEI
110000353527.0,NUCOR STEEL-BERKELEY,1455 HAGAN AVE,HUGER,SC,29450,33.004097,-79.8816,BERKELEY,331111,,29450NCRST1455H,TRI
110000331374.0,ELLWOOD NATL FORGE,ONE FRONT ST,IRVINE,PA,16329,41.841555,-79.27005,WARREN COUNTY,331111,,1001673,GHGRP
110000331374.0,ELLWOOD NATL FORGE/IRVINE,1 FRONT ST,IRVINE,PA,None,41.8396,-79.2684,Warren,332111,,4967711,NEI
110000329797.0,"JESSOP STEEL, LLC WASHINGTON FACILITY",500 GREEN STREET,WASHINGTON,PA,15301,40.175905,-80.274784,WASHINGTON,331111,,1004730,GHGRP
110000329797.0,JESSOP STEEL LLC/WASHINGTON PLT,500 GREEN ST,WASHINGTON,PA,None,40.1731,-80.2744,Washington,331221,,4967911,NEI
110000329797.0,JESSOP STEEL LLC,500 GREEN ST,WASHINGTON,PA,15301,40.175905,-80.274784,WASHINGTON,331111,,15301JSSPS500GR,TRI
110056954381.0,ALLEGHENY LUDLUM LLC/LATROBE FAC,136 ALLVAC LN,LATROBE,PA,15650,40.3265,-79.3733,Westmoreland,331110,,4968111,NEI
110056954381.0,ATI FLAT ROLLED PRODUCTS LLC-LATROBE PLANT,RT 981 N,LATROBE,PA,15650,40.329633,-79.370537,WESTMORELAND,331111,,15650TLDYNROUTE,TRI
110009937738.0,Ak Steel Corp,US 23 N,Ashland,KY,41101,38.4956,-82.6656,Boyd,331110,,5060111,NEI
110009937738.0,AK Steel Corp,40th St & Winchester Ave,Ashland,KY,41105,38.4567,-82.61,Boyd,331110,,7351611,NEI
110009937738.0,AK STEEL CORP ASHLAND WORKS - COKE PLANT,U.S. 23,ASHLAND,KY,41105,38.495556,-82.665556,BOYD,331111,,41105RMCST4000E,TRI
110010392869.0,Harsco Metals,4411 US 42 W,Ghent,KY,41045,38.759,-84.9958,Gallatin,331110,,5122111,NEI
110010392869.0,HARSCO METALS - GALLATIN,4411 US 42 W,GHENT,KY,41045,38.758952,-84.995838,GALLATIN,327992,,41045HCKTTBOX32,TRI
110056971255.0,North American Stainless,6870 US 42 E,Ghent,KY,41045,38.7278,-85.07219999999998,Carroll,331110,,5198911,NEI
110056971255.0,NORTH AMERICAN STAINLESS,6870 US 42 E,GHENT,KY,41045,38.727778,-85.072222,CARROLL,331111,,41045NRTHMUS42E,TRI
110043800492.0,Kentucky Electric Steel Company,2704 S BIG RUN RD ,Ashland,KY,41102,38.36882,-82.76125,BOYD COUNTY,331111,,1008263,GHGRP
110043800492.0,KES Acquisition Co LLC,2704 S Big Run Rd,Ashland,KY,41102,38.3675,-82.7647,Boyd,331110,,5206211,NEI
110043800492.0,KENTUCKY ELECTRIC STEEL,2704 S BIG RUN RD,ASHLAND,KY,41102,38.36882,-82.76125,BOYD,331111,,41105KNTCKUS60W,TRI
110000380347.0,Stoody Company,5557 Nashville Rd,Bowling Green,KY,42104,36.9312,-86.4957,Warren,331492,,5347711,NEI
110000380347.0,STOODY CO,5557 NASHVILLE RD,BOWLING GREEN,KY,42101,36.92996,-86.49462,WARREN,333992,,42101STDYC5557N,TRI
110038174098.0,"NUCOR STEEL KANKAKEE, INC.",ONE NUCOR WAY,BOURBONNAIS,IL,60914,41.18133,-87.85664,KANKAKEE,331111,,1002621,GHGRP
110038174098.0,Nucor Steel Kankakee Inc,One Nucor Way,Bourbonnais,IL,60914,41.1813,-87.8566,Kankakee,331110,,5429011,NEI
110038174098.0,NUCOR STEEL KANKAKEE INC,ONE NUCOR WAY,BOURBONNAIS,IL,60914,41.18133,-87.85664,KANKAKEE,331111,,60914BRMNGRR1BO,TRI
110041343267.0,GERDAU AMERISTEEL CARTERSVILLE STEEL MILL,384 OLD GRASSDALE RD NE,CARTERSVILLE,GA,30121,34.242779,-84.797775,BARTOW COUNTY,331111,,1001103,GHGRP
110041343267.0,Gerdau Ameristeel US Inc.,384 Old Grassdale Rd,Cartersville,GA,30120,34.2428,-84.7976,Bartow,331221,,553311,NEI
110041343267.0,GERDAU AMERISTEEL CARTERSVILLE STEEL MILL,384 OLD GRASSDALE RD NE,CARTERSVILLE,GA,30121,34.242779,-84.797775,BARTOW,331111,,30120TLNTCPEEPL,TRI
110000599629.0,GERDAU AMERISTEEL BEAUMONT,100 OLD HIGHWAY 90,ROSE CITY,TX,77662,30.082397,-94.074476,ORANGE,331111,,1007348,GHGRP
110000599629.0,GERDAU AMERISTEEL BEAUMONT MILL,OLD HWY 90,ROSE CITY,TX,77662,30.0825,-94.075,Orange,331221,,5680611,NEI
110000599629.0,OPTIMUS STEEL LLC,100 OLD HWY 90 W,VIDOR,TX,77662,30.082397,-94.074476,ORANGE,331111,,77701NRTHSOLDHI,TRI
110000330650.0,NORTH AMERICAN HOGANAS INC/STONY CREEK PLT,111 HOGANAS WAY,HOLLSOPPLE,PA,None,40.192,-78.9347,Somerset,331110,,5684911,NEI
110000330650.0,NORTH AMERICAN HOGANAS,111 HOGANAS WAY,HOLLSOPPLE,PA,15935,40.192646,-78.933994,SOMERSET,331111,,15935FRSTMRTE60,TRI
110002231497.0,ARCELORMITTAL GEORGETOWN INC,1219 FRONT ST,GEORGETOWN,SC,29440,33.369,-79.289,Georgetown,331110,,5698711,NEI
110002231497.0,LIBERTY STEEL GEORGETOWN INC,1219 FRONT ST,GEORGETOWN,SC,29440,33.36302,-79.29611,GEORGETOWN,331111,,29442GRGTWSOUTH,TRI
110000370134.0,HOEGANAES CORPORATION,1315 AIRPORT ROAD,GALLATIN,TN,37066,36.380556,-86.416111,SUMNER COUNTY,331111,,1005515,GHGRP
110000370134.0,HOEGANAES CORPORATION,1315 AIRPORT ROAD,GALLATIN,TN,37066,36.3729,-86.4225,Sumner,331513,,5706611,NEI
110000370134.0,HOEGANAES CORP,1315 AIRPORT RD,GALLATIN,TN,37066,36.380556,-86.416111,SUMNER,331111,,37066HGNSC810ST,TRI
110021084645.0,TANTALUM METAL POWDERS PRODUCTION,16 Bruce Way,MOUNDHOUSE,NV,89706,39.234,-119.653,Lyon,331492,,6014911,NEI
110021084645.0,KEMET BLUE POWDER CORP,16 BRUCE WAY,MOUND HOUSE,NV,89706,39.23247,-119.6542,LYON,331419,,89706NTNNC16BRU,TRI
110057387420.0,ArcelorMittal Weirton LLC,100 Pennsylvania Avenue,WEIRTON,WV,26062,40.422,-80.5955,Hancock,332813,,1000260,GHGRP
110057387420.0,ARCELORMITTAL WEIRTON INC.,100 PENNSYLVANIA AVENUE,WEIRTON,WV,26062,40.4204,-80.5985,Hancock,331110,,6153111,NEI
110057387420.0,CLEVELAND-CLIFFS WEIRTON LLC,100 PENNSYLVANIA AVE,WEIRTON,WV,26062,40.403,-80.587,HANCOCK,331111,,26062RCLRM1PENN,TRI
110021341190.0,Trucast Inc,81 Mawsons Way,Newberry,SC,29108,34.29,-81.5483,Newberry,331492,,6194611,NEI
110021341190.0,DONCASTERS TRUCAST INC,81 MAWSONS WAY,NEWBERRY,SC,29108,34.290467,-81.547763,NEWBERRY,331528,,29108TRCST81MAW,TRI
110042081939.0,MOUNTAIN STATE CARBON,1851 MAIN ST,FOLLANSBEE,WV,26037,40.34361,-80.60667,BROOKE,331111,,1001563,GHGRP
110042081939.0,"MOUNTAIN STATE CARBON, LLC",1851 Main Street,FOLLANSBEE,WV,26037,40.3436,-80.6067,Brooke,33111,,4864311,NEI
110042081939.0,WHEELING CORRUGATING COMPANY,WEST VIRGINIA ROUTE 2,BEECH BOTTOM,WV,26030,40.2167,-80.6586,Brooke,331110,,6234611,NEI
110042081939.0,MOUNTAIN STATE CARBON LLC,1851 MAIN ST,FOLLANSBEE,WV,26037,40.34361,-80.60667,BROOKE,331111,,26037WHLNGROUTE,TRI
110056972370.0,"SWVA, INC.",2ND AVE & 17TH STREET,HUNTINGTON,WV,25726,38.4255,-82.4333,Cabell,331110,,6235811,NEI
110056972370.0,SWVA INC,2ND AVE & 17TH ST,HUNTINGTON,WV,25703,38.425484,-82.433269,CABELL,331111,,25703STLFW17THS,TRI
110000331212.0,GREENVILLE METALS INC/TRANSFER,99 CRESTVIEW DR,TRANSFER,PA,None,41.3586,-80.4058,Mercer,332111,,6475711,NEI
110000331212.0,GREENVILLE METALS INC,850 CRESTVIEW DR.,TRANSFER,PA,16154,41.307993,-80.392867,MERCER,331492,,16154GRNVLRD2BO,TRI
110042036597.0,"ALLEGHENY LUDLUM, BAGDAD FACILITY",585 SILICON DRIVE,LEECHBURG,PA,15656,40.64008,-79.61118,ARMSTRONG,331111,,1005006,GHGRP
110042036597.0,ALLEGHENY LUDLUM LLC/BAGDAD,LEECHBURG WORKS,LEECHBURG,PA,15656,40.6401,-79.61119999999998,Armstrong,331221,,6502811,NEI
110000600154.0,VINTON STEEL LLC,INTERSTATE 10 AND VINTON ROAD,VINTON,TX,79821,31.96534,-106.585052,EL PASO,331111,,1003580,GHGRP
110000600154.0,ARCELORMITTAL VINTON,IH 10 & VINTON RD,EL PASO,TX,79901,31.9656,-106.584,El Paso,331221,,6508311,NEI
110000600154.0,VINTON STEEL LLC,I-10 & VINTON RD,VINTON,TX,79835,31.96534,-106.585052,EL PASO,331111,,79912BRDRSVINTO,TRI
110000330927.0,ELLWOOD QUALITY STEELS,700 MORAVIA STREET,NEW CASTLE,PA,16101,40.99341,-80.34696,LAWRENCE COUNTY,331111,,1001669,GHGRP
110000330927.0,ELLWOOD QUALITY STEELS CO/NEW CASTLE PLT,700 MORAVIA ST,NEW CASTLE,PA,None,40.9905,-80.3497,Lawrence,331110,,6533011,NEI
110000330927.0,ELLWOOD QUALITY STEELS CO,700 MORAVIA ST,NEW CASTLE,PA,16101,40.99341,-80.34696,LAWRENCE,331111,,16101LLWDD700MO,TRI
110000462115.0,WYMAN GORDON FORGINGS,10825 TELGE RD.,HOUSTON,TX,77095,29.93301,-95.64954,HARRIS COUNTY,331210,,1004972,GHGRP
110000462115.0,CYPRESS PLANT,10825 TELGE RD,HOUSTON,TX,77095,29.9264,-95.6525,Harris,332111,,6533911,NEI
110000462115.0,WYMAN-GORDON FORGINGS LP,10825 TELGE RD,HOUSTON,TX,77095,29.93462,-95.65033,HARRIS,331210,,77095CMRNF10825,TRI
110000331061.0,SALEM TUBE INC/GREENVILLE REYNOLDS IND PK,951 4TH ST,GREENVILLE,PA,None,41.3555,-80.41119999999998,Mercer,332111,,6595311,NEI
110000331061.0,SALEM TUBE INC.,951 FOURTH ST,GREENVILLE,PA,16125,41.356731,-80.408666,MERCER,331210,,16125SLMTBFOURT,TRI
110000378332.0,"Sypris Technologies, Inc.",2820 W. Broadway St.,Louisville,KY,40211,38.2372,-85.7964,Jefferson,332111,,6622311,NEI
110000378332.0,SYPRIS TECHNOLOGIES INC,2820 W BROADWAY ST,LOUISVILLE,KY,40211,38.24961,-85.79873,JEFFERSON,336350,,40211TBTRN2820W,TRI
110000342889.0,ROANOKE ELECTRIC STEEL CORPORATION,102 WESTSIDE BOULEVARD,ROANOKE,VA,24017,37.27251,-79.99861,ROANOKE CITY,331111,,1000714,GHGRP
110000342889.0,RES dba Steel Dynamics Roanoke Bar Division,102 Westside Blvd Nw,Roanoke,VA,24038,37.2725,-79.99859999999998,Roanoke city,331110,,6633511,NEI
110000342889.0,STEEL DYNAMICS INC ROANOKE BAR DIV,102 WESTSIDE BLVD,ROANOKE,VA,24017,37.27251,-79.99861,ROANOKE (CITY),331111,,24017RNKLC102WE,TRI
110000745007.0,ARCELORMITTAL PLATE LLC/CONSHOHOCKEN PLT,900 CONSHOHOCKEN RD,CONSHOHOCKEN,PA,19428,40.090954,-75.31707,MONTGOMERY COUNTY,331111,,1003523,GHGRP
110000745007.0,ARCELORMITTAL PLATE LLC/CONSHOHOCKEN PLT,900 CONSHOHOCKEN RD,CONSHOHOCKEN,PA,None,40.0909,-75.31709999999998,Montgomery,331110,,6651911,NEI
110000745007.0,CLEVELAND-CLIFFS PLATE LLC CONSHOHOCKEN FACILITY,900 CONSHOHOCKEN RD,CONSHOHOCKEN,PA,19428,40.090954,-75.31707,MONTGOMERY,331111,,19428LKNSSCONSH,TRI
110037441159.0,HOEGANAES CORP/WATSONTOWN PLT,4330 PARADISE RD,WATSONTOWN,PA,None,41.0534,-76.83549999999998,Northumberland,331110,,6652111,NEI
110037441159.0,HOEGANAES CORP,4330 PARADISE RD,WATSONTOWN,PA,17777,41.05756,-76.83274,NORTHUMBERLAND,331111,,17777HGNSCYURIS,TRI
110002097766.0,CHAPARRAL STEEL,25801 HOFHEIMER WAY,PETERSBURG,VA,23803,37.179193,-77.447791,PETERSBURG CITY,331111,,1000394,GHGRP
110002097766.0,Chaparral Virginia Incorporated,25801 Hofheimer Way,Petersburg,VA,23803,37.1792,-77.4478,Dinwiddie,331110,,6742911,NEI
110002097766.0,CHAPARRAL (VA) INC,25801 HOFHEIMER WAY,PETERSBURG,VA,23803,37.179254,-77.447487,DINWIDDIE,331111,,23803CHPRR25801,TRI
110000491575.0,Spokane Industries Inc,3808 N. Sullivan Rd. Bldg. #1,Spokane,WA,99216,47.6933,-117.181,Spokane,331513,,7077911,NEI
110000491575.0,SPOKANE INDUSTRIES,3808 N SULLIVAN RD BLDG 1,SPOKANE VALLEY,WA,99216,47.692642,-117.182697,SPOKANE,331511,,99220SPKNSBUILD,TRI
110000448132.0,NUCOR STEEL NEBRASKA,2911 EAST NUCOR ROAD,NORFOLK,NE,68701,42.078346,-97.360153,MADISON,331111,,1007695,GHGRP
110000448132.0,Nucor Steel,2911 E Nucor Rd,Norfolk,NE,None,42.0783,-97.3602,Stanton,331110,,7286511,NEI
110000448132.0,NUCOR STEEL NEBRASKA,2911 E NUCOR RD,NORFOLK,NE,68701,42.078346,-97.360153,STANTON,331111,,68701NCRSTRURAL,TRI
110000376664.0,NUCOR STEEL JACKSON INC,3630 4TH STREET,FLOWOOD,MS,39232,32.312167,-90.137278,RANKIN COUNTY,331111,,1006144,GHGRP
110000376664.0,Nucor Steel Jackson Inc,3630 4th Street,Flowood,MS,39232,32.312,-90.1372,Rankin,331110,,7290011,NEI
110000376664.0,NUCOR STEEL JACKSON INC,3630 FOURTH ST,FLOWOOD,MS,39232,32.312167,-90.137278,RANKIN,331111,,39208BSCSTFOURT,TRI
110000325808.0,Special Metals Corp,4317 Middle Settlement Rd.,New Hartford,NY,13413,43.0722,-75.33889999999998,Oneida,331110,,7346111,NEI
110000325808.0,SPECIAL METALS CORP,4317 MIDDLE SETTLEMENT RD,NEW HARTFORD,NY,13413,43.07532,-75.34178,ONEIDA,331491,,13413SPCLMMIDDL,TRI
110043782555.0,"CC METALS & ALLOYS, LLC",1542 N MAIN ST,CALVERT CITY,KY,42029,37.05648,-88.35108,MARSHALL COUNTY,331112,,1002969,GHGRP
110043782555.0,CC Metals and Alloys LLC,1542 N Main St,Calvert City,KY,42029,37.0561,-88.3481,Marshall,331110,,7365211,NEI
110043782555.0,CC METALS & ALLOYS LLC,1542 N MAIN ST,CALVERT CITY,KY,42029,37.05648,-88.35108,MARSHALL,331112,,42029SKWLLHIGHW,TRI
110000402831.0,"OUTOKUMPU STAINLESS, INC. PLATE PRODUCTS",549 WEST STATE ROAD 38,NEW CASTLE,IN,47362,39.9287,-85.3956,Henry,331110,,7376311,NEI
110000402831.0,NEW CASTLE STAINLESS PLATE LLC,549 W SR 38,NEW CASTLE,IN,47362,39.930278,-85.394167,HENRY,331221,,47362VSTNCSTRD3,TRI
110000607558.0,ARCELORMITTAL BURNS HARBOR LLC,250 W US 12,BURNS HARBOR,IN,46304,41.630556,-87.126944,PORTER,331111,,1003962,GHGRP
110000607558.0,ArcelorMittal Burns Harbor Inc.,250 West U.S. 12,Burns Harbor,IN,46304,41.6279,-87.1438,Porter,331110,,7376511,NEI
110000607558.0,CLEVELAND-CLIFFS BURNS HARBOR LLC,250 W US HWY 12,BURNS HARBOR,IN,46304,41.634,-87.131,PORTER,331111,,46304BTHLHBURNS,TRI
110056963282.0,MIDWEST STEEL,Unknown,PORTAGE,IN,00000,41.6084,-87.1764,Porter,48811,,11345211,NEI
110056963282.0,U S STEEL MIDWEST PLANT,6300 US Hwy 12,Portage,IN,46368,41.6315,-87.1765,Porter,331221,,7376811,NEI
110056963282.0,US STEEL CORP MIDWEST PLANT,6300 US HWY 12,PORTAGE,IN,46368,41.620389,-87.170278,PORTER,331221,,46368MDWSTROUTE,TRI
110056963282.0,American Oxide Company AMROX,6300 US Hwy 12,Portage,IN,46368,41.6197,-87.17189999999998,Porter,325998,,4691611,NEI
110000592396.0,SDI Steel Dynamics Incorporated,4500 CR 59,Butler,IN,46721,41.3702,-84.9217,De Kalb,331221,,7376911,NEI
110000592396.0,STEEL DYNAMICS INC-FLAT ROLL DIV,4500 COUNTY RD 59,BUTLER,IN,46721,41.370152,-84.921695,DEKALB,331111,,46721STLDY4500C,TRI
110000397393.0,"Heritage Environmental Services, LLC",7901 West Morris Street,Indianapolis,IN,46231,39.7478,-86.3097,Marion,331492,,7377411,NEI
110000397393.0,HERITAGE ENVIRONMENTAL SERVICES LLC,7901 W MORRIS ST,INDIANAPOLIS,IN,46231,39.748,-86.2997,MARION,562211,,46231HRTGN7901W,TRI
110042023495.0,"Jewel Acquisition, LLC. - Louisville Facility (1576000378)",1500 West Main Street,Louisville,OH,44641,40.8322,-81.26959999999998,Stark,331110,,7402411,NEI
110042023495.0,JEWEL ACQUISITION LLC-LOUISVILLE,1500 W MAIN ST,LOUISVILLE,OH,44641,40.83595,-81.2741,STARK,331111,,44641JLSPC1500W,TRI
110000744874.0,SHENANGO INC/SHENANGO COKE PLT,200 NEVILLE RD,PITTSBURGH,PA,None,40.4965,-80.0771,Allegheny,331110,,7407611,NEI
110000744874.0,SHENANGO INC,200 NEVILLE RD,PITTSBURGH,PA,15225,40.496083,-80.078032,ALLEGHENY,331111,,15225SHNNG200NE,TRI
110000332916.0,ARCELORMITTAL STEELTON LLC/STEELTON,215 S FRONT ST,STEELTON,PA,17113,40.23258,-76.83645,DAUPHIN COUNTY,331111,,1004215,GHGRP
110000332916.0,ARCELORMITTAL STEELTON LLC/STEELTON,215 S FRONT ST,STEELTON,PA,None,40.2299,-76.8369,Dauphin,331221,,7408311,NEI
110000332916.0,CLEVELAND-CLIFFS STEELTON LLC,215 S FRONT ST,STEELTON,PA,17113,40.226389,-76.848611,DAUPHIN,331111,,17113BTHLHFRONT,TRI
110001116934.0,USS CORP/EDGAR THOMSON WORKS,13TH & BRADDOCK AVE,BRADDOCK,PA,15104,40.3919,-79.8608,Allegheny,331110,,7409311,NEI
110001116934.0,USS MON VALLEY WORKS - EDGAR THOMSON PLANT,BRADDOCK AVE & 13TH ST,BRADDOCK,PA,15104,40.394465,-79.857261,ALLEGHENY,331111,,15104SSDGRBRADD,TRI
110008470724.0,US STEEL CORP/IRVIN PLT,CAMP HOLLOW RD,DRAVOSBURG,PA,15034,40.3339,-79.9028,Allegheny,331110,,7409411,NEI
110008470724.0,USS MON VALLEY WORKS - IRVIN PLANT,CAMP HOLLOW RD,WEST MIFFLIN,PA,15122,40.354338,-79.889542,ALLEGHENY,331111,,15034SSRVNPOBOX,TRI
110040961947.0,CASCADE STEEL ROLLING MILLS INC,3200 NE HWY 99W,MCMINNVILLE,OR,97128,45.2289,-123.1627,YAMHILL,331111,,1005755,GHGRP
110040961947.0,"Cascade Steel Rolling Mills, Inc.",3200 N HWY 99W,MCMINNVILLE,OR,97128,45.2289,-123.163,Yamhill,331110,,7410711,NEI
110040961947.0,CASCADE STEEL ROLLING MILLS INC,3200 NE HIGHWAY 99W,MCMINNVILLE,OR,97128,45.22863,-123.15905,YAMHILL,331111,,97128CSCDS3200N,TRI
110020079537.0,NUCOR STEEL - UTAH,7285 W 21200 N,PLYMOUTH,UT,84330,41.8825,-112.1964,BOX ELDER,331111,,1005777,GHGRP
110020079537.0,Nucor Steel: Nucor Steel,West Nucor Rd,Plymouth,UT,84330,41.8825,-112.196,Box Elder,331110,,7427611,NEI
110020079537.0,NUCOR STEEL - A DIV OF NUCOR CORP,7825 W 21200 N,PLYMOUTH,UT,84330,41.8825,-112.1964,BOX ELDER,331111,,84330NCRST7285W,TRI
110000591226.0,Nucor Steel Gallatin LLC,4831 US 42 W,GHENT,KY,41045,38.766667,-85.004167,GALLATIN,331111,,1005700,GHGRP
110000591226.0,Gallatin Steel Co,4831 US 42 W,Ghent,KY,41045,38.7608,-84.9906,Gallatin,331110,,7430011,NEI
110000591226.0,NUCOR STEEL GALLATIN LLC,US HWY 42 W,WARSAW,KY,41095,38.766667,-85.004167,GALLATIN,331111,,41096GLLTNUS42W,TRI
110000741715.0,"NUCOR STEEL MARION, INC. (0351010017)",912 CHENEY AVE,MARION,OH,43302,40.5707,-83.1388,MARION,331111,,1007577,GHGRP
110000741715.0,"Nucor Steel Marion, Inc. (0351010017)",912 Cheney Avenue,Marion,OH,43301-1801,40.5667,-83.1408,Marion,331110,,7434211,NEI
110000741715.0,NUCOR STEEL MARION INC,912 CHENEY AVE,MARION,OH,43302,40.5707,-83.1388,MARION,331111,,43302MRNST912CH,TRI
110000325611.0,CRUCIBLE INDUSTRIES LLC,575 State Fair Blvd,Solvay,NY,13209,43.068,-76.20749999999998,Onondaga,331110,,7436511,NEI
110000325611.0,CRUCIBLE INDUSTRIES LLC.,575 STATE FAIR BLVD,SOLVAY,NY,13209,43.085298,-76.223335,ONONDAGA,331111,,13209CRCBLSTATE,TRI
110015969941.0,NUCOR STEEL SEATTLE INC,2424 SOUTHWEST ANDOVER STREET,SEATTLE,WA,98106,47.569331,-122.367332,KING,331111,,1000029,GHGRP
110015969941.0,Nucor Steel Seattle Inc,2424 SW Andover St,Seattle,WA,98106,47.5708,-122.365,King,331110,,7503711,NEI
110015969941.0,NUCOR STEEL SEATTLE INC,2424 SW ANDOVER,SEATTLE,WA,98106,47.569331,-122.367332,KING,331111,,98106SLMNB2424S,TRI
110000597006.0,Eaton MDH Company Inc,4200 Highway 30 E,Kearney,NE,None,40.7095,-99.0266,Buffalo,332111,,7573111,NEI
110000597006.0,EATON CORP,4200 HIGHWAY 30 E,KEARNEY,NE,68847,40.70954,-99.0266,BUFFALO,336311,,68847TNCRP4200E,TRI
110022905007.0,LEAD MASTERS,17229 LEMON STREET,HESPERIA,CA,92345,34.4438,-117.288,San Bernardino,331492,,7729711,NEI
110022905007.0,LEAD MASTER,17229 LEMAN ST UNIT E11,HESPERIA,CA,92345,34.44284,-117.28636,SAN BERNARDINO,339920,,92345LDMST17229,TRI
110000332596.0,FROG SWITCH & MFG CO/CARLISLE,600 E HIGH ST,CARLISLE,PA,None,40.2006,-77.1833,Cumberland,331110,,7872411,NEI
110000332596.0,FROG SWITCH & MANUFACTURING CO,600 E HIGH STREET.,CARLISLE,PA,17013,40.2012,-77.17685,CUMBERLAND,331513,,17013THFRG600EH,TRI
110007336579.0,WHEMCO/MIDLAND,1 12TH ST,MIDLAND,PA,None,40.6309,-80.4448,Beaver,331110,,7872811,NEI
110007336579.0,WHEMCO-STEEL CASTINGS INC,12 TH ST,MIDLAND,PA,15059,40.63318,-80.44596,BEAVER,331513,,15059WSTHMONE12,TRI
110000772913.0,GERDAU AMERISTEEL US INC,1500 WEST 3RD STREET,WILTON,IA,52778,41.585661,-91.042156,MUSCATINE,331111,,1003577,GHGRP
110000772913.0,"GERDAU AMERISTEEL US, INC",1500 W 3RD ST,WILTON,IA,None,41.5857,-91.0422,Muscatine,331110,,7892211,NEI
110000772913.0,GERDAU WILTON,1500 W 3RD ST,WILTON,IA,52778,41.585661,-91.042156,MUSCATINE,331111,,52778NRTHSHWY38,TRI
110008524034.0,SSAB Iowa Inc.,1770 BILL SHARP BOULEVARD,MUSCATINE,IA,52761,41.48553,-90.82278,MUSCATINE COUNTY,331111,,1002147,GHGRP
110008524034.0,"SSAB IOWA, INC - MUSCATINE",1770 BILL SHARP BLVD,MUSCATINE,IA,52761,41.4876,-90.8252,Muscatine,331110,,7892311,NEI
110008524034.0,SSAB IOWA INC.,1770 BILL SHARP BLVD,MUSCATINE,IA,52761,41.48553,-90.82278,MUSCATINE,331111,,52761PSCST1770B,TRI
110008524034.0,HARSCO METALS,1770 BILL SHARP BLVD,MUSCATINE,IA,52761,41.4822,-90.8219,Muscatine,327992,,3781311,NEI
110012705652.0,Flowserve Corp Dayton Ops,635 N. Irwin St.,Dayton,OH,45403,39.7732,-84.156,Montgomery,331513,,7896911,NEI
110012705652.0,FLOWSERVE CORP DAYTON OPERATIONS,635 N IRWIN ST,DAYTON,OH,45403,39.773745,-84.153115,MONTGOMERY,331512,,45403FLWSR635NI,TRI
110016755304.0,NORTH STAR BLUESCOPE STEEL LLC *,6767 COUNTY ROAD 9,DELTA,OH,43515,41.5684,-84.03759,FULTON COUNTY,331111,,1005163,GHGRP
110016755304.0,"NorthStar Bluescope Steel, LLC (0326000073)",6767 County Road 9,Delta,OH,43515,41.5687,-84.0485,Fulton,331110,,7921911,NEI
110016755304.0,NORTH STAR BLUESCOPE STEEL LLC,6767 COUNTY RD 9,DELTA,OH,43515,41.5684,-84.03759,FULTON,331111,,43515NRTHS6767C,TRI
110011945681.0,ArcelorMittal Cleveland LLC,3060 EGGERS AVENUE,CLEVELAND,OH,44105,41.4739,-81.6728,Cuyahoga,331111,,1007177,GHGRP
110011945681.0,ArcelorMittal Cleveland Inc. (1318001613),3060 Eggers Avenue,Cleveland,OH,44105,41.45,-81.6667,Cuyahoga,331110,,7937411,NEI
110011945681.0,CLEVELAND-CLIFFS CLEVELAND WORKS LLC,3060 EGGERS AVE,CLEVELAND,OH,44105,41.463486,-81.667828,CUYAHOGA,331111,,44105SGCLV3060E,TRI
110000398640.0,"Elkhart Brass Manufacturing Company, Inc.",1302 W Beardsley,Elkhart,IN,46514,41.6885,-85.9895,Elkhart,331492,,7955111,NEI
110000398640.0,ELKHART BRASS MANUFACTURING CO  INC,1302 W BEARDSLEY AVE,ELKHART,IN,46514,41.69268,-85.99408,ELKHART,331314,,46514LKHRT1302W,TRI
110000325407.0,NOVELIS CORPORATION,448 CO RTE 1A,OSWEGO,NY,13126,43.4907,-76.4551,Oswego,331492,,7980611,NEI
110000325407.0,NOVELIS CORP,448 COUNTY RT 1A,OSWEGO,NY,13126,43.493834,-76.456712,OSWEGO,331315,,13126LCNRLLAKER,TRI
110000328734.0,BRACKENRIDGE PLANT,100 RIVER ROAD,BRACKENRIDGE,PA,15014,40.60852,-79.72701,ALLEGHENY,331111,,1005003,GHGRP
110000328734.0,ALLEGHENY LUDLUM LLC/BRACKENRIDGE,100 RIVER RD,BRACKENRIDGE,PA,None,40.6085,-79.727,Allegheny,331110,,7991611,NEI
110000328734.0,ATI FLAT ROLLED PRODUCTS HOLDINGS LLC,100 RIVER RD,BRACKENRIDGE,PA,15014,40.6081,-79.7291,ALLEGHENY,331111,,15014LLGHNRIVER,TRI
110000325050.0,NUCOR STEEL AUBURN INC,25 QUARRY ROAD,AUBURN,NY,13021,42.95071,-76.57087,CAYUGA COUNTY,331111,,1006341,GHGRP
110000325050.0,NUCOR STEEL AUBURN INC,25 QUARRY ROAD,AUBURN,NY,13021,42.95,-76.56999999999998,Cayuga,331110,,7994811,NEI
110000325050.0,NUCOR STEEL AUBURN INC,25 QUARRY RD,AUBURN,NY,13021,42.9509,-76.57055,CAYUGA,331111,,13021BRNSTQUARR,TRI
110000328743.0,UNIVERSAL STAINLESS BRIDGEVILLE PLT,600 MAYER STREET,BRIDGEVILLE,PA,15017,40.36682,-80.09976,ALLEGHENY COUNTY,331111,,1005423,GHGRP
110000328743.0,UNIVERSAL STAINLESS & ALLOY PROD/BRIDGEVILLE,600 MAYER ST,BRIDGEVILLE,PA,None,40.3614,-80.10859999999998,Allegheny,331110,,8005811,NEI
110000328743.0,UNIVERSAL STAINLESS & ALLOY PRODUCTS INC,600 MAYER ST,BRIDGEVILLE,PA,15017,40.36682,-80.09976,ALLEGHENY,331221,,15017CYTMPMAYER,TRI
110000591583.0,"AMG Vanadium, Inc. (0630010005)",60790 Southgate Road,Cambridge,OH,43725,39.9875,-81.56279999999998,Guernsey,331110,,8008111,NEI
110000591583.0,AMG VANADIUM LLC,60790 SOUTHGATE RD,CAMBRIDGE,OH,43725,39.9875,-81.562778,GUERNSEY,331112,,43725SHLDLSTATE,TRI
110000392557.0,AK Steel Corporation - Middletown,1801 CRAWFORD STREET,MIDDLETOWN,OH,45043,39.4968,-84.3901,Butler,331111,,1000274,GHGRP
110000392557.0,AK Steel Corporation (1409010006),1801 Crawford Street,Middletown,OH,None,39.4972,-84.3861,Butler,331110,,8008811,NEI
110000392557.0,CLEVELAND-CLIFFS INC.,1801 CRAWFORD ST,MIDDLETOWN,OH,45044,39.480699,-84.381196,BUTLER,331111,,45043RMCNC1801C,TRI
110000592788.0,AK STEEL CORPORATION,6500 N US HIGHWAY 231,ROCKPORT,IN,47635,37.9849,-87.0259,SPENCER,331111,,1000214,GHGRP
110000592788.0,AK STEEL CORPORATION,6500 N US Hwy 231,Rockport,IN,47635,37.9808,-87.0262,Spencer,331110,,8017311,NEI
110000592788.0,CLEVELAND-CLIFFS STEEL CORP (ROCKPORT WORKS ),6500 NORTH U.S. 231,ROCKPORT,IN,47635,37.9849,-87.0259,SPENCER,331111,,47635KSTLC6500N,TRI
110041192410.0,"BD LAPLACE, LLC",138 HWY 3217,LAPLACE,LA,70068,30.03686,-90.46454,ST JOHN THE BAPTIST,331111,,1000330,GHGRP
110041192410.0,ArcelorMittal LaPlace LLC,138 Hwy 3217,Laplace,LA,70068,30.0359,-90.466,St. John the Baptist,331110,,8025111,NEI
110041192410.0,BD LAPLACE LLC,138 HWY 3217,LA PLACE,LA,70068,30.03686,-90.46454,ST. JOHN THE BAPTIST PARISH,331111,,70069BYSTLRIVER,TRI
110040996134.0,V & M Star (0250110625),2669 Martin Luther King Jr. Blvd.,Youngstown,OH,44510,41.1258,-80.6803,Mahoning,331110,,8033211,NEI
110040996134.0,VALLOUREC STAR LP,2669 MARTIN LUTHER KING JR BLVD,YOUNGSTOWN,OH,44510,41.1266,-80.6848,MAHONING,332996,,44510NRTHS2669W,TRI
110000391898.0,AK STEEL CORP MANSFIELD WORKS,913 BOWMAN STREET,MANSFIELD,OH,44903,40.78513,-82.52384,RICHLAND COUNTY,331111,,1006530,GHGRP
110000391898.0,AK Steel Corp - Mansfield Operations (0370010023),913 Bowman Street,Mansfield,OH,None,40.7906,-82.528,Richland,331110,,8050311,NEI
110000391898.0,CLEVELAND-CLIFFS STEEL CORP - MANSFIELD WORKS,913 BOWMAN ST,MANSFIELD,OH,44903,40.78449,-82.52327,RICHLAND,331111,,44901MPRDT913BO,TRI
110000389847.0,"RG Steel, LLC",1040 PINE AVE SE,WARREN,OH,44482,41.2119,-80.8176,Trumbull,331111,,1000177,GHGRP
110000389847.0,"BDM Warren Steel Operations, LLC (0278000463)","999 Pine Ave., S.E.",Warren,OH,None,41.2111,-80.81669999999998,Trumbull,331110,,8063611,NEI
110000389847.0,"RG STEEL, LLC",999 PINE AVE SE,WARREN,OH,444836528,41.21111,-80.81667,TRUMBULL,331111,,44481WRRNW1040P,TRI
110000742028.0,METALDYNE SINTERED COMPONENTS,3100 NORTH HIGHWAY 3,NORTH VERNON,IN,47265,39.025,-85.64029999999998,Jennings,332111,,8107811,NEI
110000742028.0,METALDYNE SINTERFORGED PRODUCTS LLC,3100 N HWY 3,NORTH VERNON,IN,47265,39.0301,-85.6377,JENNINGS,331111,,46206MSCTC3100N,TRI
110000384487.0,AK STEEL,1724 LINDEN AVENUE,ZANESVILLE,OH,43701,39.96136,-82.00034,MUSKINGUM COUNTY,331111,,1003418,GHGRP
110000384487.0,AK Steel - Zanesville Works (0660010006),1724 Linden Avenue,Zanesville,OH,None,39.9625,-81.99809999999998,Muskingum,331221,,8115811,NEI
110000384487.0,CLEVELAND-CLIFFS STEEL CORP - ZANESVI LLE WORKS,1724 LINDEN AVE,ZANESVILLE,OH,43701,39.96136,-82.00034,MUSKINGUM,331111,,43701RMCDV1724L,TRI
110000409843.0,Gerdau Special Steel North America - Jackson Mill,3100 Brooklyn Road,Jackson,MI,49203,42.202661,-84.363023,JACKSON,331111,,1003965,GHGRP
110000409843.0,Gerdau Special Steel North America - Jackson Mill,3100 BROOKLYN RD,JACKSON,MI,49203,42.203,-84.363,Jackson,331110,,8125711,NEI
110000409843.0,GERDAU SPECIAL STEEL NA,3100 BROOKLYN RD,JACKSON,MI,49203,42.202661,-84.363023,JACKSON,331111,,49204QNXCRPOBOX,TRI
110057243040.0,GLOBE METALLURGICAL INC. (0684000105),1595 Sparling Road,WATERFORD,OH,45786,39.58386,-81.68042,WASHINGTON COUNTY,331112,,1006473,GHGRP
110057243040.0,Globe Metallurgical Inc. (0684000105),County Route 32,Waterford,OH,45786,39.5845,-81.6782,Washington,331110,,8130411,NEI
110057243040.0,GLOBE METALLURGICAL INC,1595 SPARLING ROAD,WATERFORD,OH,45786,39.58386,-81.68042,WASHINGTON,331112,,45786GLBMTCOUNT,TRI
110000385645.0,Republic Steel - Lorain Plant,1807 E. 28th St.,Lorain,OH,44055,41.448518,-82.133082,LORAIN,331111,,1002714,GHGRP
110000385645.0,"Republic Steel, f/k/a Republic Engineered Products, Inc (0247080229)",1807 E. 28th Street,Lorain,OH,44055,41.4489,-82.1345,Lorain,331110,,8131011,NEI
110000385645.0,REPUBLIC STEEL - LORAIN PLANT,1807 E 28TH ST,LORAIN,OH,44055,41.448518,-82.133082,LORAIN,331111,,44055SSLRN1807E,TRI
110003098861.0,US STEEL - EAST CHICAGO TIN,101 EAST 129TH STREET,EAST CHICAGO,IN,46312,41.661115,-87.47818,LAKE COUNTY,331112,,1001832,GHGRP
110003098861.0,U.S. STEEL - EAST CHICAGO TIN OPERATIONS,101 EAST 129TH STREET,EAST CHICAGO,IN,46312,41.6577,-87.47239999999998,Lake,331110,,8164611,NEI
110003098861.0,USS EAST CHICAGO TIN,101 E 129TH ST,EAST CHICAGO,IN,46312,41.661115,-87.47818,LAKE,331112,,46312SSSTC101E1,TRI
110000438713.0,Heidtman Steel Products Inc,10 Northgate Industrial,Granite City,IL,62040,38.7446,-90.1319,Madison,331110,,8180511,NEI
110000438713.0,HEIDTMAN STEEL PRODUCTS INC.,10 NORTHGATE INDUSTRIAL DR,GRANITE CITY,IL,62040,38.744579,-90.131908,MADISON,332812,,62040HDTMN10NOR,TRI
110000398212.0,NLMK INDIANA,6500 S. BOUNDARY RD.,PORTAGE,IN,46368,41.62152,-87.16148,PORTER,331111,,1007866,GHGRP
110000398212.0,NLMK Indiana,6500 S Boundary Rd,Portage,IN,46368,41.6243,-87.1596,Porter,324199,,8187311,NEI
110000398212.0,NLMK INDIANA,6500 S BOUNDARY RD,PORTAGE,IN,46368,41.62225,-87.161639,PORTER,331111,,46368BTSTL6500S,TRI
110018406679.0,US STEEL - GRANITE CITY,1951 STATE ST,GRANITE CITY,IL,62040,38.69439,-90.147709,MADISON,331111,,1006041,GHGRP
110018406679.0,US Steel Granite City,1951 State St,Granite City,IL,62040,38.6944,-90.1477,Madison,331110,,8191211,NEI
110018406679.0,U.S. STEEL GRANITE CITY WORKS,1951 STATE ST,GRANITE CITY,IL,62040,38.6954,-90.1367,MADISON,331111,,62040GRNTC20THS,TRI
110000405945.0,GERDAU MACSTEEL MONROE,3000 EAST FRONT STREET,MONROE,MI,48161,41.897173,-83.361645,MONROE COUNTY,331111,,1004411,GHGRP
110000405945.0,Gerdau MacSteel Monroe,3000 E FRONT STREET,MONROE,MI,48161,41.8939,-83.3572,Monroe,331110,,8195511,NEI
110000405945.0,GERDAU MACSTEEL MONROE,3000 E FRONT ST,MONROE,MI,48161,41.897173,-83.361645,MONROE,331111,,48161NRTHS3000E,TRI
110009569216.0,STEEL DYNAMICS STRUCTURAL,2601 S 700 E,COLUMBIA CITY,IN,46725,41.12,-85.34999999999998,Whitley,331110,,8199711,NEI
110009569216.0,STEEL DYNAMICS INC STRUCTURAL & RAIL DIV,2601 COUNTY RD 700 E,COLUMBIA CITY,IN,46725,41.125129,-85.355875,WHITLEY,331111,,46725STLDY2601C,TRI
110005981928.0,ARCELORMITTAL PLATE LLC,139 MODENA RD,COATESVILLE,PA,19320,39.98301,-75.82791,CHESTER,331111,,1003668,GHGRP
110005981928.0,ARCELORMITTAL PLATE LLC/COATESVILLE,139 MODENA RD,COATESVILLE,PA,None,39.983,-75.8279,Chester,331110,,8218411,NEI
110005981928.0,CLEVELAND-CLIFFS  PLATE LLC COATESVILLE FACILITY,139 MODENA RD,COATESVILLE,PA,19320,39.98301,-75.82791,CHESTER,331111,,19320LKNSSMODEN,TRI
110000583574.0,IPSCO KOPPEL TUBULARS CORP KOPPEL WORKS,6403 6TH STREET,KOPPEL,PA,16136,40.83557,-80.321971,BEAVER COUNTY,331111,,1005190,GHGRP
110000583574.0,IPSCO KOPPEL TUBULARS CORP/KOPPEL PLT,MOUNT ST,KOPPEL,PA,16136,40.8356,-80.31839999999998,Beaver,331110,,8221411,NEI
110000583574.0,IPSCO KOPPEL TUBULARS CORP,6403 6TH AVE,KOPPEL,PA,16136,40.835648,-80.31814,BEAVER,331111,,16136BBCCKMOUNT,TRI
110000438679.0,ALTON STEEL COMPANY,#5 CUT ST.,ALTON,IL,62002,38.88321,-90.14503,MADISON,331111,,1003268,GHGRP
110000438679.0,Alton Steel Inc,#5 Cut St,Alton,IL,62002,38.8833,-90.1459,Madison,331110,,8221911,NEI
110000438679.0,ALTON STEEL INC,5 CUT ST,ALTON,IL,62002,38.884444,-90.143735,MADISON,331111,,62002LCLDSCUTST,TRI
110017410595.0,NUCOR STEEL INDIANA,4537 S NUCOR RD,CRAWFORDSVILLE,IN,47933,39.9747,-86.8301,MONTGOMERY,331111,,1004151,GHGRP
110017410595.0,Nucor Steel,4537 S Nucor Rd,Crawfordsville,IN,47933,39.9747,-86.8301,Montgomery,331221,,8224911,NEI
110017410595.0,NUCOR STEEL,4537 S NUCOR RD,CRAWFORDSVILLE,IN,47933,39.9747,-86.8301,MONTGOMERY,331111,,47933NCRST400SO,TRI
110010267237.0,CARPENTER TECHNOLOGY,101 WEST BERN ST.,READING,PA,19601,40.361105,-75.936838,BERKS,331111,,1004036,GHGRP
110010267237.0,CARPENTER TECH CORP/READING PLT,101 BERN ST,READING,PA,None,40.3589,-75.93739999999998,Berks,331110,,8234611,NEI
110010267237.0,CARPENTER TECHNOLOGY CORP,101 W BERN ST,READING,PA,19601,40.361105,-75.936838,BERKS,331111,,19612CRPNT101WB,TRI
110000386546.0,"SIFCO Forge Group, Inc. (1318001618)",970 East 64th Street,Cleveland,OH,44103,41.5261,-81.6472,Cuyahoga,332111,,8251611,NEI
110000386546.0,SIFCO FORGE GROUP INC.,970 E 64TH ST,CLEVELAND,OH,44103,41.52595,-81.64696,CUYAHOGA,332112,,44103SFCND970E6,TRI
110000747032.0,"Sandusky International, Inc (0322020117)",615 W MARKET ST,Sandusky,OH,44870,41.4549,-82.7176,Erie,331513,,8259711,NEI
110000747032.0,SANDUSKY INTERNATIONAL INC.,615 W MARKET ST,SANDUSKY,OH,44870,41.4554,-82.7159,ERIE,331528,,44871SNDSK615WE,TRI
110009072984.0,GERDAU AMERISTEEL JACKSONVILLE MILL,16770 REBAR ROAD,BALDWIN,FL,32234,30.28835,-81.977729,DUVAL COUNTY,331111,,1002216,GHGRP
110009072984.0,GERDAU AMERISTEEL JACKSONVILLE MILL DIV.,16770 REBAR ROAD,JACKSONVILLE,FL,None,30.2814,-81.97889999999998,Duval,331110,,827611,NEI
110009072984.0,CMC STEEL FLORIDA,16770 REBAR RD,JACKSONVILLE,FL,32234,30.28835,-81.977729,DUVAL,331111,,32234FLRDSHWY21,TRI
110024423131.0,NUCOR STEEL HERTFORD COUNTY,1505 RIVER RD,COFIELD,NC,27922,36.355216,-76.81115,HERTFORD,331111,,1002958,GHGRP
110024423131.0,Nucor Steel Hertford,1505 River Road SR 1400,Cofield,NC,27922,36.3552,-76.81109999999998,Hertford,331110,,8311911,NEI
110024423131.0,NUCOR STEEL HERTFORD COUNTY,1505 RIVER RD,COFIELD,NC,27922,36.355216,-76.81115,HERTFORD,331111,,27922NCRST1505R,TRI
110000486625.0,Eagle Foundry Co,23123 Se Eagle Creek Rd,Eagle Creek,OR,97022,45.3552,-122.354,Clackamas,331513,,8417611,NEI
110000486625.0,EAGLE FOUNDRY CO,23123 SE EAGLE CREEK RD,EAGLE CREEK,OR,97022,45.35525,-122.35391,CLACKAMAS,331511,,97022GLFND23123,TRI
110000497141.0,U S STEEL GREAT LAKES WORKS,1 QUALITY DR,ECORSE,MI,48229,42.2817,-83.1102,Wayne,331110,,8483611,NEI
110000497141.0,US STEEL CORP GREAT LAKES WORKS,1 QUALITY DR,ECORSE,MI,48229,42.2774,-83.1103,WAYNE,331111,,48229GRTLKNO1QU,TRI
110060497001.0,AK STEEL DEARBORN WORKS,4001 MILLER RD,DEARBORN,MI,48120,42.301742,-83.162934,WAYNE,331111,,1003403,GHGRP
110060497001.0,"SEVERSTAL DEARBORN, LLC",4001 MILLER ROAD,DEARBORN,MI,48120,42.3017,-83.16289999999998,Wayne,331110,,8483711,NEI
110060497001.0,CLEVELAND-CLIFFS STEEL CORP DEARBORN WORKS,4001 MILLER RD,DEARBORN,MI,48120,42.301742,-83.162934,WAYNE,331111,,48121RGSTL3001M,TRI
110000774797.0,LACKAWANNA PLANT- REPUBLIC ENG PROD INC,3049 LAKESHORE RD,HAMBURG,NY,14219,42.8,-78.84,Erie,331110,,8503611,NEI
110000774797.0,REPUBLIC STEEL -  LACKAWANNA,S3049 LAKE SHORE RD,BLASDELL,NY,14219,42.80243,-78.84638,ERIE,331111,,14218BTHLHBARRO,TRI
110012566927.0,Republic Steel (1576050694),2633 Eighth Street NE,Canton,OH,None,40.8032,-81.33289999999998,Stark,331110,,8521511,NEI
110012566927.0,REPUBLIC STEEL-CANTON PLANT,2633 EIGHTH ST NE,CANTON,OH,44704,40.803234,-81.332864,STARK,331111,,44704LTVST26338,TRI
110056956502.0,DC Alabama Inc.,1940 OHIO FERROALLOYS ROAD,MOUNT MEIGS,AL,36057,32.393318,-86.070792,MONTGOMERY,331112,,1007056,GHGRP
110056956502.0,"Dow Corning Alabama, Inc.",Ohio Ferroalloys Rd,Mount Meigs,AL,36057,32.3932,-86.0708,Montgomery,331110,,867511,NEI
110000451163.0,SMI STEEL ARKANSAS (DBA CMC STEEL AR),100 COLUMBIA 7B,MAGNOLIA,AR,71753,33.2073,-93.2264,Columbia,331110,,880611,NEI
110000451163.0,CMC STEEL FABRICATORS INC. DBA CMC STEEL ARKANSAS,100 COLUMBIA 7-B,MAGNOLIA,AR,71753,33.208478,-93.229343,COLUMBIA,331111,,71753SMSTLKERLI,TRI
110000467539.0,GOLDEN ALUMINUM CO.,1405 E. 14TH ST,FORT LUPTON,CO,80621,40.0958,-104.803,Weld,331492,,898511,NEI
110000467539.0,GOLDEN ALUMINUM,1405 E 14TH ST,FORT LUPTON,CO,80621,40.09581,-104.80277,WELD,331315,,80621GLDNL1405E,TRI
110000482264.0,KEARNEYS' MANUFACTURING,2660 S DEARING AVE,FRESNO,CA,93725,36.7046,-119.737,Fresno,331513,,9011,NEI
110000482264.0,KEARNEYS' MACHINE WORKS,2660 S DEARING AVE,FRESNO,CA,93725,36.7046,-119.737,Fresno,332323,,484411,NEI
110056954345.0,Alumitech Of West Virginia,3816 S State Rt 2,Friendly,WV,26146,39.4747,-81.0969,Tyler,331492,,9041611,NEI
110056954345.0,REAL ALLOY RECYCLING LLC,283 INDUSTRIAL PARK ROAD,FRIENDLY,WV,26146,39.462509,-81.110207,TYLER,331314,,26146LMTCH3816S,TRI
110000391086.0,Republic Special Metals Inc (1576000695),2201 HARRISON AVE SW,CANTON,OH,44706,40.7706,-81.4064,Stark,331110,,9233411,NEI
110000391086.0,PATRIOT SPECIAL METALS,2201 HARRISON AVE SW,CANTON,OH,44706,40.77421,-81.39902,STARK,331111,,44706LTVST2201H,TRI
110006272522.0,Gnw Aluminum Inc,1356 Harrisburg Rd,Alliance,OH,44601,40.9234,-81.1277,Stark,331492,,9233711,NEI
110006272522.0,GNW ALUMINUM INC,1356 BEESON ST,ALLIANCE,OH,44601,40.92339,-81.12691,STARK,331314,,44601GNWLM1356H,TRI
110001620149.0,Alumitech Of Cleveland,4181 Bradley Rd,Cleveland,OH,44109,41.4425,-81.68049999999998,Cuyahoga,331492,,9277311,NEI
110001620149.0,ALERIS SPECIALTY PRODUCTS INC,4181 BRADLEY RD,CLEVELAND,OH,44109,41.44243,-81.6805,CUYAHOGA,331314,,44109LMTCH4181B,TRI
110000472391.0,Materion Corporation,6905 Washington Ave. NM NE,Albuquerque,NM,87109,35.1564,-106.597,Bernalillo,331492,,9368511,NEI
110000472391.0,MATERION ADVANCED MATERIALSTECHNOLOGIES & SERVICES CORP RE,6905 WASHINGTON NE,ALBUQUERQUE,NM,87109,35.15889,-106.59842,BERNALILLO,331528,,87109CDMYC6905W,TRI
110000378314.0,Eckart America LP,4101 CAMP GROUND RD,LOUISVILLE,KY,None,38.2146,-85.8386,Jefferson,331492,,9612811,NEI
110000378314.0,ECKART AMERICA CORP,4101 CAMP GROUND RD,LOUISVILLE,KY,40211,38.21345,-85.83762,JEFFERSON,331314,,40211RYNLD4101C,TRI
110056970461.0,"STEEL DYNAMICS, INC. (SDI)",8000 NORTH COUNTY ROAD 225 EAST,PITTSBORO,IN,46167,39.876783,-86.482113,HENDRICKS COUNTY,331111,,1003688,GHGRP
110056970461.0,"STEEL DYNAMICS, INC (SDI) ENGINEERED BAR PRODUCTS",8000 N COUNTY RD 225 E,PITTSBORO,IN,46167,39.8774,-86.4843,Hendricks,331110,,9662811,NEI
110056970461.0,STEEL DYNAMICS INC-ENGINEERED BAR PRODUCTS DIV,8000 N COUNTY RD 225E,PITTSBORO,IN,46167,39.876783,-86.482113,HENDRICKS,331111,,46167QLTCH8000N,TRI
110056970461.0,HARSCO CORP MULTISERV PLANT 85,C/O Sdi 8000 N County Rd 225 E,Pittsboro,IN,46167,39.8744,-86.48789999999998,Hendricks,327992,,9662411,NEI
110000453401.0,GERDAU - FORT SMITH MILL,5225 PLANTERS ROAD,FORT SMITH,AR,72916,35.3025,-94.375278,SEBASTIAN COUNTY,331111,,1003052,GHGRP
110000453401.0,Gerdau MacSteel Fort Smith,5225 Planters Road,Fort Smith,AR,72916,35.3069,-94.3753,Sebastian,331110,,976111,NEI
110000453401.0,GERDAU-FORT SMITH MILL,5225 PLANTERS RD,FORT SMITH,AR,72916,35.3025,-94.375278,SEBASTIAN,331111,,72902QNXMC4700P,TRI
110006034727.0,SSAB ALABAMA INCORPORATED,12400 HIGHWAY 43 NORTH,AXIS,AL,36505,30.943048,-88.012823,MOBILE,331111,,1005283,GHGRP
110006034727.0,SSAB Alabama Inc,"12400 Highway 43,North",Axis,AL,36505,30.943,-88.0128,Mobile,331110,,985911,NEI
110006034727.0,SSAB ALABAMA INC,12400 HWY 43 N,AXIS,AL,36505,30.943048,-88.012823,MOBILE,331111,,36505PSCST12400,TRI
110000491851.0,WYMAN GORDON COMPANY,244 WORCESTER ST,GRAFTON,MA,None,42.2319,-71.7269,Worcester,332112,,8142511,NEI
110000491851.0,WYMAN-GORDON CO,244 WORCESTER ST BOX 8001,NORTH GRAFTON,MA,1536,42.229565,-71.727977,WORCESTER,332111,,01536WYMNG244WO,TRI
110003502193.0,ENGINEERED MATERIALS SOLUTIONS,39 PERRY AVE,ATTLEBORO,MA,None,41.9485,-71.2721,Bristol,334512,,8168211,NEI
110003502193.0,ENGINEERED MATERIALS SOLUTIONS  LLC,39 PERRY AVE,ATTLEBORO,MA,2703,41.948486,-71.272143,BRISTOL,331221,,02703NGNRD39PER,TRI
110000581264.0,ELECTRIC BOAT CORPORATION,165 DILLABUR AVE,NORTH KINGSTOWN,RI,02852,41.5902,-71.4213,Washington,334,,6639711,NEI
110000581264.0,GENERAL DYNAMICS ELECTRIC BOAT CORP,165 DILLABUR AVE,NORTH KINGSTOWN,RI,2852,41.592514,-71.41953,WASHINGTON,336611,,02852GNRLDQUONS,TRI
110021278918.0,SENESCO,10 MACNAUGHT ST,NORTH KINGSTOWN,RI,2852,41.5888,-71.4183,Washington,3366,,5459911,NEI
110021278918.0,SENESCO MAIN YARD,10 MACNAUGHT ST,NORTH KINGSTOWN,RI,2852,41.59281,-71.442726,WASHINGTON,336611,,02852SNSCM1MACN,TRI
110000312670.0,"PEASE & CURREN, INC.",75 PENNSYLVANIA AVE,WARWICK,RI,02888,41.7412,-71.4433,Kent,331,,6663011,NEI
110000312670.0,PEASE & CURREN INC,75 PENNSYLVANIA AVE,WARWICK,RI,2888,41.74133,-71.44252,KENT,331492,,02888PSCRR75PEN,TRI
110000316168.0,"5N PLUS WISCONSIN, INC.",515 COMMERCE DR,FAIRFIELD,CT,6825,41.16466,-73.23153,FAIRFIELD,331492,,06430MTLSP515CO,TRI
110000316168.0,Mcp Metalspecialties,515 Commerce Dr.,Fairfield,CT,6432,41.1639,-73.2325,Fairfield,331410,,2736811,NEI
110000318772.0,Electrum Recovery Works,827 Martin St,Rahway,NJ,7065,40.5964,-74.27639999999998,Union,331,,7761111,NEI
110000318772.0,ELECTRUM RECOVERY WORKS INC.,827 MARTIN ST,RAHWAY,NJ,7065,40.59624,-74.27643,UNION,331492,,07065LCTRM827MA,TRI
110000320732.0,MCWILLIAMS FORGE CO,387 FRANKLIN AVE,ROCKAWAY,NJ,7866,40.889087,-74.516369,MORRIS,332111,,07866MCWLL1948F,TRI
110000320732.0,"WYMAN-GORDON FORGINGS,INC.",387 FRANKLIN AVE,ROCKAWAY,NJ,7866,40.8868,-74.51949999999998,Morris,339999,,7426611,NEI
110000321125.0,"Johnson Matthey, Inc.",2001 NOLTE DR,WEST DEPTFORD,NJ,08066,39.8189,-75.2086,Gloucester,331491,,7312611,NEI
110000321125.0,JOHNSON MATTHEY,2001 NOLTE DR,WEST DEPTFORD,NJ,8066,39.81925,-75.2045,GLOUCESTER,331492,,08066JHNSN2001A,TRI
110000325700.0,Homogeneous Metals Inc,2395 Main St.,Clayville,NY,13322,42.9786,-75.2519,Oneida,332813,,7245211,NEI
110000325700.0,PRATT & WHITNEY - HMI METAL POWDERS,2395 MAIN ST,CLAYVILLE,NY,13322,42.978,-75.25,ONEIDA,331492,,13322HMGNS2395M,TRI
110000328994.0,LIBERTAS COPPER LLC/LEETSDALE,100 WASHINGTON ST,LEETSDALE,PA,None,40.5733,-80.2228,Allegheny,331420,,7407811,NEI
110000328994.0,LIBERTAS COPPER LLC,100 WASHINGTON ST,LEETSDALE,PA,15056,40.574131,-80.221311,ALLEGHENY,331492,,15056HSSYC100WA,TRI
110000329038.0,HORSEHEAD CORP/MONACA SMELTER,300 FRANKFORT RD,MONACA,PA,None,40.6706,-80.3365,Beaver,331410,,7991511,NEI
110000329038.0,HORSEHEAD CORP MONACA SMELTER,300 FRANKFORT RD,MONACA,PA,15061,40.67058,-80.3365,BEAVER,331492,,15061ZNCCR300FR,TRI
110000330259.0,DURALOY TECHNOLOGIES/SCOTTDALE,120 BRIDGE ST,SCOTTDALE,PA,None,40.0991,-79.58629999999998,Westmoreland,331511,,4104011,NEI
110000330259.0,DURALOY TECHNOLOGIES INC,120 BRIDGE ST,SCOTTDALE,PA,15683,40.0996,-79.5847,WESTMORELAND,331513,,15683BLWKNBRIDG,TRI
110000330589.0,Scm Metal Prods Inc (Dba North American Hoganas),101 Bridge St.,Johnstown,PA,15902,40.288,-78.9319,Cambria,332813,,3675111,NEI
110000330589.0,NORTH AMERICAN HOGANAS HIGH ALLOYS LLC,101 BRIDGE ST,JOHNSTOWN,PA,15902,40.295704,-78.91894,CAMBRIA,331492,,15902SCMMT101BR,TRI
110000334576.0,Goulds Pumps ITT Ind,500 E. Centre St.,Ashland,PA,17921,40.785,-76.3234,Schuylkill,333911,,4736911,NEI
110000334576.0,ASHLAND FOUNDRY & MACHINE WORKS,500 E CENTRE ST,ASHLAND,PA,17921,40.7852,-76.3253,SCHUYLKILL,331513,,17921GLDSPEASTC,TRI
110000348213.0,Apex Tool Group (Gastonia Operations),1228 Isley Drive,Gastonia,NC,28053,35.2869,-81.23749999999998,Gaston,332216,,8070911,NEI
110000348213.0,APEX TOOL GROUP,1228 ISLEY DR,GASTONIA,NC,28052,35.28724,-81.23832,GASTON,331221,,28053SCHND1228I,TRI
110000348589.0,ATI Allvac - Monroe,2020 ASHCRAFT AVENUE,MONROE,NC,28110,34.98548,-80.517139,UNION,331419,,1006778,GHGRP
110000348589.0,Allvac Monroe Plant,2020 Ashcraft Ave.,Monroe,NC,28110,34.985,-80.5181,Union,331491,,8032311,NEI
110000348589.0,ATI SPECIALTY MATERIALS - MONROE PLANT,2020 ASHCRAFT AVE,MONROE,NC,28110,34.984,-80.51337,UNION,331492,,28111TLDYN2020A,TRI
110018570688.0,ATI Allvac - Bakers Plant,6400 Alloy Way (Melt Facility),Monroe,NC,28110,35.0213,-80.61369999999998,Union,331491,,15056411,NEI
110018570688.0,ATI SPECIALTY MATERIALS - BAKERS SITE,3750 ALLOY WAY,MONROE,NC,28110,35.01803,-80.612762,UNION,331492,,2811WTLLVC375AL,TRI
110000375246.0,MAGOTTEAUX PULASKI,2360 INDUSTRIAL PARK ROAD,PULASKI,TN,38478,35.2186,-87.05939999999998,Giles,331511,,4761011,NEI
110000375246.0,MAGOTTEAUX INC,2360 IND US TRIAL PARK DR,PULASKI,TN,38478,35.2186,-87.05944,GILES,331513,,38478MRCNM2360I,TRI
110013870427.0,International Crankshaft,101 Carley Ct,Georgetown (Scott),KY,40324,38.1972,-84.5433,Scott,336390,,7365911,NEI
110013870427.0,INTERNATIONAL CRANKSHAFT INC.,101 CARLEY CT,GEORGETOWN,KY,40324,38.19843,-84.54348,SCOTT,332111,,40324NTRNT101CA,TRI
110000388269.0,I. SCHUMANN & COMPANY (1318402645),22500 ALEXANDER RD,Bedford,OH,44146,41.3569,-81.519,Cuyahoga,331314,,14718811,NEI
110000388269.0,I SCHUMANN & CO,22500 ALEXANDER RD,OAKWOOD VILLAGE,OH,44146,41.357114,-81.518644,CUYAHOGA,331492,,44146SCHMN22500,TRI
110000399159.0,Stellite Coatings,1201 Eisenhower Dr. North,Goshen,IN,None,41.5581,-85.81709999999998,Elkhart,331314,,4995211,NEI
110000399159.0,KENNAMETAL STELLITE LP,1201 N EISENHOWER,GOSHEN,IN,46526,41.55741,-85.8174,ELKHART,331492,,46526STLLT1201E,TRI
110000400851.0,"Valbruna Slater Stainless, Inc",2400 Taylor Street West,Fort Wayne,IN,46802,41.0695,-85.17189999999998,Allen,331511,,4543911,NEI
110000400851.0,VALBRUNA SLATER STAINLESS INC,2400 TAYLOR ST W,FORT WAYNE,IN,46802,41.06762,-85.17348,ALLEN,331221,,46801SLTRS2400T,TRI
110040916774.0,"Portland Forge, An Allegheny Teledyne Company",East Lafayette Street,Portland,IN,None,40.4448,-84.974,Jay,332999,,4682511,NEI
110040916774.0,PORTLAND FORGE,250 E LAFAYETTE ST,PORTLAND,IN,47371,40.44499,-84.97611,JAY,332111,,47371TLDYNELAFA,TRI
110009600636.0,Sulzer Metco (US) Troy,1972 Meijer Dr.,Troy,MI,None,42.5625,-83.1667,Oakland,332813,,6989411,NEI
110009600636.0,OERLIKON METCO (US) TROY/OERLIKON METCO (US) TROY,1972 MEIJER DR,TROY,MI,48084,42.54019,-83.16944,OAKLAND,331492,,48084SLZRP1972M,TRI
110022411282.0,Omega Castings Inc,301 Fritz Keiper Blvd Fort Custer/Industrial Park,Battle Creek,MI,49015,42.3367,-85.2878,Calhoun,333922,,9550311,NEI
110022411282.0,OMEGA CASTINGS INC,301 FRITZ KEIPER BLVD FORT CUSTER INDUSTRIAL PARK,BATTLE CREEK,MI,49037,42.33667,-85.28778,CALHOUN,331513,,49015MGCST31FRI,TRI
110000418058.0,Waukesha Foundry Inc.,1300 Lincoln Ave,Waukesha,WI,53186,43.0103,-88.2086,Waukesha,331511,,6480511,NEI
110000418058.0,WAUKESHA FOUNDRY INC,1300 LINCOLN AVE,WAUKESHA,WI,53186,43.00984,-88.20845,WAUKESHA,331513,,53186WKSHF1300L,TRI
110000418129.0,Metaltek International Wisconsin Centrifugal Division,905 E Saint Paul Ave,Waukesha,WI,53188,43.0186,-88.2279,Waukesha,331511,,6480611,NEI
110000418129.0,METALTEK INTERNATIONAL-WISCO NSIN CENTRIFUGAL DIV,905 E ST PAUL AVE,WAUKESHA,WI,53188,43.01982,-88.22745,WAUKESHA,331513,,53188WSCNS905EA,TRI
110000418478.0,Badger Alloys,5120 W State St,Milwaukee,WI,53208,43.0449,-87.97839999999998,Milwaukee,331511,,12692611,NEI
110000418478.0,BADGER ALLOYS,5120 W STATE ST,MILWAUKEE,WI,53208,43.04449,-87.9782,MILWAUKEE,331513,,53208BDGRL5120W,TRI
110000418833.0,Maynard Steel Casting Company,2856 S 27th St,Milwaukee,WI,53215,42.9929,-87.9482,Milwaukee,331511,,6330211,NEI
110000418833.0,MAYNARD STEEL CASTING CO,2856 S 27TH ST,MILWAUKEE,WI,53215,42.992876,-87.948197,MILWAUKEE,331513,,53215MYNRD2856S,TRI
110000421099.0,WINSERT INC,2645 INDUSTRIAL PKWY S,MARINETTE,WI,None,45.0794,-87.64329999999998,Marinette,33151,,7095611,NEI
110000421099.0,WINSERT INC,2645 IND US TRIAL PKWY,MARINETTE,WI,54143,45.08223,-87.64337,MARINETTE,331513,,54143WNSRT2645I,TRI
110012339415.0,Merrill Iron & Steel Inc.,900 Alderson St,Schofield,WI,54476,44.9222,-89.59869999999998,Marathon,332312,,7050711,NEI
110012339415.0,MERRILL IRON & STEEL INC.,900 ALDERSON ST,SCHOFIELD,WI,54476,44.92035,-89.59284,MARATHON,331221,,54476JCSCM900AL,TRI
110000434619.0,Midland Industries Inc,1424 N Halsted St,Chicago,IL,60622,41.9072,-87.6486,Cook,331420,,1732111,NEI
110000434619.0,MIDLAND INDUSTRIES INC,1424 N HALSTED ST,CHICAGO,IL,60642,41.907173,-87.648554,COOK,331492,,60622MLNDN1424N,TRI
110000434637.0,Sipi Metals Corp,1720 N Elston Ave,Chicago,IL,60642,41.9136,-87.66469999999998,Cook,331420,,1732511,NEI
110000434637.0,SIPI METALS CORP.,1720 ELSTON AVENUE,CHICAGO,IL,60642,41.913364,-87.664551,COOK,331492,,60622SPMTL1720E,TRI
110000434879.0,Imperial Zinc Corp,1031 E 103rd St,Chicago,IL,60628,41.707,-87.5977,Cook,331420,,7300511,NEI
110000434879.0,IMPERIAL ZINC CORP,1031 E 103RD ST,CHICAGO,IL,60628,41.70676,-87.597904,COOK,331492,,60628MPRLS10316,TRI
110000438759.0,Mayco Industries LLC,1200 16th St,Granite City,IL,None,38.6968,-90.1577,Madison,331491,,7954511,NEI
110000438759.0,MAYCO MANUFACTURING LLC,1200 16TH ST,GRANITE CITY,IL,62040,38.69683,-90.157709,MADISON,331492,,62040TRCRP12001,TRI
110018344077.0,Big River Zinc Corp,2401 Mississippi Ave,Sauget,IL,62201,38.6014,-90.1703,St. Clair,331410,,7939911,NEI
110018344077.0,BIG RIVER ZINC,2401 MISSISSIPPI AVE,SAUGET,IL,62201,38.60157,-90.1726,ST. CLAIR,331492,,62201BGRVRRTE3M,TRI
110039018470.0,VAE Nortrak North America Inc,690 E Kenwood,Decatur,IL,62526,39.8679,-88.9492,Macon,331511,,10829411,NEI
110039018470.0,VOESTALPINE RAILWAY SYSTEMS NORTRAK LLC,690 E. KENWOOD AVE.,DECATUR,IL,62526,39.86897,-88.949033,MACON,331513,,6252WVNRTR69EKE,TRI
110000455196.0,10055 E 56TH ST N,10055 E 56TH ST N,TULSA,OK,74117,36.2292,-95.8667,Tulsa,333120,,698711,NEI
110000455196.0,H&L TOOTH,10055 E 56TH ST N,TULSA,OK,74117,36.23508,-95.86379,TULSA,332111,,74117HLTTH10055,TRI
110000474987.0,SHULTZ STEEL CO,5321 FIRESTONE BLVD,SOUTH GATE,CA,90280,33.9515,-118.175,Los Angeles,332112,,4083611,NEI
110000474987.0,SHULTZ STEEL CO,5321 E. FIRESTONE BOULEVARD,SOUTH GATE,CA,90280,33.951482,-118.174885,LOS ANGELES,332111,,90280SHLTZ5321F,TRI
110000495562.0,SCHLOSSER FORGE COMPANY,11711 ARROW ROUTE,RANCHO CUCAMONGA,CA,91730,34.0991,-117.549,San Bernardino,332112,,4922211,NEI
110000495562.0,SCHLOSSER FORGE CO,11711 ARROW RT,RANCHO CUCAMONGA,CA,91730,34.09908,-117.54933,SAN BERNARDINO,332111,,91730SCHLS11711,TRI
110000477822.0,SEMCO ENTER. INC,475 WILSON WAY,CITY OF INDUSTRY,CA,91744,34.0165,-117.957,Los Angeles,331491,,2247711,NEI
110000477822.0,SEMCO ENTERPRISES INC,475 S WILSON WAY,CITY OF INDUSTRY,CA,91744,34.01614,-117.9567,LOS ANGELES,331492,,91744SMCNT475SW,TRI
110057205803.0,"Vigor Industrial, LLC",5555 N CHANNEL AVE BLDG 71,PORTLAND,OR,None,45.5662,-122.722,Multnomah,488390,,8418411,NEI
110057205803.0,VIGOR INDUSTRIAL,5555 N CHANNEL AVE,PORTLAND,OR,97217,45.565266,-122.722156,MULTNOMAH,336611,,97217CSCDG5555N,TRI
110000403331.0,SCEPTER INC,6467 N SCEPTER RD,BICKNELL,IN,47512,38.771194,-87.328222,KNOX,331314,,47512SCPTRKNOXC,TRI
110000403331.0,Scepter Inc.,6467 Scepter Road,Bicknell,IN,47512,38.7706,-87.30169999999998,Knox,331492,,8395411,NEI
110000476002.0,THE JANKOVICH CO PARAMOUNT FIXED FACILITY,14066 GARFIELD AVE,PARAMOUNT,CA,90723,33.90574,-118.16889,LOS ANGELES,424710,,90723WSTRN14066,TRI
110000476002.0,Western Petroleum Inc,14066 Garfield,Paramount,CA,90723,33.905,-118.167,Los Angeles,324199,,7875311,NEI
110000702071.0,ENERGYSOLUTIONS BEAR CREEK FACILITY,1560 BEAR CREEK RD,OAK RIDGE,TN,37830,35.91322,-84.3827,ANDERSON,562219,,37830DRTKB1560B,TRI
110000702071.0,Duratek Services Inc.,1560 Bear Creek Rd,Oak Ridge,TN,37830,35.988,-84.2611,Anderson,331492,,9161111,NEI
110009493538.0,OIL STATES INDUSTRIES - HOUSTON,5819 ALMEDA GENOA RD,HOUSTON,TX,77048,29.620913,-95.319058,HARRIS,333132,,77048SBSVN5819A,TRI
110009493538.0,Subsea Ventures Inc,5819 Almeda Genoa Rd.,Houston,TX,77048,29.6206,-95.3192,Harris,336611,,6679711,NEI
110010534261.0,Toledo Refining Company,1819 WOODVILLE RD.,OREGON,OH,43616,41.6328,-83.5019,LUCAS,561210,,1001056,GHGRP
110010534261.0,"Toledo Refining Company, LLC. (0448010246)",1819 Woodville Road,Oregon,OH,43616,41.6319,-83.5036,Lucas,324110,,7319811,NEI
110010534261.0,TOLEDO REFINING CO LLC,1819 WOODVILLE RD,OREGON,OH,43616,41.6295,-83.4965,LUCAS,324110,,43616SNRFN1819W,TRI
110010534261.0,TWO LLC - Veolia Water Americas (0448020080),1819 Woodville Road,Oregon,OH,None,41.6287,-83.5048,Lucas,561210,,13431911,NEI
110010534261.0,Process Solutions a division of Veolia Water Americas (0448011640),1819 Woodville Road,Oregon,OH,43616,41.6078,-83.4822,Lucas,324199,,10722611,NEI
110017118199.0,METALICO ALUMINUM RECOVERY INC,6223 THOMPSON RD,SYRACUSE,NY,13206,43.073006,-76.094515,ONONDAGA,331314,,13206RTHBR6223T,TRI
110017118199.0,Wabash Aluminum Alloys Llc,6223 Thompson Rd,Dewitt,NY,None,43.07,-76.09,Onondaga,331492,,7981211,NEI
110018953532.0,CHEVRON PRODUCTS COMPANY,17881 GOTHARD ST,HUNTINGTON BEACH,CA,92647,33.703,-118.0,Orange,424710,,4940211,NEI
110018953532.0,CHEVRON HUNTINGTON BEACH TERMINAL,17881 GOTHARD ST,HUNTINGTON BEACH,CA,92647,33.70264,-117.9999,ORANGE,424710,,92647HNTNG17881,TRI
110018953532.0,Chevron U S A Inc Unit No 01,14881 Gothard St,Huntington Beach,CA,92647,33.7032,-118.0,Orange,324199,,391311,NEI
nan,"EPL Oil & Gas, Inc. - SP 77 A",None,Offshore,LA,0,28.8308,-89.4061,ORLEANS PARISH,211111,,1010333,GHGRP
nan,Air Liquide Large Industries U.S. Lp El Segundo,1310 E El Segundo Blvd,El Segundo,CA,90245,33.9058,-118.402,Los Angeles,32512,,10210811,NEI
nan,Cogeneration Project,Mile 2.5 Dayville Rd.,Valdez,AK,99686,61.0843,-146.252,Valdez-Cordova,221112,,1025411,NEI
nan,Glennallen Diesel Plant,Mile 187 Glenn Hwy,Glennallen,AK,99588,62.1186,-145.529,Valdez-Cordova,221112,,1025511,NEI
nan,Valdez Diesel Power Plant,West Egan Dr,Valdez,AK,99686,61.1352,-146.353,Valdez-Cordova,221112,,1025611,NEI
nan,Petro Star Valdez Refinery,Mile 2.5 Dayville Rd.,Valdez,AK,99686,61.0838,-146.253,Valdez-Cordova,324110,,1025911,NEI
nan,Valdez Pioneer Field,Unknown,Valdez,AK,00000,61.1339,-146.248,Valdez-Cordova,48811,,10551311,NEI
nan,New Chenega Airport,Unknown,New Chenega,AK,00000,60.0772,-147.992,Valdez-Cordova,48811,,10551511,NEI
nan,May Creek,Unknown,May Creek,AK,00000,61.3357,-142.687,Valdez-Cordova,48811,,10551611,NEI
nan,Middleton Island,Unknown,Middleton Island,AK,00000,59.45,-146.309,Valdez-Cordova,48811,,10551811,NEI
nan,Whittier,Unknown,Whittier,AK,00000,60.7772,-148.722,Valdez-Cordova,48811,,10551911,NEI
nan,Gulkana,Unknown,Gulkana,AK,00000,62.1549,-145.457,Valdez-Cordova,48811,,10552011,NEI
nan,Chisana,Unknown,Chisana,AK,00000,62.0712,-142.048,Valdez-Cordova,48811,,10552111,NEI
nan,Chitina,Unknown,Chitina,AK,00000,61.5829,-144.427,Valdez-Cordova,48811,,10552211,NEI
nan,Cordova Muni,Unknown,Cordova,AK,00000,60.5439,-145.727,Valdez-Cordova,48811,,10554511,NEI
nan,Merle K (Mudhole) Smith,Unknown,Cordova,AK,00000,60.4918,-145.478,Valdez-Cordova,48811,,10554611,NEI
nan,Tatitlek,Unknown,Tatitlek,AK,00000,60.8689,-146.686,Valdez-Cordova,48811,,10554711,NEI
nan,Mc Carthy Nr 2,Unknown,Mc Carthy,AK,00000,61.4371,-142.904,Valdez-Cordova,48811,,10554811,NEI
nan,"PS #10, TAPS Pump Station",None,Paxson,AK,99586,63.4233,-145.768,Valdez-Cordova,486110,,10556011,NEI
nan,Pogo Mine,38 Miles NE Of Delta Junction,Delta Junction,AK,99737,64.8,-146.56,Fairbanks North Star,212221,,10594011,NEI
nan,CROSSWIND LAKE,Unknown,CROSSWIND LAKE,AK,00000,62.4009,-146.013,Valdez-Cordova,48811,,11028311,NEI
nan,ELLAMAR,Unknown,ELLAMAR,AK,00000,60.8939,-146.704,Valdez-Cordova,48811,,11042611,NEI
nan,LONG LAKE,Unknown,LONG LAKE,AK,00000,61.3779,-143.326,Valdez-Cordova,48811,,11159911,NEI
nan,JACOBUS FIELD,Unknown,GULKANA,AK,00000,62.2803,-145.363,Valdez-Cordova,48811,,11272911,NEI
nan,SPORTS MANS PARADISE,Unknown,TOK,AK,00000,62.5121,-143.236,Valdez-Cordova,48811,,11285411,NEI
nan,SWIFT CREEK,Unknown,MCCARTHY,AK,00000,61.4112,-143.001,Valdez-Cordova,48811,,11297011,NEI
nan,BOSWELL BAY,Unknown,BOSWELL BAY,AK,00000,60.4231,-146.146,Valdez-Cordova,48811,,11298211,NEI
nan,DUFFYS TAVERN,Unknown,SLANA,AK,00000,62.7246,-143.921,Valdez-Cordova,48811,,11320011,NEI
nan,PAXSON,Unknown,PAXSON,AK,00000,63.0246,-145.501,Valdez-Cordova,48811,,11422611,NEI
nan,PERRY ISLAND,Unknown,PERRY ISLAND,AK,00000,60.6853,-147.919,Valdez-Cordova,48811,,11422711,NEI
nan,COPPER CENTER 2,Unknown,COPPER CENTER,AK,00000,61.9412,-145.294,Valdez-Cordova,48811,,11473311,NEI
nan,VALDEZ HOSPITAL,Unknown,VALDEZ,AK,00000,61.1366,-146.345,Valdez-Cordova,48811,,11486211,NEI
nan,YOUNG CREEK,Unknown,MAY CREEK,AK,00000,61.3565,-142.733,Valdez-Cordova,48811,,11518711,NEI
nan,Griffith Micro Science Inc,4900 S GIFFORD AVE,Los Angeles,CA,90058,33.9972,-118.191,Los Angeles,812990,,1157811,NEI
nan,JAKES BAR,Unknown,MCCARTHY,AK,00000,61.2187,-142.89,Valdez-Cordova,48811,,11623511,NEI
nan,STRAWBERRY POINT,Unknown,CORDOVA,AK,00000,60.3912,-146.098,Valdez-Cordova,48811,,11626011,NEI
nan,TAZLINA /SMOKEY LAKE/,Unknown,TAZLINA,AK,00000,62.0634,-146.449,Valdez-Cordova,48811,,11833011,NEI
nan,MANKOMEN LAKE,Unknown,MANKOMEN LAKE,AK,00000,62.9899,-144.48,Valdez-Cordova,48811,,11844411,NEI
nan,JOHNSTONE POINT,Unknown,HINCHINBROOK,AK,00000,60.4817,-146.584,Valdez-Cordova,48811,,11980811,NEI
nan,TOLSONA LAKE,Unknown,TOLSONA LAKE,AK,00000,62.1134,-146.041,Valdez-Cordova,48811,,12038811,NEI
nan,TAZLINA,Unknown,TAZLINA,AK,00000,62.0648,-146.461,Valdez-Cordova,48811,,12106511,NEI
nan,CHISTOCHINA,Unknown,CHISTOCHINA,AK,00000,62.5635,-144.669,Valdez-Cordova,48811,,12309011,NEI
nan,Unicircuit Inc,8192 Southpark Ln.,Littleton,CO,80120,39.5692,-105.006,Arapahoe,334412,,1238411,NEI
nan,THOMPSON PASS,Unknown,THOMPSON PASS,AK,00000,61.1773,-145.688,Valdez-Cordova,48811,,12410311,NEI
nan,GLACIER CREEK,Unknown,GLACIER CREEK,AK,00000,61.4551,-142.381,Valdez-Cordova,48811,,12411311,NEI
nan,ROBE LAKE,Unknown,VALDEZ,AK,00000,61.0871,-146.144,Valdez-Cordova,48811,,12413611,NEI
nan,DEVILS MOUNTAIN LODGE,Unknown,NABESNA,AK,00000,62.4018,-142.995,Valdez-Cordova,48811,,12528011,NEI
nan,Klamath Generation Peakers,4940 HIGHWAY 97 SOUTH,KLAMATH FALLS,OR,97603,42.1808,-121.801,Klamath,221112,,12659811,NEI
nan,Orca Power Plant,103 Orca Road,Cordova,AK,99574,60.5559,-145.754,Valdez-Cordova,221112,,12660911,NEI
nan,HAARP Research Site,"Milepost 11.3, Tok Cut-Off",Gakona,AK,99586,62.3917,-145.13,Valdez-Cordova,928110,,12662511,NEI
nan,CAT PVM-2500 Asphalt Plant,None,None,AK,None,,,Multiple (portable facilities),237310,,12663111,NEI
nan,MUSTANG STATION UNIT 4 & 5,5 MILES E OF DENVER CITY ON CR 390,DENVER CITY,TX,79323,32.9748,-102.744,Yoakum,221122,,13411811,NEI
nan,Monterey Regional Waste Management District,14201 Del Monte Blvd,Marina,CA,93933,36.7092,-121.766,Monterey,562212,,1353811,NEI
nan,Sevenmile Gulch Compressor Station,NW section 18 T21 R111,Sweetwater County,WY,82935,41.7991,-110.046,Sweetwater,2212,,14555111,NEI
nan,Kivetts Incorporated,711 Southwest Boulevard,Clinton,NC,28328,34.9873,-78.3211,Sampson,337127,,15605411,NEI
nan,MADERA GLASS COMPANY,24441 AVENUE 12,MADERA,CA,93637,36.9261,-120.106,Madera,327213,,1565611,NEI
nan,POPLAR MUNI,UNKNOWN,POPLAR,MT,00000,48.1344,-105.162,Roosevelt,48811,,16089311,NEI
nan,CVTC FIELD,UNKNOWN,VALDEZ,AK,00000,61.13,-146.371,Valdez-Cordova,48811,,16091611,NEI
nan,SHERMAN HOSPITAL RANDALL ROAD,UNKNOWN,ELGIN,IL,00000,42.0722,-88.3297,Kane,48811,,16110611,NEI
nan,Fulton County,UNKNOWN,Johnstown,NY,00000,42.9981,-74.3294,Fulton,48811,,16133411,NEI
nan,Skaneateles Aero Drome,UNKNOWN,Skaneateles,NY,00000,42.9139,-76.44079999999998,Onondaga,48811,,16134211,NEI
nan,GENCO ANADARKO PLT,701 NE 7TH ST,ANADARKO,OK,73005,35.0826,-98.229,Caddo,221112,,16154811,NEI
nan,PREMIER ETHANOL LLC D/B/A/ POET BIOREFINING - PORTLAND,None,None,IN,None,40.4137,-85.0248,Jay,325193,,16668411,NEI
nan,POET BIOREFINING North Manchester,None,None,IN,None,40.9461,-85.7834,Wabash,325193,,16668711,NEI
nan,Frenchie Draw Graham Unit Central Tank Battery,SENW Section 15 T37N R89W,Fremont County,WY,82520,43.1807,-107.51,Fremont,424710,,16675411,NEI
nan,Kirby Creek Pipeline Station,"NWNW Section 22, Township 43N, Range 92W",Hot Springs County,WY,82443,43.6858,-107.897,Hot Springs,4861,,16679911,NEI
nan,KLUNE INDUSTRIES INC,1800 N 300 W,SPANISH FORK,UT,84660,40.133,-111.66,Utah,332813,,16721911,NEI
nan,Crown Cork & Seal Co (USA),3737 E Exchange Ave,Aurora,IL,60504,41.7646,-88.26,Kane,332431,,1785211,NEI
nan,Shell Oil Prods U S Sulfur Recovery Plant,23208 S. Alameda St.,Carson,CA,90810,33.8136,-118.229,Los Angeles,3251,,2123411,NEI
nan,CITY OF MOUNTAIN VIEW (SHORELINE LANDFILL),2600 SHORELINE BLVD,MOUNTAIN VIEW,CA,94043,37.4288,-122.078,Santa Clara,562212,,2339811,NEI
nan,Arlon Inc,1100 Governor Lea Road,Bear,DE,19701,39.6031,-75.66549999999998,New Castle,33422,,2439811,NEI
nan,EMPIRE LUMBER CO (DBA KAMIAH MILLS),HWY 12 & RAILROAD AVE,Kamiah,ID,83536,46.2261,-116.019,Lewis,321113,,2467111,NEI
nan,SOUTHEAST COUNTY LANDFILL,15960 CR 672,LITHIA,FL,33547,27.7626,-82.20149999999998,Hillsborough,562212,,2594511,NEI
nan,Monroe Auto Equipment Co,200 Mcintyre Dr.,Hartwell,GA,30643,34.35,-82.95,Hart,336330,,2653211,NEI
nan,Mcclarin Plastics Inc,100 Blettner Ave.,Hanover,PA,None,39.7925,-76.998,York,326199,,3002211,NEI
nan,Tex Par Energy Inc,268 Industrial Blvd.,Bainbridge,GA,31717,30.9686,-84.62919999999998,Decatur,45431,,3704911,NEI
nan,U S Marine Corps Logistics Base Albany,814 Radford Blvd.,Albany,GA,31704,31.5481,-84.0686,Dougherty,928110,,3710411,NEI
nan,Global Stone Tenn Luttrell Company,486 Clinch Valley Road,Luttrell,TN,None,36.2333,-83.7077,Union,32741,,3933111,NEI
nan,FRITO-LAY INC.,22801 HWY 58,BAKERSFIELD,CA,93312,35.3913,-119.315,Kern,311919,,422611,NEI
nan,WHEELER RECYCLING & DISPOSAL FACILITY,None,None,IN,None,41.5152,-87.1984,Porter,562212,,5436211,NEI
nan,Osram Sylvania Prods Inc,835 Washington Rd.,Saint Marys,PA,15857,41.4406,-78.5592,Elk,335110,,5454011,NEI
nan,Innovative Coating Tech Inc,1347 Pool St. Mojave Airport Building 105,Mojave,CA,93501,35.0594,-118.165,Kern,332812,,563511,NEI
nan,CONSOLIDATED FABRICATORS,17 SAINT MARK ST,AUBURN,MA,None,42.1899,-71.824,Worcester,335312,,5688011,NEI
nan,Alcoa Inc,2500 Alumax Road,Yankton,SD,57078,42.8899,-97.3514,Yankton,331318,,6195911,NEI
nan,CPFILMS - PLANT II,4129 The Great Rd.,Fieldale,VA,24089,36.7269,-79.95059999999998,Henry,326130,,6326011,NEI
nan,East Central Mixed Mun (kanabec),"Hwy 23, 4 mi SW of Mora",Arthur,MN,55051,45.8479,-93.3508,Kanabec,562212,,6451211,NEI
nan,MHBA CB LLLP,FM 2917,Alvin,TX,77512,29.2467,-95.1964,Brazoria,325199,,6583711,NEI
nan,SILGAN CONTAINERS MFR. CORP.,3250 PATTERSON ROAD,RIVERBANK,CA,95367,37.7336,-120.939,Stanislaus,332431,,6592411,NEI
nan,Northeast Nebraska Solid Waste Coalition (NNSWC),57220 825 RD,Clarkson,NE,68629,41.7838,-97.0909,Stanton,562212,,6898411,NEI
nan,G J Chemical Co Inc,128 Doremus Ave.,Newark,NJ,7105,40.7189,-74.16469999999998,Essex,42469,,7196011,NEI
nan,Cwc Industries Inc,185 Foundry St,Newark,NJ,7105,40.7278,-74.1333,Essex,325510,,7202411,NEI
nan,Poly Foam Intl Inc Style Crest Prods,600 Hagerty Dr.,Fremont,OH,None,41.3725,-83.11279999999998,Sandusky,32612,,7294511,NEI
nan,Gibson Tube Inc,100 Aspen Hill Rd.,North Branch,NJ,None,40.5656,-74.5647,Somerset,331210,,7493411,NEI
nan,Prestone Prods Corp,250 Halls Mill Rd.,Freehold,NJ,7728,40.25,-74.25,Monmouth,325998,,7541111,NEI
nan,Kennecott Utah Copper Mine Concentrators & Power Plant,12300 S. Utah Hwy. 111,Copperton,UT,84006,40.5167,-112.15,Salt Lake,212234,,7697611,NEI
nan,GE Advanced Ceramics,22557 W. Lunn Rd.,Strongsville,OH,44136,41.2997,-81.87919999999998,Cuyahoga,327120,,7750211,NEI
nan,Machinery Recovery Services/Convertapax,5539 Gundy Dr.,Midvale,OH,44653,40.4364,-81.3542,Tuscarawas,322220,,7769211,NEI
nan,Schmidt Progressive L L C,360 Harmon Ave.,Lebanon,OH,None,39.4517,-84.1911,Warren,32612,,7771811,NEI
nan,REPUBLIC STEEL LACKAWANNA,S3049 Lakeshore Rd.,Blasdell,NY,14219,42.8017,-78.8417,Erie,331110,,7797411,NEI
nan,Owens-Brockway Glass Container Inc Plant #35,Rd. #6 County House Rd.,Auburn,NY,13021,42.9614,-76.55419999999998,Cayuga,327213,,7805311,NEI
nan,Blazer Fabricating Inc,4466 Pinson Valley Parkway,Birmingham,AL,35215,33.4879,-86.7132,Jefferson,332313,,7919111,NEI
nan,Jmc (Usa) Inc,1 Innovation Dr.,Research Triangle Park,NC,27709,35.8333,-78.8756,Durham,331110,,8052711,NEI
nan,Trinity Inds Inc,425 E. O'Connor Ave.,Lima,OH,45801,40.7575,-84.0994,Allen,332812,,8102011,NEI
nan,Whemco Ohio Fndy Div Inc,1600 McClain Rd.,Lima,OH,45804,40.7146,-84.11,Allen,331511,,8103111,NEI
nan,"Newco Metals Processing, Inc.",4635 Peerless Road,Bedford,IN,47421,38.9216,-86.5202,Lawrence,331492,,8225511,NEI
nan,Btlsr Toledo Inc,2112 Sylvan Ave.,Toledo,OH,None,41.6583,-83.575,Lucas,325211,,8262511,NEI
nan,ASHLAND INC,2401 Doyle St.,Greensboro,NC,27406,36.0433,-79.7886,Guilford,325998,,8285711,NEI
nan,Columbus Chemical Industries Inc,N4335 Temkin Rd,Columbus,WI,53925,43.3511,-89.00069999999998,Dodge,42469,,8316411,NEI
nan,Kemmerer Mine,"SWNW Section 29, Township 21 N, Range 116 W",Lincoln County,WY,83101,41.7296,-110.606,Lincoln,21211,,8419311,NEI
nan,Bunzl Extrusion,764 South Athol Road,Athol,MA,1331,42.5842,-72.2497,Worcester,339999,,8510211,NEI
nan,HEARTHSIDE FOOD SOLUTIONS,312 Rader Rd.,Mc Comb,OH,45858,41.1114,-83.79989999999998,Hancock,311821,,8543911,NEI
nan,Valdez Marine Terminal,West End of Dayville Road,Valdez,AK,99686,61.0867,-146.396,Valdez-Cordova,488320,,865711,NEI
nan,J.R. SIMPLOT COMPANY,12688 SO. COLORADO AVE.,HELM,CA,93627,36.5486,-120.108,Fresno,325998,,8811,NEI
nan,Hexcel Corp,3300 Mallard Fox Dr.,Decatur,AL,35603,34.6555,-87.07089999999998,Morgan,325220,,884811,NEI
nan,Sherwin Alumina Lp,4633 Hwy 361,Gregory,TX,78359,27.8833,-97.2625,San Patricio,331313,,9143811,NEI
nan,Dunmore Corp,145 Wharton Rd,Bristol,PA,19007,40.1175,-74.88219999999998,Bucks,326199,,9245311,NEI
nan,MASCO CABINETRY,217 Lamoka Rd,Sayre,PA,18840,41.9902,-76.575,Bradford,33711,,9248011,NEI
nan,Robinson Nevada Mining Co,4232 W White Pine Co. Rd 44,Ruth,NV,89319,39.2708,-115.013,White Pine,212234,,9371711,NEI
nan,Conocophillips Co Gulf Coast Lubes Plant,None,None,LA,None,30.1488,-93.3451,Calcasieu,324191,,9607411,NEI
nan,HB Fuller Construction Products Inc,1105 S Frontenac,Aurora,IL,60504,41.7349,-88.2305,DuPage,325520,,9730311,NEI
nan,Emd Chemicals Inc.,110 Emd Blvd,Savannah,GA,31407,32.2004,-81.1714,Chatham,325180,,9752211,NEI
nan,W. M. Sheppard Lumber Co. Inc.,Hwy 80 E,Brooklet,GA,30415,32.3708,-81.6567,Bulloch,321999,,9757511,NEI
nan,Plummer Forest Products,732 10th St,Plummer,ID,83851,47.33,-116.88,Benewah,321999,,9774411,NEI
