TRIFD,FACILITY NAME,PRIMARY NAICS,NAICS 2,NAICS 3,NAICS 4,NAICS 5,NAICS 6,PARENT CO NAME,FRS ID,FRS_ID,FacilityName,Address,City,State,Zip,Latitude,Longitude,County,NAICS,SIC,FacilityID,Source,_merge
19526HDCNCVALLE,ENGINEERED MATERIALS SOLUTIONS HAMBURG FACILITY,331221,issues,issues,issues,issues,issues,ENGINEERED MATERIALS HOLDING INC,110000584939.0,issues,issues,issues,issues,issues,issues,issues,issues,issues,issues,issues,issues,issues,left_only
17009STNDR500WA,STANDARD STEEL LLC,331110,332111.0,issues,issues,issues,issues,issues,110000332471.0,issues,issues,issues,issues,issues,issues,issues,issues,issues,issues,issues,issues,issues,left_only
48229GRTLKNO1QU,US STEEL CORP GREAT LAKES WORKS,331110,issues,issues,issues,issues,issues,US STEEL CORP,110000497141.0,issues,issues,issues,issues,issues,issues,issues,issues,issues,issues,issues,issues,issues,left_only
98108DLTMR1608S,DELTA MARINE INDUSTRIES INC.,336611,issues,issues,issues,issues,issues,issues,110000897290.0,issues,issues,issues,issues,issues,issues,issues,issues,issues,issues,issues,issues,issues,left_only
97210SCCRP2211N,ESCO GROUP,331513,issues,issues,issues,issues,issues,issues,110024423836.0,issues,issues,issues,issues,issues,issues,issues,issues,issues,issues,issues,issues,issues,left_only
15062MNSSN345DO,CLEVELAND-CLIFFS MONESSEN COKE LLC,324199,issues,issues,issues,issues,issues,CLEVELAND-CLIFFS MONESSEN COKE LLC,110000329118.0,issues,issues,issues,issues,issues,issues,issues,issues,issues,issues,issues,issues,issues,left_only
44125GBRLT431E4,WORTHINGTON STEEL,331221,issues,issues,issues,issues,issues,WORTHINGTON INDUSTRIES INC,110009488562.0,issues,issues,issues,issues,issues,issues,issues,issues,issues,issues,issues,issues,issues,left_only
49651LKCTY415NW,LC MANUFACTURING LLC,332111,issues,issues,issues,issues,issues,LC MANUFACTURING LLC,110018911702.0,issues,issues,issues,issues,issues,issues,issues,issues,issues,issues,issues,issues,issues,left_only
54929WLKRF250SP,WALKER FORGE INC,332111,issues,issues,issues,issues,issues,W T WALKER GROUP INC,110000423275.0,issues,issues,issues,issues,issues,issues,issues,issues,issues,issues,issues,issues,issues,left_only
3947WRNCCR863LD,RAIN CII CARBON LLC-PURVIS CALCINING PLANT,324199,issues,issues,issues,issues,issues,RAIN CII CARBON LLC,110002206611.0,issues,issues,issues,issues,issues,issues,issues,issues,issues,issues,issues,issues,issues,left_only
48134FLTRC26601,FLAT ROCK METAL INC.,331221,issues,issues,issues,issues,issues,issues,110000405687.0,issues,issues,issues,issues,issues,issues,issues,issues,issues,issues,issues,issues,issues,left_only
44125MRCNS4300E,CHARTER STEEL CLEVELAND,331110,issues,issues,issues,issues,issues,CHARTER MANUFACTURING CO INC,110000387402.0,issues,issues,issues,issues,issues,issues,issues,issues,issues,issues,issues,issues,issues,left_only
49015MGCST31FRI,OMEGA CASTINGS INC,331513,issues,issues,issues,issues,issues,issues,110022411282.0,issues,issues,issues,issues,issues,issues,issues,issues,issues,issues,issues,issues,issues,left_only
77640GRTLKCOKED,OXBOW CALCINING LLC,324199,issues,issues,issues,issues,issues,OXBOW CARBON & MINERALS HOLDINGS INC,110002042502.0,issues,issues,issues,issues,issues,issues,issues,issues,issues,issues,issues,issues,issues,left_only
60140LGLYS1HAUK,ELGILOY SPECIALTY METALS,331221,issues,issues,issues,issues,issues,COMBINED METALS OF CHICAGO LLC,110001855216.0,issues,issues,issues,issues,issues,issues,issues,issues,issues,issues,issues,issues,issues,left_only
14218BTHLHBARRO,REPUBLIC STEEL -  LACKAWANNA,331110,issues,issues,issues,issues,issues,REPUBLIC STEEL,110000774797.0,issues,issues,issues,issues,issues,issues,issues,issues,issues,issues,issues,issues,issues,left_only
45212THGVR2108E,THE G A AVRIL CO WHITE METAL PROD DIV,331492,issues,issues,issues,issues,issues,THE G. A. AVRIL CO. BRASS & BRONZE INGOT DIV.,110000393100.0,issues,issues,issues,issues,issues,issues,issues,issues,issues,issues,issues,issues,issues,left_only
2950WJHNSN18PAP,CLARIOS LLC,331492,issues,issues,issues,issues,issues,CLARIOS LLC,110040101653.0,issues,issues,issues,issues,issues,issues,issues,issues,issues,issues,issues,issues,issues,left_only
44704LTVST26338,REPUBLIC STEEL-CANTON PLANT,331110,issues,issues,issues,issues,issues,REPUBLIC STEEL,110012566927.0,issues,issues,issues,issues,issues,issues,issues,issues,issues,issues,issues,issues,issues,left_only
4470WTHTMK2514W,TIMKENSTEEL CORP-FAIRCREST STEEL PLANT,331110,issues,issues,issues,issues,issues,TIMKENSTEEL CORP,110064338104.0,issues,issues,issues,issues,issues,issues,issues,issues,issues,issues,issues,issues,issues,left_only
06479JJRYN335AT,J J RYAN CORP,331110,issues,issues,issues,issues,issues,issues,110002089276.0,issues,issues,issues,issues,issues,issues,issues,issues,issues,issues,issues,issues,issues,left_only
15683BLWKNBRIDG,DURALOY TECHNOLOGIES INC,331513,issues,issues,issues,issues,issues,PARK CORP,110000330259.0,issues,issues,issues,issues,issues,issues,issues,issues,issues,issues,issues,issues,issues,left_only
45050WRTHN350LA,WORTHINGTON STEEL CO,331221,issues,issues,issues,issues,issues,WORTHINGTON INDUSTRIES INC,110000392600.0,issues,issues,issues,issues,issues,issues,issues,issues,issues,issues,issues,issues,issues,left_only
36206CNTRL260CE,ANVIL MECHANICAL LLC,332111,issues,issues,issues,issues,issues,ANVIL INTERNATIONAL LLC,110006652318.0,issues,issues,issues,issues,issues,issues,issues,issues,issues,issues,issues,issues,issues,left_only
61821LLYNG17WWA,ILLINOIS NI CAST (DBA) ALLOY ENGINEERING & CASTING CO,331513,issues,issues,issues,issues,issues,WIRCO INC,110001808018.0,issues,issues,issues,issues,issues,issues,issues,issues,issues,issues,issues,issues,issues,left_only
13322HMGNS2395M,PRATT & WHITNEY - HMI METAL POWDERS,331492,331221.0,issues,issues,issues,issues,RAYTHEON TECHNOLOGIES CORP,110000325700.0,issues,issues,issues,issues,issues,issues,issues,issues,issues,issues,issues,issues,issues,left_only
16749QKRSTINTER,INTERNATIONAL WAXES INC,324199,issues,issues,issues,issues,issues,THE INTERNATIONAL GROUP INC,110000583850.0,issues,issues,issues,issues,issues,issues,issues,issues,issues,issues,issues,issues,issues,left_only
70665VNTRC1920P,RAIN CII CARBON LLC LAKE CHARLES CALCINING PLANT (LCCP),324199,issues,issues,issues,issues,issues,RAIN CII CARBON LLC,110015679853.0,issues,issues,issues,issues,issues,issues,issues,issues,issues,issues,issues,issues,issues,left_only
62454CCRBN12187,RAIN CII CARBON LLC,324199,issues,issues,issues,issues,issues,RAIN CII CARBON LLC,110018167053.0,issues,issues,issues,issues,issues,issues,issues,issues,issues,issues,issues,issues,issues,left_only
3656WTHYSS1THYS,AM/NS CALVERT LLC,331110,issues,issues,issues,issues,issues,issues,110048959221.0,issues,issues,issues,issues,issues,issues,issues,issues,issues,issues,issues,issues,issues,left_only
16407MCNNS441EM,CORRY FORGE CO.,332111,issues,issues,issues,issues,issues,ELLWOOD NATIONAL FORGE CO,110010989305.0,issues,issues,issues,issues,issues,issues,issues,issues,issues,issues,issues,issues,issues,left_only
43457CHRTR6255U,CHARTER STEEL RISINGSUN,331110,issues,issues,issues,issues,issues,CHARTER MANUFACTURING CO INC,110006111876.0,issues,issues,issues,issues,issues,issues,issues,issues,issues,issues,issues,issues,issues,left_only
46721STLDY4500C,STEEL DYNAMICS INC-FLAT ROLL DIV,331110,issues,issues,issues,issues,issues,STEEL DYNAMICS INC,110000592396.0,issues,issues,issues,issues,issues,issues,issues,issues,issues,issues,issues,issues,issues,left_only
16301LCTRL175MA,ELECTRALLOY,331110,issues,issues,issues,issues,issues,GO CARLSON INC,110000331338.0,issues,issues,issues,issues,issues,issues,issues,issues,issues,issues,issues,issues,issues,left_only
77983RCCRBHWY18,SEADRIFT COKE LP,324199,issues,issues,issues,issues,issues,GRAFTECH INTERNATIONAL LTD,110043798913.0,issues,issues,issues,issues,issues,issues,issues,issues,issues,issues,issues,issues,issues,left_only
44646LTVST401RO,REPUBLIC STEEL -  MASSILLON PLANT,331221,issues,issues,issues,issues,issues,REPUBLIC STEEL,110000390470.0,issues,issues,issues,issues,issues,issues,issues,issues,issues,issues,issues,issues,issues,left_only
3514WMRBLT186AL,AMERIBOLT INC,332111,issues,issues,issues,issues,issues,issues,110006001922.0,issues,issues,issues,issues,issues,issues,issues,issues,issues,issues,issues,issues,issues,left_only
15059JLSPC12THS,JEWEL ACQUISITION LLC - MIDLAND PLANT,331110,issues,issues,issues,issues,issues,ALLEGHENY TECHNOLOGIES INC,110022522279.0,issues,issues,issues,issues,issues,issues,issues,issues,issues,issues,issues,issues,issues,left_only
41045NRTHMUS42E,NORTH AMERICAN STAINLESS,331110,issues,issues,issues,issues,issues,issues,110056971255.0,issues,issues,issues,issues,issues,issues,issues,issues,issues,issues,issues,issues,issues,left_only
35217BCCKDRAILR,DRUMMOND CO INC ABC COKE DIV,324199,issues,issues,issues,issues,issues,DRUMMOND CO INC,110000366817.0,issues,issues,issues,issues,issues,issues,issues,issues,issues,issues,issues,issues,issues,left_only
42029SKWLLHIGHW,CC METALS & ALLOYS LLC,331110,issues,issues,issues,issues,issues,GEORGIAN AMERICAN ALLOYS INC,110043782555.0,issues,issues,issues,issues,issues,issues,issues,issues,issues,issues,issues,issues,issues,left_only
42101CCHLD407RA,VALOR LLC,324199,issues,issues,issues,issues,issues,VALOR LLC,110000380221.0,issues,issues,issues,issues,issues,issues,issues,issues,issues,issues,issues,issues,issues,left_only
4514WPWDRL11NRT,POWDER ALLOY CORP,331492,issues,issues,issues,issues,issues,issues,110043326585.0,issues,issues,issues,issues,issues,issues,issues,issues,issues,issues,issues,issues,issues,left_only
25703STLFW17THS,SWVA INC,331110,issues,issues,issues,issues,issues,STEEL DYNAMICS INC,110056972370.0,issues,issues,issues,issues,issues,issues,issues,issues,issues,issues,issues,issues,issues,left_only
53080CHRTR1658C,CHARTER STEEL-SAUKVILLE,331110,issues,issues,issues,issues,issues,CHARTER MANUFACTURING CO INC,110009515417.0,issues,issues,issues,issues,issues,issues,issues,issues,issues,issues,issues,issues,issues,left_only
53523DVNCD108HW,ADVANCED CENTRIFUGALS LTD,331513,issues,issues,issues,issues,issues,issues,110006148061.0,issues,issues,issues,issues,issues,issues,issues,issues,issues,issues,issues,issues,issues,left_only
3651WTHYSS1THYS,OUTOKUMPU STAINLESS USA LLC,331110,issues,issues,issues,issues,issues,issues,110070881484.0,issues,issues,issues,issues,issues,issues,issues,issues,issues,issues,issues,issues,issues,left_only
44035SHLMT164FR,SHALMET CORP,331221,issues,issues,issues,issues,issues,CARPENTER TECHNOLOGY CORP,110000385486.0,issues,issues,issues,issues,issues,issues,issues,issues,issues,issues,issues,issues,issues,left_only
25265FLMNPUSRT6,FELMAN PRODUCTION INC,331110,issues,issues,issues,issues,issues,issues,110045453031.0,issues,issues,issues,issues,issues,issues,issues,issues,issues,issues,issues,issues,issues,left_only
08066JHNSN2001A,JOHNSON MATTHEY,331492,325412.0,issues,issues,issues,issues,JOHNSON MATTHEY US 2 LLC,110000321125.0,issues,issues,issues,issues,issues,issues,issues,issues,issues,issues,issues,issues,issues,left_only
60804CRYST2800S,COREY STEEL CO,331110,issues,issues,issues,issues,issues,SPECIALTY STEEL WORKS,110014339974.0,issues,issues,issues,issues,issues,issues,issues,issues,issues,issues,issues,issues,issues,left_only
46231QMTCN7870W,QUEMETCO INC,331492,issues,issues,issues,issues,issues,ECOBAT AMERICA LLC,110000397419.0,issues,issues,issues,issues,issues,issues,issues,issues,issues,issues,issues,issues,issues,left_only
77541GLFCH302MI,GLADIEUX METALS RECYCLING LLC,331492,issues,issues,issues,issues,issues,GLADIEUX METALS LLC (FKA GLADIEUX CHEMICALS),110000619590.0,issues,issues,issues,issues,issues,issues,issues,issues,issues,issues,issues,issues,issues,left_only
44510NRTHS2669W,VALLOUREC STAR LP,331110,issues,issues,issues,issues,issues,VALLOUREC STAR LP,110040996134.0,issues,issues,issues,issues,issues,issues,issues,issues,issues,issues,issues,issues,issues,left_only
44622GRRST624BL,GREER STEEL CO,331221,issues,issues,issues,issues,issues,GREER INDUSTRIES INC,110000591761.0,issues,issues,issues,issues,issues,issues,issues,issues,issues,issues,issues,issues,issues,left_only
53186GRTLN831PR,VALMET INC. - WAUKESHA SERVICE CENTER,331513,issues,issues,issues,issues,issues,VALMET INC,110000417969.0,issues,issues,issues,issues,issues,issues,issues,issues,issues,issues,issues,issues,issues,left_only
29678NGLHR554MO,BASF CORP,331492,325180.0,issues,issues,issues,issues,BASF CORP,110000354893.0,issues,issues,issues,issues,issues,issues,issues,issues,issues,issues,issues,issues,issues,left_only
77091FRGDP655NH,FORGED PRODUCTS,332111,issues,issues,issues,issues,issues,issues,110005053609.0,issues,issues,issues,issues,issues,issues,issues,issues,issues,issues,issues,issues,issues,left_only
18106PHNXH7550W,PHOENIX HOTFORM,332111,issues,issues,issues,issues,issues,issues,110002096053.0,issues,issues,issues,issues,issues,issues,issues,issues,issues,issues,issues,issues,issues,left_only
0289WMTRLS8CENT,Q-TECH LLC D/B/A MATERIAL SAMPLING TECHNOLOGIES,331492,issues,issues,issues,issues,issues,Q TECH,110004934313.0,issues,issues,issues,issues,issues,issues,issues,issues,issues,issues,issues,issues,issues,left_only
48183FRDMT24189,FORD MOTOR CO WOODHAVEN FORGING PLANT,332111,issues,issues,issues,issues,issues,FORD MOTOR CO,110000406276.0,issues,issues,issues,issues,issues,issues,issues,issues,issues,issues,issues,issues,issues,left_only
60622SPMTL1720E,SIPI METALS CORP.,331492,issues,issues,issues,issues,issues,issues,110000434637.0,issues,issues,issues,issues,issues,issues,issues,issues,issues,issues,issues,issues,issues,left_only
16511MCNNS1533E,MCINNES ROLLED RINGS,332111,issues,issues,issues,issues,issues,TSK PARTNERS INC,110000332024.0,issues,issues,issues,issues,issues,issues,issues,issues,issues,issues,issues,issues,issues,left_only
15225SHNNG200NE,SHENANGO INC,331110,324199.0,issues,issues,issues,issues,DTE ENERGY CO,110000744874.0,issues,issues,issues,issues,issues,issues,issues,issues,issues,issues,issues,issues,issues,left_only
46327QNXLS14121,NIAGARA LASALLE CORP-HAMMOND PLANT,331221,issues,issues,issues,issues,issues,NIAGARA LASALLE CORP,110000398007.0,issues,issues,issues,issues,issues,issues,issues,issues,issues,issues,issues,issues,issues,left_only
3740WDXNDS121SG,DIXIE INDUSTRIES,332111,issues,issues,issues,issues,issues,issues,110009491406.0,issues,issues,issues,issues,issues,issues,issues,issues,issues,issues,issues,issues,issues,left_only
77092MSSFL622LU,MAASS RINGS & FORGE LLC,332111,issues,issues,issues,issues,issues,issues,110025317360.0,issues,issues,issues,issues,issues,issues,issues,issues,issues,issues,issues,issues,issues,left_only
06492CNNCTTOELL,NUCOR STEEL CONNECTICUT,331110,issues,issues,issues,issues,issues,NUCOR CORP,110000316649.0,issues,issues,issues,issues,issues,issues,issues,issues,issues,issues,issues,issues,issues,left_only
77045CBMNT12500,ELLWOOD TEXAS FORGE,332111,issues,issues,issues,issues,issues,THE ELLWOOD GROUP INC,110000461740.0,issues,issues,issues,issues,issues,issues,issues,issues,issues,issues,issues,issues,issues,left_only
7036WLSHPL367DI,LASHIP LLC,336611,issues,issues,issues,issues,issues,issues,110043851230.0,issues,issues,issues,issues,issues,issues,issues,issues,issues,issues,issues,issues,issues,left_only
77562STHWS18310,SOUTHWEST SHIPYARD L.P.,336611,488390.0,issues,issues,issues,issues,SOUTHWEST SHIPYARD LP,110000463533.0,issues,issues,issues,issues,issues,issues,issues,issues,issues,issues,issues,issues,issues,left_only
46953BHRBR2545S,BAHR BROTHERS MANUFACTURING,331513,issues,issues,issues,issues,issues,issues,110000401565.0,issues,issues,issues,issues,issues,issues,issues,issues,issues,issues,issues,issues,issues,left_only
47130JFFBT1030E,OLD JB LLC,336611,issues,issues,issues,issues,issues,AMERICAN COMMERCIAL LINES INC,110005980750.0,issues,issues,issues,issues,issues,issues,issues,issues,issues,issues,issues,issues,issues,left_only
15054CLMXMMAINS,LANGELOTH METALLURGICAL CO,331110,issues,issues,issues,issues,issues,issues,110010274096.0,issues,issues,issues,issues,issues,issues,issues,issues,issues,issues,issues,issues,issues,left_only
4841WBLDMN125ST,"BLUE DIAMOND STEEL CASTING,INC.",331513,issues,issues,issues,issues,issues,issues,110046278755.0,issues,issues,issues,issues,issues,issues,issues,issues,issues,issues,issues,issues,issues,left_only
47635KSTLC6500N,CLEVELAND-CLIFFS STEEL CORP (ROCKPORT WORKS ),331110,issues,issues,issues,issues,issues,CLEVELAND-CLIFFS INC,110000592788.0,issues,issues,issues,issues,issues,issues,issues,issues,issues,issues,issues,issues,issues,left_only
43125GRFFN3900B,AMSTED RAIL CO INC,331513,issues,issues,issues,issues,issues,AMSTED INDUSTRIES INC,110000381943.0,issues,issues,issues,issues,issues,issues,issues,issues,issues,issues,issues,issues,issues,left_only
4641WMDRNF8757C,MODERN FORGE INDIANA LLC,332111,issues,issues,issues,issues,issues,MODERN FORGE COS LLC,110070340708.0,issues,issues,issues,issues,issues,issues,issues,issues,issues,issues,issues,issues,issues,left_only
66002RCKWL4THAN,BRADKEN ATCHISON/ST JOSEPH,331513,issues,issues,issues,issues,issues,BRADKEN INC,110017375124.0,issues,issues,issues,issues,issues,issues,issues,issues,issues,issues,issues,issues,issues,left_only
17013THFRG600EH,FROG SWITCH & MANUFACTURING CO,331513,issues,issues,issues,issues,issues,issues,110000332596.0,issues,issues,issues,issues,issues,issues,issues,issues,issues,issues,issues,issues,issues,left_only
7780WXSPPNLUISE,AXIS PIPE & TUBE LLC,331221,issues,issues,issues,issues,issues,issues,110070070792.0,issues,issues,issues,issues,issues,issues,issues,issues,issues,issues,issues,issues,issues,left_only
47802CSNLL455WI,STEEL DYNAMICS HEARTLAND LLC,331221,issues,issues,issues,issues,issues,STEEL DYNAMICS INC,110001237867.0,issues,issues,issues,issues,issues,issues,issues,issues,issues,issues,issues,issues,issues,left_only
3567WCRPNT226TH,CARPENTER TECHNOLOGY CORP,332111,issues,issues,issues,issues,issues,CARPENTER TECHNOLOGY CORP,110055620957.0,issues,issues,issues,issues,issues,issues,issues,issues,issues,issues,issues,issues,issues,left_only
94565SSPSCPOBOX,USS-UPI LLC,331221,issues,issues,issues,issues,issues,US STEEL CORP,110000483450.0,issues,issues,issues,issues,issues,issues,issues,issues,issues,issues,issues,issues,issues,left_only
47371TLDYNELAFA,PORTLAND FORGE,332111,issues,issues,issues,issues,issues,WYNNCHURCH CAPITAL,110040916774.0,issues,issues,issues,issues,issues,issues,issues,issues,issues,issues,issues,issues,issues,left_only
38305FLRDSUSHIG,GERDAU LONG STEEL NORTH AMERICA - JACKSON MILL,331110,issues,issues,issues,issues,issues,GERDAU GROUP,110007846359.0,issues,issues,issues,issues,issues,issues,issues,issues,issues,issues,issues,issues,issues,left_only
85283CPTLC5857S,ME GLOBAL INC.,331513,issues,issues,issues,issues,issues,ME GLOBAL INC,110000471551.0,issues,issues,issues,issues,issues,issues,issues,issues,issues,issues,issues,issues,issues,left_only
47240MTCHS1811N,STEEL TECHNOLOGIES LLC,331221,issues,issues,issues,issues,issues,NUMIT LLC,110043590619.0,issues,issues,issues,issues,issues,issues,issues,issues,issues,issues,issues,issues,issues,left_only
46526STLLT1201E,KENNAMETAL STELLITE LP,331492,issues,issues,issues,issues,issues,KENNAMETAL INC,110000399159.0,issues,issues,issues,issues,issues,issues,issues,issues,issues,issues,issues,issues,issues,left_only
1506WBRBRN11BRA,BRAEBURN ALLOY STEEL ROLLING MILL FAC,331221,331110.0,issues,issues,issues,issues,CCX INC,110001045262.0,issues,issues,issues,issues,issues,issues,issues,issues,issues,issues,issues,issues,issues,left_only
70373NRTHM800IN,NORTH AMERICAN SHIPBUILDING LLC-LAROSE SHIPYARD,336611,issues,issues,issues,issues,issues,issues,110000846648.0,issues,issues,issues,issues,issues,issues,issues,issues,issues,issues,issues,issues,issues,left_only
43701RMCDV1724L,CLEVELAND-CLIFFS STEEL CORP - ZANESVI LLE WORKS,331110,issues,issues,issues,issues,issues,CLEVELAND-CLIFFS INC.,110000384487.0,issues,issues,issues,issues,issues,issues,issues,issues,issues,issues,issues,issues,issues,left_only
75604STHWS600FO,SOUTHWEST STEEL CASTING CO LLC,331513,issues,issues,issues,issues,issues,GREENBRIER COS,110005058098.0,issues,issues,issues,issues,issues,issues,issues,issues,issues,issues,issues,issues,issues,left_only
44103SFCND970E6,SIFCO FORGE GROUP INC.,332111,332112.0,issues,issues,issues,issues,SIFCO INDUSTRIES INC,110000386546.0,issues,issues,issues,issues,issues,issues,issues,issues,issues,issues,issues,issues,issues,left_only
17016PRLND64REX,PRL INDUSTRIES INC,331513,issues,issues,issues,issues,issues,PRL INC,110000917410.0,issues,issues,issues,issues,issues,issues,issues,issues,issues,issues,issues,issues,issues,left_only
18071HRSHDDELAW,BEFESA ZINC US INC.,331492,issues,issues,issues,issues,issues,BEFESA HOLDING US INC.,110000603749.0,issues,issues,issues,issues,issues,issues,issues,issues,issues,issues,issues,issues,issues,left_only
55121GPHRS3385S,GOPHER RESOURCE LLC,331492,issues,issues,issues,issues,issues,issues,110064107461.0,issues,issues,issues,issues,issues,issues,issues,issues,issues,issues,issues,issues,issues,left_only
24656JWLLCHWY46,JEWELL COKE CO LP,331110,issues,issues,issues,issues,issues,SUNCOKE ENERGY INC,110060335524.0,issues,issues,issues,issues,issues,issues,issues,issues,issues,issues,issues,issues,issues,left_only
36701GLBMTOLDMO,GLOBE METALLURGICAL,331110,issues,issues,issues,issues,issues,GLOBE SPECIALTY METALS INC,110000369609.0,issues,issues,issues,issues,issues,issues,issues,issues,issues,issues,issues,issues,issues,left_only
52632KKKST240RO,KEOKUK STEEL CASTINGS,331513,issues,issues,issues,issues,issues,MILLS GROUP LLC,110000415453.0,issues,issues,issues,issues,issues,issues,issues,issues,issues,issues,issues,issues,issues,left_only
50613VKNGP711VI,VIKING PUMP INC. - SOUTH MAIN FACILITY,331513,issues,issues,issues,issues,issues,IDEX CORP,110013313985.0,issues,issues,issues,issues,issues,issues,issues,issues,issues,issues,issues,issues,issues,left_only
60411CHCGH211EM,CHICAGO HEIGHTS STEEL,331221,issues,issues,issues,issues,issues,CHICAGO HEIGHTS STEEL,110000432292.0,issues,issues,issues,issues,issues,issues,issues,issues,issues,issues,issues,issues,issues,left_only
02184WLLST205WO,WOLLASTON ALLOYS,331513,issues,issues,issues,issues,issues,CONSOLIDATED PRECISION PRODUCTS CORP,110000311289.0,issues,issues,issues,issues,issues,issues,issues,issues,issues,issues,issues,issues,issues,left_only
15061BVRVL1899B,BEAVER VALLEY ALLOY FOUNDRY CO,331513,issues,issues,issues,issues,issues,issues,110012700069.0,issues,issues,issues,issues,issues,issues,issues,issues,issues,issues,issues,issues,issues,left_only
15935FRSTMRTE60,NORTH AMERICAN HOGANAS,331110,issues,issues,issues,issues,issues,NORTH AMERICAN HOGANAS INC,110000330650.0,issues,issues,issues,issues,issues,issues,issues,issues,issues,issues,issues,issues,issues,left_only
3740WSTLWR6RIVE,STEEL WAREHOUSE OF CHATTANOOGA,331221,332811.0,423510.0,332313.0,332322.0,issues,STEEL WAREHOUSE CO LLC,110043694204.0,issues,issues,issues,issues,issues,issues,issues,issues,issues,issues,issues,issues,issues,left_only
92138NTNLSHARBO,GENERAL DYNAMICS (NASSCO),336611,issues,issues,issues,issues,issues,GENERAL DYNAMICS CORP,110014337413.0,issues,issues,issues,issues,issues,issues,issues,issues,issues,issues,issues,issues,issues,left_only
78520KPPLM2HWY4,KEPPEL AMFELS INC.,336611,issues,issues,issues,issues,issues,FELS OFFSHORE PTE LTD,110018858324.0,issues,issues,issues,issues,issues,issues,issues,issues,issues,issues,issues,issues,issues,left_only
35806TLDYN7300H,KENNAMETAL INC DBA KENNAMETAL FIRTH STERLING,331492,issues,issues,issues,issues,issues,KENNAMETAL INC,110056958118.0,issues,issues,issues,issues,issues,issues,issues,issues,issues,issues,issues,issues,issues,left_only
4470WRMTTN1935W,RMI TITANIUM CO LLC,331492,issues,issues,issues,issues,issues,HOWMET AEROSPACE INC,110069312265.0,issues,issues,issues,issues,issues,issues,issues,issues,issues,issues,issues,issues,issues,left_only
92337FCFCF1641E,PACIFIC FORGE INC.,332111,issues,issues,issues,issues,issues,AVIS INDUSTRIAL CORP,110002414325.0,issues,issues,issues,issues,issues,issues,issues,issues,issues,issues,issues,issues,issues,left_only
40324LSVLL596TR,AICHI FORGE USA INC,332111,issues,issues,issues,issues,issues,issues,110000378813.0,issues,issues,issues,issues,issues,issues,issues,issues,issues,issues,issues,issues,issues,left_only
37406SGNLL3440L,ALLIED METAL CO,331492,issues,issues,issues,issues,issues,ALLIED METAL CO,110000371874.0,issues,issues,issues,issues,issues,issues,issues,issues,issues,issues,issues,issues,issues,left_only
53154NCRCL72S6T,NUCOR COLD FINISH WISCONSIN INC,331221,issues,issues,issues,issues,issues,NUCOR CORP,110022523376.0,issues,issues,issues,issues,issues,issues,issues,issues,issues,issues,issues,issues,issues,left_only
90280SHLTZ5321F,SHULTZ STEEL CO,332111,332112.0,issues,issues,issues,issues,BERKSHIRE HATHAWAY INC,110000474987.0,issues,issues,issues,issues,issues,issues,issues,issues,issues,issues,issues,issues,issues,left_only
75160TJSRS105TE,CONECSUS LLC,331492,issues,issues,issues,issues,issues,CONECSUS LLC,110034662336.0,issues,issues,issues,issues,issues,issues,issues,issues,issues,issues,issues,issues,issues,left_only
3012WSKYLN19DEN,SKYLINE STEEL LLC-CARTERSVILLE,331221,issues,issues,issues,issues,issues,NUCOR CORP,110060259367.0,issues,issues,issues,issues,issues,issues,issues,issues,issues,issues,issues,issues,issues,left_only
97203RGNST14400,EVRAZ PORTLAND,331110,issues,issues,issues,issues,issues,EVRAZ INC NA,110027376284.0,issues,issues,issues,issues,issues,issues,issues,issues,issues,issues,issues,issues,issues,left_only
53188WSCNS905EA,METALTEK INTERNATIONAL-WISCO NSIN CENTRIFUGAL DIV,331513,331529.0,issues,issues,issues,issues,METALTEK INTERNATIONAL,110000418129.0,issues,issues,issues,issues,issues,issues,issues,issues,issues,issues,issues,issues,issues,left_only
21222VLCNM2415G,AMG RESOURCES CORP,331492,issues,issues,issues,issues,issues,AMG RESOURCES CORP,110000339848.0,issues,issues,issues,issues,issues,issues,issues,issues,issues,issues,issues,issues,issues,left_only
50613VKNGL7THBL,VIKING PUMP INC-ALLOYS FOUNDRY,331513,issues,issues,issues,issues,issues,IDEX CORP,110000593581.0,issues,issues,issues,issues,issues,issues,issues,issues,issues,issues,issues,issues,issues,left_only
19464NPCNCQUEEN,TITAN INTERNATIONAL INC,331492,issues,issues,issues,issues,issues,issues,110000337948.0,issues,issues,issues,issues,issues,issues,issues,issues,issues,issues,issues,issues,issues,left_only
77539PNNZL4401P,DICKINSON PLANT,324199,issues,issues,issues,issues,issues,CALUMET DICKINSON REFINING LLC,110042005503.0,issues,issues,issues,issues,issues,issues,issues,issues,issues,issues,issues,issues,issues,left_only
53208BDGRL5120W,BADGER ALLOYS,331513,issues,issues,issues,issues,issues,issues,110000418478.0,issues,issues,issues,issues,issues,issues,issues,issues,issues,issues,issues,issues,issues,left_only
60081SCTFR8001W,SCOT FORGE CO,332111,issues,issues,issues,issues,issues,issues,110000430052.0,issues,issues,issues,issues,issues,issues,issues,issues,issues,issues,issues,issues,issues,left_only
90748RCCQC1175C,TESORO WILMINGTON CALCINER,324199,issues,issues,issues,issues,issues,MARATHON PETROLEUM CORP,110001138956.0,issues,issues,issues,issues,issues,issues,issues,issues,issues,issues,issues,issues,issues,left_only
14214WLLMS2978M,MATERION ELECTRONICS MATERIALS,331492,issues,issues,issues,issues,issues,MATERION CORP,110000327067.0,issues,issues,issues,issues,issues,issues,issues,issues,issues,issues,issues,issues,issues,left_only
15618NTNLRRAILR,AKERS NATIONAL ROLL,331513,issues,issues,issues,issues,issues,AKERS INTERNATIONAL,110000583226.0,issues,issues,issues,issues,issues,issues,issues,issues,issues,issues,issues,issues,issues,left_only
39568NGLLSLITTO,INGALLS SHIPBUILDING PASCAGOULA OPERATIONS,336611,issues,issues,issues,issues,issues,HUNTINGTON INGALLS INDUSTRIES INC,110000590888.0,issues,issues,issues,issues,issues,issues,issues,issues,issues,issues,issues,issues,issues,left_only
48239FRGNG126BE,STEEL INDUSTRIES PLANT 1,332111,issues,issues,issues,issues,issues,AFGLOBAL CORP,110025317084.0,issues,issues,issues,issues,issues,issues,issues,issues,issues,issues,issues,issues,issues,left_only
48371MSPND45WAK,MSP INDUSTRIES,332111,issues,issues,issues,issues,issues,AMERICAN AXLE & MANUFACTURING INC,110025333360.0,issues,issues,issues,issues,issues,issues,issues,issues,issues,issues,issues,issues,issues,left_only
44482HSTRF4MAHN,OHIO STAR FORGE CO,332111,issues,issues,issues,issues,issues,DAIDO STEEL CO LTD,110064545880.0,issues,issues,issues,issues,issues,issues,issues,issues,issues,issues,issues,issues,issues,left_only
76504CNTRF3320P,CENTRIFUGAL CASTINGS,331513,issues,issues,issues,issues,issues,issues,110006531949.0,issues,issues,issues,issues,issues,issues,issues,issues,issues,issues,issues,issues,issues,left_only
71753SMSTLKERLI,CMC STEEL FABRICATORS INC. DBA CMC STEEL ARKANSAS,331110,issues,issues,issues,issues,issues,COMMERCIAL METALS CO,110000451163.0,issues,issues,issues,issues,issues,issues,issues,issues,issues,issues,issues,issues,issues,left_only
49442GLLLY5142E,EAGLE ALLOY INC.,331513,issues,issues,issues,issues,issues,issues,110009027793.0,issues,issues,issues,issues,issues,issues,issues,issues,issues,issues,issues,issues,issues,left_only
4903WMPCTF551JA,IMPACT FORGE GROUP PRECISION PLANT,332111,issues,issues,issues,issues,issues,AMERICAN AXLE & MANUFACTURING INC,110060258643.0,issues,issues,issues,issues,issues,issues,issues,issues,issues,issues,issues,issues,issues,left_only
55432MNNCS200NE,MINNCAST INC,331513,issues,issues,issues,issues,issues,issues,110000426030.0,issues,issues,issues,issues,issues,issues,issues,issues,issues,issues,issues,issues,issues,left_only
46312NDNHR3210W,INDIANA HARBOR COKE CO LP,324199,issues,issues,issues,issues,issues,SUNCOKE ENERGY INC,110070149427.0,issues,issues,issues,issues,issues,issues,issues,issues,issues,issues,issues,issues,issues,left_only
74653TNKWF510SO,TONKAWA FOUNDRY INC,331513,issues,issues,issues,issues,issues,issues,110000743651.0,issues,issues,issues,issues,issues,issues,issues,issues,issues,issues,issues,issues,issues,left_only
74117HLTTH10055,H&L TOOTH,332111,issues,issues,issues,issues,issues,issues,110000455196.0,issues,issues,issues,issues,issues,issues,issues,issues,issues,issues,issues,issues,issues,left_only
44641JLSPC1500W,JEWEL ACQUISITION LLC-LOUISVILLE,331110,issues,issues,issues,issues,issues,ALLEGHENY TECHNOLOGIES INC,110042023495.0,issues,issues,issues,issues,issues,issues,issues,issues,issues,issues,issues,issues,issues,left_only
41105RMCSHUSROU,AK STEEL CORP,331110,issues,issues,issues,issues,issues,AK STEEL CORP,110067041203.0,issues,issues,issues,issues,issues,issues,issues,issues,issues,issues,issues,issues,issues,left_only
98625BHPCT222WE,STEELSCAPE,331221,issues,issues,issues,issues,issues,NS BLUESCOPE HOLDINGS USA LLC,110000490790.0,issues,issues,issues,issues,issues,issues,issues,issues,issues,issues,issues,issues,issues,left_only
48084CLDFR690WE,TROY MANUFACTURING FACILITY,332111,332811.0,issues,issues,issues,issues,AMERICAN AXLE & MANUFACTURING INC,110000405197.0,issues,issues,issues,issues,issues,issues,issues,issues,issues,issues,issues,issues,issues,left_only
4445WNRTHJ258SU,NORTH JACKSON SPECIALTY STEEL LLC.,331221,issues,issues,issues,issues,issues,UNIVERSAL STAINLESS & ALLOY PRODUCTS INC,110046278639.0,issues,issues,issues,issues,issues,issues,issues,issues,issues,issues,issues,issues,issues,left_only
60473NVRSL16655,NIAGARA LASALLE CORP - SOUTH HOLLAND,331221,issues,issues,issues,issues,issues,SPECIALTY STEEL WORKS INC,110001811996.0,issues,issues,issues,issues,issues,issues,issues,issues,issues,issues,issues,issues,issues,left_only
7837WVSTLP28KAY,VOESTALPINE TEXAS LLC,331110,issues,issues,issues,issues,issues,issues,110070070507.0,issues,issues,issues,issues,issues,issues,issues,issues,issues,issues,issues,issues,issues,left_only
16354NVRSL121CA,UNIVERSAL STAINLESS & ALLOY PRODUCTS INC,331221,issues,issues,issues,issues,issues,UNIVERSAL STAINLESS & ALLOY PRODUCTS INC,110000331445.0,issues,issues,issues,issues,issues,issues,issues,issues,issues,issues,issues,issues,issues,left_only
70052GRMRC114JE,RAIN CII CARBON LLC,324199,issues,issues,issues,issues,issues,RAIN CII CARBON LLC,110018914781.0,issues,issues,issues,issues,issues,issues,issues,issues,issues,issues,issues,issues,issues,left_only
28111TLDYN2020A,ATI SPECIALTY MATERIALS - MONROE PLANT,331492,issues,issues,issues,issues,issues,ALLEGHENY TECHNOLOGIES INC,110000348589.0,issues,issues,issues,issues,issues,issues,issues,issues,issues,issues,issues,issues,issues,left_only
70381CNRDS29DUH,CONRAD SHIPYARD LLC (DEEPWATER YARD),336611,issues,issues,issues,issues,issues,CONRAD INDUSTRIES INC,110025317280.0,issues,issues,issues,issues,issues,issues,issues,issues,issues,issues,issues,issues,issues,left_only
16137MRCRFEMARK,MERCER FORGE CORP,332111,issues,issues,issues,issues,issues,MILWAUKEE FORGE LLC,110041596190.0,issues,issues,issues,issues,issues,issues,issues,issues,issues,issues,issues,issues,issues,left_only
42420STRNL5800R,EASTERN ALLOYS OF KENTUCKY,331492,issues,issues,issues,issues,issues,EASTERN ALLOYS INC,110006752610.0,issues,issues,issues,issues,issues,issues,issues,issues,issues,issues,issues,issues,issues,left_only
13209CRCBLSTATE,CRUCIBLE INDUSTRIES LLC.,331110,issues,issues,issues,issues,issues,CRUCIBLE INDUSTRIES LLC,110000325611.0,issues,issues,issues,issues,issues,issues,issues,issues,issues,issues,issues,issues,issues,left_only
48084SLZRP1972M,OERLIKON METCO (US) TROY/OERLIKON METCO (US) TROY,331492,issues,issues,issues,issues,issues,OERLIKON METCO (US) INC,110009600636.0,issues,issues,issues,issues,issues,issues,issues,issues,issues,issues,issues,issues,issues,left_only
91745QMTCN720SO,QUEMETCO INC,331492,issues,issues,issues,issues,issues,ECO-BAT AMERICA LLC,110000609707.0,issues,issues,issues,issues,issues,issues,issues,issues,issues,issues,issues,issues,issues,left_only
15748PRMMT11INN,PRIME METALS ACQUISITIONS LLC,331110,issues,issues,issues,issues,issues,issues,110033005021.0,issues,issues,issues,issues,issues,issues,issues,issues,issues,issues,issues,issues,issues,left_only
26037KPPRSKOPPE,KOPPERS FOLLANSBEE TAR PLANT,324199,325110.0,issues,issues,issues,issues,KOPPERS INC,110000586027.0,issues,issues,issues,issues,issues,issues,issues,issues,issues,issues,issues,issues,issues,left_only
60638CMMRC5757W,COMMERCIAL FORGED PRODUCTS,332111,issues,issues,issues,issues,issues,WOZNIAK INDUSTRIES INC,110000435271.0,issues,issues,issues,issues,issues,issues,issues,issues,issues,issues,issues,issues,issues,left_only
73753GRTLKRTE1B,OXBOW CALCINING LLC,324199,issues,issues,issues,issues,issues,OXBOW CARBON & MINERALS HOLDINGS INC,110007385374.0,issues,issues,issues,issues,issues,issues,issues,issues,issues,issues,issues,issues,issues,left_only
43812CSHCTSTATE,CLEVELAND-CLIFFS STEEL CORP,331110,issues,issues,issues,issues,issues,CLEVELAND-CLIFFS INC.,110000384673.0,issues,issues,issues,issues,issues,issues,issues,issues,issues,issues,issues,issues,issues,left_only
70605LKCHR3943G,REYNOLDS METALS CO LLC,324199,issues,issues,issues,issues,issues,ALCOA CORP,110000449499.0,issues,issues,issues,issues,issues,issues,issues,issues,issues,issues,issues,issues,issues,left_only
02852GNRLDQUONS,GENERAL DYNAMICS ELECTRIC BOAT CORP,336611,issues,issues,issues,issues,issues,GENERAL DYNAMICS CORP,110000581264.0,issues,issues,issues,issues,issues,issues,issues,issues,issues,issues,issues,issues,issues,left_only
82902MNSNTQUEAL,P4 PRODUCTION LLC,324199,issues,issues,issues,issues,issues,BAYER US HOLDING LP,110000859296.0,issues,issues,issues,issues,issues,issues,issues,issues,issues,issues,issues,issues,issues,left_only
48211RCLLY1891T,ARCO ALLOYS CORP,331492,issues,issues,issues,issues,issues,issues,110000406677.0,issues,issues,issues,issues,issues,issues,issues,issues,issues,issues,issues,issues,issues,left_only
28732BLRDG180MI,BLUE RIDGE METALS CORP,331221,issues,issues,issues,issues,issues,issues,110018723559.0,issues,issues,issues,issues,issues,issues,issues,issues,issues,issues,issues,issues,issues,left_only
39503GLFSH12351,GULF SHIP LLC,336611,issues,issues,issues,issues,issues,issues,110027227551.0,issues,issues,issues,issues,issues,issues,issues,issues,issues,issues,issues,issues,issues,left_only
4312WTFTCH221ST,TFO TECH CO LTD,332111,issues,issues,issues,issues,issues,issues,110004712240.0,issues,issues,issues,issues,issues,issues,issues,issues,issues,issues,issues,issues,issues,left_only
47987KRPPG12918,THYSSENKRUPP CRANKSHAFT LLC,332111,issues,issues,issues,issues,issues,THYSSENKRUPP FORGED TECHNOLOGIES N.A.,110001237279.0,issues,issues,issues,issues,issues,issues,issues,issues,issues,issues,issues,issues,issues,left_only
6063WCRNLL6666W,CORNELL FORGE CO,332111,issues,issues,issues,issues,issues,issues,110001687700.0,issues,issues,issues,issues,issues,issues,issues,issues,issues,issues,issues,issues,issues,left_only
78156STRCTPOBOX,STRUCTURAL METALS INC,331110,issues,issues,issues,issues,issues,COMMERCIAL METALS CO,110000599745.0,issues,issues,issues,issues,issues,issues,issues,issues,issues,issues,issues,issues,issues,left_only
48707BYCST400WE,BAY CAST - WEBSTER STREET PLANT,331513,issues,issues,issues,issues,issues,issues,110000407872.0,issues,issues,issues,issues,issues,issues,issues,issues,issues,issues,issues,issues,issues,left_only
35576STLDS1329H,STEEL DUST RECYCLING LLC,331492,issues,issues,issues,issues,issues,issues,110032634102.0,issues,issues,issues,issues,issues,issues,issues,issues,issues,issues,issues,issues,issues,left_only
23523CLNNS400EI,COLONNA'S SHIPYARD INC,336611,issues,issues,issues,issues,issues,issues,110000342193.0,issues,issues,issues,issues,issues,issues,issues,issues,issues,issues,issues,issues,issues,left_only
16154GRNVLRD2BO,GREENVILLE METALS INC,331492,issues,issues,issues,issues,issues,BERKSHIRE HATHAWAY INC,110000331212.0,issues,issues,issues,issues,issues,issues,issues,issues,issues,issues,issues,issues,issues,left_only
91702CLFRN750NV,CALIFORNIA AMFORGE CORP,332111,issues,issues,issues,issues,issues,issues,110000477243.0,issues,issues,issues,issues,issues,issues,issues,issues,issues,issues,issues,issues,issues,left_only
1902WTLXMT15PHY,TELEX METALS LLC,331492,423930.0,issues,issues,issues,issues,KYMERA INTERNATIONAL LLC,110046246923.0,issues,issues,issues,issues,issues,issues,issues,issues,issues,issues,issues,issues,issues,left_only
70374BLLNGLAHWY,BOLLINGER SHIPYARDS LOCKPORT LLC,336611,issues,issues,issues,issues,issues,BOLLINGER SHIPYARDS LLC,110000606559.0,issues,issues,issues,issues,issues,issues,issues,issues,issues,issues,issues,issues,issues,left_only
39345SCCRPHIGHW,ESCO GROUP LLC,331513,issues,issues,issues,issues,issues,issues,110056962425.0,issues,issues,issues,issues,issues,issues,issues,issues,issues,issues,issues,issues,issues,left_only
44125GRFLD1225B,MAGRETECH LLC,331492,issues,issues,issues,issues,issues,MAGRETECH LLC,110038166908.0,issues,issues,issues,issues,issues,issues,issues,issues,issues,issues,issues,issues,issues,left_only
07105HRCSP65EUC,HERAEUS PRECIOUS METALS MANAGEMENT LLC,331492,issues,issues,issues,issues,issues,HERAEUS,110000763237.0,issues,issues,issues,issues,issues,issues,issues,issues,issues,issues,issues,issues,issues,left_only
46368MDWSTROUTE,US STEEL CORP MIDWEST PLANT,331221,332813.0,issues,issues,issues,issues,US STEEL CORP,110056963282.0,issues,issues,issues,issues,issues,issues,issues,issues,issues,issues,issues,issues,issues,left_only
43952WHLNGMCLIS,JSW STEEL USA OHIO INC.,331110,issues,issues,issues,issues,issues,issues,110000591592.0,issues,issues,issues,issues,issues,issues,issues,issues,issues,issues,issues,issues,issues,left_only
4230WVLRLL12ALS,VALOR LLC,324199,issues,issues,issues,issues,issues,VALOR LLC,110070238790.0,issues,issues,issues,issues,issues,issues,issues,issues,issues,issues,issues,issues,issues,left_only
46312CRNCX321WA,HARSCO METALS  - ECR,331110,issues,issues,issues,issues,issues,HARSCO CORP,110066942535.0,issues,issues,issues,issues,issues,issues,issues,issues,issues,issues,issues,issues,issues,left_only
61641KYSTN7000S,KEYSTONE STEEL & WIRE CO D/B/A LIBERTY STEEL & WIRE PEORIA,331110,332618.0,331222.0,issues,issues,issues,KEYSTONE CONSOLIDATED INDUSTRIES INC,110000612212.0,issues,issues,issues,issues,issues,issues,issues,issues,issues,issues,issues,issues,issues,left_only
04530BTHRN700WA,BATH IRON WORKS,336611,issues,issues,issues,issues,issues,GENERAL DYNAMICS CORP,110000314605.0,issues,issues,issues,issues,issues,issues,issues,issues,issues,issues,issues,issues,issues,left_only
60131NLSNS9400W,NELSEN STEEL & WIRE LP,331221,issues,issues,issues,issues,issues,issues,110000431113.0,issues,issues,issues,issues,issues,issues,issues,issues,issues,issues,issues,issues,issues,left_only
16329NTNLF1FRON,ELLWOOD NATIONAL FORGE CO,332111,332710.0,issues,issues,issues,issues,ELLWOOD GROUP INC,110000331374.0,issues,issues,issues,issues,issues,issues,issues,issues,issues,issues,issues,issues,issues,left_only
70079CCRBN81PRS,RAIN CII CARBON LLC,324199,issues,issues,issues,issues,issues,RAIN CII CARBON LLC,110022810449.0,issues,issues,issues,issues,issues,issues,issues,issues,issues,issues,issues,issues,issues,left_only
29405DTYNS1670D,DETYENS SHIPYARD,336611,issues,issues,issues,issues,issues,DETYENS SHIPYARD,110001139857.0,issues,issues,issues,issues,issues,issues,issues,issues,issues,issues,issues,issues,issues,left_only
08872NWJRSNORTH,CMC STEEL NEW JERSEY,331110,issues,issues,issues,issues,issues,COMMERCIAL METALS CO,110040971491.0,issues,issues,issues,issues,issues,issues,issues,issues,issues,issues,issues,issues,issues,left_only
15690SSVND130LI,ATI FLAT ROLLED PRODUCTS HOLDINGS LLC,331110,issues,issues,issues,issues,issues,ALLEGHENY TECHNOLOGIES INC,110014402306.0,issues,issues,issues,issues,issues,issues,issues,issues,issues,issues,issues,issues,issues,left_only
78362KWTFF244KI,KIEWIT OFFSHORE SERVICES LTD,336611,issues,issues,issues,issues,issues,PETER KIEWIT & SON'S,110022524106.0,issues,issues,issues,issues,issues,issues,issues,issues,issues,issues,issues,issues,issues,left_only
60609RNMNT329WP,JERNBERG INDUSTRIES INC PERSHING,332111,issues,issues,issues,issues,issues,JERNBERG INDUSTRIES LLC,110012153338.0,issues,issues,issues,issues,issues,issues,issues,issues,issues,issues,issues,issues,issues,left_only
65440BCKSMHIGHW,BUICK RESOURCE RECYCLING FACILITY LLC,331492,issues,issues,issues,issues,issues,THE RENCO GROUP INC,110017990478.0,issues,issues,issues,issues,issues,issues,issues,issues,issues,issues,issues,issues,issues,left_only
01606KMTKX40ROC,KOMTEK FORGE LLC,332111,331512.0,332112.0,issues,issues,issues,KT AQUISITIONS LLC,110000309274.0,issues,issues,issues,issues,issues,issues,issues,issues,issues,issues,issues,issues,issues,left_only
77095CMRNF10825,WYMAN-GORDON FORGINGS LP,332111,331491.0,332112.0,331210.0,issues,issues,BERKSHIRE HATHAWAY INC,110000462115.0,issues,issues,issues,issues,issues,issues,issues,issues,issues,issues,issues,issues,issues,left_only
43725SHLDLSTATE,AMG VANADIUM LLC,331110,issues,issues,issues,issues,issues,AMG VANADIUM LLC,110000591583.0,issues,issues,issues,issues,issues,issues,issues,issues,issues,issues,issues,issues,issues,left_only
4837WXFFRD23XCE,OXFORD FORGE INC,332111,issues,issues,issues,issues,issues,AMERICAN AXLE & MANUFACTURING INC,110037497875.0,issues,issues,issues,issues,issues,issues,issues,issues,issues,issues,issues,issues,issues,left_only
16003RMCDVROUTE,CLEVELAND-CLIFFS STEEL CORP /BUTLER WORKS,331110,issues,issues,issues,issues,issues,CLEVELAND-CLIFFS INC,110038167113.0,issues,issues,issues,issues,issues,issues,issues,issues,issues,issues,issues,issues,issues,left_only
53186WKSHF1300L,WAUKESHA FOUNDRY INC,331513,issues,issues,issues,issues,issues,UNITED STARS,110000418058.0,issues,issues,issues,issues,issues,issues,issues,issues,issues,issues,issues,issues,issues,left_only
7752WJSWST52EMC,JSW STEEL,331110,issues,issues,issues,issues,issues,issues,110000735839.0,issues,issues,issues,issues,issues,issues,issues,issues,issues,issues,issues,issues,issues,left_only
16335MDVLLBALDW,MEADVILLE FORGING CO,332111,issues,issues,issues,issues,issues,KELLER GROUP INC,110010989181.0,issues,issues,issues,issues,issues,issues,issues,issues,issues,issues,issues,issues,issues,left_only
99901SCSTG1300S,U.S. COAST GUARD BASE KETCHIKAN,336611,332999.0,issues,issues,issues,issues,US DEPARTMENT OF HOMELAND SECURITY,110000885873.0,issues,issues,issues,issues,issues,issues,issues,issues,issues,issues,issues,issues,issues,left_only
33605TMPSH1130M,TAMPA SHIP LLC,336611,issues,issues,issues,issues,issues,issues,110005590235.0,issues,issues,issues,issues,issues,issues,issues,issues,issues,issues,issues,issues,issues,left_only
37040NRTHM480AR,PURITY ZINC METALS LLC,331492,issues,issues,issues,issues,issues,issues,110015783339.0,issues,issues,issues,issues,issues,issues,issues,issues,issues,issues,issues,issues,issues,left_only
9072WPRSSF77JAC,PRESS FORGE CO,332111,issues,issues,issues,issues,issues,BERKSHIRE HATHAWAY INC,110002421102.0,issues,issues,issues,issues,issues,issues,issues,issues,issues,issues,issues,issues,issues,left_only
14305SKWLL3801H,GLOBE METALLURGICAL INC,331110,issues,issues,issues,issues,issues,GLOBE SPECIALTY METALS INC,110001578221.0,issues,issues,issues,issues,issues,issues,issues,issues,issues,issues,issues,issues,issues,left_only
46628TNCRP2930F,EATON HD TRANSMISSION FORGE PLANT,332111,issues,issues,issues,issues,issues,EATON CORP,110000399961.0,issues,issues,issues,issues,issues,issues,issues,issues,issues,issues,issues,issues,issues,left_only
16512RCKCRFOOTO,ERIE COKE CORP,324199,issues,issues,issues,issues,issues,issues,110043970441.0,issues,issues,issues,issues,issues,issues,issues,issues,issues,issues,issues,issues,issues,left_only
75229GHHNS2108J,HENSLEY INDUSTRIES INC,331513,issues,issues,issues,issues,issues,KOMATSU AMERICA CORP,110000457470.0,issues,issues,issues,issues,issues,issues,issues,issues,issues,issues,issues,issues,issues,left_only
97203CLMBS10425,COLUMBIA STEEL CASTING CO INC,331513,issues,issues,issues,issues,issues,issues,110000487152.0,issues,issues,issues,issues,issues,issues,issues,issues,issues,issues,issues,issues,issues,left_only
53219NTDRP1903S,UNIT DROP FORGE CO. INC.,332111,issues,issues,issues,issues,issues,issues,110000418940.0,issues,issues,issues,issues,issues,issues,issues,issues,issues,issues,issues,issues,issues,left_only
29729VSTPL3043C,OUTOKUMPU STAINLESS BAR LLC,331221,issues,issues,issues,issues,issues,OUTOKUMPU STAINLESS INC,110015681109.0,issues,issues,issues,issues,issues,issues,issues,issues,issues,issues,issues,issues,issues,left_only
15025RSTCH400ST,KOPPERS INC CLAIRTON TAR PLANT,324199,issues,issues,issues,issues,issues,KOPPERS INC,110000328823.0,issues,issues,issues,issues,issues,issues,issues,issues,issues,issues,issues,issues,issues,left_only
39581HLTRM5110W,VT HALTER MARINE PASCAGOULA OPERATIONS,336611,issues,issues,issues,issues,issues,issues,110064135056.0,issues,issues,issues,issues,issues,issues,issues,issues,issues,issues,issues,issues,issues,left_only
14048DNKRK88HOW,DUNKIRK SPECIALTY STEEL LLC,331221,issues,issues,issues,issues,issues,UNIVERSAL STAINLESS & ALLOY PRODUCTS INC,110016752272.0,issues,issues,issues,issues,issues,issues,issues,issues,issues,issues,issues,issues,issues,left_only
15301JSSPS500GR,JESSOP STEEL LLC,331110,issues,issues,issues,issues,issues,ALLEGHENY TECHNOLOGIES INC,110000329797.0,issues,issues,issues,issues,issues,issues,issues,issues,issues,issues,issues,issues,issues,left_only
46725STLDY2601C,STEEL DYNAMICS INC STRUCTURAL & RAIL DIV,331110,issues,issues,issues,issues,issues,STEEL DYNAMICS INC,110009569216.0,issues,issues,issues,issues,issues,issues,issues,issues,issues,issues,issues,issues,issues,left_only
43515WRTHN6303C,WORTHINGTON INDUSTRIES,331221,332812.0,issues,issues,issues,issues,WORTHINGTON INDUSTRIES INC,110000591538.0,issues,issues,issues,issues,issues,issues,issues,issues,issues,issues,issues,issues,issues,left_only
9822WDKTCR824TH,DAKOTA CREEK INDUSTRIES INC.,336611,issues,issues,issues,issues,issues,issues,110054906081.0,issues,issues,issues,issues,issues,issues,issues,issues,issues,issues,issues,issues,issues,left_only
46801SLTRS2400T,VALBRUNA SLATER STAINLESS INC,331221,issues,issues,issues,issues,issues,VALBRUNA STAINLESS INC,110000400851.0,issues,issues,issues,issues,issues,issues,issues,issues,issues,issues,issues,issues,issues,left_only
15902SCMMT101BR,NORTH AMERICAN HOGANAS HIGH ALLOYS LLC,331492,331110.0,issues,issues,issues,issues,NORTH AMERICAN HOGANAS INC,110000330589.0,issues,issues,issues,issues,issues,issues,issues,issues,issues,issues,issues,issues,issues,left_only
54143MRNTTELYST,MARINETTE MARINE CORP,336611,issues,issues,issues,issues,issues,FINCANTIERI MARINE GROUP LLC,110000742723.0,issues,issues,issues,issues,issues,issues,issues,issues,issues,issues,issues,issues,issues,left_only
18255WTHRLCOMME,WEATHERLY CASTING & MACHINE CO,331513,issues,issues,issues,issues,issues,issues,110010990419.0,issues,issues,issues,issues,issues,issues,issues,issues,issues,issues,issues,issues,issues,left_only
49507STLTC1251P,STEELTECH LTD.,331513,issues,issues,issues,issues,issues,issues,110000411581.0,issues,issues,issues,issues,issues,issues,issues,issues,issues,issues,issues,issues,issues,left_only
47362VSTNCSTRD3,NEW CASTLE STAINLESS PLATE LLC,331221,issues,issues,issues,issues,issues,NEW CASTLE STAINLESS PLATE LLC,110000402831.0,issues,issues,issues,issues,issues,issues,issues,issues,issues,issues,issues,issues,issues,left_only
02895TCHNC300PA,TECHNIC INC ENGINEERED POWDERS DIV,331492,issues,issues,issues,issues,issues,TECHNIC INC,110000496062.0,issues,issues,issues,issues,issues,issues,issues,issues,issues,issues,issues,issues,issues,left_only
61820CLFFRNORTH,CLIFFORD-JACOBS FORGING CO,332111,issues,issues,issues,issues,issues,IMT,110000438287.0,issues,issues,issues,issues,issues,issues,issues,issues,issues,issues,issues,issues,issues,left_only
97217CSCDG5555N,VIGOR INDUSTRIAL,336611,issues,issues,issues,issues,issues,VIGOR INDUSTRIAL LLC,110057205803.0,issues,issues,issues,issues,issues,issues,issues,issues,issues,issues,issues,issues,issues,left_only
70340MCDRMDEGRA,BOLLINGER MARINE FABRICATORS LLC,336611,issues,issues,issues,issues,issues,BOLLINGER SHIPYARDS LOCKPORT LLC,110000449159.0,issues,issues,issues,issues,issues,issues,issues,issues,issues,issues,issues,issues,issues,left_only
45786GLBMTCOUNT,GLOBE METALLURGICAL INC,331110,issues,issues,issues,issues,issues,GLOBE SPECIALTY METALS INC,110057243040.0,issues,issues,issues,issues,issues,issues,issues,issues,issues,issues,issues,issues,issues,left_only
15650STNDR107GE,LEHIGH SPECIALTY MELTING INC,331110,issues,issues,issues,issues,issues,WHEMCO INC,110000330204.0,issues,issues,issues,issues,issues,issues,issues,issues,issues,issues,issues,issues,issues,left_only
6050WFXVLL138PI,FOX VALLEY FORGE CO,332111,issues,issues,issues,issues,issues,issues,110001684954.0,issues,issues,issues,issues,issues,issues,issues,issues,issues,issues,issues,issues,issues,left_only
1541WBRWNS18PAU,HEARTLAND FABRICATION LLC,336611,issues,issues,issues,issues,issues,issues,110055169446.0,issues,issues,issues,issues,issues,issues,issues,issues,issues,issues,issues,issues,issues,left_only
75979TXSMTHWY69,AMERIFORGE CORP (DBA TEXAS METAL WORKS),332111,issues,issues,issues,issues,issues,AFGLOBAL CORP,110000874475.0,issues,issues,issues,issues,issues,issues,issues,issues,issues,issues,issues,issues,issues,left_only
65708MNTTM101IN,MONETT METALS INC,331513,issues,issues,issues,issues,issues,issues,110000444706.0,issues,issues,issues,issues,issues,issues,issues,issues,issues,issues,issues,issues,issues,left_only
60131SCTFR9384B,SCOT FORGE CO,332111,issues,issues,issues,issues,issues,issues,110000431168.0,issues,issues,issues,issues,issues,issues,issues,issues,issues,issues,issues,issues,issues,left_only
78112VPRCN7124R,VP RACING FUELS INC.,324199,issues,issues,issues,issues,issues,VP RACING FUELS INC,110002465234.0,issues,issues,issues,issues,issues,issues,issues,issues,issues,issues,issues,issues,issues,left_only
17961SHLMT1486A,SHALMET CORP,331221,issues,issues,issues,issues,issues,CARPENTER TECHNOLOGY CORP,110000334610.0,issues,issues,issues,issues,issues,issues,issues,issues,issues,issues,issues,issues,issues,left_only
16101NRTHM710MO,NORTH AMERICAN FORGEMASTERS,332111,issues,issues,issues,issues,issues,ECF HOLDINGS CO (50%) & SCOT FORGE HOLDINGS INC (50%),110001214230.0,issues,issues,issues,issues,issues,issues,issues,issues,issues,issues,issues,issues,issues,left_only
25002LKMMTBOX61,WVA MANUFACTURING LLC,331110,issues,issues,issues,issues,issues,GLOBE SPECIALTY METALS INC,110000585849.0,issues,issues,issues,issues,issues,issues,issues,issues,issues,issues,issues,issues,issues,left_only
7560WNCRST54WES,NUCOR STEEL LONGVIEW LLC,331110,issues,issues,issues,issues,issues,NUCOR CORP,110069443221.0,issues,issues,issues,issues,issues,issues,issues,issues,issues,issues,issues,issues,issues,left_only
4408WMTLLC2368E,METALLIC RESOURCES INC,331492,issues,issues,issues,issues,issues,METALLIC RESOURCES INC,110059498556.0,issues,issues,issues,issues,issues,issues,issues,issues,issues,issues,issues,issues,issues,left_only
19030SSFRLMAILS,US STEEL FAIRLESS HILLS WORKS,331221,issues,issues,issues,issues,issues,US STEEL CORP,110038161921.0,issues,issues,issues,issues,issues,issues,issues,issues,issues,issues,issues,issues,issues,left_only
60619VRSNC1355E,A FINKL & SONS CO DBA FINKL STEEL - CHICAGO,331110,issues,issues,issues,issues,issues,A FINKL & SONS CO,110030735916.0,issues,issues,issues,issues,issues,issues,issues,issues,issues,issues,issues,issues,issues,left_only
14546SBNMT1647W,SABIN METAL CORP,331492,issues,issues,issues,issues,issues,SABIN METAL CORP,110000327753.0,issues,issues,issues,issues,issues,issues,issues,issues,issues,issues,issues,issues,issues,left_only
2811WHRSHD484HI,AMERICAN ZINC PRODUCTS LLC,331492,issues,issues,issues,issues,issues,METAL RECOVERY HOLDINGS LLC,110055619399.0,issues,issues,issues,issues,issues,issues,issues,issues,issues,issues,issues,issues,issues,left_only
44094FSNNC4711T,FUSION INC ALLOY DIV PLANT TWO,331492,issues,issues,issues,issues,issues,issues,110000386270.0,issues,issues,issues,issues,issues,issues,issues,issues,issues,issues,issues,issues,issues,left_only
18016BTHLH701E3,LEHIGH HEAVY FORGE CORP,332111,332710.0,332811.0,issues,issues,issues,WHEMCO INC,110000334709.0,issues,issues,issues,issues,issues,issues,issues,issues,issues,issues,issues,issues,issues,left_only
6252WVNRTR69EKE,VOESTALPINE RAILWAY SYSTEMS NORTRAK LLC,331513,issues,issues,issues,issues,issues,issues,110039018470.0,issues,issues,issues,issues,issues,issues,issues,issues,issues,issues,issues,issues,issues,left_only
7111WBNTLR1BENT,BENTELER STEEL/TUBE MANUFACTURING CORP,331110,issues,issues,issues,issues,issues,issues,110070030796.0,issues,issues,issues,issues,issues,issues,issues,issues,issues,issues,issues,issues,issues,left_only
17066BNNYFRT522,BONNEY FORGE CORP,332111,issues,issues,issues,issues,issues,BONNEY FORGE CORP,110000772520.0,issues,issues,issues,issues,issues,issues,issues,issues,issues,issues,issues,issues,issues,left_only
44706CNTND4575S,CANTON DROP FORGE,332111,issues,issues,issues,issues,issues,PARK OHIO HOLDINGS CORP,110000391040.0,issues,issues,issues,issues,issues,issues,issues,issues,issues,issues,issues,issues,issues,left_only
15104SSDGRBRADD,USS MON VALLEY WORKS - EDGAR THOMSON PLANT,331110,issues,issues,issues,issues,issues,US STEEL CORP,110001116934.0,issues,issues,issues,issues,issues,issues,issues,issues,issues,issues,issues,issues,issues,left_only
17512CLNLM2NDLI,SA ALLOYS,331492,issues,issues,issues,issues,issues,issues,110000492271.0,issues,issues,issues,issues,issues,issues,issues,issues,issues,issues,issues,issues,issues,left_only
53094SPNCSPOBOX,SPUNCAST,331513,issues,issues,issues,issues,issues,issues,110000417077.0,issues,issues,issues,issues,issues,issues,issues,issues,issues,issues,issues,issues,issues,left_only
2811WTLLVC375AL,ATI SPECIALTY MATERIALS - BAKERS SITE,331492,issues,issues,issues,issues,issues,ALLEGHENY TECHNOLOGIES INC,110018570688.0,issues,issues,issues,issues,issues,issues,issues,issues,issues,issues,issues,issues,issues,left_only
15059WSTHMONE12,WHEMCO-STEEL CASTINGS INC,331513,issues,issues,issues,issues,issues,WHEMCO INC,110007336579.0,issues,issues,issues,issues,issues,issues,issues,issues,issues,issues,issues,issues,issues,left_only
76513MRCNS2505T,AMERICAN SPINCAST INC,331513,issues,issues,issues,issues,issues,AMERICAN SPINCAST INC,110013763739.0,issues,issues,issues,issues,issues,issues,issues,issues,issues,issues,issues,issues,issues,left_only
10940RVRSMRD2BA,REVERE SMELTING & REFINING CORP,331492,issues,issues,issues,issues,issues,ECO-BAT AMERICA LLC,110000323034.0,issues,issues,issues,issues,issues,issues,issues,issues,issues,issues,issues,issues,issues,left_only
77015MRFRG1377I,AFGLOBAL CORP,332111,issues,issues,issues,issues,issues,AFGLOBAL CORP,110005181356.0,issues,issues,issues,issues,issues,issues,issues,issues,issues,issues,issues,issues,issues,left_only
43085THWRT1127D,WORTHINGTON STEEL CO,331221,issues,issues,issues,issues,issues,WORTHINGTON INDUSTRIES INC,110000381818.0,issues,issues,issues,issues,issues,issues,issues,issues,issues,issues,issues,issues,issues,left_only
62040MRCNS1700W,AMSTED RAIL CO INC,331513,issues,issues,issues,issues,issues,AMSTED INDUSTRIES INC,110000438731.0,issues,issues,issues,issues,issues,issues,issues,issues,issues,issues,issues,issues,issues,left_only
01104STRMS160CO,DONCASTERS STORMS FORGE,332111,issues,issues,issues,issues,issues,DONCASTERS LTD,110000308328.0,issues,issues,issues,issues,issues,issues,issues,issues,issues,issues,issues,issues,issues,left_only
44601MRCNS1001E,ALLIANCE CASTINGS CO LLC,331513,issues,issues,issues,issues,issues,OHIO CASTINGS CO LLC,110000390238.0,issues,issues,issues,issues,issues,issues,issues,issues,issues,issues,issues,issues,issues,left_only
70069BYSTLRIVER,BD LAPLACE LLC,331110,issues,issues,issues,issues,issues,BAYOU STEEL BD HOLDINGS LLC,110041192410.0,issues,issues,issues,issues,issues,issues,issues,issues,issues,issues,issues,issues,issues,left_only
37874MSTRM313IN,MASTERMELT AMERICA,331492,issues,issues,issues,issues,issues,issues,110028259765.0,issues,issues,issues,issues,issues,issues,issues,issues,issues,issues,issues,issues,issues,left_only
60609JRNBR328W4,JERNBERG INDUSTRIES INC,332111,issues,issues,issues,issues,issues,JERNBERG INDUSTRIES LLC,110000434085.0,issues,issues,issues,issues,issues,issues,issues,issues,issues,issues,issues,issues,issues,left_only
46302XDCRP2601W,GARFIELD FACILITY LLC,331492,issues,issues,issues,issues,issues,EDISON GROUP COS LLC,110000397712.0,issues,issues,issues,issues,issues,issues,issues,issues,issues,issues,issues,issues,issues,left_only
47918HRRSN900MO,HARRISON STEEL CASTINGS CO,331513,issues,issues,issues,issues,issues,HARRISON STEEL CASTINGS CO,110010302975.0,issues,issues,issues,issues,issues,issues,issues,issues,issues,issues,issues,issues,issues,left_only
37873PDDNG2105S,BHARAT FORGE PMT TECHNOLOGIE LLC,332111,issues,issues,issues,issues,issues,BHARAT FORGE AMERICA,110000373248.0,issues,issues,issues,issues,issues,issues,issues,issues,issues,issues,issues,issues,issues,left_only
90670PGPND13429,HERAEUS PRECIOUS METALS NA LLC,331492,issues,issues,issues,issues,issues,HERAEUS INC,110002421264.0,issues,issues,issues,issues,issues,issues,issues,issues,issues,issues,issues,issues,issues,left_only
52722SVYRS225S3,SIVYER STEEL CASTING LLC,331513,issues,issues,issues,issues,issues,SIVYER STEEL HOLDINGS LLC,110000415603.0,issues,issues,issues,issues,issues,issues,issues,issues,issues,issues,issues,issues,issues,left_only
17921GLDSPEASTC,ASHLAND FOUNDRY & MACHINE WORKS,331513,issues,issues,issues,issues,issues,issues,110000334576.0,issues,issues,issues,issues,issues,issues,issues,issues,issues,issues,issues,issues,issues,left_only
64451SCHYLRRIII,FOREST CITY FACILITY LLC,331492,issues,issues,issues,issues,issues,EDISON GROUP COS LLC,110017984608.0,issues,issues,issues,issues,issues,issues,issues,issues,issues,issues,issues,issues,issues,left_only
04011BTHRNROUTE,BATH IRON WORKS-STRUCTURAL FABRICATION FACILITY (FORMERLY HA,336611,issues,issues,issues,issues,issues,GENERAL DYNAMICS CORP,110039678346.0,issues,issues,issues,issues,issues,issues,issues,issues,issues,issues,issues,issues,issues,left_only
44047PRSRT322SC,PRESRITE CORP JEFFERSON DIV,332111,issues,issues,issues,issues,issues,issues,110000385618.0,issues,issues,issues,issues,issues,issues,issues,issues,issues,issues,issues,issues,issues,left_only
02742TLDYN1357E,ATI ALLEGHENY LUDLUM INC,331221,issues,issues,issues,issues,issues,ALLEGHENY TECHNOLOGIES INC,110000311804.0,issues,issues,issues,issues,issues,issues,issues,issues,issues,issues,issues,issues,issues,left_only
44105PRSRT3665E,PRESRITE CORP,332111,issues,issues,issues,issues,issues,issues,110000386724.0,issues,issues,issues,issues,issues,issues,issues,issues,issues,issues,issues,issues,issues,left_only
63830TRNTYHWY84,ARCOSA MARINE PRODUCTS INC. PLT  75,336611,issues,issues,issues,issues,issues,ARCOSA INC,110012469514.0,issues,issues,issues,issues,issues,issues,issues,issues,issues,issues,issues,issues,issues,left_only
12801MSGLD21ROG,AMES GOLDSMITH CORP,331492,325180.0,issues,issues,issues,issues,AMES GOLDSMITH CORP,110000324863.0,issues,issues,issues,issues,issues,issues,issues,issues,issues,issues,issues,issues,issues,left_only
37130MTCHS210MI,STEEL TECHNOLOGIES LLC,331221,issues,issues,issues,issues,issues,NUMIT LLC,110015783384.0,issues,issues,issues,issues,issues,issues,issues,issues,issues,issues,issues,issues,issues,left_only
6806WMHSTL921EA,OMAHA STEEL CASTINGS CO LLC,331513,issues,issues,issues,issues,issues,issues,110045442927.0,issues,issues,issues,issues,issues,issues,issues,issues,issues,issues,issues,issues,issues,left_only
47201MPCTF20805,IMPACT FORGE GROUPLLC-IMPACT PLANT (PART),332111,issues,issues,issues,issues,issues,METALDYNE PERFORMANCE GROUP INC,110000402136.0,issues,issues,issues,issues,issues,issues,issues,issues,issues,issues,issues,issues,issues,left_only
23501NRFLKFOOTO,BAE SYSTEMS NORFOLK SHIP REPAIR,336611,issues,issues,issues,issues,issues,BAE SYSTEMS INC,110000342175.0,issues,issues,issues,issues,issues,issues,issues,issues,issues,issues,issues,issues,issues,left_only
15066DMSCSPOBOX,DAMASCUSS STEEL LLC,331513,issues,issues,issues,issues,issues,issues,110012342688.0,issues,issues,issues,issues,issues,issues,issues,issues,issues,issues,issues,issues,issues,left_only
55816NRTHS800GA,GERDAU AMERISTEEL US INC,332111,issues,issues,issues,issues,issues,GERDAU USA INC,110000426398.0,issues,issues,issues,issues,issues,issues,issues,issues,issues,issues,issues,issues,issues,left_only
4920WWRTHN495SM,WORTHINGTON SPECIALTY PROCESSING,331221,issues,issues,issues,issues,issues,WORTHINGTON INDUSTRIES INC,110006041050.0,issues,issues,issues,issues,issues,issues,issues,issues,issues,issues,issues,issues,issues,left_only
77445PRSHN175ZA,PARISH INTERNATIONAL INC,332111,332112.0,issues,issues,issues,issues,issues,110028207189.0,issues,issues,issues,issues,issues,issues,issues,issues,issues,issues,issues,issues,issues,left_only
4818WWRTHN526SH,WORTHINGTON SPECIALTY PROCESSING - CANTON,331221,issues,issues,issues,issues,issues,WORTHINGTON INDUSTRIES INC,110003615696.0,issues,issues,issues,issues,issues,issues,issues,issues,issues,issues,issues,issues,issues,left_only
71107LLYPP740NM,ALLOY PIPING PRODUCTS LLC,332111,issues,issues,issues,issues,issues,TEXAS PIPE & SUPPLY,110000450262.0,issues,issues,issues,issues,issues,issues,issues,issues,issues,issues,issues,issues,issues,left_only
35064SSFRFVALLE,US STEEL CORP-FAIRFIELD WORKS,331110,issues,issues,issues,issues,issues,US STEEL CORP,110000366318.0,issues,issues,issues,issues,issues,issues,issues,issues,issues,issues,issues,issues,issues,left_only
77029QLTYL252MC,QUALITY ELECTRIC STEEL CASTINGS LP,331513,issues,issues,issues,issues,issues,issues,110012565214.0,issues,issues,issues,issues,issues,issues,issues,issues,issues,issues,issues,issues,issues,left_only
43543CHSBRSTATE,WIELAND CHASE,331492,issues,issues,issues,issues,issues,WIELAND N.A.,110006260474.0,issues,issues,issues,issues,issues,issues,issues,issues,issues,issues,issues,issues,issues,left_only
1911WKRPHL21KIT,PHILLY SHIPYARD INC,336611,issues,issues,issues,issues,issues,issues,110040928253.0,issues,issues,issues,issues,issues,issues,issues,issues,issues,issues,issues,issues,issues,left_only
73446MDMRC1327S,MID AMERICAN STEEL & WIRE CO LLC,331110,issues,issues,issues,issues,issues,issues,110022524062.0,issues,issues,issues,issues,issues,issues,issues,issues,issues,issues,issues,issues,issues,left_only
2981WHRSHD941TE,BEFESA ZINC US INC.,331492,issues,issues,issues,issues,issues,BEFESA HOLDING US INC.,110040451533.0,issues,issues,issues,issues,issues,issues,issues,issues,issues,issues,issues,issues,issues,left_only
33605GLFMR1200S,GULF MARINE REPAIR CORP,336611,issues,issues,issues,issues,issues,issues,110045611619.0,issues,issues,issues,issues,issues,issues,issues,issues,issues,issues,issues,issues,issues,left_only
4755WCRNSLP125X,CORN ISLAND SHIPYARD INC,336611,issues,issues,issues,issues,issues,LITTLE SANDY COAL CO INC,110040494621.0,issues,issues,issues,issues,issues,issues,issues,issues,issues,issues,issues,issues,issues,left_only
94572TSCSF2101F,PHILLIPS 66 CARBON PLANT,324199,issues,issues,issues,issues,issues,PHILLIPS 66 CO,110000483478.0,issues,issues,issues,issues,issues,issues,issues,issues,issues,issues,issues,issues,issues,left_only
37015TRNTY1050N,ARCOSA MARINE PRODUCTS INC PLT  296,336611,issues,issues,issues,issues,issues,ARCOSA INC.,110000369869.0,issues,issues,issues,issues,issues,issues,issues,issues,issues,issues,issues,issues,issues,left_only
42445SPCLMRR6BO,WYMAN GORDON CO,331492,issues,issues,issues,issues,issues,BERKSHIRE HATHAWAY INC,110000381088.0,issues,issues,issues,issues,issues,issues,issues,issues,issues,issues,issues,issues,issues,left_only
47805VPRCN41EST,VP RACING FUELS INC.,324199,issues,issues,issues,issues,issues,VP RACING FUELS INC,110022523241.0,issues,issues,issues,issues,issues,issues,issues,issues,issues,issues,issues,issues,issues,left_only
16117NTRNTSR488,INTERNATIONAL METALS RECLAMATION CO LLC INMETCO,331492,issues,issues,issues,issues,issues,METALS HOLDING RECOVERY LLC,110041695546.0,issues,issues,issues,issues,issues,issues,issues,issues,issues,issues,issues,issues,issues,left_only
21162MRCNS10300,OLDCASTLE APG MID-ATLANTIC WHITE MARSH MD,324199,324122.0,issues,issues,issues,issues,CRH AMERICAS INC,110001276976.0,issues,issues,issues,issues,issues,issues,issues,issues,issues,issues,issues,issues,issues,left_only
16323LTRBS1680D,LATROBE SPECIALTY METALS - SANDY CREEK,331110,issues,issues,issues,issues,issues,CARPENTER TECHNOLOGY CORP,110001101272.0,issues,issues,issues,issues,issues,issues,issues,issues,issues,issues,issues,issues,issues,left_only
40324NTRNT101CA,INTERNATIONAL CRANKSHAFT INC.,332111,issues,issues,issues,issues,issues,issues,110013870427.0,issues,issues,issues,issues,issues,issues,issues,issues,issues,issues,issues,issues,issues,left_only
15907GTRXX119WA,GAUTIER STEEL LTD.,331221,issues,issues,issues,issues,issues,THE RESERVE GROUP,110001144066.0,issues,issues,issues,issues,issues,issues,issues,issues,issues,issues,issues,issues,issues,left_only
46552NTKXX30755,I/N KOTE,331221,issues,issues,issues,issues,issues,ARCELORMITTAL USA INC,110000399462.0,issues,issues,issues,issues,issues,issues,issues,issues,issues,issues,issues,issues,issues,left_only
37748BYSTL2404S,BD LAPLACE LLC,331110,issues,issues,issues,issues,issues,BAYOU STEEL BD HOLDINGS LLC,110004958243.0,issues,issues,issues,issues,issues,issues,issues,issues,issues,issues,issues,issues,issues,left_only
06340GNRLD75EAS,ELECTRIC BOAT CORP,336611,issues,issues,issues,issues,issues,GENERAL DYNAMICS CORP,110011370729.0,issues,issues,issues,issues,issues,issues,issues,issues,issues,issues,issues,issues,issues,left_only
45879HRBRT335WW,HERBERT ORR CO,332111,issues,issues,issues,issues,issues,issues,110000395894.0,issues,issues,issues,issues,issues,issues,issues,issues,issues,issues,issues,issues,issues,left_only
29550TLLYMSCHWY,TALLEY METALS TECHNOLOGY,331221,issues,issues,issues,issues,issues,CARPENTER TECHNOLOGY CORP,110038172189.0,issues,issues,issues,issues,issues,issues,issues,issues,issues,issues,issues,issues,issues,left_only
41045STLTCRT1BO,STEEL TECHNOLOGIES LLC,331221,issues,issues,issues,issues,issues,NUMIT LLC,110008357544.0,issues,issues,issues,issues,issues,issues,issues,issues,issues,issues,issues,issues,issues,left_only
66111GRFFN7111G,AMSTED RAIL CO GRIFFIN WHEEL KANSAS CITY FACILITY,331513,issues,issues,issues,issues,issues,AMSTED INDUSTRIES INC,110000445518.0,issues,issues,issues,issues,issues,issues,issues,issues,issues,issues,issues,issues,issues,left_only
53209STNLS5150N,STAINLESS FOUNDRY & ENGINEERING INC,331513,331512.0,issues,issues,issues,issues,issues,110000418619.0,issues,issues,issues,issues,issues,issues,issues,issues,issues,issues,issues,issues,issues,left_only
89406NVDRF11MIL,KENNAMETAL INC (REFINERY),331492,issues,issues,issues,issues,issues,KENNAMETAL INC,110024422864.0,issues,issues,issues,issues,issues,issues,issues,issues,issues,issues,issues,issues,issues,left_only
33605NTRNT1616P,INTERNATIONAL SHIP REPAIR & MARINE SERVICES INC.,336611,issues,issues,issues,issues,issues,issues,110010116070.0,issues,issues,issues,issues,issues,issues,issues,issues,issues,issues,issues,issues,issues,left_only
02703GLNSN189EA,GLINES & RHODES INC,331492,issues,issues,issues,issues,issues,issues,110001949697.0,issues,issues,issues,issues,issues,issues,issues,issues,issues,issues,issues,issues,issues,left_only
60617HRSHD2701E,BEFESA ZINC US INC.,331492,issues,issues,issues,issues,issues,BEFESA HOLDING US INC.,110000434352.0,issues,issues,issues,issues,issues,issues,issues,issues,issues,issues,issues,issues,issues,left_only
74107KLHMF5259S,OKLAHOMA FORGE,332111,issues,issues,issues,issues,issues,issues,110030818006.0,issues,issues,issues,issues,issues,issues,issues,issues,issues,issues,issues,issues,issues,left_only
98409TLSFN3021S,BRADKEN ENERGY,331513,issues,issues,issues,issues,issues,BRADKEN INC,110000495884.0,issues,issues,issues,issues,issues,issues,issues,issues,issues,issues,issues,issues,issues,left_only
36081SNDRSHENDE,SANDERS LEAD CO INC.,331492,issues,issues,issues,issues,issues,SANDERS LEAD CO INC,110070828269.0,issues,issues,issues,issues,issues,issues,issues,issues,issues,issues,issues,issues,issues,left_only
7237WBGRVR227ES,BIG RIVER STEEL LLC,331110,issues,issues,issues,issues,issues,issues,110056033849.0,issues,issues,issues,issues,issues,issues,issues,issues,issues,issues,issues,issues,issues,left_only
77015BLTXM1369I,BOLTEX MFG.,332111,332710.0,issues,issues,issues,issues,BOLTEX MFG,110038432988.0,issues,issues,issues,issues,issues,issues,issues,issues,issues,issues,issues,issues,issues,left_only
17777HGNSCYURIS,HOEGANAES CORP,331110,issues,issues,issues,issues,issues,GKN N.A. INC,110037441159.0,issues,issues,issues,issues,issues,issues,issues,issues,issues,issues,issues,issues,issues,left_only
02714RGSTW266SA,ZAPP PRECISION STRIP INC.,331221,issues,issues,issues,issues,issues,issues,110002028733.0,issues,issues,issues,issues,issues,issues,issues,issues,issues,issues,issues,issues,issues,left_only
37686MDRNF501RO,MODERN FORGE TENNESSEE LLC.,332111,issues,issues,issues,issues,issues,MODERN FORGE COS LLC,110000372356.0,issues,issues,issues,issues,issues,issues,issues,issues,issues,issues,issues,issues,issues,left_only
98108NRTHS820SB,NORTH STAR CASTEEL PRODUCTS INC,331513,issues,issues,issues,issues,issues,issues,110002150243.0,issues,issues,issues,issues,issues,issues,issues,issues,issues,issues,issues,issues,issues,left_only
53215MYNRD2856S,MAYNARD STEEL CASTING CO,331513,issues,issues,issues,issues,issues,issues,110000418833.0,issues,issues,issues,issues,issues,issues,issues,issues,issues,issues,issues,issues,issues,left_only
16050WTCCRHWY26,SONNEBORN LLC,324199,issues,issues,issues,issues,issues,HF SINCLAIR CORP,110059338220.0,issues,issues,issues,issues,issues,issues,issues,issues,issues,issues,issues,issues,issues,left_only
70807GRTLK2200B,OXBOW CALCINING LLC,324199,issues,issues,issues,issues,issues,OXBOW CARBON & MINERALS HOLDINGS INC.,110003360372.0,issues,issues,issues,issues,issues,issues,issues,issues,issues,issues,issues,issues,issues,left_only
16001BRMTL679EB,BEAR METALLURGICAL CO,331110,issues,issues,issues,issues,issues,issues,110000330678.0,issues,issues,issues,issues,issues,issues,issues,issues,issues,issues,issues,issues,issues,left_only
60439NCLCH317WE,OXBOW MIDWEST CALCINING LLC,324199,issues,issues,issues,issues,issues,OXBOW CARBON & MINERALS HOLDINGS INC,110000432862.0,issues,issues,issues,issues,issues,issues,issues,issues,issues,issues,issues,issues,issues,left_only
06492LBRCH1DUDL,ULBRICH SPECIALTY STRIP MILL,331221,issues,issues,issues,issues,issues,ULBRICH STAINLESS STEELS & SPECIAL METALS INC,110000739755.0,issues,issues,issues,issues,issues,issues,issues,issues,issues,issues,issues,issues,issues,left_only
63110CRNDL2101S,CARONDELET FOUNDRY CORP,331513,issues,issues,issues,issues,issues,METALTEK INTERNATIONAL,110000500510.0,issues,issues,issues,issues,issues,issues,issues,issues,issues,issues,issues,issues,issues,left_only
70058BLLNG615DE,BOLLINGER QUICK REPAIR LLC,336611,issues,issues,issues,issues,issues,BOLLINGER SHIPYARDS LLC,110001309931.0,issues,issues,issues,issues,issues,issues,issues,issues,issues,issues,issues,issues,issues,left_only
18201WRHZL225NC,HAZLETON CASTING CO,331513,issues,issues,issues,issues,issues,issues,110000335245.0,issues,issues,issues,issues,issues,issues,issues,issues,issues,issues,issues,issues,issues,left_only
77437BLCRK729FM,BLUE CREEK FOUNDRY,331513,issues,issues,issues,issues,issues,issues,110020056339.0,issues,issues,issues,issues,issues,issues,issues,issues,issues,issues,issues,issues,issues,left_only
35160TLLDG208NC,TALLADEGA CASTINGS & MACHINE CO INC,331513,issues,issues,issues,issues,issues,issues,110009352823.0,issues,issues,issues,issues,issues,issues,issues,issues,issues,issues,issues,issues,issues,left_only
44691TKFRS369LN,AMERICAN AXLE & MANUFACTURING HOLDINGS INC,332111,issues,issues,issues,issues,issues,AMERICAN AXLE & MANUFACTURING HOLDINGS INC,110020518322.0,issues,issues,issues,issues,issues,issues,issues,issues,issues,issues,issues,issues,issues,left_only
27536KNNMTSTATE,KENNAMETAL INC,331492,issues,issues,issues,issues,issues,KENNAMETAL INC,110000346910.0,issues,issues,issues,issues,issues,issues,issues,issues,issues,issues,issues,issues,issues,left_only
12803NBCNC50HAR,AMES GOLDSMITH CORP,331492,issues,issues,issues,issues,issues,AMES GOLDSMITH CORP,110000324890.0,issues,issues,issues,issues,issues,issues,issues,issues,issues,issues,issues,issues,issues,left_only
44667CNTRS510CO,BEKAERT CORP,331221,issues,issues,issues,issues,issues,BEKAERT CORP,110000390675.0,issues,issues,issues,issues,issues,issues,issues,issues,issues,issues,issues,issues,issues,left_only
40033TLDYN400CO,PORTLAND FORGE,332111,issues,issues,issues,issues,issues,WYNNCHURCH CAPITAL,110000377841.0,issues,issues,issues,issues,issues,issues,issues,issues,issues,issues,issues,issues,issues,left_only
86402NRTHS3000H,NUCOR STEEL KINGMAN LLC,331221,issues,issues,issues,issues,issues,NUCOR CORP,110000607264.0,issues,issues,issues,issues,issues,issues,issues,issues,issues,issues,issues,issues,issues,left_only
16041PNNZLRD2BO,CALUMET KARNS CITY REFINING LLC,324199,issues,issues,issues,issues,issues,CALUMET SPECIALTY PRODUCTS PARTNERS LP,110012413628.0,issues,issues,issues,issues,issues,issues,issues,issues,issues,issues,issues,issues,issues,left_only
70043CHLMT7CKEP,RAIN CII CARBON LLC,324199,issues,issues,issues,issues,issues,RAIN CII CARBON LLC,110012818497.0,issues,issues,issues,issues,issues,issues,issues,issues,issues,issues,issues,issues,issues,left_only
4466WMRCNB555CL,NUCOR BRIGHT BAR ORRVILLE LLC,331221,issues,issues,issues,issues,issues,NUCOR CORP,110015646906.0,issues,issues,issues,issues,issues,issues,issues,issues,issues,issues,issues,issues,issues,left_only
02852SNSCM1MACN,SENESCO MAIN YARD,336611,issues,issues,issues,issues,issues,issues,110021278918.0,issues,issues,issues,issues,issues,issues,issues,issues,issues,issues,issues,issues,issues,left_only
77396FRGDC14527,FORGED COMPONENTS INC.,332111,issues,issues,issues,issues,issues,issues,110038434940.0,issues,issues,issues,issues,issues,issues,issues,issues,issues,issues,issues,issues,issues,left_only
02920GNNNS33KEN,GANNON & SCOTT,331492,issues,issues,issues,issues,issues,GANNON & SCOTT,110000313287.0,issues,issues,issues,issues,issues,issues,issues,issues,issues,issues,issues,issues,issues,left_only
29450STLTC122SS,STEEL TECHNOLOGIES LLC,331221,issues,issues,issues,issues,issues,NUMIT LLC,110008557123.0,issues,issues,issues,issues,issues,issues,issues,issues,issues,issues,issues,issues,issues,left_only
02888DVNCD105BE,ADVANCED CHEMICAL CO,331492,issues,issues,issues,issues,issues,issues,110004905808.0,issues,issues,issues,issues,issues,issues,issues,issues,issues,issues,issues,issues,issues,left_only
19428CHMLLCONSH,CHEMALLOY CO LLC,331110,issues,issues,issues,issues,issues,MILLER & CO LLC,110000337617.0,issues,issues,issues,issues,issues,issues,issues,issues,issues,issues,issues,issues,issues,left_only
45750LKMMTROUTE,ERAMET MARIETTA INC,331110,issues,issues,issues,issues,issues,ERAMET MANGANESE ALLIAGE,110000741966.0,issues,issues,issues,issues,issues,issues,issues,issues,issues,issues,issues,issues,issues,left_only
40019STLTC198SH,STEEL TECHNOLOGIES LLC,331221,issues,issues,issues,issues,issues,NUMIT LLC,110015782704.0,issues,issues,issues,issues,issues,issues,issues,issues,issues,issues,issues,issues,issues,left_only
35150STHRNHWYWA,SOUTHERN ALLOY CORP,331513,issues,issues,issues,issues,issues,issues,110064122159.0,issues,issues,issues,issues,issues,issues,issues,issues,issues,issues,issues,issues,issues,left_only
1400WNTDPR2781T,UNITED PRECIOUS METAL REFINING INC.,331492,issues,issues,issues,issues,issues,issues,110004423188.0,issues,issues,issues,issues,issues,issues,issues,issues,issues,issues,issues,issues,issues,left_only
15650TLDYNROUTE,ATI FLAT ROLLED PRODUCTS LLC-LATROBE PLANT,331110,issues,issues,issues,issues,issues,ALLEGHENY TECHNOLOGIES INC,110056954381.0,issues,issues,issues,issues,issues,issues,issues,issues,issues,issues,issues,issues,issues,left_only
04011BTHRNMALLE,BATH IRON WORKS OUTFIT FABRICATION FACILITY (FORMERLY EBMF),336611,issues,issues,issues,issues,issues,GENERAL DYNAMICS CORP,110000581362.0,issues,issues,issues,issues,issues,issues,issues,issues,issues,issues,issues,issues,issues,left_only
27834MTLLX251IN,METALLIX REFINING  INC.,331492,issues,issues,issues,issues,issues,issues,110015308111.0,issues,issues,issues,issues,issues,issues,issues,issues,issues,issues,issues,issues,issues,left_only
44087MTLLC2116E,METALLIC RESOURCES INC.,331492,issues,issues,issues,issues,issues,METALLIC RESOURCES INC,110000386047.0,issues,issues,issues,issues,issues,issues,issues,issues,issues,issues,issues,issues,issues,left_only
37854HRSHDENDOF,BEFESA ZINC US INC.,331492,issues,issues,issues,issues,issues,BEFESA HOLDING US INC.,110000590101.0,issues,issues,issues,issues,issues,issues,issues,issues,issues,issues,issues,issues,issues,left_only
48047NTRNT37087,INTERNATIONAL CASTING CORP,331513,issues,issues,issues,issues,issues,issues,110000404660.0,issues,issues,issues,issues,issues,issues,issues,issues,issues,issues,issues,issues,issues,left_only
02888PSCRR75PEN,PEASE & CURREN INC,331492,issues,issues,issues,issues,issues,issues,110000312670.0,issues,issues,issues,issues,issues,issues,issues,issues,issues,issues,issues,issues,issues,left_only
74008MRCNF14602,AMERICAN FOUNDRY GROUP LLC - BIXBY,331513,issues,issues,issues,issues,issues,AMERICAN FOUNDRY GROUP LLC,110000454375.0,issues,issues,issues,issues,issues,issues,issues,issues,issues,issues,issues,issues,issues,left_only
53525SCTFR105SC,SCOT FORGE CO,332111,issues,issues,issues,issues,issues,issues,110054880526.0,issues,issues,issues,issues,issues,issues,issues,issues,issues,issues,issues,issues,issues,left_only
77001GLFRD6020E,US ZINC- DUST,331492,issues,issues,issues,issues,issues,US ZINC CORP,110000495125.0,issues,issues,issues,issues,issues,issues,issues,issues,issues,issues,issues,issues,issues,left_only
77868NTRSTINTER,ELLWOOD TEXAS FORGE NAVASOTA,332111,issues,issues,issues,issues,issues,issues,110007196676.0,issues,issues,issues,issues,issues,issues,issues,issues,issues,issues,issues,issues,issues,left_only
15017DYNMT600MA,CARPENTER POWDER PRODUCTS INC,331110,issues,issues,issues,issues,issues,CARPENTER TECHNOLOGY CORP,110000740039.0,issues,issues,issues,issues,issues,issues,issues,issues,issues,issues,issues,issues,issues,left_only
19428LKNSSCONSH,CLEVELAND-CLIFFS PLATE LLC CONSHOHOCKEN FACILITY,331110,issues,issues,issues,issues,issues,CLEVELAND-CLIFFS INC,110000745007.0,issues,issues,issues,issues,issues,issues,issues,issues,issues,issues,issues,issues,issues,left_only
60123LGLYN1565F,ELGILOY SPECIALTY METALS,331221,issues,issues,issues,issues,issues,COMBINED METALS OF CHICAGO LLC,110000430926.0,issues,issues,issues,issues,issues,issues,issues,issues,issues,issues,issues,issues,issues,left_only
49452KRDZL2625W,BARBER STEEL FOUNDRY CORPORATION,331513,issues,issues,issues,issues,issues,WABTEC CORP,110000411064.0,issues,issues,issues,issues,issues,issues,issues,issues,issues,issues,issues,issues,issues,left_only
44408CLMBN501LI,COLUMBIANA FOUNDRY CO,331513,issues,issues,issues,issues,issues,issues,110000389570.0,issues,issues,issues,issues,issues,issues,issues,issues,issues,issues,issues,issues,issues,left_only
45215SWBRKSHEPH,SAWBROOK STEEL CASTING LLC,331513,issues,issues,issues,issues,issues,SPEYSIDE EQUITY FUND 1 LP,110000393271.0,issues,issues,issues,issues,issues,issues,issues,issues,issues,issues,issues,issues,issues,left_only
49015DVNTG6CLAR,ADVANTAGE SINTERED METALS INC,331221,issues,issues,issues,issues,issues,ADVANTAGE SINTERED METALS INC,110033196789.0,issues,issues,issues,issues,issues,issues,issues,issues,issues,issues,issues,issues,issues,left_only
15034SSRVNPOBOX,USS MON VALLEY WORKS - IRVIN PLANT,331221,issues,issues,issues,issues,issues,US STEEL CORP,110008470724.0,issues,issues,issues,issues,issues,issues,issues,issues,issues,issues,issues,issues,issues,left_only
06010THSPR300BR,THEIS PRECISION STEEL USA INC,331221,issues,issues,issues,issues,issues,issues,110000763157.0,issues,issues,issues,issues,issues,issues,issues,issues,issues,issues,issues,issues,issues,left_only
54235BYSHP605N3,FINCANTIERI MARINE GROUP DBA FINCANTIERI BAY SHIPBUILDING,336611,issues,issues,issues,issues,issues,FINCANTIERI MARINE GROUP LLC,110058125513.0,issues,issues,issues,issues,issues,issues,issues,issues,issues,issues,issues,issues,issues,left_only
38478MRCNM2360I,MAGOTTEAUX INC,331513,issues,issues,issues,issues,issues,issues,110000375246.0,issues,issues,issues,issues,issues,issues,issues,issues,issues,issues,issues,issues,issues,left_only
44707SCSTN722MU,U.S. CASTING CO,331513,issues,issues,issues,issues,issues,issues,110001629024.0,issues,issues,issues,issues,issues,issues,issues,issues,issues,issues,issues,issues,issues,left_only
77262NWPRK8502C,SWS HOLDINGS-BRADY ISLAND LP,336611,issues,issues,issues,issues,issues,SOUTHWEST SHIPYARD LP,110000462240.0,issues,issues,issues,issues,issues,issues,issues,issues,issues,issues,issues,issues,issues,left_only
14304PYRNC5950P,NORTH AMERICAN HOGANAS-NIAGARA FALLS PLANT,331221,issues,issues,issues,issues,issues,NORTH AMERICAN HOGANAS INC,110000881305.0,issues,issues,issues,issues,issues,issues,issues,issues,issues,issues,issues,issues,issues,left_only
12543STRNLHENRY,EASTERN ALLOYS INC,331492,issues,issues,issues,issues,issues,issues,110000582566.0,issues,issues,issues,issues,issues,issues,issues,issues,issues,issues,issues,issues,issues,left_only
77541TXSBR4115E,TEXAS BARGE & BOAT INC,336611,488320.0,issues,issues,issues,issues,issues,110020774740.0,issues,issues,issues,issues,issues,issues,issues,issues,issues,issues,issues,issues,issues,left_only
9840WBRDKN3611S,BRADKEN INC,331513,issues,issues,issues,issues,issues,BRADKEN INC,110054929459.0,issues,issues,issues,issues,issues,issues,issues,issues,issues,issues,issues,issues,issues,left_only
15339RTCHY3GERG,RITCHEY METALS CO INC,331492,331314.0,issues,issues,issues,issues,issues,110001068665.0,issues,issues,issues,issues,issues,issues,issues,issues,issues,issues,issues,issues,issues,left_only
01069RTHBN241PA,RATHBONE PRECISION METALS INC,331221,issues,issues,issues,issues,issues,issues,110000495937.0,issues,issues,issues,issues,issues,issues,issues,issues,issues,issues,issues,issues,issues,left_only
90040DVDHF6009B,DAVID H FELL & CO INC,331492,issues,issues,issues,issues,issues,issues,110012700666.0,issues,issues,issues,issues,issues,issues,issues,issues,issues,issues,issues,issues,issues,left_only
39110MTCHS576CH,STEEL TECHNOLOGIES LLC,331221,issues,issues,issues,issues,issues,NUMIT LLC,110025332548.0,issues,issues,issues,issues,issues,issues,issues,issues,issues,issues,issues,issues,issues,left_only
90801CRTFD3245C,CERTIFIED ALLOY PRODUCTS INC,331513,issues,issues,issues,issues,issues,issues,110000476271.0,issues,issues,issues,issues,issues,issues,issues,issues,issues,issues,issues,issues,issues,left_only
60639CHRLS2645N,LARSON FORGINGS,332111,issues,issues,issues,issues,issues,issues,110021299389.0,issues,issues,issues,issues,issues,issues,issues,issues,issues,issues,issues,issues,issues,left_only
38053PSCZN3380F,US ZINC- MILLINGTON,331492,issues,issues,issues,issues,issues,US ZINC CORP,110000373792.0,issues,issues,issues,issues,issues,issues,issues,issues,issues,issues,issues,issues,issues,left_only
48026MLLYM18450,FRASER MANUFACTURING FACILITY,332111,issues,issues,issues,issues,issues,AMERICAN AXLE & MANUFACTURING INC,110001224942.0,issues,issues,issues,issues,issues,issues,issues,issues,issues,issues,issues,issues,issues,left_only
90280STRTG8616T,GRISWOLD INDUSTRIES DBA SOUNDCAST,331513,issues,issues,issues,issues,issues,issues,110020516645.0,issues,issues,issues,issues,issues,issues,issues,issues,issues,issues,issues,issues,issues,left_only
45204CNSLD1028D,CONSOLIDATED METAL PRODUCTS,331221,issues,issues,issues,issues,issues,issues,110004593609.0,issues,issues,issues,issues,issues,issues,issues,issues,issues,issues,issues,issues,issues,left_only
37040MDWST480IN,US ZINC- CLARKSVILLE,331492,issues,issues,issues,issues,issues,US ZINC CORP,110008056762.0,issues,issues,issues,issues,issues,issues,issues,issues,issues,issues,issues,issues,issues,left_only
17857KYSTN215DU,KEYSTONE FORGING CO.,332111,issues,issues,issues,issues,issues,issues,110000334512.0,issues,issues,issues,issues,issues,issues,issues,issues,issues,issues,issues,issues,issues,left_only
77868FRGDC9533F,FORGED COMPONENTS INC.,332111,issues,issues,issues,issues,issues,issues,110039018693.0,issues,issues,issues,issues,issues,issues,issues,issues,issues,issues,issues,issues,issues,left_only
74403MRCNL612SO,AMERICAN FOUNDRY GROUP LLC ALLOY 2 FACILITY,331513,issues,issues,issues,issues,issues,AMERICAN FOUNDRY GROUP LLC,110001649725.0,issues,issues,issues,issues,issues,issues,issues,issues,issues,issues,issues,issues,issues,left_only
1461WRCHST681RI,ROCHESTER SILVER WORKS LLC,331492,issues,issues,issues,issues,issues,issues,110043983927.0,issues,issues,issues,issues,issues,issues,issues,issues,issues,issues,issues,issues,issues,left_only
3793WNTRCR2715B,UNITRAC RAILROAD MATERIALS INC - G & B SPECIALTIES,331110,issues,issues,issues,issues,issues,WABTEC CORP,110070003362.0,issues,issues,issues,issues,issues,issues,issues,issues,issues,issues,issues,issues,issues,left_only
7035WBLLNG236AD,BOLLINGER FOURCHON NORTH,336611,issues,issues,issues,issues,issues,BOLLINGER SHIPYARDS LLC,110066955343.0,issues,issues,issues,issues,issues,issues,issues,issues,issues,issues,issues,issues,issues,left_only
6313WSTLSC16PER,ST. LOUIS COLD DRAWN,331221,issues,issues,issues,issues,issues,NUCOR CORP,110015904663.0,issues,issues,issues,issues,issues,issues,issues,issues,issues,issues,issues,issues,issues,left_only
44811MGNSM301SA,MAGRETECH LLC,331492,issues,issues,issues,issues,issues,MAGRETECH LLC,110000391406.0,issues,issues,issues,issues,issues,issues,issues,issues,issues,issues,issues,issues,issues,left_only
94590DGSSL403RY,TIMET,331492,issues,issues,issues,issues,issues,BERKSHIRE HATHAWAY INC,110000483646.0,issues,issues,issues,issues,issues,issues,issues,issues,issues,issues,issues,issues,issues,left_only
35125TRNSC101PK,TRANS-CYCLE INDUSTRIES INC,331492,issues,issues,issues,issues,issues,issues,110011846725.0,issues,issues,issues,issues,issues,issues,issues,issues,issues,issues,issues,issues,issues,left_only
49022SNDVK2235D,CHAMPLAIN SPECIALTY METALS INC.,331221,issues,issues,issues,issues,issues,issues,110000409022.0,issues,issues,issues,issues,issues,issues,issues,issues,issues,issues,issues,issues,issues,left_only
61834KRPPG100LY,THYSSENKRUPP CRANKSHAFT LLC,332111,issues,issues,issues,issues,issues,THYSSENKRUPP FORGED TECHNOLOGIES N.A.,110007529255.0,issues,issues,issues,issues,issues,issues,issues,issues,issues,issues,issues,issues,issues,left_only
55808MNTRN200EA,ME GLOBAL INC,331513,issues,issues,issues,issues,issues,ME GLOBAL INC,110000426389.0,issues,issues,issues,issues,issues,issues,issues,issues,issues,issues,issues,issues,issues,left_only
19382LNPFR1280L,LENAPE FORGED PRODUCTS INC,332111,332112.0,issues,issues,issues,issues,issues,110000337467.0,issues,issues,issues,issues,issues,issues,issues,issues,issues,issues,issues,issues,issues,left_only
9721WCLBRC11535,ECOLUBE RECOVERY LLC,324199,issues,issues,issues,issues,issues,issues,110071325264.0,issues,issues,issues,issues,issues,issues,issues,issues,issues,issues,issues,issues,issues,left_only
52632GRFFNCARBI,AMSTED RAIL CO INC,331513,issues,issues,issues,issues,issues,AMSTED INDUSTRIES,110000415444.0,issues,issues,issues,issues,issues,issues,issues,issues,issues,issues,issues,issues,issues,left_only
77011GLFRD310NG,US ZINC - METAL,331492,issues,issues,issues,issues,issues,US ZINC CORP,110064203632.0,issues,issues,issues,issues,issues,issues,issues,issues,issues,issues,issues,issues,issues,left_only
43078DRCKT801ST,RITTAL N.A. LLC,332111,issues,issues,issues,issues,issues,issues,110000381765.0,issues,issues,issues,issues,issues,issues,issues,issues,issues,issues,issues,issues,issues,left_only
4793WSTLTC356SU,STEEL TECHNOLOGIES LLC,331221,issues,issues,issues,issues,issues,NUMIT LLC,110043544028.0,issues,issues,issues,issues,issues,issues,issues,issues,issues,issues,issues,issues,issues,left_only
48755HRNCSPOBOX,HURON CASTING INC,331513,issues,issues,issues,issues,issues,issues,110000407961.0,issues,issues,issues,issues,issues,issues,issues,issues,issues,issues,issues,issues,issues,left_only
46312SSSTC101E1,USS EAST CHICAGO TIN,331221,issues,issues,issues,issues,issues,US STEEL CORP,110003098861.0,issues,issues,issues,issues,issues,issues,issues,issues,issues,issues,issues,issues,issues,left_only
77701STHMF155AR,EASTHAM FORGE INC.,332111,issues,issues,issues,issues,issues,issues,110064206014.0,issues,issues,issues,issues,issues,issues,issues,issues,issues,issues,issues,issues,issues,left_only
43420CRBFR15STA,CARBO FORGE INC,332111,issues,issues,issues,issues,issues,issues,110006216987.0,issues,issues,issues,issues,issues,issues,issues,issues,issues,issues,issues,issues,issues,left_only
77575LBRTY157FR,LIBERTY FORGE INC,332111,issues,issues,issues,issues,issues,issues,110005141015.0,issues,issues,issues,issues,issues,issues,issues,issues,issues,issues,issues,issues,issues,left_only
35404MRCHMONEWA,MERICHEM CO,324199,325180.0,issues,issues,issues,issues,MERICHEM CO,110000367175.0,issues,issues,issues,issues,issues,issues,issues,issues,issues,issues,issues,issues,issues,left_only
44110MDWST17301,MID-WEST FORGE CORP,332111,issues,issues,issues,issues,issues,issues,110002110821.0,issues,issues,issues,issues,issues,issues,issues,issues,issues,issues,issues,issues,issues,left_only
60126KRGRN900IN,KRUEGER & CO,331110,issues,issues,issues,issues,issues,issues,110000430971.0,issues,issues,issues,issues,issues,issues,issues,issues,issues,issues,issues,issues,issues,left_only
98124TDDPC18011,VIGOR SHIPYARDS INC-SEATTLE,336611,issues,issues,issues,issues,issues,VIGOR INDUSTRIAL LLC,110000489640.0,issues,issues,issues,issues,issues,issues,issues,issues,issues,issues,issues,issues,issues,left_only
35950WBBWH1279B,ALLOY RESOURCES,331513,issues,issues,issues,issues,issues,issues,110042900590.0,issues,issues,issues,issues,issues,issues,issues,issues,issues,issues,issues,issues,issues,left_only
26062RCLRM1PENN,CLEVELAND-CLIFFS WEIRTON LLC,331110,issues,issues,issues,issues,issues,CLEVELAND-CLIFFS INC,110057387420.0,issues,issues,issues,issues,issues,issues,issues,issues,issues,issues,issues,issues,issues,left_only
98134YNGCR34441,YOUNG CORPORPORATION MELTEC DIV,331513,issues,issues,issues,issues,issues,YOUNG CORP,110002150369.0,issues,issues,issues,issues,issues,issues,issues,issues,issues,issues,issues,issues,issues,left_only
15104HRSCH13THB,HARSCO METALS - BRI,331110,issues,issues,issues,issues,issues,HARSCO CORP,110020515897.0,issues,issues,issues,issues,issues,issues,issues,issues,issues,issues,issues,issues,issues,left_only
53072NRTHR845HI,NORTHERN STAINLESS CORP,331513,issues,issues,issues,issues,issues,issues,110000416666.0,issues,issues,issues,issues,issues,issues,issues,issues,issues,issues,issues,issues,issues,left_only
85034HNDYH2113E,GANNON & SCOTT,331492,issues,issues,issues,issues,issues,issues,110000470534.0,issues,issues,issues,issues,issues,issues,issues,issues,issues,issues,issues,issues,issues,left_only
35740TNNSS101GA,TENNESSEE ALLOYS CO,331110,issues,issues,issues,issues,issues,GLOBE SPECIALTY METALS INC,110001716965.0,issues,issues,issues,issues,issues,issues,issues,issues,issues,issues,issues,issues,issues,left_only
02703NGNRD39PER,ENGINEERED MATERIALS SOLUTIONS  LLC,331221,issues,issues,issues,issues,issues,ENGINEERED MATERIALS HOLDING INC,110003502193.0,issues,issues,issues,issues,issues,issues,issues,issues,issues,issues,issues,issues,issues,left_only
6344WKPFST89EAS,KPF STEEL FOUNDRY,331513,issues,issues,issues,issues,issues,issues,110040756278.0,issues,issues,issues,issues,issues,issues,issues,issues,issues,issues,issues,issues,issues,left_only
46368STLTC5830S,STEEL TECHNOLOGIES LLC,331221,issues,issues,issues,issues,issues,NUMIT LLC,110003090011.0,issues,issues,issues,issues,issues,issues,issues,issues,issues,issues,issues,issues,issues,left_only
7072WNCRST911HW,NUCOR STEEL LOUISIANA LLC,331110,issues,issues,issues,issues,issues,NUCOR CORP,110056317677.0,issues,issues,issues,issues,issues,issues,issues,issues,issues,issues,issues,issues,issues,left_only
48073FRMNG2727W,ROYAL OAK MANUFACTURING FACILITY,332111,issues,issues,issues,issues,issues,AMERICAN AXLE & MANUFACTURING INC,110000592939.0,issues,issues,issues,issues,issues,issues,issues,issues,issues,issues,issues,issues,issues,left_only
76053DLFSC733WH,MODERN FORGE TEXAS LLC,332111,issues,issues,issues,issues,issues,MODERN FORGE COS LLC,110034701847.0,issues,issues,issues,issues,issues,issues,issues,issues,issues,issues,issues,issues,issues,left_only
49441CNNNM2875L,CANNON-MUSKEGON,331513,issues,issues,issues,issues,issues,BERKSHIRE HATHAWAY INC,110000410751.0,issues,issues,issues,issues,issues,issues,issues,issues,issues,issues,issues,issues,issues,left_only
45875CLDMT740WI,STEEL TECHNOLOGIES LLC,331221,issues,issues,issues,issues,issues,NUMIT LLC,110000395867.0,issues,issues,issues,issues,issues,issues,issues,issues,issues,issues,issues,issues,issues,left_only
29745VKJXN500WA,FOMAS INC,332111,issues,issues,issues,issues,issues,issues,110000355375.0,issues,issues,issues,issues,issues,issues,issues,issues,issues,issues,issues,issues,issues,left_only
16121DFRCF15ROE,NLMK PENNSYLVANIA LLC,331221,issues,issues,issues,issues,issues,TOP GUN INVESTMENT CORP II,110000763923.0,issues,issues,issues,issues,issues,issues,issues,issues,issues,issues,issues,issues,issues,left_only
06708LLGHN271RA,ATI FLAT ROLLED PRODUCTS HOLDINGS LLC,331110,issues,issues,issues,issues,issues,ALLEGHENY TECHNOLOGIES INC,110016680607.0,issues,issues,issues,issues,issues,issues,issues,issues,issues,issues,issues,issues,issues,left_only
97210SCCRP2141N,ESCO CORP,331513,issues,issues,issues,issues,issues,issues,110000487394.0,issues,issues,issues,issues,issues,issues,issues,issues,issues,issues,issues,issues,issues,left_only
60628MPRLS10316,IMPERIAL ZINC CORP,331492,issues,issues,issues,issues,issues,issues,110000434879.0,issues,issues,issues,issues,issues,issues,issues,issues,issues,issues,issues,issues,issues,left_only
43207LSLCT1800W,CLEVELAND-CLIFFS COLUMBUS LLC,331110,issues,issues,issues,issues,issues,CLEVELAND-CLIFFS INC.,110000382381.0,issues,issues,issues,issues,issues,issues,issues,issues,issues,issues,issues,issues,issues,left_only
1938WTNTCH95FER,TIN TECHNOLOGY & REFINING,331492,issues,issues,issues,issues,issues,issues,110070244709.0,issues,issues,issues,issues,issues,issues,issues,issues,issues,issues,issues,issues,issues,left_only
33619GLFCS1901N,ENVIROFOCUS TECHNOLOGIES,331492,issues,issues,issues,issues,issues,GOPHER RESOURCE LLC,110000364472.0,issues,issues,issues,issues,issues,issues,issues,issues,issues,issues,issues,issues,issues,left_only
78402JHNBL311EN,JOHN BLUDWORTH SHIPYARD LLC,336611,issues,issues,issues,issues,issues,issues,110025331488.0,issues,issues,issues,issues,issues,issues,issues,issues,issues,issues,issues,issues,issues,left_only
76063TRNTY947TR,TRINITY FORGE INC,332111,issues,issues,issues,issues,issues,issues,110000459174.0,issues,issues,issues,issues,issues,issues,issues,issues,issues,issues,issues,issues,issues,left_only
84104STRBR976PI,STAR FOUNDRY & MACHINE,331513,issues,issues,issues,issues,issues,issues,110000469369.0,issues,issues,issues,issues,issues,issues,issues,issues,issues,issues,issues,issues,issues,left_only
16323FRNKL600AT,FRANKLIN INVESTMENT CORP.,331221,issues,issues,issues,issues,issues,issues,110000331347.0,issues,issues,issues,issues,issues,issues,issues,issues,issues,issues,issues,issues,issues,left_only
53151WNTHD16300,WENTHE-DAVIDSON ENGINEERING CO .,331221,issues,issues,issues,issues,issues,issues,110001929496.0,issues,issues,issues,issues,issues,issues,issues,issues,issues,issues,issues,issues,issues,left_only
39303STHRNWILER,SOUTHERN CAST PRODUCTS INC,331513,issues,issues,issues,issues,issues,issues,110000376968.0,issues,issues,issues,issues,issues,issues,issues,issues,issues,issues,issues,issues,issues,left_only
15136STNDR75NIC,STANDARD FORGED PRODUCTS LLC PLT 1112,332111,issues,issues,issues,issues,issues,ARCOSA INC.,110025330933.0,issues,issues,issues,issues,issues,issues,issues,issues,issues,issues,issues,issues,issues,left_only
92335CLFRN14000,CALIFORNIA STEEL INDUSTRIES INC.,331110,issues,issues,issues,issues,issues,JFE STEEL CORP & COMPANHIA DO RIO DOCE,110063857376.0,issues,issues,issues,issues,issues,issues,issues,issues,issues,issues,issues,issues,issues,left_only
32404NRTHW133AL,NORTHWEST FLORIDA HOLDINGS INC,336611,issues,issues,issues,issues,issues,NORTHWEST FLORIDA HOLDINGS INC,110037929463.0,issues,issues,issues,issues,issues,issues,issues,issues,issues,issues,issues,issues,issues,left_only
91744SMCNT475SW,SEMCO ENTERPRISES INC,331492,issues,issues,issues,issues,issues,SEMCO INC,110000477822.0,issues,issues,issues,issues,issues,issues,issues,issues,issues,issues,issues,issues,issues,left_only
15201MCCNW10948,MCCONWAY & TORLEY LLC PLT 1801,331513,issues,issues,issues,issues,issues,ARCOSA INC,110000329458.0,issues,issues,issues,issues,issues,issues,issues,issues,issues,issues,issues,issues,issues,left_only
58802SBNMT1512T,SABIN METAL WEST CORP,331492,issues,issues,issues,issues,issues,SABIN METAL CORP,110009417586.0,issues,issues,issues,issues,issues,issues,issues,issues,issues,issues,issues,issues,issues,left_only
19605GNRLBSPRIN,EXIDE TECHNOLOGIES READING SMELTER DIV,331492,issues,issues,issues,issues,issues,EXIDE TECHNOLOGIES,110000585028.0,issues,issues,issues,issues,issues,issues,issues,issues,issues,issues,issues,issues,issues,left_only
44102LCNND7990B,ALCON INDUSTRIES INC,331513,issues,issues,issues,issues,issues,issues,110000386387.0,issues,issues,issues,issues,issues,issues,issues,issues,issues,issues,issues,issues,issues,left_only
08077HGNSCRIVER,HOEGANAES CORP,331110,issues,issues,issues,issues,issues,GKN N.A. INC,110000603160.0,issues,issues,issues,issues,issues,issues,issues,issues,issues,issues,issues,issues,issues,left_only
77474MSSFL57USH,MAASS FLANGE CORP.- SEALY,332111,issues,issues,issues,issues,issues,issues,110025317379.0,issues,issues,issues,issues,issues,issues,issues,issues,issues,issues,issues,issues,issues,left_only
92570CRFTC24100,CRAFTECH METAL FORMING INC,331492,issues,issues,issues,issues,issues,issues,110000479679.0,issues,issues,issues,issues,issues,issues,issues,issues,issues,issues,issues,issues,issues,left_only
14094LLGHN695OH,ATI SPECIALTY MATERIALS-LOCKPORT PLANT,331492,issues,issues,issues,issues,issues,ALLEGHENY TECHNOLOGIES INC,110000326549.0,issues,issues,issues,issues,issues,issues,issues,issues,issues,issues,issues,issues,issues,left_only
47977MNFRGCOUNT,IMPACT FORGE GROUP LLC-OMNI FORGE PLANT,332111,issues,issues,issues,issues,issues,AMERICAN AXLE & MANUFACTURING INC,110000592877.0,issues,issues,issues,issues,issues,issues,issues,issues,issues,issues,issues,issues,issues,left_only
16602FDRTD6THAV,ALPHA ASSEMBLY SOLUTIONS,331492,331491.0,issues,issues,issues,issues,ELEMENT SOLUTIONS INC,110000332159.0,issues,issues,issues,issues,issues,issues,issues,issues,issues,issues,issues,issues,issues,left_only
13440RMSTR530HE,WORTHINGTON STEEL ROME LLC,331221,issues,issues,issues,issues,issues,WORTHINGTON INDUSTRIES INC,110000325853.0,issues,issues,issues,issues,issues,issues,issues,issues,issues,issues,issues,issues,issues,left_only
87031WLLCL550SA,WALL COLMONOY CORP,331492,331491.0,issues,issues,issues,issues,WALL COLMONOY CORP,110004282623.0,issues,issues,issues,issues,issues,issues,issues,issues,issues,issues,issues,issues,issues,left_only
13413SSSMR4355M,SAES SMART MATERIALS INC,331492,issues,issues,issues,issues,issues,SAES GETTERS SPA ITALY,110033162654.0,issues,issues,issues,issues,issues,issues,issues,issues,issues,issues,issues,issues,issues,left_only
3660WSGNLS61SRY,WORLD MARINE OF ALABAMA LLC,336611,issues,issues,issues,issues,issues,WORLD MARINE LLC,110040826023.0,issues,issues,issues,issues,issues,issues,issues,issues,issues,issues,issues,issues,issues,left_only
54143WNSRT2645I,WINSERT INC,331513,issues,issues,issues,issues,issues,issues,110000421099.0,issues,issues,issues,issues,issues,issues,issues,issues,issues,issues,issues,issues,issues,left_only
74063WLLNG404SM,GERDAU - SAND SPRINGS RAIL PRODUCTS,332111,issues,issues,issues,issues,issues,GERDAU GROUP,110000454730.0,issues,issues,issues,issues,issues,issues,issues,issues,issues,issues,issues,issues,issues,left_only
4568WMCGNN74CUN,MCGINNIS INC.,336611,issues,issues,issues,issues,issues,issues,110039084497.0,issues,issues,issues,issues,issues,issues,issues,issues,issues,issues,issues,issues,issues,left_only
3811WJBLCR5238L,JABIL CIRCUIT INC,331492,issues,issues,issues,issues,issues,JABIL CIRCUIT INC,110070068341.0,issues,issues,issues,issues,issues,issues,issues,issues,issues,issues,issues,issues,issues,left_only
77012SWSHL8114H,SWS HOLDINGS-PASADENA LP,336611,issues,issues,issues,issues,issues,SOUTHWEST SHIPYARD LP,110025333930.0,issues,issues,issues,issues,issues,issues,issues,issues,issues,issues,issues,issues,issues,left_only
23804BRNCNPETER,AMSTED RAIL CO INC,332111,332991.0,issues,issues,issues,issues,AMSTED INDUSTRIES INC,110005218576.0,issues,issues,issues,issues,issues,issues,issues,issues,issues,issues,issues,issues,issues,left_only
64468LMPST2000E,NUCOR LMP,331221,issues,issues,issues,issues,issues,NUCOR CORP,110010819775.0,issues,issues,issues,issues,issues,issues,issues,issues,issues,issues,issues,issues,issues,left_only
19714VPRCN16BRO,VP RACING FUELS,324199,issues,issues,issues,issues,issues,VP RACING FUELS INC,110012707801.0,issues,issues,issues,issues,issues,issues,issues,issues,issues,issues,issues,issues,issues,left_only
62060SPCTRCOLLE,MAGNESIUM ELEKTRON NA INC MADISON,331492,331491.0,issues,issues,issues,issues,LUXFER HOLDINGS PLC,110000438811.0,issues,issues,issues,issues,issues,issues,issues,issues,issues,issues,issues,issues,issues,left_only
01069PRFLS7FIRS,PROFILES INC,331221,issues,issues,issues,issues,issues,issues,110001956811.0,issues,issues,issues,issues,issues,issues,issues,issues,issues,issues,issues,issues,issues,left_only
48116CMRNP7250W,WYMAN-GORDON CO,331492,issues,issues,issues,issues,issues,BERKSHIRE HATHAWAY INC,110000405507.0,issues,issues,issues,issues,issues,issues,issues,issues,issues,issues,issues,issues,issues,left_only
66002NTRLN2604I,PROGRESS RAIL- FASTENER DIV,332111,issues,issues,issues,issues,issues,CATERPILLAR INC,110001354392.0,issues,issues,issues,issues,issues,issues,issues,issues,issues,issues,issues,issues,issues,left_only
36602TLNTCDUNLA,ALABAMA SHIPYARD LLC,336611,issues,issues,issues,issues,issues,issues,110006517448.0,issues,issues,issues,issues,issues,issues,issues,issues,issues,issues,issues,issues,issues,left_only
44644CLFRN3255A,COLFOR MANUFACTURING INC-MALVERN,332111,issues,issues,issues,issues,issues,AMERICAN AXLE & MANUFACTURING INC,110000390443.0,issues,issues,issues,issues,issues,issues,issues,issues,issues,issues,issues,issues,issues,left_only
36201FMCCR2101W,BAE SYSTEMS PLATFORMS & SERVICES LP,332111,issues,issues,issues,issues,issues,BAE SYSTEMS INC,110042012014.0,issues,issues,issues,issues,issues,issues,issues,issues,issues,issues,issues,issues,issues,left_only
35603MTCHS331MA,STEEL TECHNOLOGIES LLC,331221,issues,issues,issues,issues,issues,NUMIT LLC,110001713780.0,issues,issues,issues,issues,issues,issues,issues,issues,issues,issues,issues,issues,issues,left_only
98134NRTHW34111,NORTHWEST CASTINGS,331513,issues,issues,issues,issues,issues,issues,110000489702.0,issues,issues,issues,issues,issues,issues,issues,issues,issues,issues,issues,issues,issues,left_only
44601TWFRG562WE,T & W FORGE LLC,332111,issues,issues,issues,issues,issues,SIFCO INDUSTRIES INC,110001624145.0,issues,issues,issues,issues,issues,issues,issues,issues,issues,issues,issues,issues,issues,left_only
7245WXSXXX75JNE,AXIS,332111,issues,issues,issues,issues,issues,issues,110033643289.0,issues,issues,issues,issues,issues,issues,issues,issues,issues,issues,issues,issues,issues,left_only
44483SCHFRPHOEN,SCHAEFER EQUIPMENT INC,332111,issues,issues,issues,issues,issues,WABTEC CORP,110000389981.0,issues,issues,issues,issues,issues,issues,issues,issues,issues,issues,issues,issues,issues,left_only
98134NNFRR29051,NON-FERROUS METALS INC,331492,issues,issues,issues,issues,issues,issues,110000489695.0,issues,issues,issues,issues,issues,issues,issues,issues,issues,issues,issues,issues,issues,left_only
53207MLWKF1532E,MILWAUKEE FORGE LLC,332111,issues,issues,issues,issues,issues,issues,110001923517.0,issues,issues,issues,issues,issues,issues,issues,issues,issues,issues,issues,issues,issues,left_only
07065LCTRM827MA,ELECTRUM RECOVERY WORKS INC.,331492,issues,issues,issues,issues,issues,issues,110000318772.0,issues,issues,issues,issues,issues,issues,issues,issues,issues,issues,issues,issues,issues,left_only
1870WGNRLD15HIG,GENERAL DYNAMICS OTS (WILKES-BARRE) LLC,332111,issues,issues,issues,issues,issues,GENERAL DYNAMICS ORDNANCE & TACTICAL SYSTEMS,110071018365.0,issues,issues,issues,issues,issues,issues,issues,issues,issues,issues,issues,issues,issues,left_only
98595WSTPR1807N,WESTPORT LLC WESTPORT,336611,issues,issues,issues,issues,issues,WESTPORT LLC,110000490736.0,issues,issues,issues,issues,issues,issues,issues,issues,issues,issues,issues,issues,issues,left_only
70357BLLNG16NRM,BOLLINGER FOURCHON LLC,336611,issues,issues,issues,issues,issues,BOLLINGER SHIPYARDS LLC,110008393452.0,issues,issues,issues,issues,issues,issues,issues,issues,issues,issues,issues,issues,issues,left_only
77630RNGSH71MAR,CONRAD ORANGE SHIPYARD INC,336611,issues,issues,issues,issues,issues,CONRAD INDUSTRIES INC,110015976265.0,issues,issues,issues,issues,issues,issues,issues,issues,issues,issues,issues,issues,issues,left_only
18032PHNXFFRONT,PHOENIX FORGING CO INC,332111,issues,issues,issues,issues,issues,issues,110022532838.0,issues,issues,issues,issues,issues,issues,issues,issues,issues,issues,issues,issues,issues,left_only
37887HRSMT1975K,HERAEUS PRECIOUS METALS N.A. LLC,331492,issues,issues,issues,issues,issues,HERAEUS,110004955825.0,issues,issues,issues,issues,issues,issues,issues,issues,issues,issues,issues,issues,issues,left_only
9206WVLLYM13125,VALLEY METALS LLC,331221,331491.0,issues,issues,issues,issues,VALLEY METALS LLC,110018977142.0,issues,issues,issues,issues,issues,issues,issues,issues,issues,issues,issues,issues,issues,left_only
48188STLTC5501B,STEEL TECHNOLOGIES LLC,331221,issues,issues,issues,issues,issues,NUMIT LLC,110006743453.0,issues,issues,issues,issues,issues,issues,issues,issues,issues,issues,issues,issues,issues,left_only
17046RGLCS307N9,REGAL CAST INC.,331513,issues,issues,issues,issues,issues,PRL INC,110001087270.0,issues,issues,issues,issues,issues,issues,issues,issues,issues,issues,issues,issues,issues,left_only
06801VTTCR7TRWB,VITTA CORP,331492,issues,issues,issues,issues,issues,issues,110017718923.0,issues,issues,issues,issues,issues,issues,issues,issues,issues,issues,issues,issues,issues,left_only
44094STLTC2220J,STEEL TECHNOLOGIES LLC,331221,issues,issues,issues,issues,issues,NUMIT LLC,110046569913.0,issues,issues,issues,issues,issues,issues,issues,issues,issues,issues,issues,issues,issues,left_only
61252DRVSN90119,TIMKEN DRIVES LLC,332111,issues,issues,issues,issues,issues,THE TIMKEN CO,110000437527.0,issues,issues,issues,issues,issues,issues,issues,issues,issues,issues,issues,issues,issues,left_only
06457BRDNF99TUT,BOURDON FORGE CO INC,332111,332510.0,332112.0,issues,issues,issues,issues,110002089169.0,issues,issues,issues,issues,issues,issues,issues,issues,issues,issues,issues,issues,issues,left_only
70094NWRLN8400R,NEW ORLEANS SHIPYARD,336611,issues,issues,issues,issues,issues,ARCHER DANIELS MIDLAND CO,110000448962.0,issues,issues,issues,issues,issues,issues,issues,issues,issues,issues,issues,issues,issues,left_only
9836WWSTPR637MA,WESTPORT LLC 50 METER FACILITY,336611,issues,issues,issues,issues,issues,WESTPORT LLC,110015930215.0,issues,issues,issues,issues,issues,issues,issues,issues,issues,issues,issues,issues,issues,left_only
4412WPRSRT715BE,PRESRITE BESSEMER,332111,issues,issues,issues,issues,issues,issues,110067538061.0,issues,issues,issues,issues,issues,issues,issues,issues,issues,issues,issues,issues,issues,left_only
53142RNSNF33036,KENOSHA STEEL CASTINGS,331513,issues,issues,issues,issues,issues,issues,110001922082.0,issues,issues,issues,issues,issues,issues,issues,issues,issues,issues,issues,issues,issues,left_only
19014PYRMT5CMER,PYROPURE INC DBA PYROMET,331492,issues,issues,issues,issues,issues,issues,110001061715.0,issues,issues,issues,issues,issues,issues,issues,issues,issues,issues,issues,issues,issues,left_only
32226TLNTC8500H,BAE SYSTEMS JACKSONVILLE SHIP REPAIR LLC,336611,issues,issues,issues,issues,issues,BAE SYSTEMS INC,110057268031.0,issues,issues,issues,issues,issues,issues,issues,issues,issues,issues,issues,issues,issues,left_only
9800WSGYPS41CST,US GYPSUM CO AUBURN PLANT,331221,327420.0,issues,issues,issues,issues,USG CORP,110005307042.0,issues,issues,issues,issues,issues,issues,issues,issues,issues,issues,issues,issues,issues,left_only
30120BLSSL8DENT,NUCOR BRIGHT BAR CARTERSVILLE LLC,331221,issues,issues,issues,issues,issues,NUCOR CORP,110000356338.0,issues,issues,issues,issues,issues,issues,issues,issues,issues,issues,issues,issues,issues,left_only
75601LBSMN900FI,LEBUS MANUFACTURING,332111,issues,issues,issues,issues,issues,THE CROSBY GROUP,110000458148.0,issues,issues,issues,issues,issues,issues,issues,issues,issues,issues,issues,issues,issues,left_only
55060JSTNS1900H,JOSTENS INC - SOUTHTOWN,331492,issues,issues,issues,issues,issues,issues,110000497427.0,issues,issues,issues,issues,issues,issues,issues,issues,issues,issues,issues,issues,issues,left_only
issues,issues,issues,issues,issues,issues,issues,issues,issues,issues,110000582977.0,UNION ELECTRIC STEEL CORP,RT 18,BURGETTSTOWN,PA,15021,40.4077,-80.4053,WASHINGTON,332111,nan,15021NNLCTPOBOX,TRI,right_only
