FRS_ID,FacilityName,Address,City,State,Zip,Latitude,Longitude,County,NAICS,SIC,FacilityID,Source
110000609994.0,Miramar Energy Facility,6897 CONSOLIDATED WAY,SAN DIEGO,CA,92121.0,32.8769,-117.1664,San Diego,221112,,1000447,GHGRP
110000609994.0,SDG&E MIRAMAR,6875 CONSOLIDATED WY,SAN DIEGO,CA,92121,32.877688,-117.167841,San Diego,221113,,13561211,NEI
110040575981.0,"Midway Peaking, LLC",43627 WEST PANOCHE ROAD,FIREBAUGH,CA,93622.0,36.654,-120.5797,Fresno,221112,,1000545,GHGRP
110040575981.0,MIDWAY PEAKING LLC,43627 W PANOCHE RD,FIREBAUGH,CA,93622,36.655475,-120.579969,Fresno,221121,,17418611,NEI
110008138078.0,Gibbons Creek Switchyard,12824 FM244,ANDERSON,TX,77830.0,30.6167,-96.0778,Grimes,221112,,1001032,GHGRP
110008138078.0,GIBBONS CREEK,FM 244 2.5 MI N OF HWY 30; NEAR CARLOS,BRYAN,TX,77801,30.615019,-96.077758,Grimes,22111,,6436311,NEI
110008138078.0,GIBBONS CREEK STEAM ELECTRIC STATION,12824 FM 244,ANDERSON,TX,77830,30.619651,-96.081834,GRIMES,221112,,77830GBBNS25MIL,TRI
110000464426.0,San Miguel,6200 FM 3387,CHRISTINE,TX,78012.0,28.7044,-98.4781,Atascosa,221112,,1001040,GHGRP
110000464426.0,SAN MIGUEL ELECTRIC COOPERATIVE INC,6200 FM 3387,CHRISTINE,TX,78012,28.704455,-98.477218,ATASCOSA,221122,,78012SNMGL6200F,TRI
110015670521.0,Bayer CropScience LP - Luling Site,12501 S RIVER RD,LULING,LA,70070.0,29.92444,-90.352217,ST. CHARLES PARISH,325199,,1001989,GHGRP
110015670521.0,Monsanto Co - Luling Plant,12501 River Rd,Luling,LA,70070,29.92294,-90.35569,St. Charles,325320,,5608911,NEI
110015670521.0,BAYER CROPSCIENCE LP,12501 RIVER RD,LULING,LA,70070,29.92444,-90.352217,ST. CHARLES PARISH,325320,,70070MNSNTRIVER,TRI
110000374443.0,COVORO MINING SOLUTIONS LLC,2571 FITE ROAD,MEMPHIS,TN,38127.0,35.27213,-89.97894,SHELBY COUNTY,325188,,1002709,GHGRP
110000374443.0,E  I  Dupont De Nemours & Company  Inc,2571 Fite Road,Memphis,TN,38127,35.267215,-89.977692,Shelby,325180,,4963911,NEI
110000374443.0,COVORO MINING SOLUTIONS LLC,2571 FITE RD,MEMPHIS,TN,38127,35.27213,-89.97894,SHELBY,325180,,38127DPNTM2571F,TRI
110000481979.0,J R SIMPLOT COMPANY,12688 S. COLORADO AVE.,HELM,CA,93627.0,36.551156,-120.113717,FRESNO COUNTY,325311,,1003636,GHGRP
110000481979.0,J R SIMPLOT COMPANY,12688 S COLORADO AVE,HELM,CA,93627,36.549,-120.107,Fresno,331313,,13865911,NEI
110000481979.0,J R SIMPLOT CO,12688 S COLORADO AVE,HELM,CA,93627,36.551156,-120.113717,FRESNO,325311,,93627JRSMP12688,TRI
110002426232.0,PG&E KETTLEMAN COMPRESSOR STATION,34453 PLYMOUTH AVENUE,AVENAL,CA,93204.0,36.074286,-120.083221,KINGS COUNTY,221210,,1004068,GHGRP
110002426232.0,PG & E CO -KETTLEMAN COMPRESSOR STATION,34453 PLYMOUTH AVE,AVENAL,CA,93204,36.07416,-120.08308,Kings,486210,,19311,NEI
110043790092.0,Puget Sound Energy LDC,10885 NE 4th St,Bellevue,WA,98004.0,47.61373,-122.19453,KING COUNTY,221210,,1005387,GHGRP
110043790092.0,Puget Sound Energy T&D,10885 N.E. 4th Street,Bellevue,WA,98004.0,47.61373,-122.19453,KING COUNTY,221122,,1010301,GHGRP
110035808855.0,"Emery Oleochemicals, LLC",4900 ESTE AVENUE,CINCINNATI,OH,45232.0,39.1792,-84.5053,Hamilton,325199,,1007325,GHGRP
110035808855.0,Emery Oleochemicals LLC (1431074278),4900 Este Avenue,Cincinnati,OH,45232-1491,39.1776,-84.50433,Hamilton,325998,,13571911,NEI
110035808855.0,BASF CORP,4900 ESTE AVENUE,CINCINNATI,OH,45232,39.1782,-84.5041,HAMILTON,325998,,45232CGNSC49EST,TRI
110000743704.0,Eastman Chemical - Texas Operations,300 KODAK BLVD,LONGVIEW,TX,75602.0,32.4472,-94.6917,Harrison,325199,,1007438,GHGRP
110000743704.0,TEXAS OPERATIONS,HWY 149 KODAK BLVD,LONGVIEW,TX,75607,32.441244,-94.690367,Harrison,325110,,4941511,NEI
110000743704.0,EASTMAN COGENERATION FACILITY,CALLAHAN RD,LONGVIEW,TX,75602,32.447853,-94.690706,Harrison,221121,,7908711,NEI
110000743704.0,EASTMAN CHEMICAL CO TEXAS OPERATIONS,300 KODAK BLVD,LONGVIEW,TX,75602,32.438056,-94.69,HARRISON,325199,,75607TXSSTOFFHI,TRI
110000434931.0,W. R. Grace & Co.,4099 W. 71st. Street,Chicago,IL,60629.0,41.763491,-87.723679,COOK COUNTY,325188,,1011462,GHGRP
110000434931.0,WR Grace,4099 W 71st St,Chicago,IL,60629-5839,41.763491,-87.723679,Cook,325180,,8189011,NEI
110000434931.0,W R GRACE & CO,4099 W 71ST ST,CHICAGO,IL,60629,41.763491,-87.723679,COOK,325180,,60629KTLCD4099W,TRI
110067566440.0,Red Gate Power Plant,3428 WEST FM 490,Edinburg,TX,78541.0,26.450628,-98.177386,HIDALGO COUNTY,221112,,1012373,GHGRP
110067566440.0,RED GATE POWER PLANT,3428 WEST FM 490,EDINBURG,TX,78541,26.450928,-98.176464,Hidalgo,22111,,17910611,NEI
110000844631.0,Pacific Gas and Electric Company (PG&E) - SF6 Emissions,77 Beale Street,San Francisco,CA,94105.0,37.79134,-122.39604,SAN FRANCISCO COUNTY,221122,,1009578,GHGRP
110000844631.0,PG&E Transmission Blowdown,77 Beale Street,San Francisco,CA,94105.0,37.7890183,-122.3915063,SAN FRANCISCO COUNTY,221210,,1012662,GHGRP
110000844631.0,PACIFIC GAS & ELECTRIC COMPANY,77 BEALE STREET,SAN FRANCISCO,CA,94105,37.7898,-122.39513,San Francisco,221112,,3335911,NEI
110069222193.0,"Eight Flags Energy, LLC",22 Gum Street,Fernandina Beach,FL,32034.0,30.662586,-81.469563,NASSAU COUNTY,221112,,1012749,GHGRP
110069222193.0,EIGHT FLAGS ENERGY LLC,22 Gum St,FERNANDINA BEACH,FL,32034-4280,30.662222,-81.484167,Nassau,2211,,17879311,NEI
110070073797.0,Albany Green Energy,508 Liberty Expressway SE,Albany,GA,31705.0,31.55427,-84.11488,DOUGHERTY COUNTY,221112,,1012844,GHGRP
110070073797.0,"Albany Green Energy, LLC",512 Liberty Expressway SE,Albany,GA,31705-4147,31.55399,-84.10756,Dougherty,221117,,17945711,NEI
110000494019.0,BASF Corporation,1609 Biddle Avenue,Wyandotte,MI,48192.0,42.219195,-83.14674,WAYNE COUNTY,325199,,1013958,GHGRP
110000494019.0,BASF CORP,1609  BIDDLE AVE,WYANDOTTE,MI,48192,42.219195,-83.14674,Wayne,325199,,8158611,NEI
110000494019.0,BASF CORP,1609 BIDDLE AVE,WYANDOTTE,MI,481923729,42.2183,-83.1459,WAYNE,325211,,48192BSFCR1609B,TRI
110000494019.0,BASF CORP,1609  BIDDLE AVE,WYANDOTTE,MI,48192,42.2215,-83.1472,Wayne,325991,,8083611,NEI
110000494019.0,BASF Corporation,1609 BIDDLE AVE.,WYANDOTTE,MI,48192,42.2183,-83.1459,Wayne,541715,,13671511,NEI
110000312796.0,"MANCHESTER STREET, LLC",40 POINT ST,PROVIDENCE,RI,02903,41.8167,-71.4042,Providence,2211,,5486911,NEI
110000312796.0,MANCHESTER STREET LLC.,40 POINT ST,PROVIDENCE,RI,2903,41.817192,-71.405448,PROVIDENCE,221112,,02903SGNNW40POI,TRI
110000312796.0,Manchester Street,40 POINT ST,PROVIDENCE,RI,2903.0,41.8167,-71.4042,Providence,221112,,1000905,GHGRP
110000334656.0,MC PROJECT CO LLC/MARTINS CREEK,6605 FOUL RIFT RD,BANGOR,PA,18013-4857,40.79604,-75.10762,Northampton,221112,,3881711,NEI
110000334656.0,Martins Creek,6605 FOUL RIFT ROAD,BANGOR,PA,18013.0,40.796,-75.107,Northampton,221112,,1000892,GHGRP
110000334656.0,MC OPCO LLC,ROUTE 611,MARTINS CREEK,PA,18063,40.79323,-75.12801,Northampton,486910,,12796811,NEI
110000336100.0,EVONIK CORP/CHESTER,1200 W FRONT ST,CHESTER,PA,19013-3438,39.8376,-75.37294,Delaware,325130,,4723811,NEI
110000336100.0,EVONIK CORP,1200 W FRONT ST,CHESTER,PA,19013,39.837605,-75.37294,DELAWARE,327999,,19013NRTHM1200W,TRI
110000336100.0,EVONIK CORPORATION,1200 W. FRONT ST.,CHESTER,PA,19013.0,39.837605,-75.37294,DELAWARE COUNTY,325188,,1000297,GHGRP
110000337029.0,EXELON GENERATION CO/SCHUYLKILL STA,2800 CHRISTIAN ST,PHILADELPHIA,PA,19146,39.9425,-75.1883,Philadelphia,221118,,6559811,NEI
110000337029.0,Schuylkill,2800 CHRISTIAN STREET,PHILADELPHIA,PA,19146.0,39.9425,-75.1883,Philadelphia,221112,,1000900,GHGRP
110000350272.0,Elementis Chromium,5408 Holly Shelter Road,Castle Hayne,NC,28429,34.372516,-77.859466,New Hanover,325180,,7923311,NEI
110000350272.0,ELEMENTIS CHROMIUM INC,5408 HOLLY SHELTER RD,CASTLE HAYNE,NC,28429,34.372516,-77.859466,NEW HANOVER,325180,,28429CCDNTOFFST,TRI
110000350272.0,ELEMENTIS CHROMIUM,5408 HOLLY SHELTER ROAD,CASTLE HAYNE,NC,28429.0,34.372516,-77.859466,NEW HANOVER COUNTY,325188,,1005640,GHGRP
110000361929.0,JEA,4215 TALLEYRAND AVE,JACKSONVILLE,FL,32206-1725,30.365168,-81.624527,Duval,2211,,557811,NEI
110000361929.0,J D Kennedy,4215 TALLEYRAND AVE,JACKSONVILLE,FL,32206.0,30.3644,-81.6236,Duval,221112,,1001497,GHGRP
110000362615.0,"CITY OF GAINESVILLE, GRU",10001 NW 13th St,GAINESVILLE,FL,32653-7864,29.7586,-82.3883,Alachua,2211,,535011,NEI
110000362615.0,GAINESVILLE REGIONAL UTILITIES DEERHAVEN GENERATING STATION,10001 NW 13TH ST,GAINESVILLE,FL,32653,29.7586,-82.3883,ALACHUA,221112,,32653GNSVL10001,TRI
110000362615.0,Deerhaven,10001 NW 13TH ST,GAINESVILLE,FL,32653.0,29.7586,-82.3883,Alachua,221112,,1001495,GHGRP
110000363963.0,FLORIDA POWER & LIGHT (PRV),200-300 Broadway (U.S. 1),RIVIERA BEACH,FL,33404,26.7653,-80.0528,Palm Beach,2211,,921511,NEI
110000363963.0,Riviera,200 300 BROADWAY,RIVIERA BEACH,FL,33404.0,26.7653,-80.0528,Palm Beach,221112,,1001485,GHGRP
110000364882.0,"C.D. MCINTOSH, JR. POWER PLANT",3030 EAST LAKE PARKER DRIVE,LAKELAND,FL,33805,28.07992,-81.92606,Polk,2211,,643111,NEI
110000364882.0,CD MCINTOSH JR POWER PLANT,3030 E LAKE PARKER DR,LAKELAND,FL,33805,28.0816,-81.9253,POLK,221112,,33805CDMCN3030E,TRI
110000364882.0,C D McIntosh Jr Power Plant,3030 E LAKE PARKER DR,LAKELAND,FL,33801.0,28.0809,-81.9256,Polk,221112,,1001500,GHGRP
110000365113.0,TAMPA ELECTRIC COMPANY,9995 STATE ROUTE 37 SOUTH,MULBERRY,FL,33860-0775,27.727015,-81.989774,Polk,2211,,751911,NEI
110000365113.0,POLK POWER STATION,9995 STATE RD 37 S,MULBERRY,FL,33860,27.727015,-81.989774,POLK,221112,,33860TMPLC9995S,TRI
110000365113.0,Polk,9995 STATE ROAD 37 SOUTH,MULBERRY,FL,33860.0,27.7286,-81.9897,Polk,221112,,1001100,GHGRP
110000370508.0,Prince Specialty Products LLC (formerly Prince Erachem Inc.),795 Foote Lane,New Johnsonville,TN,37134,35.9966,-87.979,Humphreys,325180,,5610711,NEI
110000370508.0,VIBRANTZ SPECIALTY PRODUCTS LLC,795 FOOTE LN,NEW JOHNSONVILLE,TN,37134,35.99622,-87.979395,HUMPHREYS,325180,,37134CHMTLFOOTE,TRI
110000370508.0,"ERACHEM COMILOG, INC.",795 FOOTE LANE,NEW JOHNSONVILLE,TN,37134.0,35.99622,-87.979395,HUMPHREYS COUNTY,325188,,1007164,GHGRP
110000373998.0,PMC Biogenix (formerly Crompton Corporation/ Enenco),1231 Pope Street,Memphis,TN,38108,35.166536,-89.959878,Shelby,325992,,5706111,NEI
110000373998.0,PMC BIOGENIX INC,1231 POPE STREET,MEMPHIS,TN,38108.0,35.16677,-89.95893,SHELBY COUNTY,325199,,1005312,GHGRP
110000374434.0,Lucite International  Inc,2665 Fite Road,Memphis,TN,38127,35.2708,-89.97509,Shelby,325199,,6194311,NEI
110000374434.0,MITSUBISHI CHEMICAL AMERICA INC,2665 FITE RD,MEMPHIS,TN,38127,35.2716,-89.97407,SHELBY,325211,,38127CCRYL2665F,TRI
110000374434.0,LUCITE INTERNATIONAL INC,2665 FITE ROAD,MEMPHIS,TN,38127.0,35.2716,-89.97407,SHELBY COUNTY,325199,,1001214,GHGRP
110000378207.0,"Clariant Corporation, Louisville West Plant",1227 S 12TH ST,LOUISVILLE,KY,40210-1525,38.2356,-85.77498,Jefferson,325180,,7353111,NEI
110000378207.0,CLARIANT CORP 12TH STREET FACILITY,1227 S 12TH ST,LOUISVILLE,KY,40210,38.233611,-85.7755,JEFFERSON,325180,,40210NTDCT1227S,TRI
110000378207.0,"Clariant Corporation, Louisville Site, West Plant",1227 S. 12th Street,Louisville,KY,40210.0,38.233611,-85.7755,JEFFERSON COUNTY,325188,,1010761,GHGRP
110000378537.0,"Louisville Gas & Electric Co., Cane Run Station",5252 CANE RUN RD,LOUISVILLE,KY,40216-1198,38.18152,-85.88266,Jefferson,221122,,5702411,NEI
110000378537.0,Cane Run,5252 Cane Run Road,Louisville,KY,40216.0,38.1828,-85.8894,JEFFERSON COUNTY,221112,,1006509,GHGRP
110000378733.0,"Louisville Gas & Electric Co., Mill Creek Station",14660 DIXIE HWY,LOUISVILLE,KY,40272-1099,38.04639,-85.91021,Jefferson,221122,,7353711,NEI
110000378733.0,LOUISVILLE GAS & ELECTRIC CO. - MILL CREEK STATION,14660 DIXIE HWY,LOUISVILLE,KY,40272,38.0501,-85.9076,JEFFERSON,221112,,40272LSVLL14660,TRI
110000378733.0,Mill Creek,14660 Dixie Highway,Louisville,KY,40272.0,38.0531,-85.91,JEFFERSON COUNTY,221112,,1006510,GHGRP
110000384307.0,Chemtrade Refinery Solutions Limited Partnership (0448020014),1400 Otter Creek Road,Oregon,OH,43616-1232,41.68167,-83.45556,Lucas,325180,,8302111,NEI
110000384307.0,CHEMTRADE REFINERY SOLUTIONS LP,1400 OTTER CREEK RD,OREGON,OH,43616,41.681417,-83.457722,LUCAS,325180,,43616CLTNC1400O,TRI
110000384307.0,Chemtrade Refinery Solutions LP,1400 Otter Creek Rd.,Oregon,OH,43616.0,41.681417,-83.457722,LUCAS COUNTY,325188,,1009487,GHGRP
110000395260.0,"American Centrifuge Operating, LLC (0666000000)",3930 U.S. Route 23 South,Piketon,OH,45661-0628,39.00645,-82.99855,Pike,325180,,8450111,NEI
110000395260.0,U.S. DOE PORTSMOUTH GASEOUS DIFFUSION PLANT,3930 US ROUTE 23 SOUTH,PIKETON,OH,45661.0,39.01333,-82.99805,PIKE COUNTY,325188,,1003709,GHGRP
110000410742.0,Occidental Chemical Corporation,1600 S. Madison St.,LUDINGTON,MI,49431,43.9382,-86.4309,Mason,325180,,8112011,NEI
110000410742.0,OCCIDENTAL CHEMICAL CORPORATION - Ludington facility,1600 S. MADISON ST.,LUDINGTON,MI,49431.0,43.939586,-86.434715,MASON COUNTY,325188,,1001708,GHGRP
110000422524.0,XCEL ENERGY-FRENCH ISLAND GENERATING PLANT,200 Bainbridge St,La Crosse,WI,54603-1564,43.8291,-91.2597,La Crosse,221112,,4958811,NEI
110000422524.0,FRENCH ISLAND PLANT,200 S BAINBRIDGE ST,LA CROSSE,WI,54603,43.8291,-91.2597,LA CROSSE,221117,,54603NRTHR200SB,TRI
110000422524.0,French Island,200 SOUTH BAINBRIDGE STREET,LA CROSSE,WI,54603.0,43.8298,-91.26,La Crosse,221112,,1000219,GHGRP
110000423612.0,Xcel Energy - Allen S King Generating Plant,1103 King Plant Rd,Bayport,MN,55003,45.0305,-92.7779,Washington,221121,,6772111,NEI
110000423612.0,XCEL ENERGY   A. S. KING GENERATING PLANT,1103 KING RD,BAYPORT,MN,55003,45.029468,-92.779018,WASHINGTON,221112,,55003SKNGG1103K,TRI
110000423612.0,Allen S King,1103 KING PLANT RD,OAK PARK HEIGHTS,MN,55003.0,45.03,-92.7786,Washington,221112,,1000691,GHGRP
110000423658.0,LSP Cottage Grove Cogeneration Facility,9525 105th St Court S,Cottage Grove,MN,55016,44.7955,-92.9101,Washington,221122,,6785711,NEI
110000423658.0,Cottage Grove Cogeneration,9525 105TH ST COURT S,COTTAGE GROVE,MN,55016.0,44.7956,-92.9119,Washington,221112,,1001291,GHGRP
110000427020.0,Agri-Energy,502 Walnut Ave S,Luverne,MN,56156,43.64752,-96.22463,Rock,325193,,6926711,NEI
110000427020.0,AGRI-ENERGY,502 S WALNUT,LUVERNE,MN,56156,43.648333,-96.224444,ROCK,325193,,56156GRNRG502SW,TRI
110000427020.0,AGRI ENERGY LLC,502 SOUTH WALNUT AVENUE,LUVERNE,MN,56156.0,43.648333,-96.224444,ROCK COUNTY,325199,,1005284,GHGRP
110000434174.0,Vantage Oleochemicals Inc,4650 S Racine Ave,Chicago,IL,60609-3321,41.810961,-87.657293,Cook,325998,,3203811,NEI
110000434174.0,VANTAGE OLEOCHEMICALS,4650 S. RACINE AVE.,CHICAGO,IL,60609.0,41.810961,-87.657293,COOK COUNTY,325199,,1001336,GHGRP
110000437974.0,Evonik Corp,8300 W Rte 24,Mapleton,IL,61547-7500,40.564399,-89.724856,Peoria,325613,,7940111,NEI
110000437974.0,EVONIK CORP,8300 W RT 24,MAPLETON,IL,61547,40.564725,-89.724485,PEORIA,325613,,61547GLDSC8300W,TRI
110000437974.0,EVONIK CORPORATION,8300 WEST ROUTE 24,MAPLETON,IL,61547.0,40.564725,-89.724485,PEORIA COUNTY,325199,,1005465,GHGRP
110000445340.0,Kansas City BPU - Nearman,4240 N 55th St,Kansas City,KS,66104,39.169279,-94.69723,Wyandotte,221112,,4633811,NEI
110000445340.0,NEARMAN CREEK POWER STATION,4240 N 55TH ST,KANSAS CITY,KS,66104,39.16222,-94.700287,WYANDOTTE,221122,,66104NRMNC4240N,TRI
110000445340.0,Nearman Creek,4240 NORTH 55TH STTREET,KANSAS CITY,KS,66104.0,39.1714,-94.6958,Wyandotte,221112,,1007019,GHGRP
110000448249.0,Platte Generating Station,1035 W Wildwood Dr,Grand Island,NE,68801-9639,40.8551,-98.3487,Hall,926130,,8212011,NEI
110000448249.0,PLATTE GENERATING STATION,1035 W WILDWOOD DR,GRAND ISLAND,NE,68801,40.855103,-98.3487,HALL,221112,,68801PLTTG1035W,TRI
110000448249.0,Platte,1035 W. Wildwood Drive,Grand Island,NE,68801.0,40.8538,-98.3481,Hall,221112,,1007597,GHGRP
110000450002.0,Deltech Corp - Baton Rouge Facility,11911 Scenic Hwy,Baton Rouge,LA,70807,30.55411,-91.20369,East Baton Rouge,325110,,7226311,NEI
110000450002.0,DELTECH MONOMERS OPCO LLC,11911 SCENIC HWY,BATON ROUGE,LA,70807,30.553364,-91.202428,EAST BATON ROUGE PARISH,325199,,70807HCHST11911,TRI
110000450002.0,Deltech Monomers OpCo,11911 SCENIC HIGHWAY,BATON ROUGE,LA,70807.0,30.553364,-91.202428,EAST BATON ROUGE PARISH,325199,,1002789,GHGRP
110000450100.0,Eco Services Operations Corp - DE - Sulfuric Acid Plant,1301 Airline Hwy,Baton Rouge,LA,70805,30.50936,-91.18806,East Baton Rouge,325180,,8215111,NEI
110000450100.0,Eco Services Baton Rouge Site,1301 AIRLINE HWY.,BATON ROUGE,LA,70807.0,30.50986,-91.18465,EAST BATON ROUGE PARISH,325188,,1003003,GHGRP
110000450100.0,Solvay USA Inc - Solvay Baton Rouge Site - Aroma Performance Facility,1275 Airline Hwy,Baton Rouge,LA,70805,30.51177,-91.19188,East Baton Rouge,325180,,16972411,NEI
110000450627.0,CLECO Power LLC - Brame Energy Center,275 Rodemacher Rd,Lena,LA,71447,31.39556,-92.71861,Rapides,221121,,7446811,NEI
110000450627.0,BRAME ENERGY CENTER,275 RODEMACHER RD,LENA,LA,71447,31.3973,-92.7189,RAPIDES PARISH,221112,,71447CLCCR275RO,TRI
110000450627.0,Brame Energy Center,275 RODEMACHER RD,LENA,LA,71447.0,31.395,-92.7167,Rapides,221112,,1001041,GHGRP
110000451038.0,GREAT LAKES CHEMICAL CORP - SOUTH PLANT,324 SOUTHFIELD CUTOFF,EL DORADO,AR,71730,33.1113,-92.6754,Union,325180,,993411,NEI
110000451038.0,LANXESS - SOUTH PLANT,324 SOUTHFIELD CUTOFF,EL DORADO,AR,71730,33.110306,-92.672944,UNION,325180,,71730GRTLKRT7BO,TRI
110000451038.0,LANXESS Corporation - South Plant,324 SOUTHFIELD CUTOFF,EL DORADO,AR,71730.0,33.110306,-92.672944,UNION COUNTY,325188,,1008036,GHGRP
110000451109.0,GREAT LAKES CHEMICAL CORPORATION- Central Plant,2226 HAYNESVILLE HWY,EL DORADO,AR,71730,33.186666,-92.706111,Union,325998,,1101811,NEI
110000451109.0,LANXESS - CENTRAL,2226 HAYNESVILLE HWY,EL DORADO,AR,71730,33.1831,-92.7069,UNION,325180,,71731GRTLKHIGHW,TRI
110000451109.0,LANXESS Corporation - Central Plant,2226 HAYNESVILLE HIGHWAY,EL DORADO,AR,71730.0,33.1831,-92.7069,UNION COUNTY,325188,,1006968,GHGRP
110000460983.0,JACINTOPORT PLANT,16717 JACINTOPORT BOULEVARD,CHANNELVIEW,TX,77530,29.754969,-95.099425,Harris,325110,,4182411,NEI
110000460983.0,MONUMENT CHEMICAL HOUSTON LLC,16717 JACINTOPORT BLVD,HOUSTON,TX,77015,29.75487,-95.10327,HARRIS,325199,,77015JHNNH16717,TRI
110000460983.0,"MONUMENT CHEMICAL HOUSTON, LLC",16717 JACINTOPORT BOULEVARD,HOUSTON,TX,77015.0,29.75487,-95.10327,HARRIS COUNTY,325199,,1004018,GHGRP
110000462936.0,BAYPORT PLANT,12801 BAY AREA BLVD,LA PORTE,TX,77571,29.637778,-95.053333,Harris,325110,,4168911,NEI
110000462936.0,LUBRIZOL CORP BAYPORT FACILITY,12801 BAY AREA BLVD,PASADENA,TX,77507,29.638475,-95.052814,HARRIS,325199,,77507LBRZL12801,TRI
110000462936.0,LUBRIZOL BAYPORT PLANT,12801 BAY AREA BOULEVARD,PASADENA,TX,77507.0,29.638475,-95.052814,HARRIS COUNTY,325199,,1000619,GHGRP
110000463392.0,FREEPORT SITE,602 COPPER RD,FREEPORT,TX,77541,28.999242,-95.394117,Brazoria,325110,,4897511,NEI
110000463392.0,BASF CORP - FREEPORT SITE,602 COPPER RD,FREEPORT,TX,77541,29.002075,-95.399777,BRAZORIA,325199,,77541BSFCR602CO,TRI
110000463392.0,BASF FREEPORT SITE,602 COPPER ROAD,FREEPORT,TX,77541.0,29.002075,-95.399777,BRAZORIA COUNTY,325199,,1001934,GHGRP
110000464168.0,ARKEMA BEAUMONT PLANT,2810 GULF STATES RD,BEAUMONT,TX,77701,30.060128,-94.056614,Jefferson,325110,,6430011,NEI
110000464168.0,ARKEMA INC,2810 GULF STATE RD,BEAUMONT,TX,77701,30.060226,-94.058976,JEFFERSON,325199,,77704PNNWL2052G,TRI
110000464168.0,ARKEMA BEAUMONT PLANT,2810 GULF STATES ROAD,BEAUMONT,TX,77701.0,30.060226,-94.058976,JEFFERSON COUNTY,325199,,1006644,GHGRP
110000464916.0,CALAVERAS PLANT,12940 S US HWY 181,SAN ANTONIO,TX,78223,29.308056,-98.320556,Bexar,22111,,5617211,NEI
110000464916.0,CALAVERAS POWER STATION,12940 S US HIGHWAY 181,SAN ANTONIO,TX,78223,29.308764,-98.321969,BEXAR,221112,,78263WSMMR9599G,TRI
110000464916.0,O W Sommers,12940 S US Hwy 181,SAN ANTONIO,TX,78223.0,29.3078,-98.3244,Bexar,221112,,1000570,GHGRP
110000468066.0,Cheyenne Plant,"17,13N,67W",Laramie,WY,82001,41.09528,-104.91466,Laramie,212399,,7001211,NEI
110000468066.0,DYNO NOBEL INC-CHEYENNE PLANT,8305 OTTO RD,CHEYENNE,WY,82001,41.0949,-104.908,LARAMIE,325311,,82007DYNNB835TT,TRI
110000468066.0,Cheyenne Plant,8305 Otto Road,Cheyenne,WY,82001.0,41.0949,-104.908,LARAMIE COUNTY,325311,,1005924,GHGRP
110000469920.0,Compass Minerals Ogden Inc. - Production Plant,765 N 10500 W,Ogden,UT,84404,41.280714,-112.231495,Weber,325180,,6734411,NEI
110000469920.0,Compass Minerals Ogden Inc,765 N 10500 W,Ogden,UT,84404.0,41.27432,-112.22376,WEBER COUNTY,325188,,1009764,GHGRP
110000472097.0,Irvington,3950 East Irvington Road,Tucson,AZ,85714,32.1597,-110.9051,Pima,2211,,977911,NEI
110000472097.0,Irvington Generating Station,3950 E IRVINGTON ROAD,TUCSON,AZ,85714.0,32.16,-110.9047,Pima,221112,,1001425,GHGRP
110000476208.0,ECO SERVICES OPERATIONS CORP.,20720 S WILMINGTON AVE,CARSON,CA,90810,33.84323,-118.23299,Los Angeles,325180,,67011,NEI
110000476208.0,ECO SERVICES OPERATIONS CORP,20720 S WILMINGTON AVE,CARSON,CA,90746,33.843333,-118.232844,LOS ANGELES,325180,,90746STFFR20720,TRI
110000476208.0,ECO SERVICES DOMINGUEZ,20720 SOUTH WILMINGTON AVENUE,CARSON,CA,90810.0,33.843333,-118.232844,LOS ANGELES COUNTY,325188,,1007539,GHGRP
110000493056.0,TAMPA ELECTRIC COMPANY,3602 PORT SUTTON ROAD,TAMPA,FL,33619,27.90702,-82.42016,Hillsborough,2211,,901211,NEI
110000493056.0,Bayside Power Station,3602 PORT SUTTON ROAD,TAMPA,FL,33619.0,27.9072,-82.4231,Hillsborough,221112,,1001172,GHGRP
110000496776.0,FLORIDA POWER & LIGHT (PMT),19050 State Road 62,PARRISH,FL,34219-9220,27.6056,-82.3463,Manatee,2211,,537911,NEI
110000496776.0,Manatee,19050 STATE ROAD 62,PARRISH,FL,34219.0,27.6058,-82.3456,Manatee,221112,,1007255,GHGRP
110000501154.0,VICTORIA POWER PLANT,1205 CS BOTTOM ST,VICTORIA,TX,77901,28.788794,-97.009717,Victoria,22111,,6497211,NEI
110000501154.0,Victoria Power Station,1205 S BOTTOM ST,VICTORIA,TX,77901.0,28.7883,-97.01,Victoria,221112,,1000924,GHGRP
110000503722.0,CHOCOLATE BAYOU PLANT,3 M S OF FM 2004 & FM 2917 INTERX,ALVIN,TX,77512,29.226603,-95.200497,Brazoria,325110,,5632411,NEI
110000503722.0,ASCEND PERFORMANCE MATERIALS CHOCOLATE BAYOU PLANT,FM 2917; 8 MI S OF INTX OF HWY 35 & FM 2917,ALVIN,TX,77511,29.250686,-95.211072,Brazoria,325110,,5633311,NEI
110000503722.0,ASCEND PERFORMANCE MATERIALS-CHOCOLATE BAYOU PLANT,1 MONSANTO RD FM 2917,ALVIN,TX,775110000,29.231225,-95.196088,BRAZORIA,325199,,77511SLTNCFM291,TRI
110000503722.0,ASCEND PERFORMANCE MATERIALS-CHOCOLATE BAYOU PLANT,1 MONSANTO RD FM 2917,ALVIN,TX,775110000,29.231225,-95.196088,BRAZORIA,325180,,77511SLTNCFM291,TRI
110000503722.0,CHOCOLATE BAYOU PLANT,ON FM 2917 8 MILES SOUTH OF INTERSECTION OF HWY 35 AND FM 2917,ALVIN,TX,77512,29.251911,-95.210289,Brazoria,325110,,16871811,NEI
110000503722.0,ASCEND PERFORMANCE MATERIALS CHOCOLATE BAYOU FACILITY,None,ALVIN,TX,77512.0,29.2567,-95.2144,BRAZORIA COUNTY,325199,,1002190,GHGRP
110000506079.0,BAYPORT UNDERWOOD PLANT,5761 UNDERWOOD RD,PASADENA,TX,77507,29.630833,-95.079714,Harris,325110,,4926611,NEI
110000506079.0,EQUISTAR CHEMICALS BAYPORT CHEMICALS PLANT,5761 UNDERWOOD RD,PASADENA,TX,77507,29.627167,-95.080194,HARRIS,325199,,77507QSTRC5761U,TRI
110000506079.0,EQUISTAR CHEMICALS LIMITED PARTNERSHIP BAYPORT PLANT,5761 UNDERWOOD ROAD,PASADENA,TX,77507.0,29.627167,-95.080194,HARRIS COUNTY,325199,,1006656,GHGRP
110000524969.0,CALPINE GREENLEAF UNIT II,875 NORTH WALTON AVE,YUBA CITY,CA,95993,39.138921,-121.638344,Sutter,221118,,1371711,NEI
110000524969.0,YUBA CITY ENERGY CENTER,875 NORTH WALTON AVE,Yuba City,CA,95993,39.13732,-121.64275,Sutter,221112,,18785511,NEI
110000524969.0,Yuba City Energy Center,875 NORTH WALTON AVE,YUBA CITY,CA,95993.0,39.1365,-121.6397,Sutter,221112,,1000123,GHGRP
110000525030.0,"BURBANK CITY,BURBANK WATER & POWER,SCPPA",164 W MAGNOLIA BLVD,BURBANK,CA,91502,34.178154,-118.316917,Los Angeles,531110,,13491811,NEI
110000525030.0,"BURBANK CITY, BURBANK WATER & POWER",164 W MAGNOLIA BLVD,BURBANK,CA,91502,34.178154,-118.316917,Los Angeles,221118,,5782811,NEI
110000525030.0,Magnolia,164 WEST MAGNOLIA BOULEVARD,BURBANK,CA,91502.0,34.1788,-118.3153,Los Angeles,221112,,1000457,GHGRP
110000527127.0,DOUBLE C LIMITED,"10245 OILFIELD RD, HEAVY OIL CENTRAL",BAKERSFIELD,CA,93308,35.5006,-119.0461,Kern,221113,,410111,NEI
110000527127.0,DOUBLE C LIMITED,10245 OILFIELD ROAD,BAKERSFIELD,CA,93308.0,35.490363,-119.042957,KERN COUNTY,221112,,1002820,GHGRP
110000529376.0,"CALPINE KING CITY COGEN, LLC",750 METZ ROAD,KING CITY,CA,93930,36.22647,-121.1275,Monterey,311423,,7877111,NEI
110000529376.0,"Gilroy Energy Center, LLC for King City",51 DON BATES WAY,KING CITY,CA,93930.0,36.225,-121.1278,Monterey,221112,,1000122,GHGRP
110000547052.0,INEOS Nitriles USA LLC (0302020371),1900 Fort Amanda Rd.,Lima,OH,45804,40.71417,-84.13223,Allen,325199,,13571611,NEI
110000547052.0,"PCS Nitrogen Ohio, L.P. (0302020370)",Fort Amanda & Adgate Roads,Lima,OH,45804,40.7145,-84.13249,Allen,325311,,8102411,NEI
110000547052.0,PCS NITROGEN OHIO L.P.,2200 FORT AMANDA RD,LIMA,OH,45804,40.717499,-84.132274,ALLEN,325311,,45802RCDNH1900F,TRI
110000547052.0,INEOS NITRILES USA LLC,1900 Fort Amanda Rd,Lima,OH,45804.0,40.717499,-84.132274,ALLEN COUNTY,325199,,1002955,GHGRP
110000582236.0,PSE&G Mercer,PSE&G MERCER,HAMILTON,NJ,08611,40.18014,-74.733631,Mercer,221122,,7474911,NEI
110000582236.0,MERCER GENERATING STATION,2512 LAMBERTON RD,HAMILTON TOWNSHIP,NJ,8611,40.178882,-74.733936,MERCER,221112,,08611MRCRGLAMBE,TRI
110000582236.0,Mercer Generating Station,LAMBERTON ROAD,HAMILTON,NJ,8611.0,40.1797,-74.7325,Mercer,221112,,1000748,GHGRP
110000588677.0,GULF POWER COMPANY,4300 COUNTY ROAD 2300,LYNN HAVEN,FL,32409,30.268491,-85.700036,Bay,2211,,554911,NEI
110000588677.0,Lansing Smith Generating Plant,4300 HIGHWAY 2300,SOUTHPORT,FL,32409.0,30.2689,-85.7003,Bay,221112,,1001491,GHGRP
110000588846.0,"DUKE ENERGY FLORIDA, LLC",1601 WEEDON ISLAND DRIVE,ST PETERSBURG,FL,33702,27.8614,-82.6011,Pinellas,2211,,751811,NEI
110000588846.0,DUKE ENERGY FLORIDA LLC-PL BARTOW POWER PLANT,1601 WEEDON ISLAND DR,SAINT PETERSBURG,FL,33702,27.862009,-82.601185,PINELLAS,221112,,33702FLRDPWEEDO,TRI
110000588846.0,P L Bartow Power Plant,1601 WEEDON ISLAND DRIVE,SAINT PETERSBURG,FL,33702.0,27.8613,-82.6012,Pinellas,221112,,1001489,GHGRP
110000589729.0,UOP LLC,1 Linde Drive,Chickasaw,AL,36527,30.75918,-88.07083,Mobile,325180,,1062611,NEI
110000589729.0,HONEYWELL - UOP LLC,1 LINDE DR,CHICKASAW,AL,36611,30.758831,-88.059471,MOBILE,325180,,36611NNCRBLINDE,TRI
110000589729.0,HONEYWELL - UOP LLC,1 LINDE DRIVE,CHICKASAW,AL,36611.0,30.75912,-88.07129,MOBILE COUNTY,325188,,1000628,GHGRP
110000592662.0,Indiana Municipal Power Agency,2000 US Hwy 27 S,Richmond,IN,47374,39.80268,-84.89517,Wayne,221112,,5506011,NEI
110000592662.0,WHITEWATER VALLEY GENERATING STATION,2000 US .27 HWY S,RICHMOND,IN,47374,39.8028,-84.8953,WAYNE,221122,,47374WHTWT2000U,TRI
110000592662.0,Whitewater Valley,2000 U.S. 27 South,RICHMOND,IN,47374.0,39.8028,-84.8953,Wayne,221112,,1005667,GHGRP
110000597104.0,Union Carbide Corp - St Charles Operations Site,355 Hwy 3142,Hahnville,LA,70057,29.98792,-90.44442,St. Charles,325110,,7202911,NEI
110000597104.0,ST CHARLES OPERATIONS (TAFT/STAR) UNION CARBIDE CORP,355 LA HWY 3142 (GATE 1),HAHNVILLE,LA,70057,29.9829,-90.4437,ST. CHARLES PARISH,325199,,70057NNCRBHWY31,TRI
110000597104.0,ST CHARLES OPERATIONS (TAFT/STAR) UNION CARBIDE CORP,355 LA HWY 3142 (GATE 1),HAHNVILLE,LA,70057,29.9829,-90.4437,ST. CHARLES PARISH,325211,,70057NNCRBHWY31,TRI
110000597104.0,St Charles Operations (Taft/Star) Union Carbide Corp,355 LA HWY 3142 (GATE 1),TAFT,LA,70057.0,29.9829,-90.4437,ST. CHARLES PARISH,325199,,1007031,GHGRP
110000597346.0,Veolia North America Regeneration Services LLC - Veolia Burnside Plant,3460 Hwy 44,Darrow,LA,70725,30.12339,-90.91343,Ascension,325180,,7914911,NEI
110000597346.0,VEOLIA BURNSIDE PLANT,3460 HWY 44,DARROW,LA,70725,30.125259,-90.912628,ASCENSION PARISH,325180,,70725DPNTB3460H,TRI
110000597346.0,Veolia Burnside Plant,3460 HWY. 44,DARROW,LA,70725.0,30.125259,-90.912628,ASCENSION PARISH,325188,,1002736,GHGRP
110000600369.0,Rock Springs Fertilizer Complex,"15,18N,104W",Sweetwater,WY,82935,41.53841,-109.12746,Sweetwater,32518,,4956711,NEI
110000600369.0,SIMPLOT PHOSPHATES LLC,515 S HWY 430,ROCK SPRINGS,WY,82901,41.53841,-109.12746,SWEETWATER,325312,,82901CHVRN525SH,TRI
110000600369.0,SIMPLOT PHOSPHATES,515 S HWY 430,ROCK SPRINGS,WY,82901.0,41.5414,-109.131,SWEETWATER COUNTY,325312,,1003087,GHGRP
110000602544.0,DOW CHEMICAL COMPANY,901 LOVERIDGE ROAD,PITTSBURG,CA,94565,38.02412,-121.85462,Contra Costa,325320,,6530311,NEI
110000602544.0,CORTEVA AGRISCIENCE LLC,901 LOVERIDGE RD,PITTSBURG,CA,94565,38.023129,-121.855352,CONTRA COSTA,325199,,94565DWCHMFOOTO,TRI
110000602544.0,Corteva agriscience - Pittsburg Operations,901 LOVERIDGE ROAD,PITTSBURG,CA,94565.0,38.023129,-121.855352,CONTRA COSTA COUNTY,325199,,1007805,GHGRP
110000604748.0,FLORIDA POWER & LIGHT COMPANY (PCC),6000 NORTH US HIGHWAY 1,COCOA,FL,32927,28.46949,-80.764184,Brevard,2211,,590411,NEI
110000604748.0,Cape Canaveral,6000 NORTH US HWY 1,COCOA,FL,32927.0,28.4694,-80.7642,Brevard,221112,,1007650,GHGRP
110000605051.0,BASF Corporation,1379 Ciba Road,Mcintosh,AL,36553,31.2789,-88.0043,Washington,325320,,7440611,NEI
110000605051.0,BASF CORP,1379 CIBA RD,MC INTOSH,AL,36553,31.2789,-88.0043,WASHINGTON,325199,,36653CBGGYGEIGY,TRI
110000605051.0,BASF CORPORATION,1379 CIBA RD,MC INTOSH,AL,36553.0,31.2789,-88.0043,WASHINGTON COUNTY,325199,,1003551,GHGRP
110000606489.0,OPPD Nebraska City Station,7264 L Rd,Nebraska City,NE,68410-6584,40.6208,-95.7733,Otoe,221122,,7303711,NEI
110000606489.0,OMAHA PUBLIC POWER DISTRICT NEBRASKA CITY STATION,7264 L RD,NEBRASKA CITY,NE,68410,40.6208,-95.7733,OTOE,221112,,68410MHPBLRR3XX,TRI
110000606489.0,Nebraska City Station,7264 L ROAD,NEBRASKA CITY,NE,68410.0,40.6215,-95.7765,Otoe,221112,,1001026,GHGRP
110000608245.0,LIMESTONE ELECTRIC GENERATION STATION,9 MI N OF JEWETT ON FM 39,JEWETT,TX,75846,31.417786,-96.254647,Limestone,22111,,5650511,NEI
110000608245.0,LIMESTONE ELECTRIC  GENERATING STATION,3964 FM39,JEWETT,TX,75846,31.423182,-96.251658,LIMESTONE,221122,,75846LMSTNFM39A,TRI
110000608245.0,Limestone,3964 FM 39,JEWETT,TX,75846.0,31.4219,-96.2525,Limestone,221112,,1005713,GHGRP
110000730433.0,CABRILLO POWER I LLC ENCINA POWER PLANT,4600 CARLSBAD BL,CARLSBAD,CA,92008,33.13609,-117.33645,San Diego,221118,,5003711,NEI
110000730433.0,Cabrillo Power I Encina Power Station,4600 CARLSBAD BLVD,CARLSBAD,CA,92008.0,33.1408,-117.3342,San Diego,221112,,1005837,GHGRP
110000741243.0,Nouryon Functional Chemicals LLC,13440 Hwy 43 North,Axis,AL,36505,30.9692,-88.0187,Mobile,325998,,949811,NEI
110000741243.0,NOURYON FUNCTIONAL CHEMICALS LLC,13440 HWY 43 N,AXIS,AL,36505,30.969439,-88.0175,MOBILE,325180,,36505KZCHMUSHIG,TRI
110000741243.0,"Akzo Nobel Functional Chemicals, LLC",13440 Highway 43 North,Axis,AL,36505.0,30.969439,-88.0175,MOBILE COUNTY,325188,,1010593,GHGRP
110000743508.0,ALBEMARLE CORPORATION-SOUTH PLANT,2270 Highway 79 South,Magnolia,AR,71753,33.177778,-93.219445,Columbia,3259,,976011,NEI
110000743508.0,ALBEMARLE CORP SOUTH PLANT,2270 HWY 79 S,MAGNOLIA,AR,71753,33.1756,-93.2169,COLUMBIA,325180,,71753THYLCROUTE,TRI
110000743508.0,ALBEMARLE CORPORATION-SOUTH PLANT,2270 HWY 79 SOUTH OF MAGNOLIA,MAGNOLIA,AR,71753.0,33.1756,-93.2169,COLUMBIA COUNTY,325188,,1004307,GHGRP
110000743982.0,P4 PRODUCTION LLC (TV FACILITY),1853 Hwy 34,SODA SPRINGS,ID,83276,42.68873,-111.58698,Caribou,32518,,932011,NEI
110000743982.0,P4 PRODUCTION LLC,1853 HWY 34,SODA SPRINGS,ID,83276,42.687031,-111.5878,CARIBOU,325180,,83276MNSNTHIGHW,TRI
110000743982.0,P4 PRODUCTION LLC,1853 HWY 34,SODA SPRINGS,ID,83276,42.687031,-111.5878,CARIBOU,325998,,83276MNSNTHIGHW,TRI
110000743982.0,P4 PRODUCTION L L C,1853 HIGHWAY 34,SODA SPRINGS,ID,83276.0,42.687031,-111.5878,CARIBOU COUNTY,325188,,1007943,GHGRP
110000746328.0,Westlake Vinyls Co LP,36045 Hwy 30,Geismar,LA,70734,30.19928,-91.02358,Ascension,325199,,7915011,NEI
110000746328.0,WESTLAKE VINYLS CO,36045 HWY 30,GEISMAR,LA,70734,30.208604,-91.011128,ASCENSION PARISH,325211,,70734BRDNCLOUIS,TRI
110000746328.0,WESTLAKE VINYLS CO LP,36045 Highway 30,GEISMAR,LA,70734.0,30.208604,-91.011128,ASCENSION PARISH,325199,,1004900,GHGRP
110000748059.0,PCS Nitrogen Fertilizer LP - Geismar Facility,5301 Hwy 3115,Geismar,LA,70734,30.21975,-91.05614,Ascension,325311,,6083511,NEI
110000748059.0,PCS NITROGEN FERTILIZER LP,HWY 3115 & HWY 30,GEISMAR,LA,70734,30.225784,-91.053154,ASCENSION PARISH,325311,,70734RCDNCHIGHW,TRI
110000748059.0,PCS NITROGEN FERTILIZER LP - GEISMAR AGRICULTURAL NITROGEN & PHOSPHATE PLANT,10886 Hwy 75,GEISMAR,LA,70734.0,30.225784,-91.053154,ASCENSION PARISH,325188,,1003489,GHGRP
110000748095.0,CONROE FACILITY,5451 JEFFERSON CHEMICAL RD,CONROE,TX,77305,30.313056,-95.38605,Montgomery,325110,,4945611,NEI
110000748095.0,HUNTSMAN PETROCHEMICAL LLC,5451 JEFFERSON CHEMICAL RD,CONROE,TX,77301,30.311361,-95.387083,MONTGOMERY,325199,,77301TXCCHJEFFE,TRI
110000748095.0,HUNTSMAN PETROCHEMICAL LLC,5451 JEFFERSON CHEMICAL ROAD,CONROE,TX,77301.0,30.311361,-95.387083,MONTGOMERY COUNTY,325199,,1002993,GHGRP
110000753319.0,"DUKE ENERGY FLORIDA, LLC",7700 COUNTY LINE ROAD 555,BARTOW,FL,33830,27.78869,-81.871226,Polk,2211,,552011,NEI
110000753319.0,Hines Energy Complex,7700 COUNTY ROAD 555,BARTOW,FL,33830.0,27.7886,-81.8694,Polk,221112,,1001112,GHGRP
110000861862.0,PORT ARTHUR CHEMICALS,4241 SAVANNAH AVE,PORT ARTHUR,TX,77640,29.891217,-93.968014,Jefferson,325110,,6430411,NEI
110000861862.0,MOTIVA - PORT ARTHUR CHEMICALS,4241 SAVANNAH AVE,PORT ARTHUR,TX,77640,29.892778,-93.973333,JEFFERSON,325110,,77641TXCCHGATE2,TRI
110000861862.0,Motiva Chemicals LLC,4241 SAVANNAH AVE,PORT ARTHUR,TX,77640.0,29.892778,-93.973333,JEFFERSON COUNTY,325199,,1006891,GHGRP
110000874224.0,KY Utilities Co - Ghent Station,9485 US 42 E,Ghent,KY,41045,38.7497,-85.035,Carroll,221121,,5198511,NEI
110000874224.0,KENTUCKY UTILITIES CO GHENT STATION,9485 US HWY 42E,GHENT,KY,41045,38.7497,-85.035,CARROLL,221112,,41045KNTCKUS42P,TRI
110000874224.0,Ghent,9485 Highway 42 East,Ghent,KY,41045.0,38.7497,-85.035,CARROLL COUNTY,221112,,1006512,GHGRP
110000878881.0,PQ CORP/CHESTER,1201 W FRONT ST,CHESTER,PA,19013-3436,39.8404,-75.37236,Delaware,325180,,5456011,NEI
110000878881.0,PQ Corp - Chester Plant,1201 W Front Street,Chester,PA,19013.0,39.840401,-75.372368,DELAWARE COUNTY,325188,,1008044,GHGRP
110000914832.0,FLORIDA POWER & LIGHT (PTF),9700 SW 344 ST,HOMESTEAD,FL,33035,25.435833,-80.331111,Miami-Dade,2211,,900011,NEI
110000914832.0,Turkey Point,9700 SW 344TH ST,HOMESTEAD,FL,33035.0,25.4356,-80.3308,Miami-Dade,221112,,1007159,GHGRP
110001187876.0,REDDING POWER PLANT,17120 CLEAR CREEK ROAD,REDDING,CA,96001,40.50892,-122.42432,Shasta,221113,,1549311,NEI
110001187876.0,Redding Power Plant,17120 CLEAR CREEK ROAD,REDDING,CA,96001.0,40.5083,-122.4253,Shasta,221112,,1000161,GHGRP
110001188116.0,GREENLEAF I,5087 SOUTH TOWNSHIP RD,YUBA CITY,CA,95993,39.05199,-121.69308,Sutter,221118,,1371611,NEI
110001188116.0,Greenleaf Energy Unit 1 LLC,5087 South Township,Yuba City,CA,95993.0,43.0722,-86.2342,SUTTER COUNTY,221112,,1000594,GHGRP
110001207756.0,ENERGY CENTER PITTSBURGH LLC,111 S COMMONS,PITTSBURGH,PA,15212-5314,40.44979,-80.00647,Allegheny,221330,,7395811,NEI
110001207756.0,Energy Center Pittsburgh LLC,111 South Commons Avenue,Pittsburgh,PA,15212.0,40.450662,-80.003102,ALLEGHENY COUNTY,221112,,1005798,GHGRP
110001387151.0,Carbide Industries LLC,4400 BELLS LN,LOUISVILLE,KY,40211-3727,38.2223,-85.83706,Jefferson,325180,,5832311,NEI
110001387151.0,CARBIDE INDUSTRIES LLC,4400 BELLS LN,LOUISVILLE,KY,40211,38.2219,-85.835574,JEFFERSON,325180,,40201RCCRB4400B,TRI
110001387151.0,Carbide Industries LLC,4400 Bells Lane,Louisville,KY,40211.0,38.2219,-85.835574,JEFFERSON COUNTY,325188,,1005537,GHGRP
110001403749.0,CAP DIST ENERGY CTR COGEN ASSO,490 CAPITOL AVE,HARTFORD,CT,06106-1354,41.7641,-72.6917,Hartford,221330,,844911,NEI
110001403749.0,Capitol District Energy Center,490 CAPITOL AVE,HARTFORD,CT,6106.0,41.7639,-72.6925,Hartford,221112,,1001247,GHGRP
110001411794.0,"DUKE ENERGY FLORIDA, LLC.",3219 STATE ROAD 630 WEST,FORT MEADE,FL,33841,27.74733,-81.84916,Polk,2211,,8514711,NEI
110001411794.0,Tiger Bay Cogeneration Facility,3219 STATE ROAD 630 WEST,FORT MEADE,FL,33841.0,27.7447,-81.85,Polk,221112,,1001137,GHGRP
110001471568.0,"ENTERGY MISSISSIPPI INC, REX BROWN PLANT",1960 WEST NORTHSIDE DRIVE,JACKSON,MS,39213,32.356114,-90.213081,Hinds,22112,,6802311,NEI
110001471568.0,Rex Brown,1960 W NORTHSIDE DRIVE,JACKSON,MS,39213.0,32.3564,-90.2125,Hinds,221112,,1000702,GHGRP
110001474164.0,YELLOWSTONE POWER PLANT,2215 N FRONTAGE RD,BILLINGS,MT,59101,45.80828,-108.42698,Yellowstone,221118,,5270711,NEI
110001474164.0,YELLOWSTONE ENERGY LIMITED PARTNERSHIP,2215 N. FRONTAGE ROAD,BILLINGS,MT,59101.0,45.811201,-108.428833,YELLOWSTONE COUNTY,221112,,1007803,GHGRP
110001530898.0,ESSEX GENERATING STATION,Unknown,NEWARK,NJ,00000,40.7378,-74.1189,Essex,48811,,11533911,NEI
110001530898.0,PSEG FOSSIL LLC ESSEX GENERATING STATION,ESSEX GENERATING STA,NEWARK,NJ,07105,40.737641,-74.120614,Essex,221112,,7478411,NEI
110001530898.0,Essex,155 RAYMOND BOULEVARD,NEWARK,NJ,7105.0,40.7375,-74.1211,Essex,221112,,1000745,GHGRP
110001850015.0,Willmar Municipal Utilities,710 Benson Ave SW,Willmar,MN,56201,45.12149,-95.05244,Kandiyohi,221122,,6454411,NEI
110001850015.0,WILLMAR MUNICIPAL UTILITIES,710 BENSON AVE SW,WILLMAR,MN,56201,45.121461,-95.0526,KANDIYOHI,221112,,56201WLLMR71BEN,TRI
110001850015.0,WILLMAR MUNICIPAL UTILITIES,710 BENSON AVE SW,WILLMAR,MN,56201.0,45.121461,-95.0526,KANDIYOHI COUNTY,221112,,1004590,GHGRP
110001850104.0,NRG Energy Center Minneapolis,816 4th Ave S,Minneapolis,MN,55404,44.9735,-93.2688,Hennepin,221330,,6393611,NEI
110001850104.0,ENERGY CENTER MINNEAPOLIS,816 4TH AVENUE SOUTH,MINNEAPOLIS,MN,55404.0,44.973474,-93.267695,HENNEPIN COUNTY,221112,,1000591,GHGRP
110001869078.0,DECKER CREEK POWER PLANT,8003 DECKER LN,AUSTIN,TX,78724,30.304447,-97.612208,Travis,22111,,5021711,NEI
110001869078.0,Decker Creek,8003 DECKER LN,AUSTIN,TX,78724.0,30.3036,-97.6128,Travis,221112,,1006650,GHGRP
110001878077.0,LEON CREEK PLANT,7718 QUINTANA RD,SAN ANTONIO,TX,78201,29.351389,-98.575,Bexar,22111,,3000111,NEI
110001878077.0,Leon Creek,7718 QUINTANA RD,SAN ANTONIO,TX,78211.0,29.3511,-98.5753,Bexar,221112,,1000956,GHGRP
110002043752.0,BARNEY M DAVIS POWER STATION,4301 WALDRON RD,CORPUS CHRISTI,TX,78412,27.606242,-97.3119,Nueces,22111,,5611911,NEI
110002043752.0,Barney M. Davis,4301 Waldron Road,Corpus Christi,TX,78418.0,27.6067,-97.3119,Nueces,221112,,1000997,GHGRP
110002044065.0,FLORIDA POWER & LIGHT COMPANY,4300 SW 42nd Ave,FORT LAUDERDALE,FL,33314-4757,26.0705,-80.1974,Broward,2211,,591711,NEI
110002044065.0,Lauderdale,4300 SOUTHWEST 42ND STREET,FORT LAUDERDALE,FL,33314.0,26.0681,-80.1983,Broward,221112,,1007471,GHGRP
110002052260.0,LEWIS CREEK PLANT,2 MI W OF I45 N ON LONGSTREET RD,WILLIS,TX,77378,30.435531,-95.520975,Montgomery,22111,,7910511,NEI
110002052260.0,Lewis Creek,11191 LONGSTREET ROAD,WILLIS,TX,77318.0,30.4364,-95.5215,Montgomery,221112,,1000928,GHGRP
110002065078.0,PG&E DELEVAN COMPRESSOR STATIO,5001 DELEVAN RD,MAXWELL,CA,95955,39.3691,-122.25703,Colusa,486210,,75211,NEI
110002065078.0,PG&E DELEVAN COMPRESSOR STATION,5001 Delevan Road,Maxwell,CA,95955.0,39.364968,-122.263297,COLUSA COUNTY,221210,,1006434,GHGRP
110002151340.0,Clear Air Force Station,13 SWS/CC,Clear Air Station,AK,99704,64.2919,-149.1618,Denali,928110,,1134011,NEI
110002151340.0,CLEAR AIR FORCE STATION,200 A Street Stop 1,CLEAR AIR STATION,AK,99704.0,64.2919,-149.1618,DENALI BOROUGH,221112,,1007791,GHGRP
110002394597.0,ORANGE COGENERATION LIMITED PARTNERSHIP,1901 S Clear Springs Rd,BARTOW,FL,33830,27.870479,-81.824685,Polk,2211,,3197811,NEI
110002394597.0,Orange Cogeneration Facility,1901 CLEAR SPRINGS ROAD,BARTOW,FL,33830.0,27.8708,-81.8253,Polk,221112,,1001272,GHGRP
110002394793.0,"INDIANTOWN COGENERATION, L.P.",13303 SW SILVER FOX LANE,INDIANTOWN,FL,34956,27.039167,-80.514722,Martin,2211,,717611,NEI
110002394793.0,INDIANTOWN COGENERATION LP,13303 SW SILVER FOX LN,INDIANTOWN,FL,34956,27.039167,-80.514722,MARTIN,221112,,34956NDNTW19140,TRI
110002394793.0,"Indiantown Cogeneration, LP",13303 SW SILVER FOX LANE,INDIANTOWN,FL,34956.0,27.0393,-80.5144,Martin,221112,,1000505,GHGRP
110002399887.0,OKLAHOMA COGENERATION PLT,7425 SW 29TH ST,OKLAHOMA CITY,OK,73179,35.44202,-97.64786,Oklahoma,221330,,8185511,NEI
110002399887.0,Frontier Generating Station,7425 SW 29TH ST,OKLAHOMA CITY,OK,73179.0,35.43522,-97.642633,OKLAHOMA COUNTY,221112,,1006791,GHGRP
110002400731.0,ALTURA COGEN,2330 SHELDON RD,CHANNELVIEW,TX,77530,29.815908,-95.1088,Harris,221121,,6429411,NEI
110002400731.0,"Optim Energy Altura Cogen, LLC",2330 SHELDON ROAD,CHANNELVIEW,TX,77530.0,29.8169,-95.1086,Harris,221112,,1000255,GHGRP
110002412620.0,IPT SRI COGENERATION INC,333 RAVENSWOOD DRIVE,MENLO PARK,CA,94025,37.45794,-122.175622,San Mateo,221112,,575411,NEI
110002412620.0,SRI International Cogeneration Project,"333 Ravenswood Avenue, Bldg U",Menlo Park,CA,94025.0,37.457419,-122.176154,SAN MATEO COUNTY,221112,,1012095,GHGRP
110002412620.0,SRI INTERNATIONAL,"333 RAVENSWOOD AVE, MLSTP AE128",MENLO PARK,CA,94025,37.45459,-122.17759,San Mateo,541720,,13837611,NEI
110002526847.0,GULF POWER COMPANY,11999 Pate Street,PENSACOLA,FL,32514,30.566849,-87.226424,Escambia,2211,,752711,NEI
110002526847.0,GULF CLEAN ENERGY CENTER,11999 PATE RD,PENSACOLA,FL,32514,30.566795,-87.226757,ESCAMBIA,221112,,32514GLFPW11999,TRI
110002526847.0,Gulf Clean Energy Center,11999 PATE ST,PENSACOLA,FL,32514.0,30.5661,-87.2289,Escambia,221112,,1006702,GHGRP
110002932328.0,"CXA LA PALOMA, LLC",1760 W. SKYLINE RD,MCKITTRICK,CA,93251,35.294847,-119.5925,Kern,221121,,10296711,NEI
110002932328.0,La Paloma Generating Plant,1760 WEST SKYLINE ROAD,MCKITTRICK,CA,93251.0,35.2956,-119.5919,Kern,221112,,1001339,GHGRP
110003740202.0,Hennepin County Energy Center,600 10th Ave S,Minneapolis,MN,55415,44.97208,-93.25788,Hennepin,221330,,6393211,NEI
110003740202.0,HENNEPIN COUNTY ENERGY CENTER,600 10TH AVENUE SOUTH,MINNEAPOLIS,MN,55415.0,44.97206,-93.25783,HENNEPIN COUNTY,221112,,1005637,GHGRP
110004307027.0,Nevada Power Clark Station,5640 Stephanie St,Las Vegas,NV,89122,36.08824,-115.04744,Clark,22111,,8211211,NEI
110004307027.0,Clark,5640 STEPHANIE ST,LAS VEGAS,NV,89122.0,36.0875,-115.0507,Clark,221112,,1000726,GHGRP
110005028647.0,HANDLEY STEAM ELECTRIC STATION,6604 E ROSEDALE,FORT WORTH,TX,76002,32.7275,-97.218333,Tarrant,22111,,4916711,NEI
110005028647.0,Handley Generating Station,6604 EAST ROSEDALE ST,FORT WORTH,TX,76112.0,32.7278,-97.2186,Tarrant,221112,,1000942,GHGRP
110005109710.0,TEXAS CITY COGENERATION,3221 5TH AVE; CORNER OF 5TH AVE S AND GRANT AVE,TEXAS CITY,TX,77590,29.377006,-94.941678,Galveston,22111,,3930911,NEI
110005109710.0,Texas City Cogeneration,3221 5TH AVE SOUTH,TEXAS CITY,TX,77590.0,29.3787,-94.944,Galveston,221112,,1000504,GHGRP
110005162457.0,COPPER STATION POWER PLANT,651 HAWKINS BLVD,EL PASO,TX,79901,31.756644,-106.375003,El Paso,22111,,3049111,NEI
110005162457.0,Copper Station,651 HAWKINS BLVD,EL PASO,TX,79915.0,31.7569,-106.375,El Paso,221112,,1000540,GHGRP
110005185628.0,FRONTERA ENERGY CENTER,ONE MI S OF BUSINESS ROUTE 83 & GOODWIN RD,MISSION,TX,78572,26.208333,-98.398333,Hidalgo,22111,,7908611,NEI
110005185628.0,Frontera Generation Facility,900 S GOODWIN RD,MISSION,TX,78572.0,26.208,-98.3992,Hidalgo,221112,,1001311,GHGRP
110005187760.0,HIDALGO ENERGY CENTER,4005 N SEMINARY RD,EDINBURG,TX,78539,26.34125,-98.175106,Hidalgo,22111,,6141711,NEI
110005187760.0,Calpine Hidalgo Energy Center,4005 N SEMINARY RD,EDINBURG,TX,78539.0,26.3389,-98.1708,Hidalgo,221112,,1007233,GHGRP
110005188082.0,SABINE COGENERATION FACILITY,FM 1006 & HWY 105,ORANGE,TX,77630,30.04435,-93.771878,Orange,22111,,5731011,NEI
110005188082.0,Sabine Cogeneration Facility,4647 FM1006,ORANGE,TX,77630.0,30.0444,-93.7716,Orange,221112,,1007365,GHGRP
110005626723.0,"ORLANDO COGEN LIMITED, L.P.",8275 Exchange Dr,ORLANDO,FL,32809-7651,28.442363,-81.412585,Orange,221118,,2694911,NEI
110005626723.0,Orlando CoGen,8275 EXCHANGE DRIVE,ORLANDO,FL,32809.0,28.4422,-81.4119,Orange,221112,,1001276,GHGRP
110006360446.0,MAGIC VALLEY GENERATING STATION,INTERX OF MCCOLL RD & MONTE CRISTO RD SW CORNER,EDINBURG,TX,78539,26.339742,-98.190069,Hidalgo,22111,,4846411,NEI
110006360446.0,Magic Valley Generating Station,3333 N MCCOLL RD,EDINBURG,TX,78539.0,26.3403,-98.19,Hidalgo,221112,,1001325,GHGRP
110006825908.0,CHEVRON USA,1546 CHINA GRADE LOOP,BAKERSFIELD,CA,93308,35.42551,-118.96769,Kern,541330,,17341511,NEI
110006825908.0,SYCAMORE COGENERATION CO,HEAVY OIL CENTRAL,Bakersfield,CA,00000,35.452,-118.9853,Kern,221112,,3945411,NEI
110006825908.0,SYCAMORE COGENERATION Facility,1546 SW China Grade Loop,BAKERSFIELD,CA,93308.0,35.4518,-118.9851,KERN COUNTY,221112,,1003998,GHGRP
110007175154.0,SEADRIFT PLANT,HIGHWAY 185,SEADRIFT,TX,77983,28.510567,-96.770508,Calhoun,325110,,5846511,NEI
110007175154.0,UNION CARBIDE CORP SEADRIFT PLANT,7501 N HWY 185,SEADRIFT,TX,77983,28.510636,-96.771527,CALHOUN,325199,,77979NNCRBPOBOX,TRI
110007175154.0,UCC SEADRIFT OPERATIONS,7501 HIGHWAY 185 NORTH,SEADRIFT,TX,77983.0,28.510636,-96.771527,CALHOUN COUNTY,325199,,1002967,GHGRP
110007194847.0,SILAS RAY POWER PLANT,W 13TH ST & POWER PLANT DR,BROWNSVILLE,TX,78520,25.913014,-97.521775,Cameron,22111,,6493311,NEI
110007194847.0,SILAS RAY POWER PLANT,94 W. 13th Street,BROWNSVILLE,TX,78520.0,25.9131,-97.5214,CAMERON COUNTY,221112,,1005210,GHGRP
110007199735.0,TRINIDAD STEAM ELEC STATION,1 M S FM 764 0.5 M W,TRINIDAD,TX,75163,32.123889,-96.102222,Henderson,22111,,4863311,NEI
110007199735.0,Trinidad,1320 MCENTIRE,TRINIDAD,TX,75163.0,32.1264,-96.1014,Henderson,221112,,1000947,GHGRP
110007477391.0,FLORIDA POWER AND LIGHT COMPANY,20505 STATE ROAD 80,LOXAHATCHEE,FL,33470,26.698606,-80.374872,Palm Beach,2211,,14654911,NEI
110007477391.0,West County Energy Center,20505 STATE RD 80,LOXAHATCHEE,FL,33470.0,26.6986,-80.3747,Palm Beach,221112,,1007171,GHGRP
110008060873.0,VH BRAUNIG PLANT,15290 STREICH RD,SAN ANTONIO,TX,78201,29.256581,-98.383033,Bexar,22111,,5616511,NEI
110008060873.0,V H Braunig,15290 STREICH RD,ELMENDORF,TX,78112.0,29.2575,-98.3828,Bexar,221112,,1001104,GHGRP
110008147665.0,STRYKER CREEK ELECTRIC STATION,20 MI E OF JACKSONVILLE ON FM 2420,JACKSONVILLE,TX,75201,31.940278,-94.989722,Cherokee,22111,,5729511,NEI
110008147665.0,Stryker Creek,1895 FM 2420 E,JACKSONVILLE,TX,75785.0,31.9381,-94.9883,Cherokee,221112,,1007619,GHGRP
110008319505.0,TAMPA ELECTRIC COMPANY (TEC),13031 WYANDOTTE ROAD,GIBSONTON,FL,33534-5833,27.795252,-82.403209,Hillsborough,2211,,538611,NEI
110008319505.0,TAMPA ELECTRIC CO BIG BEND POWER STATION,13031 WYANDOTTE RD,APOLLO BEACH,FL,33572,27.795252,-82.403209,HILLSBOROUGH,221112,,33572TMPLC13031,TRI
110008319505.0,Big Bend,13031 WYANDOTTE ROAD,APOLLO BEACH,FL,33572.0,27.7944,-82.4036,Hillsborough,221112,,1001492,GHGRP
110008320566.0,FLORIDA POWER & LIGHT (PMR),21900 SW Warfield Blvd,INDIANTOWN,FL,34956-9755,27.05558,-80.56459,Martin,2211,,751511,NEI
110008320566.0,Martin,21900 SW WARFIELD BLVD,INDIANTOWN,FL,34956.0,27.0536,-80.5628,Martin,221112,,1001013,GHGRP
110008694975.0,Great River Energy - Lakefield Junction Station,2159 20th Ave,Trimont,MN,56176,43.7985,-94.8412,Martin,221121,,8482611,NEI
110008694975.0,Lakefield Junction Generating,2159 20TH AVE,TRIMONT,MN,56176.0,43.7984,-94.8415,Martin,221112,,1000203,GHGRP
110008972362.0,Carville Energy LLC - Carville Energy Center,4322 Hwy 30,St. Gabriel,LA,70776,30.23087,-91.06523,Iberville,22111,,5519911,NEI
110008972362.0,Carville Energy Center,4322 HIGHWAY 30,Saint Gabriel,LA,70776.0,30.2292,-91.065,IBERVILLE PARISH,221112,,1005110,GHGRP
110008972549.0,BAYTOWN COGENERATION,HWY 1405 & HWY 565,BAYTOWN,TX,77520,29.771483,-94.902261,Chambers,22111,,5729111,NEI
110008972549.0,Baytown Energy Center,8605 FM 1405,BAYTOWN,TX,77523.0,29.7731,-94.9019,Chambers,221112,,1006983,GHGRP
110008972763.0,ENNIS ELECTRIC GENERATION PLANT,4001 W ENNIS AVE,ENNIS,TX,75120,32.319939,-96.674836,Ellis,22111,,6389111,NEI
110008972763.0,"Ennis Power Company, LLC",4001 WEST ENNIS AVE,ENNIS,TX,75119.0,32.3194,-96.6739,Ellis,221112,,1001370,GHGRP
110008989737.0,"OLEANDER POWER PROJECT, LP",555 Townsend Road,COCOA,FL,32926,28.36437,-80.794645,Brevard,2211,,591111,NEI
110008989737.0,Oleander Power Project,555 TOWNSEND RD,COCOA,FL,32926.0,28.3661,-80.7947,Brevard,221112,,1006808,GHGRP
110009104021.0,JEA,15701 WEST BEAVER ST.,BALDWIN,FL,32234-1603,30.320346,-81.947211,Duval,2211,,641211,NEI
110009104021.0,Brandy Branch,15701 W BEAVER ST,BALDWIN,FL,32234.0,30.3206,-81.9486,Duval,221112,,1001167,GHGRP
110009113486.0,TVA MAGNOLIA COMBINED CYCLE,352 HIGHWAY 4 WEST,ASHLAND,MS,38603,34.8356,-89.2018,Benton,22111,,7037011,NEI
110009113486.0,Magnolia Facility,352 HIGHWAY 4 WEST,ASHLAND,MS,38603.0,34.8358,-89.2017,Benton,221112,,1000821,GHGRP
110009450478.0,RHODE ISLAND STATE ENERGY CENTER,24 SHUN PIKE,JOHNSTON,RI,02919,41.8017,-71.5186,Providence,2211,,3073211,NEI
110009450478.0,Rhode Island State Energy Center,24 SHUN PIKE,JOHNSTON,RI,2919.0,41.8017,-71.5186,Providence,221112,,1001315,GHGRP
110010131419.0,BASTROP ENERGY CENTER,SH71; APPROX 0.3 M E,BASTROP,TX,78602,30.146086,-97.550133,Bastrop,22111,,3981411,NEI
110010131419.0,Bastrop Clean Energy Center,125 OLD BASTROP ROAD,CEDAR CREEK,TX,78612.0,30.1458,-97.55,Bastrop,221112,,1007300,GHGRP
110010300076.0,"SANTA ROSA ENERGY CTR, LLC",5001 Sterling Way,PACE,FL,32571,30.566054,-87.115611,Santa Rosa,2211,,2492411,NEI
110010300076.0,Santa Rosa Energy Center,5001 STERLING WAY,PACE,FL,32571.0,30.5661,-87.115,Santa Rosa,221112,,1006707,GHGRP
110010653257.0,UOP LLC - UOP Shreveport Plant,8725 Old Mooringsport Rd,Blanchard,LA,71009,32.61756,-93.92636,Caddo,325180,,7929511,NEI
110010653257.0,UOP-SHREVEPORT PLANT,8725 OLD MOORINGSPORT RD,SHREVEPORT,LA,71107,32.61739,-93.92444,CADDO PARISH,325180,,71009PNCXXHIGHW,TRI
110010653257.0,UOP.LLC SHREVEPORT,8725 OLD MOORINGSPORT RD,SHREVEPORT,LA,71120.0,32.61451,-93.92248,CADDO PARISH,325188,,1000629,GHGRP
110010661667.0,ELECTRIC POWER GENERATION,HWY 315; 7.5 MI NE OF MT. ENTERPRISE,MINDEN,TX,75680,32.019456,-94.620225,Rusk,22111,,6498311,NEI
110010661667.0,Tenaska Gateway Generating Station,7589 State Hwy 315 E,Long Branch,TX,75669.0,32.0164,-94.6189,Rusk,221112,,1001331,GHGRP
110010821753.0,"ENTERGY MISSISSIPPI INC, HINDS COUNTY PL",3889 BEASLEY ROAD,JACKSON,MS,39213,32.37854,-90.21987,Hinds,22112,,6966711,NEI
110010821753.0,Hinds Energy Facility,3889 BEASLEY ROAD,JACKSON,MS,39213.0,32.3781,-90.2169,Hinds,221112,,1001367,GHGRP
110011349656.0,CITY OF TALLAHASSEE,1125 Geddie Road,TALLAHASSEE,FL,32304,30.4522,-84.4,Leon,2211,,715111,NEI
110011349656.0,Arvah B Hopkins,1125 GEDDIE ROAD,TALLAHASSEE,FL,32304.0,30.4522,-84.4,Leon,221112,,1007189,GHGRP
110012164380.0,MIDLOTHIAN ENERGY FACILITY,4601 BROOKHOLLOW DR,MIDLOTHIAN,TX,76065,32.430556,-97.052836,Ellis,22111,,6494211,NEI
110012164380.0,Midlothian Energy,4601 BROOKHOLLOW DRIVE,MIDLOTHIAN,TX,76065.0,32.4302,-97.0537,Ellis,221112,,1001309,GHGRP
110012169517.0,"EQUISTAR CHEMICALS, LP",3400 ANAMOSA RD,CLINTON,IA,52732,41.807131,-90.297267,Clinton,325110,,5509711,NEI
110012169517.0,EQUISTAR CHEMICALS CLINTON PLANT,3400 ANAMOSA RD HWY 30 W,CLINTON,IA,52732,41.807,-90.296,CLINTON,325211,,52732QNTMCUSHWY,TRI
110012169517.0,EQUISTAR CHEMICALS CLINTON PLANT,3400 ANAMOSA RD HWY 30 W,CLINTON,IA,52732,41.807,-90.296,CLINTON,325199,,52732QNTMCUSHWY,TRI
110012169517.0,EQUISTAR CHEMICALS LP,3400 ANAMOSA ROAD,CLINTON,IA,52732.0,41.807,-90.296,CLINTON COUNTY,325199,,1002927,GHGRP
110012174627.0,"DUKE ENERGY FLORIDA, LLC",1651 West Derby Avenue,AUBURNDALE,FL,33823,28.0525,-81.8083,Polk,2211,,9740311,NEI
110012174627.0,Osprey Energy Center,1651 W DERBY AVE,AUBURNDALE,FL,33823.0,28.0525,-81.8083,Polk,221112,,1000107,GHGRP
110012181673.0,COTTONWOOD ENERGY CO LP,INDIAN LAKE RD .75 MI W OF INDIAN LAKE,DEWEYVILLE,TX,77614,30.257928,-93.736058,Newton,22111,,9118811,NEI
110012181673.0,Cottonwood Energy Project,976 COUNTY ROAD 4213,DEWEYVILLE,TX,77614.0,30.2588,-93.7353,Newton,221112,,1007303,GHGRP
110012217975.0,Entergy Louisiana LLC - Perryville Generating Station,11140 Hwy 165 N,Perryville,LA,71280,32.69063,-92.01918,Ouachita,221122,,7205211,NEI
110012217975.0,Perryville Power Station,11140 HWY 165 N,STERLINGTON,LA,71280.0,32.6914,-92.0192,Ouachita,221112,,1007305,GHGRP
110012236507.0,"PASTORIA ENERGY FACILITY, LLC",39789 EDMONSTON PUMPING PLANT RD,RANCHO EL TEJON,CA,93243,34.9566,-118.8441,Kern,221121,,10288711,NEI
110012236507.0,Pastoria Energy Facility,39789 EDMONSTON PUMPING PLANT,LEBEC,CA,93243.0,34.9556,-118.844,Kern,221112,,1000133,GHGRP
110012446317.0,"DUKE ENERGY FLORIDA, LLC",176 WEST HIGHBANKS ROAD,DE BARY,FL,33713,28.90407,-81.33332,Volusia,2211,,2797311,NEI
110012446317.0,DeBary Power Plant,176 WEST HIGHBANKS RD,DEBARY,FL,32713.0,28.9047,-81.3319,Volusia,221112,,1001014,GHGRP
110012511120.0,SAN JACINTO STEAM ELECTRIC STATION,845 SENS RD,LA PORTE,TX,77572,29.695194,-95.040967,Harris,22111,,7907811,NEI
110012511120.0,San Jacinto Steam Electric Station,845 SENS ROAD,LA PORTE,TX,77571.0,29.6967,-95.0411,Harris,221112,,1005714,GHGRP
110013329558.0,IDAHO POWER CO - BENNETT MOUNTAIN,2750 NE Industrial Way,MOUNTAIN HOME,ID,83647,43.1465,-115.66602,Elmore,221121,,15472411,NEI
110013329558.0,Bennett Mountain Power Project,2750 NE Industrial Way,Mountain Home,ID,83647.0,43.147,-115.6671,Elmore,221112,,1000244,GHGRP
110013372974.0,Sundance Power Plant,2060 W Sundance Dr,Casa Grande,AZ,85122,32.9285,-111.5899,Pinal,2211,,1032711,NEI
110013372974.0,Sundance Power Plant,2060 SUNDANCE ROAD,CASA GRANDE,AZ,85228.0,32.9285,-111.5899,Pinal,221112,,1000237,GHGRP
110013662009.0,Shell Chemical LP - Norco West Site Facility,16122 River Rd,Norco,LA,70079,30.00468,-90.42359,St. Charles,325199,,8026211,NEI
110013662009.0,HEXION INC,16122 RIVER RD LOT 3,NORCO,LA,70079,29.99806,-90.4,ST. CHARLES PARISH,325199,,70079RSLTN16122,TRI
110013662009.0,HEXION INC.,16122 RIVER RD LOT 3,NORCO,LA,70079.0,29.99806,-90.4,ST. CHARLES PARISH,325199,,1005744,GHGRP
110013662009.0,Union Carbide Norco Catalyst Plant,16122 River Rd,Norco,LA,70079,29.99806,-90.4,St. Charles,325180,,5640011,NEI
110013931308.0,FMPA & KISSIMMEE UTILITY AUTHORITY,6075 Old Tampa Highway,INTERCESSION CITY,FL,33848,28.2764,-81.533,Osceola,2211,,558411,NEI
110013931308.0,Cane Island,6075 OLD TAMPA HIGHWAY,INTERCESSION CITY,FL,33848.0,28.2764,-81.533,Osceola,221112,,1001098,GHGRP
110014329994.0,FIRST CHEMICAL CORPORATION,1001 INDUSTRIAL ROAD,PASCAGOULA,MS,39581,30.355278,-88.494944,Jackson,325998,,8384911,NEI
110014329994.0,FIRST CHEMICAL CORP,1001 IND US TRIAL RD,PASCAGOULA,MS,39581,30.355278,-88.494944,JACKSON,325110,,39567FRSTC1001I,TRI
110014329994.0,FIRST CHEMICAL CORP,1001 INDUSTRIAL ROAD,PASCAGOULA,MS,39581.0,30.355278,-88.494944,JACKSON COUNTY,325199,,1002589,GHGRP
110014433700.0,RIO NOGALES POWER PLANT,6 GUADALUPE ST NORTH,SEGUIN,TX,78155,29.593289,-97.972481,Guadalupe,22111,,7720411,NEI
110014433700.0,"Rio Nogales Power Project, LP",711 RIO NOGALES DRIVE,SEGUIN,TX,78155.0,29.5932,-97.9724,Guadalupe,221112,,1001333,GHGRP
110017398163.0,GOAL LINE LP,555 TULIP ST N,ESCONDIDO,CA,92025,33.11862,-117.09927,San Diego,221113,,593911,NEI
110017398163.0,Goal Line LP,555 North Tulip Street,Escondido,CA,92025.0,33.11862,-117.09927,SAN DIEGO COUNTY,221112,,1005843,GHGRP
110017409393.0,"POLK POWER PARTNERS, L.P.",3600 COUNTY ROAD 555,BARTOW,FL,33830-8425,27.8489,-81.8775,Polk,2211,,2312411,NEI
110017409393.0,Mulberry Cogeneration Facility,3600 HIGHWAY 555,BARTOW,FL,33830.0,27.8489,-81.8775,Polk,221112,,1001275,GHGRP
110017411718.0,"VANDOLAH POWER COMPANY, LLC",2394 Vandolah Road,WAUCHULA,FL,33873,27.52421,-81.92383,Hardee,2211,,588511,NEI
110017411718.0,Vandolah Power Project,2394 VANDOLAH ROAD,WAUCHULA,FL,33873.0,27.5242,-81.9236,Hardee,221112,,1000814,GHGRP
110017418061.0,Sasol Chemicals (USA) LLC - Lake Charles Chemical Complex,2201 Old Spanish Trail,Westlake,LA,70669,30.25171,-93.27232,Calcasieu,325110,,8468011,NEI
110017418061.0,SASOL CHEMICALS (USA) LLC-LAKE CHARLES CHEMICAL COMPLEX,2201 OLD SPANISH TRAIL,WESTLAKE,LA,70669,30.2588,-93.2937,CALCASIEU PARISH,325199,,70669VSTCHOLDSP,TRI
110017418061.0,Sasol Chemicals (USA) LLC - LAKE CHARLES CHEMICAL COMPLEX,2201 OLD SPANISH TRAIL,WESTLAKE,LA,70669.0,30.2588,-93.2937,CALCASIEU PARISH,325199,,1005823,GHGRP
110017431215.0,CRYSTAL RIVER POWER PLANT,Unknown,CRYSTAL RIVER,FL,00000,28.9594,-82.6931,Citrus,48811,,11663311,NEI
110017431215.0,"DUKE ENERGY FLORIDA, LLC",15760 West Power Line Street,CRYSTAL RIVER,FL,34428-6708,28.9628,-82.6928,Citrus,2211,,640611,NEI
110017431215.0,DUKE ENERGY FLORIDA LLC-CRYSTAL RIVER POWER PLANT,15760 W POWERLINE ST,CRYSTAL RIVER,FL,34428,28.9628,-82.6928,CITRUS,221112,,34428FLRDP15760,TRI
110017431215.0,Crystal River Power Plant,15760 WEST POWERLINE ST,CRYSTAL RIVER,FL,34428.0,28.9594,-82.7003,Citrus,221112,,1001487,GHGRP
110017433375.0,East KY Power - J K Smith Station,12145 Irvine Rd,Winchester,KY,40391,37.8824,-84.1025,Clark,221112,,5163011,NEI
110017433375.0,E. KENTUCKY POWER CORP. - J.K. SMITH POWER STATION,12145 IRVINE RD,WINCHESTER,KY,40391,37.883583,-84.092056,CLARK,221122,,4039WKNTCK12145,TRI
110017433375.0,Smith Generating Facility,12145 IRVINE ROAD,WINCHESTER,KY,40391.0,37.8824,-84.1025,Clark,221112,,1001417,GHGRP
110017579850.0,ICL Specialty Products,440 N. 9TH STREET,LAWRENCE,KS,66044-5424,38.980718,-95.211087,Douglas,325998,,4827011,NEI
110017579850.0,ICL,440 NORTH 9TH STREET,LAWRENCE,KS,66044.0,38.97993,-95.21443,DOUGLAS COUNTY,325188,,1003370,GHGRP
110017743254.0,DEER PARK ENERGY CENTER,DEER PARK ENERGY CTR  HWY 225  1500 FT E SHELL DOCK,DEER PARK,TX,77536,29.713603,-95.134439,Harris,221121,,6509911,NEI
110017743254.0,Deer Park Energy Center,5665 HIGHWAY 225,DEER PARK,TX,77536.0,29.7153,-95.1361,Harris,221112,,1000825,GHGRP
110017746368.0,SABINE RIVER WORKS,FM 1006,ORANGE,TX,77630,30.052211,-93.756314,Orange,325110,,4190211,NEI
110017746368.0,DOW SABINE RIVER OPERATIONS,FARM RD 1006,ORANGE,TX,77630,30.054796,-93.753863,ORANGE,325110,,77631DPNTSFARMR,TRI
110017746368.0,SABINE RIVER OPERATIONS,3055 FARM RD. 1006,ORANGE,TX,77631.0,30.054796,-93.753863,ORANGE COUNTY,325199,,1003382,GHGRP
110017761322.0,Sabine Pass LNG LP - Sabine Pass Liquefaction LLC,9243 Gulf Beach Hwy,Cameron,LA,70631,29.74899,-93.87005,Cameron,221210,,13610511,NEI
110017761322.0,TXI-SABINE PASS CBP,9243 GULF BEACH HWY,CAMERON,LA,70631,29.74777,-93.87163,CAMERON PARISH,327320,,7063WTXSBN9243G,TRI
110017761322.0,SABINE PASS LNG TERMINAL,9243 GULF BEACH HWY,JOHNSONS BAYOU,LA,70631.0,29.74777,-93.87163,CAMERON PARISH,221210,,1002259,GHGRP
110018270672.0,Solvay USA Inc,1020 State St,Chicago Heights,IL,60411-2908,41.512055,-87.617364,Cook,325180,,10691811,NEI
110018270672.0,Solvay USA,1020 STATE ST,CHICAGO HEIGHTS,IL,60411.0,41.512055,-87.617364,COOK COUNTY,325188,,1006664,GHGRP
110021082576.0,SRW COGENERATION LTD,LOCATED WITHIN EI DUPONT ORANGE PLANT; FM 1006,ORANGE,TX,77630,30.055489,-93.757783,Orange,22111,,6509111,NEI
110021082576.0,SRW Cogen Limited Partnership,3055 FM 1006,ORANGE,TX,77630.0,30.0561,-93.7539,Orange,221112,,1001324,GHGRP
110021082816.0,HAYS ENERGY FACILITY,1601 FRANCIS HARRIS LN,SAN MARCOS,TX,78666,29.780556,-97.989439,Hays,22111,,4927111,NEI
110021082816.0,Hays Energy Facility,1601 FRANCIS HARRIS LN,SAN MARCOS,TX,78666.0,29.7806,-97.9894,Hays,221112,,1001335,GHGRP
110021090905.0,Utah Municipal Power Agency: West Valley Power Plant,5935 West 4700 South,West Valley City,UT,84128,40.665,-112.031,Salt Lake,22111,,7684911,NEI
110021090905.0,"West Valley Power, LLC",5935 WEST 4700 SOUTH,WEST VALLEY CITY,UT,84170.0,40.6663,-112.031,Salt Lake,221112,,1000117,GHGRP
110021138348.0,FREESTONE ENERGY CENTER,1366 ON FM 488,FAIRFIELD,TX,75840,31.89115,-96.111797,Freestone,22111,,4852511,NEI
110021138348.0,Freestone Power Generation,1366 FM 488,FAIRFIELD,TX,75840.0,31.8907,-96.1128,Freestone,221112,,1001372,GHGRP
110021170908.0,"Choctaw Generation Limited Partnership, Red Hills Generation Facility",2391 Pensacola Road,Ackerman,MS,39735,33.37648,-89.21783,Choctaw,221112,,7053011,NEI
110021170908.0,CHOCTAW GENERATION LP L.L.L.P.,2391 PENSACOLA RD,ACKERMAN,MS,39735,33.37648,-89.21783,CHOCTAW,221122,,39735TRCTBRTE1B,TRI
110021170908.0,Red Hills Generation Facility,2391 Pensacola Road,Ackerman,MS,39735.0,33.3761,-89.2183,Choctaw,221112,,1006935,GHGRP
110022325170.0,Reeves Generating Station,4400 Paseo del Norte BLVD NE,Albuquerque,NM,87113,35.172872,-106.601377,Bernalillo,221122,,7532111,NEI
110022325170.0,Reeves Generating Station,4400 PASEO DEL NORTE NE,ALBUQUERQUE,NM,87113.0,35.1716,-106.6019,Bernalillo,221112,,1000754,GHGRP
110022568531.0,Edgecombe Power Station,6358 Old Battleboro Road,Battleboro,NC,27809,36.037683,-77.75285,Edgecombe,221118,,8124311,NEI
110022568531.0,EDGECOMBE GENCO LLC,6358 OLD BATTLEBORO RD,BATTLEBORO,NC,27809,36.03546,-77.74915,EDGECOMBE,221112,,27809CGNTRRTE2S,TRI
110022568531.0,"Edgecombe Genco, LLC",6358 OLD BATTLEBORO RD 27809,BATTLEBORO,NC,27809.0,36.0378,-77.7542,Edgecombe,221112,,1000231,GHGRP
110022763393.0,Mosaic Potash Carlsbad Inc,1361 Potash Mines Road,Carlsbad,NM,88220,32.414722,-103.935833,Eddy,212391,,7611611,NEI
110022763393.0,Mosaic Carlsbad Facility,1361 Potash Mines Road,Carlsbad,NM,88220.0,32.40613,-103.94702,EDDY COUNTY,325312,,1009701,GHGRP
110022938419.0,JACK A FUSCO ENERGY CENTER,3440 LOCKWOOD RD,RICHMOND,TX,77478,29.472544,-95.623156,Fort Bend,22111,,9138811,NEI
110022938419.0,"Brazos Valley Energy, LP",3440 LOCKWOOD RD,THOMPSONS,TX,77481.0,29.4731,-95.6244,Fort Bend,221112,,1000798,GHGRP
110024286075.0,SMUD COSUMNES POWER PLANT,14295-A CLAY EAST ROAD,HERALD,CA,95638,38.33633,-121.12241,Sacramento,221118,,13841411,NEI
110024286075.0,Cosumnes Power Plant,14295A Clay East Road,HERALD,CA,95638.0,38.3383,-121.1239,Sacramento,221112,,1000323,GHGRP
110024419244.0,Nevada Power (Chuck Lenzie),11405 U. S. Highway 93,Las Vegas,NV,89124,36.38408,-114.92135,Clark,22111,,12768311,NEI
110024419244.0,Chuck Lenzie Generating Station,11405 US HIGHWAY 93,APEX,NV,89124.0,36.3853,-114.9228,Clark,221112,,1000150,GHGRP
110024436608.0,MODESTO IRRIGATION DISTRICT,1015 S STOCKTON AVE,RIPON,CA,95366,37.731155,-121.124094,San Joaquin,221118,,14090111,NEI
110024436608.0,Ripon Generation Station,1015 S STOCKTON BLVD,RIPON,CA,95366.0,37.7315,-121.116,Stanislaus,221112,,1000438,GHGRP
110024547310.0,SWEENY COGENERATION FACILITY,7190 OLD FM 524 GATE 13,OLD OCEAN,TX,77463,29.072958,-95.744842,Brazoria,221330,,5632311,NEI
110024547310.0,SWEENY COGENERATION FACILITY,"7190 Old FM 524, Gate 13",OLD OCEAN,TX,77463.0,29.0728,-95.745,BRAZORIA COUNTY,221112,,1001148,GHGRP
110025317173.0,Angus Anson Generating Site,7100 E Rice St,Sioux Falls,SD,57103,43.6032,-96.6363,Minnehaha,221122,,9164411,NEI
110025317173.0,Angus Anson,7100 EAST RICE ST,SIOUX FALLS,SD,57101.0,43.6033,-96.6369,Minnehaha,221112,,1001097,GHGRP
110027827207.0,Nevada Power Silverhawk,15111 Apex Power Parkway,North Las Vegas,NV,89124,36.40969,-114.961,Clark,22111,,12770211,NEI
110027827207.0,Silverhawk,15111 APEX POWER PARKWAY,LAS VEGAS,NV,89124.0,36.4078,-114.9603,Clark,221112,,1000404,GHGRP
110027833441.0,NV Energy-Walter Higgins,1275 East Primm Blvd.,Primm,NV,89019,35.6131,-115.3559,Clark,22111,,9398411,NEI
110027833441.0,Walter M. Higgins III Generating Station,1275 E PRIMM BLVD,PRIMM,NV,89019.0,35.6139,-115.3561,Clark,221112,,1000278,GHGRP
110028037363.0,"WCAC OPERATING COMPANY CA, LLC",34759 LENCIONI AVE,BAKERSFIELD,CA,93308,35.447332,-119.085026,Kern,238220,,15811811,NEI
110028037363.0,MCKITTRICK LIMITED,34759 LENCIONI AVE,BAKERSFIELD,CA,93308.0,35.44735,-119.08652,KERN COUNTY,221112,,1002541,GHGRP
110028042516.0,PARIS GENERATION,301 LAKE CROOK RD,PARIS,TX,75460,33.696944,-95.557472,Lamar,22111,,6431011,NEI
110028042516.0,LAMAR POWER PLANT,RD 137 4.5 KM SW OF PARIS,PARIS,TX,75460,33.631472,-95.591003,Lamar,22111,,7910611,NEI
110028042516.0,Paris Energy Center,301 LAKE CROOK ROAD,PARIS,TX,75460.0,33.6968,-95.5577,Lamar,221112,,1000472,GHGRP
110028187049.0,TEXAS CITY CHEMICAL PLANT,2800 FM 519 E,TEXAS CITY,TX,77590,29.363614,-94.904519,Galveston,325110,,3930711,NEI
110028187049.0,BP AMOCO CHEMICAL COMPANY,2800 FM 519 EAST,TEXAS CITY,TX,77590,29.361045,-94.930351,GALVESTON,325110,,77590MCLCM24015,TRI
110028187049.0,INEOS STYROLUTION TEXAS CITY PLANT,2800 FM 519 E,TEXAS CITY,TX,77592,29.358958,-94.931444,Galveston,325110,,10722911,NEI
110028187049.0,INEOS NOVA LLC Texas City Site,2800 FM 519 E,TEXAS CITY,TX,77592.0,29.361045,-94.930351,GALVESTON COUNTY,325199,,1003429,GHGRP
110031000823.0,SOUTH TEXAS ELECTRIC COOP,FM 447; 3 M W OF NURSERY,NURSERY,TX,77976,28.894722,-97.136106,Victoria,22111,,5863011,NEI
110031000823.0,SOUTH TEXAS ELECTRIC COOP,2849 FM 447,NURSERY,TX,77976.0,28.8947,-97.1347,VICTORIA COUNTY,221112,,1003190,GHGRP
110031409973.0,BAYPORT FACILITY,10601 BAY AREA BLVD,LA PORTE,TX,77571,29.610903,-95.051231,Harris,325110,,4862611,NEI
110031409973.0,DIXIE CHEMICAL CO INC,10601 BAY AREA BLVD,PASADENA,TX,77507,29.612017,-95.050481,HARRIS,325199,,77507DXCHM10701,TRI
110031409973.0,Dixie Chemical Company,10601 Bay Area Blvd,Pasadena,TX,77507.0,29.612017,-95.050481,HARRIS COUNTY,325199,,1005947,GHGRP
110031507028.0,FORNEY POWER PLANT,HWY 80 I MI W OF FORNEY,FORNEY,TX,75126,32.756339,-96.491411,Kaufman,22111,,9146511,NEI
110031507028.0,FORNEY POWER PLANT,13770 W US HIGHWAY 80,FORNEY,TX,75126.0,32.7563,-96.4916,KAUFMAN COUNTY,221112,,1006085,GHGRP
110031507322.0,AEP KNOX LEE POWER PLANT,KNOX LEE POWER PLANT,LONGVIEW,TX,75601,32.376531,-94.642692,Gregg,22111,,4020611,NEI
110031507322.0,Knox Lee Power Plant,306 KNOX LEE,LONGVIEW,TX,75603.0,32.3766,-94.6415,Gregg,221112,,1000934,GHGRP
110032885723.0,SPMT / MARCUS HOOK IND COMPLEX,100 GREEN ST,MARCUS HOOK,PA,19061-4800,39.81414,-75.41358,Delaware,493190,,16848711,NEI
110032885723.0,MARCUS HOOK 50 LP/MARCUS HOOK,100 GREEN ST,MARCUS HOOK,PA,19061-4800,39.80991,-75.42749,Delaware,221112,,4724511,NEI
110032885723.0,SUNOCO LLC/MH RACE FUELS,100 GREEN ST,MARCUS HOOK,PA,19061-4800,39.814609,-75.42227,Delaware,324110,,7873611,NEI
110032885723.0,SUNOCO LLC-RACE FUELS,100 GREEN ST,MARCUS HOOK,PA,19061,39.814609,-75.42227,DELAWARE,324110,,19061SNRFNGREEN,TRI
110032885723.0,Marcus Hook Energy Center - MH750,100 Green Street,Marcus Hook,PA,19061.0,39.8083,-75.4225,Delaware,221112,,1000269,GHGRP
110034690564.0,CHANNEL ENERGY CENTER,451 LIGHT COMPANY RD,HOUSTON,TX,77017,29.719067,-95.232039,Harris,22111,,6510011,NEI
110034690564.0,Channel Energy Center,451 LIGHT COMPANY ROAD,PASADENA,TX,77506.0,29.7189,-95.2319,Harris,221112,,1001408,GHGRP
110035090843.0,WINCHESTER POWER PARK,1260 FM 448,WINCHESTER,TX,78945,30.024992,-96.993328,Fayette,22111,,14748911,NEI
110035090843.0,Winchester Power Park,1260 FM 448,WINCHESTER,TX,78945.0,30.0253,-96.9945,Fayette,221112,,1000542,GHGRP
110035420746.0,CLEAR LAKE COGENERATION,9602 BAYPORT RD,PASADENA,TX,77507,29.625872,-95.066925,Harris,22111,,6429511,NEI
110035420746.0,Clear Lake Cogeneration,9602 BAYPORT,PASADENA,TX,77507.0,29.6255,-95.067,Harris,221112,,1000503,GHGRP
110035803262.0,"SEMINOLE ELECTRIC COOPERATIVE, INC.",6697 NORTH COUNTY ROAD 663,BOWLING GREEN,FL,33834-6817,27.640506,-81.961991,Hardee,2211,,4390111,NEI
110035803262.0,Midulla Generating Station,6697 COUNTY ROAD 663,BOWLING GREEN,FL,33834.0,27.6417,-81.9625,Hardee,221112,,1000110,GHGRP
110037417097.0,Invenergy Cannon Falls LLC,525 N Park Dr,Cannon Falls,MN,55009,44.536,-92.91565,Goodhue,221121,,13596111,NEI
110037417097.0,Cannon Falls Energy Center,525 N PARK DR,CANNON FALLS,MN,55009.0,44.5364,-92.9147,Goodhue,221112,,1000488,GHGRP
110038040214.0,FLORIDA MUNICIPAL POWER AGENCY,4545 Energy Lane,FORT PIERCE,FL,34981,27.384725,-80.377603,St. Lucie,2211,,12779711,NEI
110038040214.0,TREASURE COAST ENERGY CENTER,4545 ENERGY LANE,FORT PIERCE,FL,34981.0,27.3839,-80.3775,ST. LUCIE COUNTY,221112,,1002818,GHGRP
110038076453.0,CITY OF AMES STEAM ELECTRIC PLANT,200 E 5TH ST,AMES,IA,50010,42.025651,-93.607928,Story,221112,,12806611,NEI
110038076453.0,Ames Muni,Unknown,Ames,IA,00000,41.99205,-93.62182,Story,48811,,9642911,NEI
110038076453.0,Ames,200 E 5TH ST,AMES,IA,50010.0,42.0247,-93.6069,Story,221112,,1005802,GHGRP
110039620292.0,Cleveland County Generating Facility,240 Battleground Road,Kings Mountain,NC,28086,35.17059,-81.41666,Cleveland,221118,,16600211,NEI
110039620292.0,Cleveland County Generating Facility,200 Elm Road,Grover,NC,28073.0,35.1706,-81.4161,Cleveland,221112,,1000565,GHGRP
110040867149.0,APPLIED ENERGY LLC NAVAL STATION,3970 SURFACE NAVY BL,SAN DIEGO,CA,92136,32.679269,-117.122447,San Diego,221118,,3196611,NEI
110040867149.0,Applied Energy LLC Naval Station,"3970 Surface Navy Blvd, Bldg 3427",San Diego,CA,92136.0,32.684066,-117.125996,SAN DIEGO COUNTY,221112,,1005566,GHGRP
110040941531.0,AKZO NOBEL PULP AND PERFORMANCE CHEMICAL,4374 NASHVILLE FERRY ROAD EAST,COLUMBUS,MS,39702,33.423611,-88.395,Lowndes,32532,,7069811,NEI
110040941531.0,Nouryon Pulp & Performance Chemicals LLC,4374 NASHVILLE FERRY ROAD EAST,COLUMBUS,MS,39702.0,33.423653,-88.395103,LOWNDES COUNTY,325188,,1007767,GHGRP
110041055032.0,W R Grace & Co-Conn - Lake Charles Facility,1800 Davison Rd,Sulphur,LA,70665,30.15605,-93.34075,Calcasieu,325998,,8467811,NEI
110041055032.0,W R GRACE & CO-CONN GRACE,1800 DAVISON RD,SULPHUR,LA,70665,30.156194,-93.339443,CALCASIEU PARISH,325180,,70663WRGRCDAVIS,TRI
110041055032.0,GRACE DAVISON,1800 DAVISON ROAD,SULPHUR,LA,70665.0,30.156194,-93.339443,CALCASIEU PARISH,325188,,1003857,GHGRP
110041067234.0,"MISSISSIPPI POWER COMPANY, CHEVRON COGEN",200 INDUSTRIAL ROAD GATE 4,PASCAGOULA,MS,39581,30.339748,-88.491402,Jackson,22111,,6970611,NEI
110041067234.0,Chevron Cogenerating Station,200 INDUSTRIAL ROAD GATE 4,PASCAGOULA,MS,39568.0,30.34,-88.492,Jackson,221112,,1000696,GHGRP
110041119580.0,"Louisville Gas & Electric Co., Paddys Run Station",4512 BELLS LN,LOUISVILLE,KY,40211-2129,38.22087,-85.84361,Jefferson,221122,,5702311,NEI
110041119580.0,Paddys Run,4512 Bells Lane,Louisville,KY,40211.0,38.2147,-85.8453,JEFFERSON COUNTY,221112,,1001585,GHGRP
110041241073.0,Desert Basin Generating Station,1872 N BURRIS RD,CASA GRANDE,AZ,85122,32.90333,-111.78889,Pinal,22111,,998111,NEI
110041241073.0,Desert Basin Generating Station,1872 N BURRIS RD,CASA GRANDE,AZ,85222.0,32.9042,-111.7889,Pinal,221112,,1001329,GHGRP
110041513109.0,ESCONDIDO ENERGY CENTER LLC,1968 DON LEE PL,ESCONDIDO,CA,92029,33.128,-117.121,San Diego,221113,,13562011,NEI
110041513109.0,"Escondido Energy Center, LLC",1968 DON LEE PLACE,ESCONDIDO,CA,92029.0,33.1261,-117.1172,San Diego,221112,,1000074,GHGRP
110041990389.0,GRAND TOWER,Unknown,GRAND TOWER,IL,62942,37.63362,-89.505894,Jackson,48811,,11129111,NEI
110041990389.0,Grand Tower Energy Center LLC,1820 Power Plant Rd,Grand Tower,IL,62942-2117,37.657327,-89.51088,Jackson,221112,,2585811,NEI
110041990389.0,"Grand Tower Energy Center, LLC",1820 POWER PLANT ROAD,GRAND TOWER,IL,62942.0,37.6578,-89.5119,Jackson,221112,,1001515,GHGRP
110043333425.0,"CITY OF GAINESVILLE, GRU",11201 Northwest 13th St,GAINESVILLE,FL,32653,29.767413,-82.396304,Alachua,2211,,15561111,NEI
110043333425.0,Deerhaven Renewable,11201 NW 13th Street,Gainesville,FL,32653.0,29.7586,-82.3883,ALACHUA COUNTY,221112,,1011204,GHGRP
110043815565.0,WISCONSIN PUBLIC SERVICE CORP - DE PERE ENERGY CENTER,112 N 5th St,De Pere,WI,54115-2222,44.44864,-88.07213,Brown,221121,,7642611,NEI
110043815565.0,De Pere Energy Center,112 N 5TH ST,DE PERE,WI,54115.0,44.4489,-88.0731,Brown,221112,,1001295,GHGRP
110043973910.0,LANXESS - WEST PLANT,5821 SHULER RD,MAGNOLIA,AR,71753,33.183889,-92.937778,COLUMBIA,325180,,71730GRTLKUNION,TRI
110043973910.0,LANXESS Corporation - West Plant,5821 SHULER ROAD,EL Dorado,AR,71730.0,33.183889,-92.937778,UNION COUNTY,325188,,1008038,GHGRP
110043973910.0,Great Lakes Chemical Corp-West Plant,5821 Shuler Road,Marysville,AR,71753,33.18407,-92.93779,Union,325411,,1016411,NEI
110043974081.0,PG & E GERBER COMPRESSOR STA,CHARD AVE. & INTERSTATE 5,GERBER,CA,00000,40.063121,-122.214293,Tehama,486210,,1457611,NEI
110043974081.0,PG&E GERBER COMPRESSOR STATION,22169 Chard Ave,GERBER,CA,96035.0,40.069493,-122.213818,TEHAMA COUNTY,221210,,1006265,GHGRP
110043993211.0,Shell Catalysts & Technologies LP - Port Allen Plant,1699 Catalyst Dr,Port Allen,LA,70767,30.49374,-91.21979,West Baton Rouge,325180,,9583011,NEI
110043993211.0,SHELL CATALYST & TECHNOLOGIES,1699 CATALYST DR.,PORT ALLEN,LA,70767,30.4943,-91.21708,WEST BATON ROUGE PARISH,325180,,7076WCRTRN1699C,TRI
110043993211.0,Shell Catalysts and Technologies L.P.,1699 Catalyst Drive,Port Allen,LA,70767.0,30.4943,-91.21708,WEST BATON ROUGE PARISH,325188,,1010792,GHGRP
110045402079.0,SDG&E PALOMAR ENERGY CENTER,2300 HARVESON PL,ESCONDIDO,CA,92029,33.117,-117.118,San Diego,221118,,13562611,NEI
110045402079.0,Palomar Energy Center,2300 Harveson Place,ESCONDIDO,CA,92029.0,33.1192,-117.118,San Diego,221112,,1000410,GHGRP
110045693692.0,JEA-NORTHSIDE/SJRPP,4377 HECKSCHER DR.,JACKSONVILLE,FL,32226-3033,30.4216,-81.5541,Duval,2211,,640211,NEI
110045693692.0,Northside,4377 HECKSCHER DRIVE,JACKSONVILLE,FL,32226.0,30.4172,-81.5525,Duval,221112,,1001498,GHGRP
110054628729.0,WISCONSIN ELECTRIC POWER COMPANY (DBA WE ENERGIES) - ROTHSCHILD BIOMASS COGENE,210 S Grand Ave,Rothschild,WI,54474,44.8881,-89.6296,Marathon,221117,,16843311,NEI
110054628729.0,Rothschild Biomass Cogeneration Plant,210 N. Grand Avenue,Rothschild,WI,54474.0,44.888355,-89.625821,MARATHON COUNTY,221112,,1010794,GHGRP
110055206584.0,FLORIDA POWER & LIGHT (PPE),8100 Eisenhower Blvd,FORT LAUDERDALE,FL,33316,26.085278,-80.126111,Broward,2211,,591611,NEI
110055206584.0,Port Everglades,8100 EISENHOWER BOULEVARD,FORT LAUDERDALE,FL,33316.0,26.0856,-80.1253,Broward,221112,,1001484,GHGRP
110055592327.0,PPG Industries Inc - Silica Plant,3150 Pete Manena Rd,Westlake,LA,70669,30.22899,-93.29429,Calcasieu,325998,,16858211,NEI
110055592327.0,"PPG Industries, Inc",3150 Pete Manena Rd,Westlake,LA,70669.0,30.230982,-93.292406,CALCASIEU PARISH,325188,,1010877,GHGRP
110056955987.0,ALBEMARLE CORP,2500 N SOUTH ST,PASADENA,TX,77503,29.736667,-95.168056,Harris,325110,,6536811,NEI
110056955987.0,ALBEMARLE CORP PASADENA PLANT,2500 N SOUTH ST,PASADENA,TX,77503,29.742498,-95.165513,HARRIS,325199,,77503LBMRL2500N,TRI
110056955987.0,ALBEMARLE CORPORATION HOUSTON PLANT,2500 N. SOUTH ST.,PASADENA,TX,77503.0,29.742498,-95.165513,HARRIS COUNTY,325199,,1003402,GHGRP
110056956511.0,Dow Silicones Corp,4770 US 42 E,Carrollton,KY,41008-8123,38.7074,-85.1048,Carroll,326199,,8194311,NEI
110056956511.0,DOW SILICONES CORP,4770 US HWY 42,CARROLLTON,KY,41008,38.7074,-85.1048,CARROLL,325199,,41008DWCRNUSHIG,TRI
110056956511.0,DOW SILICONES CORPORATION,4770 HIGHWAY 42 EAST,CARROLLTON,KY,41008.0,38.7074,-85.1048,CARROLL COUNTY,325199,,1002548,GHGRP
110064648911.0,HARDEE POWER PARTNERS LIMITED,6695 NORTH COUNTY ROAD 663,BOWLING GREEN,FL,33834-6817,27.6364,-81.9636,Hardee,2211,,769811,NEI
110064648911.0,Hardee Power Station,6695 COUNTY ROAD 663 N,BOWLING GREEN,FL,33834.0,27.6364,-81.9636,Hardee,221112,,1001254,GHGRP
110066943605.0,BLUE CUBE OPERATIONS FREEPORT,2301 N BRAZOSPORT BLVD,FREEPORT,TX,77541,28.989642,-95.411392,Brazoria,325110,,17735411,NEI
110066943605.0,FREEPORT_OLIN BC,2301 N BRAZOSPORT BLVD,FREEPORT,TX,77541,28.969389,-95.379528,BRAZORIA,325199,,7754WBLCBP231NB,TRI
110066943605.0,"Olin Blue Cube, Freeport, TX","2301 N. Brazosport Blvd., OC-1120",Freeport,TX,77541.0,28.969389,-95.379528,BRAZORIA COUNTY,325199,,1011834,GHGRP
110070199200.0,COLORADO BEND II,4023 S STATE HWY 60,WHARTON,TX,77488,29.289708,-96.065228,Wharton,22111,,17978911,NEI
110070199200.0,Colorado Bend II,4023 South State Hwy 60,Wharton,TX,77488.0,29.2878,-96.0683,WHARTON COUNTY,221112,,1013024,GHGRP
110000463542.0,LA PORTE PLANT,12501 STRANG RD,LA PORTE,TX,77571,29.696944,-95.027778,Harris,325110,,4018511,NEI
110000463542.0,E I DU PONT DE NEMOURS LA PORTE PLANT,12501 STRANG RD.,LA PORTE,TX,77571.0,29.700264,-95.036967,HARRIS COUNTY,325199,,1002003,GHGRP
110000490870.0,SOLVAY CHEMICALS INC,3500 INDUSTRIAL WAY,LONGVIEW,WA,98632,46.136952,-122.982513,COWLITZ,325180,,98632NTRXM3500I,TRI
110000490870.0,SOLVAY CHEMICALS INC,3500 INDUSTRIAL WAY,LONGVIEW,WA,98632.0,46.136952,-122.982513,COWLITZ COUNTY,325188,,1005156,GHGRP
110038098769.0,Otter Tail Power Co - Solway Plant,7707 Centerline Rd NW,Solway,MN,56678,47.5444,-95.1297,Beltrami,221118,,9516311,NEI
110038098769.0,Solway Plant,7707 CENTERLINE ROAD NW,SOLWAY,MN,56678.0,47.5444,-95.1297,Beltrami,221112,,1000118,GHGRP
110043788719.0,LYONDELLBASELL METHANOL,11603 STRANG RD,LA PORTE,TX,77572,29.706044,-95.055725,Harris,325110,,4055111,NEI
110043788719.0,LA PORTE METHANOL PLANT,11603 STRANG RD,LA PORTE,TX,77571,29.706291,-95.057016,HARRIS,325199,,77571LPRTM11603,TRI
110043788719.0,"LYONDELLBASELL ACETYLS LLC, LA PORTE METHANOL PLANT",11603 STRANG ROAD,LA PORTE,TX,77571.0,29.70231,-95.05492,HARRIS COUNTY,325199,,1004807,GHGRP
110043973153.0,Atmos Energy Corporation - APT Howard,5430 LBJ Freeway,Dallas,TX,75240.0,32.92548,-96.81613,DALLAS COUNTY,486210,,1006523,GHGRP
110043973153.0,Atmos Energy Corporation - Kentucky,5430 LBJ Freeway,Dallas,TX,75240.0,32.92548,-96.81613,DALLAS COUNTY,221210,,1001389,GHGRP
110001187377.0,CALPEAK POWER EL CAJON LLC,200 JOHNSON AV N,EL CAJON,CA,92020,32.7963,-116.9711,San Diego,221112,,10099011,NEI
110001187377.0,CABRILLO POWER II LLC EL CAJON GT,800 MAIN ST W,EL CAJON,CA,92020,32.7964,-116.9721,San Diego,221113,,3371411,NEI
110000512598.0,SUNVIEW VINEYARDS OF CA INC,31381 POND RD,MCFARLAND,CA,93250,35.718,-119.247,Kern,221112,,10267111,NEI
110000512598.0,APTCO LLC,31381 POND RD,MCFARLAND,CA,93215,35.70884,-119.23102,Kern,326150,,323711,NEI
110056968278.0,PowerSouth Energy Cooperative Inc,Larson Rd,Leroy,AL,36548,31.48761,-87.90956,Washington,221112,,1028611,NEI
110056968278.0,CHARLES R LOWMAN POWER PLANT,4392 CARSON RD,LEROY,AL,36548,31.4887,-87.9103,WASHINGTON,221112,,36548CHRLSCARSO,TRI
110056968278.0,Charles R Lowman,CARSON ROAD,LEROY,AL,36548.0,31.4858,-87.9106,Washington,221121,,1001418,GHGRP
110037974261.0,CITY OF SAN LEANDRO FIRE STATION #12,1065 143RD AVENUE,SAN LEANDRO,CA,94578,37.70919,-122.14012,Alameda,221112,,10478611,NEI
110037974261.0,SAN LEANDRO FIRE STATION #12,1065 143RD AVE,SAN LEANDRO,CA,94578,37.709355,-122.140894,Alameda,447110,,18171111,NEI
110055672632.0,PACIFIC GAS AND ELECTRIC,41800 BOSCELL ROAD,FREMONT,CA,94538,37.50923,-121.98268,Alameda,221112,,10497911,NEI
110055672632.0,PG & E FREMONT SERVICE CENTER,41800 BOSCELL RD,FREMONT,CA,94538,37.508832,-121.982222,Alameda,447110,,18354611,NEI
110020901194.0,NCEMC - Anson Plant,749 Blewett Falls Road,Lilesville,NC,28091,34.968061,-79.922269,Anson,221112,,10616211,NEI
110020901194.0,NCEMC Anson Plant,749 BLEWETT FALLS ROAD,LILESVILLE,NC,28091.0,34.9708,-79.9208,Anson,221119,,1000459,GHGRP
110025376448.0,Arkema Inc,13755 US Hwy 43 N,Axis,AL,36505,30.978762,-88.029374,Mobile,325199,,1062311,NEI
110025376448.0,ARKEMA INC,13755 HWY 43 N,AXIS,AL,36505,30.979167,-88.028833,MOBILE,325211,,36505MTCHMHWY43,TRI
110022483258.0,NCEMC - Hamlet Plant,162 Cooperative Way,Hamlet,NC,28345,34.839533,-79.7364,Richmond,221112,,10631811,NEI
110022483258.0,NCEMC Hamlet Plant,162 COOPERATIVE WAY,HAMLET,NC,28345.0,34.8422,-79.7367,Richmond,221119,,1000462,GHGRP
110008986810.0,East KY Power Corp - Green Valley Landfill,517 Addington Rd,Ashland,KY,41102-4109,38.39657,-82.80856,Greenup,221112,,10688811,NEI
110008986810.0,GREEN VALLEY LANDFILL,100 ADDINGTON RD,ASHLAND,KY,41102.0,38.39657,-82.80856,GREENUP COUNTY,562212,,1004483,GHGRP
110000378494.0,CHEMOURS LOUISVILLE WORKS,4200 CAMP GROUND ROAD,LOUISVILLE,KY,40216.0,38.21229,-85.83975,JEFFERSON COUNTY,325120,,1004133,GHGRP
110000378494.0,Chemours Company,4200 CAMP GROUND RD,LOUISVILLE,KY,40216-4602,38.21683,-85.84151,Jefferson,325199,,10695411,NEI
110000378494.0,CHEMOURS LOUISVILLE PLANT,4200 CAMP GROUND RD,LOUISVILLE,KY,40216,38.217166,-85.841979,JEFFERSON,325120,,40216DPNTL4200C,TRI
110000383399.0,Sauder Woodworking Cogeneration Facility (0326000079),502 Middle St.,Archbold,OH,43502,41.51556,-84.29333,Fulton,221112,,10698611,NEI
110000383399.0,SAUDER,502 MIDDLE ST,ARCHBOLD,OH,43502,41.5147,-84.3023,FULTON,337122,,43502SDRWD502MI,TRI
110007155121.0,INNOVATIVE DANC,23400 ST RTE 177,RODMAN,NY,13682,43.822157,-75.92022,Jefferson,221112,,10750111,NEI
110007155121.0,DANC SOLID WASTE MANAGEMENT FACILITY,23400 ST RTE 177,RODMAN,NY,13682,43.818037,-75.918639,Jefferson,562212,,8036611,NEI
110010382629.0,Beluga River Power Plant,40 miles W of Anchorage,Anchorage,AK,99519,61.1853,-151.0366,Kenai Peninsula,221112,,12661111,NEI
110010382629.0,Beluga River Unit,Upper Cook Inlet,Anchorage,AK,99519,61.185,-151.0394,Kenai Peninsula,211120,,15558911,NEI
110005970477.0,Clark Floyd Landfill Gas Generating Sta,14304 SR 60,Borden,IN,47106,38.444096,-85.850261,Clark,221112,,12732811,NEI
110005970477.0,Clark-Floyd Landfill,14304 SR 60,Borden,IN,47106,38.4581,-85.8386,Clark,562212,,4745511,NEI
110000363302.0,"BRENNTAG MID-SOUTH, INC.",250 Central Florida Pkwy,ORLANDO,FL,32824-7601,28.406966,-81.378089,Orange,325199,,12771311,NEI
110000363302.0,BRENNTAG MID-SOUTH INC.,250 CENTRAL FLORIDA PKWY,ORLANDO,FL,32824,28.406961,-81.378089,ORANGE,424690,,32824PBSCH250CE,TRI
110001122044.0,BIMAX INC/SPRINGFIELD,INDUSTRIAL LN,SHREWSBURY,PA,17327,39.82318,-76.69658,York,325199,,12798611,NEI
110001122044.0,GELEST INC,158 INDUSTRIAL RD,GLEN ROCK,PA,17327,39.818601,-76.6872,YORK,325998,,17327PMXNC158IN,TRI
110018869474.0,MONSANTO COMPANY - MUSCATINE 3670,2500 WIGGENS RD,MUSCATINE,IA,52761,41.349908,-91.085257,Muscatine,325199,,12807511,NEI
110018869474.0,MONSANTO COMPANY - MUSCATINE 6908,2500 WIGGENS RD,MUSCATINE,IA,52761,41.34852,-91.0811,Muscatine,325199,,12807611,NEI
110018869474.0,MONSANTO COMPANY - MUSCATINE 6909,2500 WIGGENS RD,MUSCATINE,IA,52761,41.350135,-91.082669,Muscatine,325320,,12807711,NEI
110018869474.0,BAYER CROPSCIENCE LP,2500 WIGGINS RD,MUSCATINE,IA,52761,41.350469,-91.081619,MUSCATINE,325320,,52761MNSNTWIGGI,TRI
110016766837.0,NORTHERN CALIF POWER AGENCY,"2900 MAIN ST, SITE 1 OR 2",ALAMEDA,CA,94501,37.78683,-122.29108,Alameda,221112,,136511,NEI
110016766837.0,ALAMEDA CREMATIONS,"2900 MAIN ST, SUITE 116",ALAMEDA,CA,94501,37.78748,-122.29202,Alameda,812210,,13985611,NEI
110022523045.0,Commonwealth Agri-Energy LLC,4895 Pembroke Rd,Hopkinsville,KY,42241,36.808306,-87.41475,Christian,325199,,13715611,NEI
110022523045.0,COMMONWEALTH AGRI-ENERGY LLC,4895 PEMBROKE RD,HOPKINSVILLE,KY,42240,36.81342,-87.41009,CHRISTIAN,325193,,42241CMMNW4895P,TRI
110022523045.0,COMMONWEALTH AGRI-ENERGY LLC,4895 PEMBROKE RD,HOPKINSVILLE,KY,42240.0,36.81342,-87.41009,CHRISTIAN COUNTY,325193,,1005115,GHGRP
110054279570.0,SONOMA-CUTRER VINEYARDS,4401 SLUSSER ROAD,WINDSOR,CA,95492,38.50356,-122.8258,Sonoma,221112,,13830711,NEI
110054279570.0,SONOMA CUTRER WINERY A: DAVID PERATA,4401 SLUSSER RD,WINDSOR,CA,95492,38.49496,-122.825732,Sonoma,447110,,18302511,NEI
110027254986.0,PACIFIC ETHANOL MADERA LLC,31470 AVENUE 12,MADERA,CA,93637,36.923137,-119.976078,Madera,325199,,13871011,NEI
110027254986.0,PACIFIC ETHANOL MADERA LLC,31470 AVE 12,MADERA,CA,93638,36.92327,-119.97549,MADERA,325193,,93637PCFCT3147A,TRI
110027254986.0,"Seaboard Energy California, LLC",31470 Avenue 12,Madera,CA,93638.0,36.92327,-119.97549,MADERA COUNTY,325193,,1011577,GHGRP
110043805790.0,ALGONQUIN POWER SANGER LLC,1125 MUSCAT AVE,SANGER,CA,93657,36.68486,-119.55462,Fresno,221112,,13986511,NEI
110043805790.0,"Algonquin Power Sanger, LLC",1125 Muscat Avenue,Sanger,CA,93657.0,36.68508,-119.55227,FRESNO COUNTY,221119,,1005044,GHGRP
110012694352.0,"MM PRIMA DESHECHA ENERGY, LLC",32250  LA PATA RD,SAN JUAN CAPISTRANO,CA,92675,33.516747,-117.620407,Orange,221112,,14067911,NEI
110012694352.0,"OC WASTE & RECYCLING, PRIMA DESHECHA",32250  LA PATA AVE,SAN JUAN CAPISTRANO,CA,92675,33.4865,-117.6251,Orange,562212,,1629511,NEI
110012694352.0,PRIMA DESHECHA LANDFILL,32250 LAPATA AVE,SAN JUAN CAPISTRANO,CA,92675.0,33.4865,-117.6251,ORANGE COUNTY,562212,,1002106,GHGRP
110000485109.0,J R SIMPLOT COMPANY,16777 HOWLAND RD,LATHROP,CA,95330,37.807058,-121.277465,San Joaquin,325311,,14165011,NEI
110000485109.0,J R SIMPLOT CO LATHROP,16777 HOWLAND RD,LATHROP,CA,95330,37.807058,-121.277465,SAN JOAQUIN,325312,,95330FRSMP16777,TRI
110000485109.0,J R SIMPLOT CO LATHROP,16777 HOWLAND RD,LATHROP,CA,95330,37.807058,-121.277465,SAN JOAQUIN,325311,,95330FRSMP16777,TRI
110000485109.0,J.R. SIMPLOT COMPANY,16777 HOWLAND ROAD,LATHROP,CA,95330,37.80787,-121.2789,San Joaquin,325311,,1224811,NEI
110038508335.0,31st Street Landfill,11700 W 31ST ST,WESTCHESTER,IL,60154.0,41.834962,-87.916392,COOK COUNTY,562212,,1003742,GHGRP
110038508335.0,31st Street Energy LLC,11700 31st St,Westchester,IL,60154-5053,41.834974,-87.916396,Cook,221112,,14594811,NEI
110009554721.0,CROP PRODUCTION SERVICES INC,3201 AVENUE 54,ALPAUGH,CA,93201,35.886051,-119.50086,Tulare,325312,,1465211,NEI
110009554721.0,NUTRIEN AG SOLUTIONS,3201 AVE 54,ALPAUGH,CA,93201,35.8864,-119.5006,TULARE,325314,,93201WSTRN3201A,TRI
110056904060.0,"POET Biorefining - Marion, LLC (0351010207)",Hillman-Ford Road,Marion,OH,43302,40.62564,-83.15796,Marion,325199,,14690911,NEI
110056904060.0,POET BIOREFINING-MARION LLC,1660 HILLMAN FORD RD,MARION,OH,43302,40.61855,-83.15954,MARION,325193,,43302PTBRF166HI,TRI
110056904060.0,Marion Ethanol LLC d/b/a Poet Biorefining - Marion,1660 Hillman Ford Road,Marion,OH,43302.0,40.61855,-83.15954,MARION COUNTY,325193,,1004902,GHGRP
110037615694.0,Andersons Marathon Ethanol LLC (0819750245),5278 SEBRING WARNER RD,Greenville,OH,45331,40.08134,-84.59076,Darke,325199,,14712111,NEI
110037615694.0,THE ANDERSONS MARATHON HOLDINGS LLC,5728 E SEBRING WARNER RD,GREENVILLE,OH,45331.0,40.081111,-84.591667,DARKE COUNTY,325193,,1000035,GHGRP
110040452676.0,New England Power Company,40 Sylvan Road,Waltham,MA,2451.0,42.396463,-71.271237,MIDDLESEX COUNTY,221121,,1009741,GHGRP
110040452676.0,NATIONAL GRID USA SERVICE COMPANY INC,40 SYLVAN RD,WALTHAM,MA,02451-0000,42.395761,-71.272608,Middlesex,221210,,15078511,NEI
110030917603.0,Flint Hills Resources Fairmont,1214 Road G,Fairmont,NE,68354-3054,40.616285,-97.604068,Fillmore,325199,,15083411,NEI
110030917603.0,POET BIOREFINING - FAIRMONT LLC,1214 COUNTY RD G,FAIRMONT,NE,68354,40.61137,-97.6014,FILLMORE,325193,,68354BFRMN1214R,TRI
110012142172.0,SANTEE COOPER BERKELEY COUNTY LANDFILL G,2277 HWY 52,MONCKS CORNER,SC,29461,33.129168,-80.040836,Berkeley,221112,,15654911,NEI
110012142172.0,BERKELEY COUNTY LANDFILL,2277 HIGHWAY 52,MONCKS CORNER,SC,29461,33.121836,-80.034649,Berkeley,562212,,2914311,NEI
110000514587.0,E.F. OXNARD LLC,550 DIAZ AVENUE,OXNARD,CA,93030,34.19774,-119.16184,Ventura,221112,,1589611,NEI
110000514587.0,E.F. Oxnard LLC,550 Diaz Avenue,Oxnard,CA,93030.0,34.19677,-119.168423,VENTURA COUNTY,115114,,1005565,GHGRP
110000759457.0,PUBLIC SERVICE CO - ZUNI PLT,1335 ZUNI ST,DENVER,CO,80204,39.73741,-105.01673,Denver,221112,,1685411,NEI
110000759457.0,Zuni,1335 ZUNI ST,DENVER,CO,80204.0,39.7369,-105.0169,Denver,221330,,1001464,GHGRP
110070062346.0,QUALCOMM INC - PACIFIC CENTER,5751 Pacific Center Boulevard,San Diego,CA,92121.0,32.8981142,-117.2029363,SAN DIEGO COUNTY,541990,,1011718,GHGRP
110070062346.0,QUALCOMM INC,5751 PACIFIC CENTER DR,SAN DIEGO,CA,92121,32.904034,-117.19565,San Diego,221112,,17203511,NEI
110012694012.0,AMERESCO SAN JOAQUIN LLC,6484 NORTH WAVERLY ROAD,LINDEN,CA,95230,38.03748,-120.93553,San Joaquin,221112,,17375511,NEI
110012694012.0,FOOTHILL SANITARY LANDFILL,6484 NORTH WAVERLY ROAD,LINDEN,CA,95236.0,38.03749,-120.94487,SAN JOAQUIN COUNTY,562212,,1007198,GHGRP
110009535155.0,PACIFIC GAS & ELECTRIC COMPANY,24300 CLAWITER RD,HAYWARD,CA,94545,37.642989,-122.119899,Alameda,447110,,18175611,NEI
110009535155.0,PACIFIC GAS AND ELECTRIC COMPANY,24300 CLAWITER ROAD,HAYWARD,CA,94545,37.64076,-122.11858,Alameda,221112,,196311,NEI
110001190746.0,PACIFIC GAS AND ELECTRIC,3797 1ST ST,LIVERMORE,CA,94551,37.689395,-121.752642,Alameda,447110,,18175811,NEI
110001190746.0,PACIFIC GAS AND ELECTRIC COMPANY,3797 1ST STREET,LIVERMORE,CA,94550,37.6876,-121.75033,Alameda,221112,,196411,NEI
110042017000.0,CLINTON POWER STATION,Unknown,CLINTON,IL,61735,40.172037,-88.829492,De Witt,48811,,12295411,NEI
110042017000.0,Exelon Generation Co LLC,8401 Power Rd,Clinton,IL,61727-9182,40.172336,-88.83512,De Witt,221112,,2561311,NEI
110000790181.0,DRESDEN POWER STATION,Unknown,MINOOKA,IL,60450,41.387095,-88.265886,Grundy,48811,,11181611,NEI
110000790181.0,Exelon-Dresden Station,6500 Dresden Rd,Morris,IL,60450,41.390114,-88.267029,Grundy,221112,,3349311,NEI
110000434334.0,Cargill Inc,12201 S Torrence,Chicago,IL,60617-7214,41.676227,-87.555765,Cook,325199,,3359411,NEI
110000434334.0,Cargill Inc,12201 S Torrence Ave,Chicago,IL,60617-7214,41.673085,-87.554745,Cook,424690,,3230411,NEI
110000492324.0,MONTOUR LLC/MONTOUR SES,PO BOX 128,WASHINGTONVILLE,PA,17884-0128,41.07005,-76.66646,Montour,221112,,3881111,NEI
110000492324.0,MONTOUR STEAM ELECTRIC STATION,18 MCMICHAEL RD,DANVILLE,PA,17821,41.069974,-76.665133,MONTOUR,221122,,17821MNTRS18MCM,TRI
110000574423.0,EASTMAN CHEMICAL COMPANY,200 SOUTH WILCOX DRIVE,KINGSPORT,TN,37660,36.52222,-82.5411,Sullivan,325199,,3982311,NEI
110000574423.0,EASTMAN CHEMICAL CO TENNESSEE OPERATIONS,100 EASTMAN RD,KINGSPORT,TN,37660,36.527055,-82.53858,SULLIVAN,325211,,37662TNNSSEASTM,TRI
110064198176.0,Ironside Energy LLC contractor of Acelo,3001 DICKEY RD,East Chicago,IN,46312,41.6641,-87.45247,Lake,221112,,3988411,NEI
110064198176.0,"Ironside Energy, LLC",3001 Dickey Road,East Chicago,IN,46312.0,41.65984,-87.46585,LAKE COUNTY,221119,,1003195,GHGRP
110040086803.0,Duke Energy Indiana LLC Edwardsport Gen,15424 E SR 358,Edwardsport,IN,47528,38.8067,-87.2472,Knox,221112,,4478911,NEI
110040086803.0,DUKE ENERGY INDIANA INC. - EDWARDSPORT IGCC,15424 E SR 358,EDWARDSPORT,IN,47528,38.8067,-87.2472,KNOX,221118,,47528PSDWR15400,TRI
110040086803.0,DUKE ENERGY INDIANA INC. - EDWARDSPORT IGCC,15424 E SR 358,EDWARDSPORT,IN,47528,38.8067,-87.2472,KNOX,221112,,47528PSDWR15400,TRI
110006010583.0,PORTSIDE ENERGY LLC,6290 US Hwy 12,Portage,IN,46368,41.63153,-87.17286,Porter,221112,,4691211,NEI
110006010583.0,Portside Energy,6290 US HWY 12,PORTAGE,IN,46368.0,41.6317,-87.1728,Porter,221122,,1000236,GHGRP
110046292677.0,ALBEMARLE/TYRONE QUALITY CHEM,2858 BACK VAIL RD,TYRONE,PA,16686-8100,40.69323,-78.23045,Blair,325199,,4701311,NEI
110046292677.0,W R GRACE & CO,2858 BACK VAIL ROAD,TYRONE,PA,16686,40.693119,-78.230157,BLAIR,325110,,16686QLTYCINDUS,TRI
110000421080.0,CHEMDESIGN PRODUCTS INC,2 Stanton St,Marinette,WI,54143-2543,45.0978,-87.6165,Marinette,325199,,4771011,NEI
110000421080.0,CHEMDESIGN PRODUCTS INC,2 STANTON ST,MARINETTE,WI,54143,45.09713,-87.61406,MARINETTE,325998,,54143SPCLT2STAN,TRI
110038495768.0,ADVANSIX INC,4700 BERMUDA ST,PHILADELPHIA,PA,19137,40.00648,-75.07145,Philadelphia,325199,,4950811,NEI
110038495768.0,ADVANSIX RESINS & CHEMICALS LLC,2501 MARGARET,PHILADELPHIA,PA,19137,40.005901,-75.072103,PHILADELPHIA,325110,,19137LLDSGMARGA,TRI
110038495768.0,AdvanSix Resins & Chemicals LLC,2501 MARGARET STREET,PHILADELPHIA,PA,19137.0,40.0067,-75.0686,Philadelphia,325192,,1000089,GHGRP
110045410872.0,MILLIKEN & CO CHEMICAL ALLEN PLANT,SC HWY 5 & I-85,BLACKSBURG,SC,29702,35.115278,-81.561111,Cherokee,325199,,4967211,NEI
110045410872.0,MILLIKEN CHEMICAL ALLEN PLANT,164 NEW MILLIKEN RD,BLACKSBURG,SC,29702,35.118056,-81.565833,CHEROKEE,325998,,29702MGNLFSCHIG,TRI
110045410872.0,MILLIKEN CHEMICAL ALLEN PLANT,164 NEW MILLIKEN RD,BLACKSBURG,SC,29702,35.118056,-81.565833,CHEROKEE,313310,,29702MGNLFSCHIG,TRI
110000607772.0,ICL-North America Inc - GALLIPOLIS FERRY PLANT,11636 Huntington Road,GALLIPOLIS FERRY,WV,25515,38.77222,-82.20556,Mason,325199,,5002111,NEI
110000607772.0,ICL-IP AMERICA INC,11636 HUNTINGTON,GALLIPOLIS FERRY,WV,25515,38.77222,-82.20556,MASON,325998,,25515KZCHMSTATE,TRI
110007141654.0,"Forked River Power, LLC",FORKED RIVER POWER LLC,FORKED RIVER,NJ,08731,39.8154,-74.2098,Ocean,221112,,5111011,NEI
110007141654.0,OYSTER CREEK GENERATING STATION,Unknown,FORKED RIVER,NJ,00000,39.8159,-74.2039,Ocean,48811,,11210511,NEI
110001937076.0,Terrebonne Parish Consolidated Government - Houma Generating Station,1551 Barrow St,Houma,LA,70361,29.58027,-90.72142,Terrebonne,221112,,5192511,NEI
110001937076.0,Houma,1551 BARROW ST,HOUMA,LA,70360.0,29.5808,-90.7222,Terrebonne,221121,,1000529,GHGRP
110017980443.0,BUCKMAN LABORATORIES INC CADET,14664 EAST STATE HIGHWAY 47,CADET,MO,63630,37.98199,-90.68949,Washington,325199,,5219011,NEI
110017980443.0,BUCKMAN LABORATORIES INC.,14664 E STATE HWY 47,CADET,MO,63630,37.983333,-90.690833,WASHINGTON,325998,,63630BCKMNHIGHW,TRI
110056959055.0,"Pinova, Inc.",2801 Cook Street,Brunswick,GA,31520,31.1653,-81.4811,Glynn,325199,,554411,NEI
110056959055.0,"PINOVA,INC.",2801 COOK ST,BRUNSWICK,GA,31520,31.1653,-81.4811,GLYNN,325194,,31520HRCLS2801C,TRI
110000342610.0,Hopewell Cogeneration Ltd Partnership,1114 Hercules Rd,Hopewell,VA,23860,37.2914,-77.2819,Hopewell city,221112,,5883511,NEI
110000342610.0,Hopewell Energy Facility,1114 HERCULES ROAD,HOPEWELL,VA,23860.0,37.2914,-77.2821,Hopewell,221119,,1000318,GHGRP
110005974286.0,CHALK POINT GENERATING STA,Unknown,EAGLE HARBOR,MD,00000,38.5565,-76.6927,Prince Georges,48811,,12530911,NEI
110005974286.0,"NRG Chalk Point, LLC",25100 Chalk Point Road,Aquasco,MD,20608,38.5444,-76.6861,Prince Georges,221112,,6011911,NEI
110005974286.0,CHALK POINT POWER LLC,25100 CHALK POINT RD,AQUASCO,MD,20608,38.5444,-76.6861,PRINCE GEORGE'S,221112,,20608CHLKP25100,TRI
110000482255.0,TESSENDERLO KERLEY INC,5427 E CENTRAL AVE,FRESNO,CA,93725,36.6781,-119.6985,Fresno,325311,,6514711,NEI
110000482255.0,TESSENDERLO KERLEY INC FRESNO PLANT,5427 E CENTRAL AVE,FRESNO,CA,93725,36.67819,-119.69202,FRESNO,325320,,93725GFRML5427E,TRI
110056955521.0,PCI NITROGEN PASADENA FACILITY,2001 JACKSON RD,PASADENA,TX,77501,29.7412,-95.191294,Harris,325312,,6616511,NEI
110056955521.0,PCI NITROGEN LLC,2001 JACKSON RD,PASADENA,TX,77506,29.739817,-95.199387,HARRIS,325311,,77501MBLMN2001J,TRI
110060333928.0,ELMENDORF AFB,Unknown,ANCHORAGE,AK,00000,61.2513,-149.8065,Anchorage,48811,,11322711,NEI
110060333928.0,"DU-JBER-Electric, Gas, Drinking Water and Sanitary Services",730 Quartermaster Rd.,Fort Richardson,AK,99505,61.2568,-149.7135,Anchorage,221112,,662111,NEI
110060333928.0,US DOD USAF JOINT BASE ELMENDORF-RICHARDSON,6326 ARCTIC WARRIOR DR,JBER,AK,995063221,61.269684,-149.762878,ANCHORAGE MUNICIPALITY,928110,,99506SDDSF11530,TRI
110010570024.0,"Trunkline Gas Company, LLC, Independence Compressor Station",8354 Highway 305,Coldwater,MS,38618,34.74078,-89.80979,Tate,221210,,6952811,NEI
110010570024.0,TRUNKLINE GAS CO - INDEPENDENCE,8354 HIGHWAY 305,COLDWATER,MS,38618.0,34.739917,-89.810833,TATE COUNTY,486210,,1003122,GHGRP
110000468994.0,Geneva Nitrogen Inc.: Geneva Nitrogen Plant,1165 North 1600 West,Vineyard,UT,84057,40.318,-111.736,Utah,325311,,6983411,NEI
110000468994.0,GENEVA NITROGEN LLC,1165 NORTH 1600 WEST,OREM,UT,84057.0,40.3183,-111.735,UTAH COUNTY,493110,,1006272,GHGRP
110000426469.0,Rochester Public Utilities - Silver Lake Plant,425 W Silver Lake Rd NE,Rochester,MN,55906,44.0286,-92.4604,Olmsted,221112,,7149811,NEI
110000426469.0,Silver Lake,425 W SILVER LAKE DRIVE NE,ROCHESTER,MN,55903.0,44.0281,-92.4597,Olmsted,221330,,1000695,GHGRP
110000425861.0,Hawkins Inc,3100 E Hennepin Ave,Minneapolis,MN,55413,44.99161,-93.21001,Hennepin,325199,,7161711,NEI
110000425861.0,HAWKINS INC. - MINNEAPOLIS,3100 E HENNEPIN AVE,MINNEAPOLIS,MN,55413,44.99165,-93.21015,HENNEPIN,424690,,55427HWKNS3100E,TRI
110000308435.0,SOLUTIA INC,730 WORCESTER ST,SPRINGFIELD,MA,01151-1089,42.156221,-72.529145,Hampden,325199,,7236411,NEI
110000308435.0,SOLUTIA INC,730 WORCESTER ST,SPRINGFIELD,MA,1151,42.154981,-72.526419,HAMPDEN,326113,,01151MNSNT730WO,TRI
110000308435.0,SOLUTIA INC - INDIAN ORCHARD PLANT,730 WORCESTER STREET,SPRINGFIELD,MA,1151.0,42.154981,-72.526419,HAMPDEN COUNTY,326113,,1002299,GHGRP
110000495508.0,NORTH VALMY GENERATING STATION,North of I80 Stonehouse Int 212,VALMY,NV,89438,40.8816,-117.1521,Humboldt,221112,,7302011,NEI
110000495508.0,SIERRA PACIFIC POWER CO NORTH VALMY STATION,23755 TREATY HILL RD,VALMY,NV,89438,40.8816,-117.1521,HUMBOLDT,221122,,89438NRTHVI80EX,TRI
110000582012.0,BURLINGTON GENERATING STATION,Unknown,BURLINGTON,NJ,00000,40.0737,-74.8746,Burlington,48811,,12318911,NEI
110000582012.0,Burlington Generating Station,BURLINGTON GENERATING STA,BURLINGTON,NJ,08016,40.0765,-74.8772,Burlington,221112,,7310911,NEI
110069500524.0,Solutia Inc,500 Monsanto Dr,Sauget,IL,62206-1198,38.596726,-90.171576,St. Clair,325199,,7338811,NEI
110069500524.0,FLEXSYS AMERICA LP KRUMMRICH,500 MONSANTO AVE,SAUGET,IL,62206,38.59724,-90.168697,ST. CLAIR,325998,,62206FLXSY500MO,TRI
110000494894.0,Eagle US 2 LLC - Lake Charles Complex,1300 PPG Dr,Westlake,LA,70669,30.22397,-93.28213,Calcasieu,325199,,7354911,NEI
110000494894.0,WESTLAKE US 2 LLC,1300 PPG DR,WESTLAKE,LA,70669,30.2235,-93.2869,CALCASIEU PARISH,325180,,70669PPGNDCOLUM,TRI
110000494894.0,WESTLAKE US 2 LLC,1300 PPG DR,WESTLAKE,LA,70669,30.2235,-93.2869,CALCASIEU PARISH,221112,,70669PPGNDCOLUM,TRI
110000494894.0,WESTLAKE US 2 LLC,1300 PPG DR,WESTLAKE,LA,70669,30.2235,-93.2869,CALCASIEU PARISH,325199,,70669PPGNDCOLUM,TRI
110000494894.0,Eagle US 2 LLC,1300 PPG Drive,WESTLAKE,LA,70669.0,30.221,-93.2826,CALCASIEU PARISH,325181,,1008459,GHGRP
110000329617.0,CALGON CARBON CORP/NEVILLE ISLAND PLT,200 NEVILLE RD,PITTSBURGH,PA,15225-1620,40.49203,-80.07844,Allegheny,325199,,7407911,NEI
110000329617.0,CALGON CARBON CORP NEVILLE ISLAND PLANT,200 NEVILLE RD,PITTSBURGH,PA,15225,40.492329,-80.079626,ALLEGHENY,325998,,15225CLGNC200NE,TRI
110063993282.0,EF KENILWORTH LLC,2000 GALLOPING HILL RD,KENILWORTH,NJ,07033,40.67688,-74.275044,Union,221112,,7548611,NEI
110063993282.0,"E F Kenilworth, Inc.",2000 GALLOPING HILL RD BLDG K-14,KENILWORTH,NJ,7033.0,40.6781,-74.2744,Union,221330,,1005905,GHGRP
110041624187.0,Northern Border Pipeline Culbertson CS#3,5444 Road 1016,CULBERTSON,MT,59218.0,48.215615,-104.396623,ROOSEVELT COUNTY,486210,,1005957,GHGRP
110041624187.0,N. BORDER PIPELINE CO STA. 3,COMPRESSOR STATION NO. 3,CULBERTSON,MT,59218,48.214474,-104.394862,Roosevelt,221210,,7619111,NEI
110000382309.0,CAPITAL RESIN CORP (0125040238),324 DERING AVENUE,Columbus,OH,43207,39.91389,-82.9875,Franklin,325199,,7751111,NEI
110000382309.0,CAPITAL RESIN CORP,324 DERING AVE,COLUMBUS,OH,43207,39.912778,-82.987222,FRANKLIN,325211,,43207CPTLR324DE,TRI
110008053587.0,VERSO ANDROSCOGGIN LLC - JAY,RILEY RD,JAY,ME,04239,44.506335,-70.238607,Franklin,221112,,7764711,NEI
110008053587.0,PIXELLE SPECIALTY SOLUTIONS,300 RILEY RD - ANDROSCOGGIN MILL,JAY,ME,4239,44.506335,-70.238607,FRANKLIN,322110,,04239NTRNTRILEY,TRI
110008053587.0,PIXELLE ANDROSCOGGIN LLC,300 RILEY RD,JAY,ME,4239.0,44.506335,-70.238607,FRANKLIN COUNTY,322121,,1000593,GHGRP
110006650132.0,DEARBORN INDUSTRIAL GENERATION,2400 MILLER RD,DEARBORN,MI,48121,42.304,-83.1525,Wayne,221112,,7778711,NEI
110006650132.0,Dearborn Industrial Generation,2400 MILLER ROAD,DEARBORN,MI,48121.0,42.3026,-83.154,Wayne,221119,,1006695,GHGRP
110000881733.0,MEDICAL AREA TOTAL ENERGY PLANT,474 BROOKLINE AVE,BOSTON,MA,02215-0000,42.336873,-71.10831,Suffolk,221112,,7887011,NEI
110000881733.0,MEDICAL AREA TOTAL ENERGY PLANT,474 BROOKLINE AVE,BOSTON,MA,2215.0,42.336667,-71.108333,SUFFOLK COUNTY,221330,,1000580,GHGRP
110000590691.0,"Georgia Pacific Wood Products LLC, Taylorsville Plant",Highway 28 West,Taylorsville,MS,39168,31.8392,-89.4659,Smith,321212,,7984011,NEI
110000590691.0,"GEORGIA PACIFIC CHEMICALS LLC, TAYLORSVI",HIGHWAY 28 WEST,TAYLORSVILLE,MS,39168,31.8392,-89.4659,Smith,325199,,7984111,NEI
110000590691.0,GEORGIA-PACIFIC LLC,13136 HWY 28 WEST,TAYLORSVILLE,MS,39168,31.8392,-89.4659,SMITH,325211,,39168GRGPCHIGHW,TRI
110000590691.0,GEORGIA-PACIFIC LLC,13136 HWY 28 WEST,TAYLORSVILLE,MS,39168,31.8392,-89.4659,SMITH,321212,,39168GRGPCHIGHW,TRI
110000322623.0,CON ED-EAST RIVER GENERATING STATION,701-827 EAST 14TH ST,NEW YORK,NY,10009,40.7278,-73.9733,New York,221112,,7994011,NEI
110000322623.0,CONSOLIDATED EDISON CO OF NEW YORK - EAST RIVER FACILITY,801 E 14 ST,MANHATTAN,NY,10009,40.7278,-73.9733,NEW YORK,221112,,10009CNSLD801E1,TRI
110000322623.0,East River,801 EAST 14TH ST,NEW YORK,NY,10009.0,40.7281,-73.9742,New York,221330,,1000761,GHGRP
110041184009.0,"Dominion Energy Transmission, Inc. - Gilmore Station (0679000075)",656 Gravel Lick Road,Port Washington,OH,43837,40.28667,-81.46528,Tuscarawas,221210,,7996211,NEI
110041184009.0,Eastern Gas Transmission and Storage - Gilmore Station (Tran),656 Gravel Lick Road,Port Washington,OH,43837.0,40.28667,-81.46528,TUSCARAWAS COUNTY,486210,,1003537,GHGRP
110000428369.0,Basin Electric Power Cooperative - Antelope Valley Station,294 County Road 15,Beulah,ND,58523,47.3714,-101.8344,Mercer,221112,,8086511,NEI
110000428369.0,BASIN ELECTRIC ANTELOPE VALLEY STATION,420 COUNTY RD 26,BEULAH,ND,58523,47.370445,-101.838042,MERCER,325311,,58523NTLPV294CO,TRI
110000428369.0,BASIN ELECTRIC ANTELOPE VALLEY STATION,420 COUNTY RD 26,BEULAH,ND,58523,47.370445,-101.838042,MERCER,221112,,58523NTLPV294CO,TRI
110000380098.0,Estron Chemical Inc,807 N Main St,Calvert City,KY,42029,37.043639,-88.354639,Marshall,325199,,8109411,NEI
110000380098.0,ESTRON CHEMICALS INC,807 NORTH MAIN ST,CALVERT CITY,KY,42029,37.043639,-88.354639,MARSHALL,325211,,42029STRNCHIGHW,TRI
110000408746.0,Allnex USA Inc.,2715 MILLER RD,KALAMAZOO,MI,49001,42.2675,-85.5465,Kalamazoo,325199,,8125211,NEI
110000408746.0,ALLNEX USA INC,2715 MILLER RD,KALAMAZOO,MI,49001,42.269722,-85.545556,KALAMAZOO,325211,,49003MRCNC2715M,TRI
110009846471.0,Hexion Inc. - Fayetteville Facility,1411 Industrial Drive,Fayetteville,NC,28301,35.02915,-78.861916,Cumberland,325199,,8135311,NEI
110009846471.0,HEXION INC-FAYETTEVILLE FACILITY,1411 INDUSTRIAL DR,FAYETTEVILLE,NC,28301,35.02915,-78.861916,CUMBERLAND,325211,,28302BRDNN1411I,TRI
110000309522.0,ROHM AND HAAS ELECTRONIC MATERIALS LLC,455 FOREST ST,MARLBOROUGH,MA,01752-3092,42.331661,-71.591577,Middlesex,325199,,8143311,NEI
110000309522.0,ROHM & HAAS ELECTRONIC MATERIALS LLC,455 FOREST ST,MARLBOROUGH,MA,1752,42.331661,-71.591577,MIDDLESEX,325998,,01752SHPLY455FO,TRI
110013868840.0,NYACOL PRODUCTS INCORPORATED,MEGUNCO RD,ASHLAND,MA,01721-0000,42.258567,-71.473014,Middlesex,325199,,8143811,NEI
110013868840.0,NYACOL NANOTECHNOLOGIES INC,211 MEGUNKO RD,ASHLAND,MA,1721,42.25963,-71.472741,MIDDLESEX,325180,,01721NYCLPMEGUN,TRI
110033146165.0,RAVENSWOOD GENERATING STATION,38-54 VERNON BLVD,QUEENS,NY,11101,40.75967,-73.946046,Queens,221112,,8309011,NEI
110033146165.0,RAVENSWOOD GENERATING STATION,38-54 VERNON BLVD,LONG ISLAND CITY,NY,11101,40.758972,-73.947861,QUEENS,221112,,11101CNSLD3854V,TRI
110033146165.0,Ravenswood Steam Plant,38-54 Vernon Blvd,Long Island City,NY,11101.0,40.76,-73.75,Queens,221330,,1000567,GHGRP
110000351397.0,"Duke Energy Carolinas, LLC - Marshall Steam Station",8320 East NC Hwy 150,Terrell,NC,28682,35.5972,-80.9658,Catawba,221112,,8370411,NEI
110000351397.0,DUKE ENERGY CAROLINAS LLC - MARSHALL STEAM STATION,8320 E NC 150 HWY,TERRELL,NC,28682,35.5983,-80.9636,CATAWBA,221112,,28682DKNRG8320E,TRI
110000351397.0,"CERT Operations II, LLC - Marshall Steam Stat",8320 East NC Highway 150,Terrell,NC,28682,35.58983,-80.97586,Catawba,212111,,17708511,NEI
110000608236.0,HUGO GENERATING STATION,970N 4335 Rd,FORT TOWSON,OK,74735,34.01472,-95.32102,Choctaw,221112,,8449511,NEI
110000608236.0,WESTERN FARMERS ELECTRIC COOP,HWY 70,HUGO,OK,74743,34.01633,-95.32188,CHOCTAW,221122,,74735WSTRNHWY70,TRI
110000597373.0,Rubicon LLC - Geismar Facility,9156 Hwy 75,Geismar,LA,70734,30.19942,-91.00635,Ascension,325199,,8465311,NEI
110000597373.0,RUBICON LLC,9156 HIGHWAY 75,GEISMAR,LA,70734,30.1989,-91.0085,ASCENSION PARISH,325194,,70734RBCNN9156H,TRI
110000597373.0,RUBICON LLC - GEISMAR PLANT,9156 HWY. 75,GEISMAR,LA,70734.0,30.1989,-91.0085,ASCENSION PARISH,325192,,1000592,GHGRP
110016925274.0,DAIRYLAND POWER COOP-SEVEN MILE CREEK LANDFILL GAS TO RENEWABLE ENERGY STATION,8001 Olson Dr,Eau Claire,WI,54703-9727,44.8311,-91.3735,Eau Claire,221112,,9010911,NEI
110016925274.0,ADVANCED DISPOSAL SERVICES SEVEN MILE CREEK LANDFILL LLC,8001 Olson Dr,Eau Claire,WI,54703-9727,44.83327,-91.37067,Eau Claire,562212,,9041311,NEI
110016925274.0,SEVEN MILE CREEK LANDFILL LLC,8001 OLSON DR,EAU CLAIRE,WI,54703.0,44.837534,-91.367144,EAU CLAIRE COUNTY,562212,,1006964,GHGRP
110027375775.0,SNF - Riceboro,One Chemical Plant Road,Riceboro,GA,31323,31.74192,-81.43044,Liberty,325199,,946711,NEI
110027375775.0,FLOCRYL LLC-ACRYLATES,674 CHEMICAL PLANT RD,RICEBORO,GA,31323,31.743668,-81.431776,LIBERTY,325998,,31323NCFMF674CH,TRI
110045447469.0,DAIKIN AMERICA INC.,905 STATE DOCKS ROAD,DECATUR,AL,35601.0,34.630486,-87.039444,MORGAN COUNTY,325211,,1005062,GHGRP
110045447469.0,Daikin America Inc,905 State Docks Rd,Decatur,AL,35609,34.63161,-87.04113,Morgan,325199,,948911,NEI
110045447469.0,DAIKIN AMERICA INC,905 STATE DOCKS RD,DECATUR,AL,35601,34.630486,-87.039444,MORGAN,325211,,35601DKNMRSTATE,TRI
110045447469.0,"MDA Manufacturing, Inc.",905 State Docks Rd,Decatur,AL,35609,34.64062,-87.04145,Morgan,325199,,869411,NEI
110058194779.0,Royster-Clark Inc,1 Commerce St.,Florence,AL,35631,34.79888,-87.65472,Lauderdale,325312,,952611,NEI
110058194779.0,AGRIUM US INC,1 COMMERCE ST,FLORENCE,AL,35630,34.80564,-87.65646,LAUDERDALE,325314,,35631MCFRTCORNE,TRI
110002616553.0,CITY OF SANTA ROSA - MSC NORTH,55 STONY POINT RD,SANTA ROSA,CA,95401,38.441483,-122.749201,Sonoma,447110,,18479211,NEI
110002616553.0,CITY OF SANTA ROSA UTILITIES DEPT,55 STONY POINT ROAD,SANTA ROSA,CA,95401,38.44226,-122.74827,Sonoma,221112,,9883211,NEI
110000887461.0,FOOTHILL/DEANZA COMMUNITY COLLEGE DISTRICT,21250 STEVENS CREEK BLVD,CUPERTINO,CA,95014,37.32283,-122.04958,Santa Clara,221112,,9953911,NEI
110000887461.0,DEANZA COLLEGE,21250 STEVENS CREEK BLVD,CUPERTINO,CA,95014,37.322809,-122.044283,Santa Clara,447110,,18282011,NEI
110056961417.0,Indorama Ventures Xylenes & PTA LLC,1401 Finley Island Rd,Decatur,AL,35609,34.64421,-87.06001,Morgan,325199,,999411,NEI
110056961417.0,INDORAMA VENTURES,1401 FINLEY ISLAND RD,DECATUR,AL,35601,34.6415,-87.0589,MORGAN,325110,,35601MCCHMFINLE,TRI
110056961417.0,INDORAMA VENTURES,1401 FINLEY ISLAND RD,DECATUR,AL,35601,34.6415,-87.0589,MORGAN,325211,,35601MCCHMFINLE,TRI
110056961417.0,"Indorama Ventures, Xylenes and PTA, LLC",1401 FINLEY ISLAND ROAD,DECATUR,AL,35601.0,34.64,-87.0583,Morgan,325110,,1000325,GHGRP
110040954296.0,Hudson Generating Station,Duffield and Van Keuren Avenues,Jersey City,NJ,07306,40.748993,-74.073193,Hudson,221122,,7591411,NEI
110040954296.0,PSEG POWER LLC HUDSON GENERATING STATION,DUFFIELD & VAN KEUREN AVE,JERSEY CITY,NJ,7306,40.74716,-74.073039,HUDSON,221112,,07306HDSNGDUFFI,TRI
110000320395.0,STEPAN COMPANY,100 W HUNTER AVE,MAYWOOD,NJ,07607,40.89661,-74.069645,Bergen,325998,,7310611,NEI
110000320395.0,STEPAN CO MAYWOOD,100 W HUNTER AVE,MAYWOOD,NJ,7607,40.8965,-74.06802,BERGEN,325199,,07607STPNC100WH,TRI
110000322286.0,LANXESS SOLUTIONS US INC,1000 CONVERY BLVD,PERTH AMBOY,NJ,08861,40.538357,-74.275618,Middlesex,325211,,7444611,NEI
110000322286.0,LANXESS CORP,1000 CONVERY BLVD,PERTH AMBOY,NJ,8861,40.539003,-74.275635,MIDDLESEX,325199,,08862WTCCR1000C,TRI
110030750364.0,THERMOFISHER SCIENTIFIC,755 RT 202,BRIDGEWATER,NJ,08876,40.571703,-74.664815,Somerset,424690,,12756311,NEI
110030750364.0,FISHER SCIENTIFIC CO. L.L.C.,755 RT 202,BRIDGEWATER,NJ,8807,40.571703,-74.664815,SOMERSET,325199,,08876FSHRS755RT,TRI
110000583663.0,BORCHERS AMERICAS FRANKLIN FAC,TWO MILE RUN RD,SUGARCREEK BORO,PA,16323,41.41245,-79.79753,Venango,325110,,6516711,NEI
110000583663.0,BORCHERS AMERICAS INC.,240 TWO MILE RUN RD,FRANKLIN,PA,16323,41.412453,-79.797531,VENANGO,325199,,16323MNYCHTWOMI,TRI
110000334291.0,LONZA INC/WILLIAMSPORT PLT,3500 TRENTON AVE,WILLIAMSPORT,PA,17701-7924,41.23122,-77.08013,Lycoming,325998,,4120211,NEI
110000334291.0,ARXADA LLC,3500 TRENTON AVE,WILLIAMSPORT,PA,17701,41.230556,-77.080556,LYCOMING,325199,,17701LNZNC3500T,TRI
110000339303.0,GenOn Dickerson Generating Station,40741 Consolidated Ln,Dickerson,MD,20842,39.207304,-77.464762,Montgomery,486210,,5998011,NEI
110000339303.0,GENON MID ATLANTIC LLC DICKERSON GENERATING STATION,21200 MARTINSBURG RD,DICKERSON,MD,20842,39.207304,-77.464762,MONTGOMERY,221112,,20842DCKRS21200,TRI
110002432779.0,ASCENT CHEMICALS - DANVILLE,1975 OLD RICHMOND RD,DANVILLE,VA,24540,36.60925,-79.3636,PITTSYLVANIA,325199,,24540DNRVRSTATE,TRI
110002432779.0,Danchem Technologies Inc,1975 Old Richmond Rd,Danville,VA,24543,36.60925,-79.3636,Danville city,325211,,5884811,NEI
110000345895.0,"Innospec Active Chemicals, LLC",510 West Grimes Avenue,High Point,NC,27260,35.95,-80.0096,Guilford,325611,,8284411,NEI
110000345895.0,INNOSPEC ACTIVE CHEMICALS,510 W GRIMES AVE,HIGH POINT,NC,27260,35.950596,-80.009533,GUILFORD,325199,,27262PRCHM1670E,TRI
110056525835.0,Henkel US Operations Corporation,825 Cedar Springs Road,Salisbury,NC,28147,35.628331,-80.535741,Rowan,325180,,8507411,NEI
110056525835.0,HENKEL US OPERATIONS CORP,825 CEDAR SPRINGS RD,SALISBURY,NC,28147,35.63367,-80.53335,ROWAN,325199,,28144NTNLSCEDAR,TRI
110000542985.0,LUBRIZOL ADVANCED MATERIALS,195 BROOKS BLVD,SPARTANBURG,SC,29307,35.01056,-81.87635,SPARTANBURG,325199,,29302SPCLT195BR,TRI
110000542985.0,Lubrizol Spartanburg,195 Brooks Boulevard,Spartanburg,SC,29302,35.01084,-81.87825,Spartanburg,325613,,2840211,NEI
110000498550.0,MILLIKEN CHEMICAL DEWEY PLANT,1440 CAMPTON RD,INMAN,SC,29349,35.027772,-82.065717,Spartanburg,325998,,4801611,NEI
110000498550.0,MILLIKEN CHEMICAL - DEWEY PLANT,1440 CAMPTON RD,INMAN,SC,29349,35.026944,-82.065833,SPARTANBURG,325199,,29349MLLKN1440C,TRI
110038266051.0,LANXESS CORP BUSHY PARK SITE,1530 BUSHY PARK RD,GOOSE CREEK,SC,29445,32.986944,-79.929511,Berkeley,325130,,4952911,NEI
110038266051.0,LANXESS CORP  BUSHY PARK PLANT,1530 BUSHY PARK RD,GOOSE CREEK,SC,29445,32.983796,-79.932678,BERKELEY,325199,,29445LNXSS153BU,TRI
110000354134.0,ETHOX CHEMICALS LLC,1801 PERIMETER RD,GREENVILLE,SC,29605,34.734471,-82.375617,GREENVILLE,325199,,29605THXCHPERIM,TRI
110000354134.0,Ethox Chemicals,1801 Perimeter Road,Greenville,SC,29605,34.73275,-82.37444,Greenville,325613,,4103011,NEI
110041142304.0,"SEMINOLE ELECTRIC COOPERATIVE, INC.",890 NORTH U.S. HIGHWAY 17,PALATKA,FL,32177-8647,29.73333,-81.63275,Putnam,2211,,2474411,NEI
110041142304.0,SEMINOLE GENERATING STATION,890 N US HWY 17,PALATKA,FL,32177,29.733333,-81.633333,PUTNAM,221112,,32177SMNLGUSHWY,TRI
110055053926.0,"Total Petrochemical and Refining USA, Inc.",Highway 17 South,Chatom,AL,36518,31.45488,-88.25756,Washington,325211,,1028811,NEI
110055053926.0,TOTALENERGIES PETROCHEMICALS & REFINING USA INC.,16150 JORDAN ST,CHATOM,AL,36518,31.4559,-88.25811,WASHINGTON,325199,,36518RCKLNHIGHW,TRI
110009492361.0,ASCENT CHEMICALS,4325 OLD TASSO RD,CLEVELAND,TN,37312,35.18567,-84.827931,BRADLEY,325199,,37311MNFCT4325O,TRI
110009492361.0,ManufacturerS Chemical L P,4325 Old Tasso Rd.,Cleveland,TN,37312,35.18722,-84.82805,Bradley,325611,,2968911,NEI
110000375184.0,CYTEC INDUSTRIES INC,7910 MT JOY RD,MOUNT PLEASANT,TN,38474,35.5249,-87.2431,MAURY,325199,,38474CMRCSMTJOY,TRI
110000375184.0,"CYTEC INDUSTRIES, INC.",7910 MOUNT JOY ROAD,MT. PLEASANT,TN,38474,35.5249,-87.2431,Maury,325180,,5722911,NEI
110000380061.0,"ARKEMA, INC.",4444 INDUSTRIAL PARKWAY,CALVERT CITY,KY,42029.0,37.056699,-88.365727,MARSHALL COUNTY,325120,,1005721,GHGRP
110000380061.0,Arkema Inc,4444 Industrial Pkwy,Calvert City,KY,42029,37.056117,-88.366455,Marshall,325211,,7366811,NEI
110000380061.0,ARKEMA INC,4444 INDUSTRIAL PKWY,CALVERT CITY,KY,42029,37.056699,-88.365727,MARSHALL,325199,,42029PNNWLALTON,TRI
110039498674.0,Evonik Corporation,412 N Main St,Calvert City,KY,42029,37.043889,-88.353056,Marshall,325211,,7366911,NEI
110039498674.0,EVONIK CORP,412 N MAIN ST,CALVERT CITY,KY,42029,37.03723,-88.351153,MARSHALL,325199,,42029RPRDCHIGHW,TRI
110027373072.0,Westlake Vinyls Inc,2468 Industrial Pkwy,Calvert City,KY,42029,37.048467,-88.33395,Marshall,325998,,5929411,NEI
110027373072.0,WESTLAKE VINYLS INC,2468 IND US TRIAL PKWY,CALVERT CITY,KY,42029,37.051111,-88.334167,MARSHALL,325199,,42029WSTLK2468I,TRI
110000498701.0,Vanderbilt Chemicals LLC,396 Pella Way,Murray,KY,42071,36.647333,-88.300444,Calloway,327992,,7430811,NEI
110000498701.0,VANDERBILT CHEMICALS LLC-MURRAY DIV,396 PELLA WAY,MURRAY,KY,42071,36.647333,-88.300444,CALLOWAY,325199,,42071VNDRBPENNY,TRI
110000380212.0,Ingevity Virginia Corp - Wickliffe Carbon Plant,2025 Beech Grove Rd,Wickliffe,KY,42087,36.950992,-89.065727,Ballard,325998,,5606311,NEI
110000380212.0,INGEVITY VIRGINIA CORP-WICKLIFFE CARBON PLANT,2025 BEECH GROVE RD,WICKLIFFE,KY,42087,36.95,-89.066111,BALLARD,325199,,42087WSTVCHIGHA,TRI
110000380212.0,INGEVITY VIRGINIA CORPORATION - CARBON PLANT,2025 BEECHGROVE RD.,WICKLIFFE,KY,42087.0,36.95,-89.066111,BALLARD COUNTY,325998,,1003749,GHGRP
110000384744.0,WILEY COS,1245 S 6TH ST,COSHOCTON,OH,43812,40.2596,-81.86261,COSHOCTON,325199,,43812WLYRG1245S,TRI
110000384744.0,Organic Techs,1245 S. 6th St.,Coshocton,OH,43812,40.25916,-81.86444,Coshocton,3119,,8249611,NEI
110000389213.0,"Emerald Performance Materials, LLC (1677010029)",240 West Emerling Avenue,Akron,OH,44301-1600,41.045666,-81.541763,Summit,325212,,8063311,NEI
110000389213.0,HUNTSMAN ADVANCED MATERIALS AMERICAS LLC,240 W EMERLING AVE,AKRON,OH,44301,41.045666,-81.541763,SUMMIT,325199,,44301BFGDR240WE,TRI
110000390693.0,Ferro Corp,1560 N. Main St.,Orrville,OH,44667,40.83444,-81.76694,Wayne,3251,,938911,NEI
110000390693.0,VIBRANTZ CORP,1560 N MAIN ST,ORRVILLE,OH,44667,40.86012,-81.76366,WAYNE,325199,,44667FRRCR1560N,TRI
110000397909.0,ACS TECHNICAL PRODUCTS INC.,420 S COLFAX AVE,GRIFFITH,IN,46319,41.517222,-87.416111,LAKE,325199,,46319MRCNC420SC,TRI
110000397909.0,"American Chemical Services, Inc.",420 S Colfax Ave,Griffith,IN,46319,41.5147,-87.41702,Lake,325998,,7247811,NEI
110000397945.0,DOVER CHEMICAL   HAMMOND WORKS,3000 Sheffield Ave,Hammond,IN,46327,41.6594,-87.5138,Lake,325998,,8235811,NEI
110000397945.0,DOVER CHEMICAL HAMMOND WORKS,3000 SHEFFIELD AVE,HAMMOND,IN,46327,41.6594,-87.5138,LAKE,325199,,46320KLDVS3000S,TRI
110000414070.0,THE ANDERSONS INC. - SERGEANT BLUFF,2717 PORT NEAL CIR,SERGEANT BLUFF,IA,51054,42.310651,-96.361449,WOODBURY,325312,,51054NTRFL2717P,TRI
110000414070.0,NUTRA FLO COMPANY : NULEX,2717 Port Neal Circle,Sergeant Bluff,IA,51054,42.3103,-96.3618,Woodbury,325311,,2943811,NEI
110000414123.0,THE ANDERSONS INC - SIOUX CITY,514 S FLOYD BLVD,SIOUX CITY,IA,51101,42.48715,-96.39377,WOODBURY,325312,,51101NTRFL514SO,TRI
110000414123.0,NUTRA-FLO COMPANY,514 S. Floyd Blvd.,Sioux City,IA,51101,42.48138,-96.38277,Woodbury,325311,,2944011,NEI
110001442332.0,Hibbing Public Utilities Commission,1902 6th Ave E,Hibbing,MN,55746,47.4295,-92.9351,St. Louis,221122,,6236711,NEI
110001442332.0,HIBBING PUBLIC UTILITIES COMMISSION,1832 6TH AVE E,HIBBING,MN,55746,47.429087,-92.935269,ST LOUIS,221112,,55749HBBNG1832S,TRI
110001442341.0,Virginia Department of Public Utilities,618 2nd St S,Virginia,MN,55792,47.5223,-92.5409,St. Louis,221121,,6236811,NEI
110001442341.0,VIRGINIA PUBLIC UTILITIES,618 2ND ST S,VIRGINIA,MN,55792,47.52103,-92.54146,ST LOUIS,221112,,5579WVRGNP6182N,TRI
110000432871.0,CCI Manufacturing IL Corp,15550 Canal Bank Rd,Lemont,IL,60439-3885,41.682231,-87.993259,Cook,325998,,7411211,NEI
110000432871.0,CCI MANUFACTURING IL CORP,15550 CANAL BANK RD,LEMONT,IL,60439,41.682231,-87.993259,COOK,325199,,60439NTCTM15550,TRI
110000435413.0,Ester Solutions,5851 W 73rd St,Bedford Park,IL,60638-6215,41.758689,-87.767414,Cook,325998,,8189311,NEI
110000435413.0,HALLSTAR CO ESTER SOLUTIONS FACILITY,5851 W 73RD ST,BEDFORD PARK,IL,60638,41.75869,-87.76741,COOK,325199,,60638THCPH5851W,TRI
110016660451.0,Emerald Performance Materials LLC,1550 CR 1450N,Henry,IL,61537-9404,41.135504,-89.339382,Marshall,325998,,4620811,NEI
110016660451.0,EMERALD PERFORMANCE MATERIALS LLC,"1550 COUNTY RD, 1450 N",HENRY,IL,61537,41.135468,-89.339559,MARSHALL,325199,,61537BFGDRRR1BO,TRI
110035813117.0,Lonza Inc,8316 W Rte 24,Mapleton,IL,61547-7500,40.563829,-89.728106,Peoria,325998,,5422811,NEI
110035813117.0,ARXADA LLC,8316 W RT 24,MAPLETON,IL,61547,40.564278,-89.728417,PEORIA,325199,,61547LNZNCUSROU,TRI
110000755521.0,LANXESS Solutions US Inc,8220 W Rte 24,Mapleton,IL,61547-7509,40.565839,-89.721505,Peoria,325998,,4532011,NEI
110000755521.0,LANXESS CORP,8220 W US HIGHWAY 24,MAPLETON,IL,61547,40.565833,-89.721389,PEORIA,325199,,61547SHRXCROUTE,TRI
110000438866.0,Chemtrade Solutions LLC,2500 Kingshighway,Fairmont City,IL,62201-2446,38.64466,-90.08912,St. Clair,325130,,4909311,NEI
110000438866.0,CHEMTRADE SOLUTIONS LLC-EAST ST LOUIS,2500 KINGS HWY,EAST SAINT LOUIS,IL,62201,38.64466,-90.08912,ST. CLAIR,325199,,62201GNRLC2500K,TRI
110000441004.0,ELEMENTIS SPECIALTIES INC,5548 MANCHESTER,ST. LOUIS,MO,63110,38.6225,-90.28054,St. Louis city,325998,,7301011,NEI
110000441004.0,ELEMENTIS SPECIALTIES INC.,5548 MANCHESTER AVE,SAINT LOUIS,MO,63110,38.6225,-90.28054,ST LOUIS (CITY),325199,,63110NLCHM5548M,TRI
110000446679.0,Evonik Corp. - Haysville,6601 S Ridge Rd,Haysville,KS,67060,37.573379,-97.427004,Sedgwick,325110,,8066811,NEI
110000446679.0,EVONIK CORP,6601 S RIDGE RD,HAYSVILLE,KS,67060,37.574167,-97.426111,SEDGWICK,325199,,67231RPRDC6601S,TRI
110016678969.0,CHS McPherson Refinery,1391 IRON HORSE ROAD,MCPHERSON,KS,67460,38.347278,-97.673846,McPherson,324110,,8067211,NEI
110016678969.0,CHS MCPHERSON REFINERY - SRU,2000 S MAIN ST,MCPHERSON,KS,67460,38.347278,-97.673846,MCPHERSON,325311,,67460NTNLC2000M,TRI
110016678969.0,CHS MCPHERSON REFINERY - SRU,2000 S MAIN ST,MCPHERSON,KS,67460,38.347278,-97.673846,MCPHERSON,324110,,67460NTNLC2000M,TRI
110016678969.0,CHS MCPHERSON REFINERY INC.,2000 SOUTH MAIN STREET,MCPHERSON,KS,67460.0,38.3468,-97.6745,MCPHERSON COUNTY,324110,,1007942,GHGRP
110000575244.0,Chevron Oronite Co LLC - Oak Point Plant,10285 Hwy 23 S,Belle Chasse,LA,70037,29.80937,-90.01071,Plaquemines,325998,,8018711,NEI
110000575244.0,CHEVRON ORONITE CO LLC - OAK POINT PLANT,10285 HIGHWAY 23,BELLE CHASSE,LA,70037,29.80825,-90.01,PLAQUEMINES PARISH,325199,,70037CHVRNHIGHW,TRI
110000597131.0,DuPont Specialty Products USA LLC - Pontchartrain Site,586 Hwy 44,Laplace,LA,70068,30.05423,-90.52248,St. John the Baptist,325212,,7204811,NEI
110000597131.0,DUPONT PONTCHARTRAIN WORKS,586 HIGHWAY 44,LA PLACE,LA,70068,30.0589,-90.5241,ST. JOHN THE BAPTIST PARISH,325199,,70069DPNTPHIGHW,TRI
110000597131.0,DU PONT PONTCHARTRAIN WORKS,586 HIGHWAY 44,LA PLACE,LA,70068.0,30.0589,-90.5241,ST. JOHN THE BAPTIST PARISH,325110,,1001715,GHGRP
110045975744.0,Diamond Green Diesel LLC - Green Diesel Plant,14891 E Airline Hwy,Norco,LA,70079,29.99761,-90.38904,St. Charles,325998,,16632811,NEI
110045975744.0,DIAMOND GREEN DIESEL LLC,14891 AIRLINE DR,NORCO,LA,70079,30.0169,-90.40874,ST. CHARLES PARISH,325199,,7007WDMNDG14891,TRI
110039073962.0,FLOWCHEM TECHNOLOGIES LLC,289 CUTLASS LP,RAYNE,LA,70578,30.24864,-92.19911,ACADIA PARISH,213112,,7057WFLWCH289CU,TRI
110039073962.0,FLOWCHEM TECHNOLOGIES LLC,289 CUTLASS LP,RAYNE,LA,70578,30.24864,-92.19911,ACADIA PARISH,325199,,7057WFLWCH289CU,TRI
110000449774.0,Occidental Chemical Corporation - Geismar Facility,8318 Ashland Rd,Geismar,LA,70734,30.18517,-90.98172,Ascension,325180,,7445711,NEI
110000449774.0,OCCIDENTAL CHEMICAL HOLDING CORP - GEISMAR PLANT,8318 ASHLAND RD,GEISMAR,LA,70734,30.1851,-90.9804,ASCENSION PARISH,325199,,70734VLCNMASHLA,TRI
110000449774.0,OCCIDENTAL CHEMICAL CORPORATION - GEISMAR PLANT,8318 ASHLAND ROAD,GEISMAR,LA,70734.0,30.1851,-90.9804,ASCENSION PARISH,325181,,1001706,GHGRP
110000449934.0,BASF Corp - Zachary Site,111 W Irene Rd,Zachary,LA,70791,30.61281,-91.23229,East Baton Rouge,325998,,8215011,NEI
110000449934.0,BASF CORP,111 W IRENE RD,ZACHARY,LA,70791,30.61349,-91.23737,EAST BATON ROUGE PARISH,325199,,70791GRNTCHWY61,TRI
110003266849.0,HONEYWELL INTERNATIONAL INC - BATON ROUGE PLANT,2966 LUPINE AVENUE,BATON ROUGE,LA,70805.0,30.474444,-91.183056,EAST BATON ROUGE PARISH,325120,,1000625,GHGRP
110003266849.0,Honeywell International Inc - Baton Rouge Plant,2966 Lupine Ave,Baton Rouge,LA,70821,30.473,-91.18428,East Baton Rouge,325180,,8467611,NEI
110003266849.0,HONEYWELL INTERNATIONAL INC-BATON ROUGE PLANT,CORNER OF LUPINE & ONTARIO STR EETS,BATON ROUGE,LA,70805,30.474444,-91.183056,EAST BATON ROUGE PARISH,325199,,70805LLDSGCORNE,TRI
110003266849.0,HONEYWELL INTERNATIONAL INC-BATON ROUGE PLANT,CORNER OF LUPINE & ONTARIO STR EETS,BATON ROUGE,LA,70805,30.474444,-91.183056,EAST BATON ROUGE PARISH,325120,,70805LLDSGCORNE,TRI
110003266849.0,HONEYWELL INTERNATIONAL INC-BATON ROUGE PLANT,CORNER OF LUPINE & ONTARIO STR EETS,BATON ROUGE,LA,70805,30.474444,-91.183056,EAST BATON ROUGE PARISH,325180,,70805LLDSGCORNE,TRI
110000451029.0,LYCUS LTD,181 COOPER DR,EL DORADO,AR,71730,33.200279,-92.610922,UNION,325199,,71730GRRSN181CO,TRI
110000451029.0,Lycus Ltd.,181 Cooper Dr,El Dorado,AR,71730,33.20036,-92.61153,Union,3251,,10463511,NEI
110000598835.0,MONTICELLO STEAM ELECTRIC STATION,FROM INTX OF HIGHWAY 49 & FM RD 127 GO S 6.3 MI TO PLANT ENTRANCE,MOUNT PLEASANT,TX,75455,33.095556,-95.037778,Titus,22111,,4036111,NEI
110000598835.0,MONTICELLO STEAM ELECTRIC STATION & LIGNITE MINE,OFF FM 127 8 MI SW OF MOUNT PLEASANT,MOUNT PLEASANT,TX,75455,33.092262,-95.038053,TITUS,221112,,75455MNTCLOFFFM,TRI
110000458282.0,AEP PIRKEY POWER PLANT,RT 2 BOX 165,HALLSVILLE,TX,75650,32.458844,-94.485,Harrison,22111,,4845611,NEI
110000458282.0,AMERICAN ELECTRIC POWER HW PIRKEY POWER PLANT,2400 FM RD 3251,HALLSVILLE,TX,75650,32.460267,-94.485225,HARRISON,221112,,75650HWPRK2400F,TRI
110000458424.0,PERGAN MARSHALL,710 BUSSEY RD,MARSHALL,TX,75670,32.60815,-94.351322,Harrison,325110,,6809411,NEI
110000458424.0,PERGAN MARSHALL LLC,710 B BUSSEY RD,MARSHALL,TX,75670,32.60748,-94.35046,HARRISON,325199,,75670WTCCROFFHW,TRI
110013349947.0,WELSH POWER PLANT,1187 CR 4865,MOUNT PLEASANT,TX,75455,33.055686,-94.841514,Titus,22111,,4164411,NEI
110013349947.0,AMERICAN ELECTRIC POWER WELSH PLANT,1187 COUNTY ROAD 1120,PITTSBURG,TX,75686,33.055134,-94.83983,CAMP,221112,,75686WLSHPFM173,TRI
110043787220.0,MARTIN LAKE ELECTRICAL STATION,8850 FM 2658 N,TATUM,TX,75691,32.2625,-94.566944,Rusk,22111,,4207311,NEI
110043787220.0,MARTIN LAKE STEAM ELECTRIC STATION & LIGNITE MINE,8850 FM 2658 N,TATUM,TX,75691,32.259653,-94.570331,RUSK,221112,,75691MRTNL8850F,TRI
110000598988.0,BIG BROWN STEAM ELECTRIC STATION,9 M NE OF FAIRFIELD,FAIRFIELD,TX,75840,31.821944,-96.054167,Freestone,22111,,3052111,NEI
110000598988.0,BIG BROWN STEAM ELECTRIC STATION & LIGNITE MINE,11 MI E OF FAIRFIELD ON FM 2570,FAIRFIELD,TX,75840,31.8205,-96.0553,FREESTONE,221112,,75840BGBRW11MIE,TRI
110000460153.0,OKLAUNION POWER STATION,3.5 MI SSW OF OKLAUNION ON FM 3430,OKLAUNION,TX,76373,34.081264,-99.171033,Wilbarger,22111,,7927311,NEI
110000460153.0,AMERICAN ELECTRIC POWER OKLAUNION PLANT,12567 FM RD 3430,VERNON,TX,76384,34.08255,-99.17601,WILBARGER,221112,,76384KLNNP12567,TRI
110007197853.0,SANDOW 5 GENERATING PLANT,9 MI SW OF ROCKDALE ON FM 1786,ROCKDALE,TX,76567,30.566622,-97.062586,Milam,22111,,13408411,NEI
110007197853.0,SANDOW STEAM ELECTRIC STATION,7 M SW OF ROCKDALE,ROCKDALE,TX,76567,30.564533,-97.063142,Milam,22111,,4204811,NEI
110007197853.0,SANDOW STEAM ELECTRIC STATION,7 MI SW OF ROCKDALE OFF FM 1786,ROCKDALE,TX,76567,30.564592,-97.068506,MILAM,221112,,76567SNDWS7MISW,TRI
110015666144.0,TWIN OAKS,8 M N OF CALVERT ON HWY 6,CALVERT,TX,77837,31.091392,-96.695542,Robertson,22111,,7552911,NEI
110015666144.0,TWIN OAKS,13065 PLANT RD,BREMOND,TX,76629,31.092778,-96.695828,ROBERTSON,221112,,76629TXSNWHWY6X,TRI
110000461134.0,HOUSTON PLANT,8600 PARK PLACE,HOUSTON,TX,77017,29.7173,-95.241397,Harris,325110,,4168611,NEI
110000461134.0,TPC GROUP LLC,8600 PARK PL BLVD,HOUSTON,TX,77017,29.69845,-95.254597,HARRIS,325199,,77017TXSPT8600P,TRI
110000461134.0,TPC GROUP LLC,8600 PARK PLACE BOULEVARD,HOUSTON,TX,77017.0,29.69845,-95.254597,HARRIS COUNTY,325110,,1005198,GHGRP
110031389192.0,OXEA BAY CITY PLANT,2001 FM 3057 ADMIN BLDG,BAY CITY,TX,77414,28.859336,-96.021167,Matagorda,325110,,13411911,NEI
110031389192.0,OQ CHEMICALS CORP BAY CITY PLANT,2001 FM 3057,BAY CITY,TX,77414,28.861921,-96.020763,MATAGORDA,325199,,77414XCRPB21FM3,TRI
110031389192.0,CELANESE LTD BAY CITY PLANT,2001 FM 3057,BAY CITY,TX,77414,28.861921,-96.020763,MATAGORDA,325199,,77414HCHSTPOBOX,TRI
110012183216.0,Centauri Technologies,5200 Underwood Rd,Pasadena,TX,77507,29.634,-95.08681,Harris,3251,,9134811,NEI
110012183216.0,CENTAURI TECHNOLOGIES,5200 UNDERWOOD RD,PASADENA,TX,77507,29.63565,-95.08689,HARRIS,325199,,77507CNTRT52UND,TRI
110000462856.0,BAYPORT CHEMICAL PLANT,13441 BAY AREA BLVD,PASADENA,TX,77501,29.649192,-95.048314,Harris,325110,,4055511,NEI
110000462856.0,THE GOODYEAR TIRE & RUBBER CO BAYPORT CHEMICAL PLANT,13441 BAY AREA BLVD,PASADENA,TX,77507,29.6469,-95.0479,HARRIS,325199,,77507GDYRB13441,TRI
110000462856.0,GOODYEAR TIRE & RUBBER CO BAYPORT CHEMICAL PLANT,13441 BAY AREA BOULEVARD,PASADENA,TX,77507.0,29.6469,-95.0479,HARRIS COUNTY,325998,,1002991,GHGRP
110067040703.0,CLEAR LAKE PLANT,9502 BAYPORT BLVD,PASADENA,TX,77507,29.625769,-95.063564,Harris,325120,,10679911,NEI
110067040703.0,CLEAR LAKE OPERATIONS,9502 B BAYPORT BLVD B,PASADENA,TX,77501,29.623028,-95.06155,Harris,325110,,13411211,NEI
110067040703.0,CLEAR LAKE PLANT,9502 BAYPORT BLVD,PASADENA,TX,77507,29.622964,-95.065828,Harris,325110,,4057911,NEI
110067040703.0,ARKEMA INC CLEAR LAKE,9502 B BAYPORT BLVD,PASADENA,TX,77507,29.62139,-95.06389,HARRIS,325110,,77507DWCHM952BB,TRI
110067040703.0,CLARIANT CORP CLEAR LAKE PLANT,9502 BAYPORT BLVD - ETOX UNIT,PASADENA,TX,77507,29.625819,-95.061592,HARRIS,325613,,7750WCLRNT952BA,TRI
110067040703.0,ARKEMA INC CLEAR LAKE,9502 BAYPORT BLVD STE B,PASADENA,TX,77507.0,29.625819,-95.061592,HARRIS COUNTY,325110,,1006797,GHGRP
110067040703.0,"LINDE GAS NORTH AMERICA LLC, CLEARLAKE PLANT",9502 BAYPORT DRIVE,PASADENA,TX,77507.0,29.625819,-95.061592,HARRIS COUNTY,325120,,1003049,GHGRP
110044232773.0,PASADENA SITE,12900 BAY PARK RD,PASADENA,TX,77058,29.641153,-95.060644,Harris,325110,,4057711,NEI
110044232773.0,NOURYON FUNCTIONAL CHEMICALS LLC,12900 BAY PARK RD,PASADENA,TX,77507,29.639444,-95.062778,HARRIS,325199,,77507KZCHM13000,TRI
110000462945.0,MFG CHEMICAL PASADENA,9700 BAYPORT BLVD,PASADENA,TX,77507,29.615497,-95.060825,Harris,325110,,6671611,NEI
110000462945.0,SOLENIS LLC,9700 BAYPORT BLVD,PASADENA,TX,77507,29.615556,-95.061389,HARRIS,325199,,77507LNZBY9700B,TRI
110000463034.0,BAYPORT PLANT,11200 BAY AREA BLVD,PASADENA,TX,77507,29.616878,-95.043042,Harris,325110,,4941911,NEI
110000463034.0,MULTI-CHEM GROUP BAYPORT TX FACILITY,11200 BAY AREA BLVD,PASADENA,TX,77507,29.61813,-95.0439,HARRIS,325199,,77507WLCHM11200,TRI
110067263071.0,LUBE ADDITIVES PLANT,1000 N SOUTH ST,PASADENA,TX,77501,29.733028,-95.170017,Harris,325110,,4166811,NEI
110067263071.0,PASADENA PLANT,1000 N SOUTH AVE,PASADENA,TX,77503,29.736694,-95.167253,Harris,325110,,6421611,NEI
110067263071.0,AFTON CHEMICAL CORP,1000 N. SOUTH STREET,PASADENA,TX,77503,29.734056,-95.17,HARRIS,325199,,7750WFTNCH1NSUT,TRI
110000463098.0,COVESTRO INDUSTRIAL PARK BAYTOWN,8500 W BAY RD,BAYTOWN,TX,77520,29.754294,-94.906944,Chambers,325110,,5729211,NEI
110000463098.0,LANXESS CORP BAYTOWN,"W SIDE OF CHAMBER COUNTY NEXT TO CHAMBER/HARRIS CTY LINE, ON CEDAR BAYOU TAKE ST HWY 146 S FROM I-10",BAYTOWN,TX,77520,29.756808,-94.903483,Chambers,325110,,9175811,NEI
110000463098.0,COVESTRO LLC,8500 W BAY RD MS-21,BAYTOWN,TX,77523,29.759767,-94.907294,CHAMBERS,325199,,77520MBYCR8500W,TRI
110000463098.0,LANXESS CORPORATION,8500 WEST BAY RD,BAYTOWN,TX,77520.0,29.759767,-94.907294,CHAMBERS COUNTY,325192,,1004234,GHGRP
110000463249.0,CROSBY FACILITY,16503 RAMSEY RD,CROSBY,TX,77532,29.921794,-95.055133,Harris,325110,,4167811,NEI
110000463249.0,ALTIVIA CROSBY FACILITY,16503 RAMSEY RD,CROSBY,TX,77532,29.9222,-95.0544,HARRIS,325199,,77532KMCNC16503,TRI
110000463258.0,CROSBY FACILITY,18000 CROSBY EASTGATE ROAD,CROSBY,TX,77532,29.948444,-95.022472,Harris,325110,,4018611,NEI
110000463258.0,ARKEMA INC,18000 CROSBY EASTGATE RD,CROSBY,TX,77532,29.948842,-95.021864,HARRIS,325199,,77532PNNWL18000,TRI
110000607576.0,INDORAMA VENTURES OXIDES LLC,3892 US HWY 90,DAYTON,TX,77535,29.999444,-94.9525,LIBERTY,325199,,77535BKRPRUSHWY,TRI
110000607576.0,Dayton Manufacturing Unit,"3892 U.S. Hwy. 90 W., 5 Mi. W. Of Dayton",Houston,TX,77007,30.0002,-94.95294,Liberty,325998,,4030311,NEI
110008160337.0,LAPORTE PAO FACILITY,1230 MILLER CUT OFF RD GATE 10,LA PORTE,TX,77571,29.710594,-95.064147,Harris,325110,,4033911,NEI
110008160337.0,INEOS OLIGOMERS USA LLC,1230 MILLER CUT-OFF RD GATE 10,LA PORTE,TX,77571,29.710851,-95.065571,HARRIS,325199,,77536QNTMC1515M,TRI
110000463374.0,BATTLEGROUND SITE,730 BATTLEGROUND RD,DEER PARK,TX,77536,29.713133,-95.087614,Harris,325110,,4927011,NEI
110000463374.0,NOURYON FUNCTIONAL CHEMICALS LLC,730 INDEPENDENCE PKWY S,LA PORTE,TX,77571,29.687314,-95.12114,HARRIS,325199,,77536TXSLK730BA,TRI
110012256076.0,HUNTSMAN ETHYLENEAMINES,307 CR 624 AT GATE A 38 BLOCK,FREEPORT,TX,77541,28.952539,-95.312589,Brazoria,325110,,5632011,NEI
110012256076.0,HUNTSMAN ETHYLENEAMINES PLANT,307 COUNTY RD 624 A1 A38 BLOCK,FREEPORT,TX,77541,28.9525,-95.313,BRAZORIA,325199,,77541HNTSM307CO,TRI
110000754167.0,PETROCHEMICAL REFINING,PLANT 5 ON CR 229,FREEPORT,TX,77541,28.957703,-95.333108,Brazoria,325998,,5633711,NEI
110000754167.0,CHAMPIONX-FREEPORT,2322 COUNTY RD 229,FREEPORT,TX,77541,28.9578,-95.335,BRAZORIA,325199,,77541NLCCHPODRA,TRI
110000599451.0,FREEPORT PLANT,6213 HWY 332 EAST,FREEPORT,TX,77541,28.988492,-95.361403,Brazoria,325110,,6614511,NEI
110000599451.0,VENCOREX US INC,6213 HWY 332 E,FREEPORT,TX,77541,28.991019,-95.36107,BRAZORIA,325199,,77541RHNPL6213H,TRI
110008170237.0,DOW TEXAS OPERATIONS FREEPORT,2301 N. BRAZOSPORT BLVD. BUILDING B-101,FREEPORT,TX,77541.0,28.9792,-95.3549,BRAZORIA COUNTY,325110,,1002040,GHGRP
110008170237.0,DOW TEXAS OPERATIONS FREEPORT,2301 N BRAZOSPORT BLVD,CLUTE,TX,77541,28.980925,-95.348756,Brazoria,325110,,5632711,NEI
110008170237.0,DOW CHEMICAL CO FREEPORT FACILITY,2301 N BRAZOSPORT BLVD,FREEPORT,TX,775413257,28.9792,-95.3549,BRAZORIA,486990,,77541THDWCBUILD,TRI
110008170237.0,DOW CHEMICAL CO FREEPORT FACILITY,2301 N BRAZOSPORT BLVD,FREEPORT,TX,775413257,28.9792,-95.3549,BRAZORIA,325199,,77541THDWCBUILD,TRI
110017769734.0,LA PORTE VCM PLANT,2400 MILLER CUT OFF RD,LA PORTE,TX,77571,29.727647,-95.074931,Harris,325110,,4057611,NEI
110017769734.0,OXY VINYLS LP LA PORTE VCM PLANT,2400 MILLER CUTOFF RD,LA PORTE,TX,77571,29.72376,-95.07422,HARRIS,325199,,77571LPRTC2400M,TRI
110017769734.0,OXY VINYLS LP - LA PORTE VCM PLANT,2400 MILLER CUT-OFF ROAD,LA PORTE,TX,77571.0,29.72376,-95.07422,HARRIS COUNTY,325181,,1001713,GHGRP
110017769734.0,ETHYLENE PIPELINE EQUIPMENT,2400 MILLER CUT OFF RD,LA PORTE,TX,77571,29.728044,-95.07775,Harris,486910,,17728311,NEI
110017874736.0,LA PORTE PLANT,12455 STRANGE RD,LA PORTE,TX,77571,29.703111,-95.033653,Harris,325110,,9103411,NEI
110017874736.0,THE LYCRA CO LA PORTE PLANT (PREVIOUSLY INVISTA SARL,12455  STRANG RD,LA PORTE,TX,77571,29.69797,-95.03339,HARRIS,325199,,77571NVSTS12455,TRI
110000501341.0,ALTIVIA SPECIALTY CHEMICALS LLC,1901 W H ST,LA PORTE,TX,77571,29.654833,-95.036528,HARRIS,325199,,77571PPGND1901A,TRI
110000501341.0,ALTIVIA CHEMICAL COMPLEX,1901 AVENUE H AT ITS INTERSECTION WITH 16TH STREET,LA PORTE,TX,77571,29.655092,-95.037442,Harris,325110,,6510211,NEI
110000463597.0,LYONDELLBASELL ACETYLS,1350 MILLER CUT OFF RD,LA PORTE,TX,77571,29.714058,-95.061267,Harris,325110,,6671911,NEI
110000463597.0,LYONDELLBASELL ACETYLS LLC,1350 MILLER CUT OFF RD,LA PORTE,TX,77571,29.712222,-95.066667,HARRIS,325199,,77571QNTMC11603,TRI
110034641635.0,LA PORTE COMPLEX,1515 MILLER CUT-OFF ROAD,DEER PARK,TX,77536,29.709733,-95.072317,Harris,325110,,4182311,NEI
110034641635.0,EQUISTAR CHEMICALS LP,1515 MILLER CUT OFF RD,LA PORTE,TX,77571,29.717471,-95.068008,HARRIS,325199,,77571QNTMC1515M,TRI
110034641635.0,EQUISTAR CHEMICALS LAPORTE COMPLEX,1515 MILLER CUT- OFF ROAD,LA PORTE,TX,77571.0,29.717471,-95.068008,HARRIS COUNTY,325110,,1002758,GHGRP
110000463864.0,TEXAS CITY OPERATONS,201 BAY ST S,TEXAS CITY,TX,77590,29.378617,-94.898389,Galveston,325110,,6615111,NEI
110000463864.0,EASTMAN CHEMICAL TEXAS CITY INC,201 BAY ST S,TEXAS CITY,TX,77590,29.380301,-94.894036,GALVESTON,325199,,77592STRLN201BA,TRI
110000463864.0,Eastman Chemical Texas City Operations,201 Bay Street South,Texas City,TX,77590.0,29.380301,-94.894036,GALVESTON COUNTY,325110,,1004957,GHGRP
110059763536.0,GALVESTON BAY REFINERY,2401 5TH AVE S IN TEXAS CITY,TEXAS CITY,TX,77592,29.374119,-94.9213,Galveston,324110,,4835311,NEI
110059763536.0,BLANCHARD REFINING CO LLC,2401 5TH AVE S,TEXAS CITY,TX,77590,29.374444,-94.925,GALVESTON,324110,,7759WBLNCH2415T,TRI
110059763536.0,BLANCHARD REFINING CO LLC,2401 5TH AVE S,TEXAS CITY,TX,77590,29.374444,-94.925,GALVESTON,221112,,7759WBLNCH2415T,TRI
110059763536.0,Galveston Bay Refinery,2401 5TH AVE S IN TEXAS CITY,TEXAS CITY,TX,77592.0,29.3775,-94.9328,GALVESTON COUNTY,324110,,1005585,GHGRP
110000463917.0,BEAUMONT PLANT,LOCATED IN THE LUCITE BEAUMONT INDUSTRIAL PARK;  6350 N TWIN CITY HWY,BEAUMONT,TX,77701,30.016106,-94.028661,Jefferson,325110,,6385211,NEI
110000463917.0,JEFFERSON TERMINAL SOUTH LLC,6350 N TWIN CITY HWY,NEDERLAND,TX,77627,30.013916,-94.029616,JEFFERSON,325199,,77627CCRYL6350N,TRI
110022523982.0,INVISTA SARL SABINE RIVER SITE,3055A FM 100,ORANGE,TX,77631,30.051661,-93.759072,Orange,325110,,10678011,NEI
110022523982.0,INV NYLON CHEMICALS AMERICAS ORANGE SITE,3055A FM 1006,ORANGE,TX,77630,30.054167,-93.752208,ORANGE,325199,,77630NVSTS355AF,TRI
110020148008.0,PORT ARTHUR PLANT,2001 SOUTH GULFWAY DRIVE (IN THE OLD CHEVRON REFINERY),PORT ARTHUR,TX,77640,29.849267,-93.980592,Jefferson,325110,,6158411,NEI
110020148008.0,CHEVRON PHILLIPS CHEMICAL CO,2001 S GULFWAY DR,PORT ARTHUR,TX,77640,29.850396,-93.977222,JEFFERSON,325110,,77640CHVRN2001S,TRI
110020148008.0,CHEVRON PHILLIPS CHEMICAL CO,2001 S GULFWAY DR,PORT ARTHUR,TX,77640,29.850396,-93.977222,JEFFERSON,325199,,77640CHVRN2001S,TRI
110020148008.0,"CHEVRON PHILLIPS CHEMICAL COMPANY, LP PORT ARTHUR PLANT",2001 SOUTH GULFWAY DRIVE,PORT ARTHUR,TX,77640.0,29.850396,-93.977222,JEFFERSON COUNTY,325110,,1002146,GHGRP
110000464042.0,KMTEX,2450 S GULFWAY DR PORT ARTHUR,PORT ARTHUR,TX,77640,29.827856,-93.962925,Jefferson,325110,,13381911,NEI
110000464042.0,MONUMENT CHEMICAL PORT ARTHUR LLC,2450 S GULFWAY DR,PORT ARTHUR,TX,77641,29.825641,-93.965034,JEFFERSON,325199,,77641KMCNC2450S,TRI
110000504801.0,PORT NECHES PLANT,2102 SPUR 136,PORT NECHES,TX,77651,29.967542,-93.928719,Jefferson,325110,,4945211,NEI
110000504801.0,TPC GROUP,2102 SPUR 136,PORT NECHES,TX,77651,29.964146,-93.930138,JEFFERSON,325199,,77651TXSPT212SP,TRI
110034504757.0,OAK GROVE STEAM ELECTRIC STATION,11 MI E OF TOWN,FRANKLIN,TX,77856,31.18105,-96.488489,Robertson,22111,,13385811,NEI
110034504757.0,OAK GROVE STEAM ELECTRIC STATION,8127 OAK GROVE RD,FRANKLIN,TX,77856,31.1818,-96.4874,ROBERTSON,221112,,7785WKGRVS13MIL,TRI
110000464391.0,VICTORIA SITE,8.5 MI SE OFF FM 404,VICTORIA,TX,77901,28.676111,-96.95,Victoria,325110,,5679711,NEI
110000464391.0,INV NYLON CHEMICALS AMERICAS VICTORIA SITE,2695 OLD BLOOMINGTON RD NORTH,VICTORIA,TX,77905,28.673056,-96.953611,VICTORIA,325199,,77905NVSTS2695L,TRI
110000599692.0,COLETO CREEK POWER STATION,45 FM 2987,FANNIN,TX,77960,28.716089,-97.217089,Goliad,22111,,4018411,NEI
110000599692.0,COLETO CREEK POWER STATION,45 FM 2987,FANNIN,TX,77960,28.7129,-97.2144,GOLIAD,221112,,77960CLTCRFMRD2,TRI
110031352649.0,TICONA POLYMERS BISHOP FACILITY,1 M S OF BISHOP ON US HWY 77 BUS,BISHOP,TX,78343,27.572089,-97.821236,Nueces,325110,,4929511,NEI
110031352649.0,OQ CHEMICALS BISHOP LLC,5738 COUNTY ROAD 4 - BISHOP,BISHOP,TX,78343,27.5672,-97.8254,NUECES,325199,,78343XBSHPUSHWY,TRI
110031352649.0,TICONA POLYMERS INCORPORATED,5738 COUNTY ROAD 4,BISHOP,TX,78343.0,27.5672,-97.8254,NUECES COUNTY,325211,,1007868,GHGRP
110031352649.0,BISHOP PLANT,FROM BISHOP TX NORTH CITY LIMITS TAKE BUS HWY 77 SOUTH TO FM 4 TURN RIGHT TO PLANT ENTRANCE,BISHOP,TX,78343,27.567964,-97.826,Nueces,325110,,13389511,NEI
110000599807.0,INGLESIDE PLANT,"ON F.M. 361, S. OF S.H. 35",INGLESIDE,TX,78362,27.881392,-97.242439,San Patricio,325110,,5746611,NEI
110000599807.0,OCCIDENTAL CHEMICAL CORP,4133 HWY 361,GREGORY,TX,78359,27.883611,-97.241383,SAN PATRICIO,325199,,78359CCDNTHWY36,TRI
110000722638.0,MARTIN OPERATING PTNR-PLAINVIEW,1920 STATE HWY 194 W,PLAINVIEW,TX,79072,34.223333,-101.755833,HALE,325311,,79072MRTNRHWY19,TRI
110000722638.0,Martin Resources (Plainview),1920 State  Hwy 194 W,Plainview,TX,79072,34.22333,-101.75583,Hale,325312,,9120411,NEI
110042010999.0,NICHOLS STATION POWER PLANT,1.5 M N ON LAKESIDE DR FROM SH 136,AMARILLO,TX,79101,35.283375,-101.748064,Potter,22111,,5678011,NEI
110042010999.0,SOUTHWESTERN PUBLIC SERVICE CO HARRINGTON STATION,8400 N LAKESIDE DR,AMARILLO,TX,79108,35.299422,-101.749725,POTTER,221112,,79108STHWSNLAKE,TRI
110000600136.0,CHAMPIONX-ODESSA EAST 528,12205 W COUNTY RD 125,ODESSA,TX,79765,31.904455,-102.245483,MIDLAND,325199,,79765NLCXX12205,TRI
110000600136.0,Ondeo Nalco Energy Services  Plant 114,12205 W. County Rd. 125,Odessa,TX,79765-9675,31.90583,-102.24666,Midland,42469,,7650111,NEI
110000467469.0,BOULDER SCIENTIFIC CO - MEAD FACILITY,598 COUNTY HWY 7,MEAD,CO,80542,40.2388,-104.99852,Weld,325998,,898411,NEI
110000467469.0,BOULDER SCIENTIFIC CO LLC - MEAD FACILITY,598 3RD ST,MEAD,CO,80542,40.238056,-104.998056,WELD,325199,,80542BLDRS5983R,TRI
110057930253.0,EVONIK CORP,3305 E 26TH ST,LOS ANGELES,CA,90058,34.01272,-118.21293,LOS ANGELES,325199,,90023PCFCN3305E,TRI
110057930253.0,EVONIK CORPORATION,3305 E 26TH ST,LOS ANGELES,CA,90058,34.0134,-118.2127,Los Angeles,325998,,4084311,NEI
110000475940.0,PARAMOUNT PETR CORP,14700-08  DOWNEY AVE,PARAMOUNT,CA,90723,33.900113,-118.151406,Los Angeles,324110,,5683611,NEI
110000475940.0,ALTAIR PARAMOUNT LLC,14700 DOWNEY AVE,PARAMOUNT,CA,90723,33.899645,-118.15141,LOS ANGELES,325199,,90723PRMNT14700,TRI
110000475940.0,PARAMOUNT PETROLEUM CORPORATION,14700 DOWNEY AVENUE,PARAMOUNT,CA,90723.0,33.899645,-118.15141,LOS ANGELES COUNTY,324110,,1004362,GHGRP
110000476137.0,NALCO CO - CARSON,2111 E DOMINGUEZ ST,LONG BEACH,CA,90810,33.83922,-118.23044,LOS ANGELES,325199,,90745NLCCH2111E,TRI
110000476137.0,Nalco Chemical Co,2111 E Dominguez St,Carson,CA,90810,33.83998,-118.23191,Los Angeles,425120,,5784811,NEI
110000519699.0,TAFT MANUFACTURING LLC,19815 S LAKE RD,TAFT,CA,93268,35.145,-119.2385,Kern,325320,,455111,NEI
110000519699.0,TAFT MANUFACTURING LLC,19815 SOUTH LAKE ROAD,TAFT,CA,93268,35.1444,-119.237778,KERN,325199,,93268TFTCR19815,TRI
110000423667.0,3M Cottage Grove Center - Site,10746 Innovation Rd,Cottage Grove,MN,55016.0,44.789444,-92.908333,WASHINGTON COUNTY,325998,,1004836,GHGRP
110000423667.0,3M - Cottage Grove - Corporate Incinerator,10746 Innovation Rd Bldg 145,Cottage Grove,MN,55016,44.79046,-92.91405,Washington,562213,,8161811,NEI
110000423667.0,3M COTTAGE GROVE CENTER,10746 INNOVATION RD,COTTAGE GROVE,MN,55016,44.789444,-92.908333,WASHINGTON,325998,,55016MCHMLHIGHW,TRI
110000423667.0,3M - Cottage Grove - Utilities/Support Svcs,10746 Innovation Rd,Cottage Grove,MN,55016,44.79047,-92.91404,Washington,325199,,6772511,NEI
110000423667.0,3M - Cottage Grove - Materials Resource Division,10746 Innovation Rd Bldg 41-1,Cottage Grove,MN,55016,44.79047,-92.91404,Washington,325998,,6772711,NEI
110000423667.0,3M - Cottage Grove - Bldg 133/Traffic Safety,10746 Innovation Rd,Cottage Grove,MN,55016,44.79047,-92.91404,Washington,325199,,6785311,NEI
110000423667.0,3M - Cottage Grove - Specialty Additives,10746 Innovation Rd,Cottage Grove,MN,55016,44.79047,-92.91404,Washington,327212,,6771911,NEI
110000423667.0,3M - Cottage Grove - Bldg 19 & 111,10746 Innovation Rd,Cottage Grove,MN,55016,44.79047,-92.91404,Washington,326113,,13603211,NEI
110000423667.0,3M - Cottage Grove,10746 Innovation Rd,Cottage Grove,MN,55016,44.79047,-92.91404,Washington,326113,,6772811,NEI
110000468182.0,CHAMPIONX-EVANSVILLE PLANT 108,4900 E YELLOWSTONE HWY,EVANSVILLE,WY,82636,42.8574,-106.2547,NATRONA,339999,,82636NLCCH4900E,TRI
110000468182.0,Evansville Plant,4900 E Yellowstone Hwy,Evansville,WY,82636,42.8574,-106.2547,Natrona,325199,,6978011,NEI
110000700055.0,U.S. AIR FORCE ROBINS AFB GA,"775 MACON STREET, BUILDING 1555",ROBINS AFB,GA,31098.0,32.619983,-83.582075,HOUSTON COUNTY,928110,,1002876,GHGRP
110000700055.0,USAF Robins Air Force Base,Hwy 247 & Watson Blvd.,Warner Robins,GA,31098,32.62406,-83.58973,Houston,928110,,7414911,NEI
110000700055.0,Robins AFB Airport,Unknown,Warner Robins,GA,00000,32.64014,-83.59185,Houston,48811,,9760811,NEI
110000700055.0,U.S. DOD USAF ROBINS AFB,775 MACON ST BUILDING 1555,ROBINS AFB,GA,31098,32.619983,-83.582075,HOUSTON,928110,,31098SDDSF216OC,TRI
110000700055.0,Ga Power Company - Robins,S. Macon St.,Warner Robins,GA,31098,32.579232,-83.582356,Houston,221112,,2654411,NEI
110004045701.0,COATINGS & ADHESIVES CORP,1901 POPULAR ST NE,LELAND,NC,28451,34.251633,-78.070816,BRUNSWICK,325510,,28451CTNGSRTE74,TRI
110004045701.0,Coatings and Adhesives Corporation,1901 Popular Street,Leland,NC,28451,34.251633,-78.070816,Brunswick,325199,,8511311,NEI
110000745196.0,"Bridgestone Americas Tire Operations, LLC",3001 Firestone Parkway NE,Wilson,NC,27893,35.75965,-77.86715,Wilson,326211,,7938911,NEI
110000745196.0,BRIDGESTONE AMERICAS TIRE OPERATIONS LLC,3001 FIRESTONE PKWY,WILSON,NC,27893,35.75598,-77.86917,WILSON,326211,,27893FRSTNFIRES,TRI
110000745196.0,BRIDGESTONE FIRESTONE INCORPORATED,3001 FIRESTONE PARKWAY,WILSON,NC,27893.0,35.75598,-77.86917,WILSON COUNTY,326211,,1002954,GHGRP
110000745196.0,City of Wilson - Bridgestone/Firestone Genset,3001 Firestone Parkway,Wilson,NC,27894,35.758383,-77.86605,Wilson,221112,,15616911,NEI
110001171909.0,CITY OF SUNNYVALE - CORPORATION YARD,221 COMMERCIAL ST,SUNNYVALE,CA,94085,37.37849,-122.007877,Santa Clara,447110,,18284811,NEI
110001171909.0,CITY OF SUNNYVALE- CORP YARD-161-1,221 COMMERCIAL STREET,SUNNYVALE,CA,94086,37.3782,-122.0083,Santa Clara,221112,,14319111,NEI
110000734670.0,ISLECHEM LLC D.B.A. ACTYLIS BUFFALO,2801 LONG RD,GRAND ISLAND,NY,14072,43.04848,-78.99699,ERIE,325998,,14072XYCHM2801L,TRI
110000734670.0,Islechem L L C,2801 Long Rd.,Grand Island,NY,14072,43.04999,-78.99639,Erie,325199,,7811511,NEI
110000757501.0,Owensboro Grain Ed Oil,1145 Ewing Rd,Owensboro,KY,42302,37.78429,-87.14343,Daviess,311224,,6052911,NEI
110000757501.0,Owensboro Grain Biodiesel LLC,1145 Ewing Rd,Owensboro,KY,42302,37.784408,-87.143344,Daviess,325199,,13418711,NEI
110000483147.0,"EKC TECHNOLOGY, DUPONT ELECTRONIC MATERIALS",2520 BARRINGTON CT,HAYWARD,CA,94545,37.65451,-122.13731,Alameda,325998,,13820511,NEI
110000483147.0,EKC TECHNOLOGY INC.,2520 BARRINGTON CT,HAYWARD,CA,94545,37.65559,-122.14037,ALAMEDA,325998,,94545SKCTC2520B,TRI
110000483147.0,Ekc Technology,2520 Barrington Ct,Hayward,CA,94545,37.65441,-122.13684,Alameda,221112,,7845311,NEI
110035869165.0,AJINOMOTO HEARTLAND LLC,1116 HIGHWAY 137,EDDYVILLE,IA,52553-5005,41.14353,-92.64763,Monroe,311119,,7741311,NEI
110035869165.0,"AJINOMOTO FOOD INGREDIENTS, LLC",1 Ajinomoto Dr.,Eddyville,IA,52553,41.1486,-92.64472,Monroe,325199,,3779911,NEI
110008266946.0,PG&E WALNUT CREEK SERVICE CENTER,1232 BOULEVARD WAY,WALNUT CREEK,CA,94595,37.893722,-122.075209,Contra Costa,447110,,18220611,NEI
110008266946.0,PACIFIC GAS AND ELECTRIC COMPANY,1232 BOULEVARD WAY,WALNUT CREEK,CA,94595,37.8938,-122.07548,Contra Costa,221112,,13780711,NEI
110067425708.0,Great Plains Mfg. - Salina (1733 Dewey/601 Idlewilde Ct),1733 Dewey St / 601 Idlewilde Ct,Salina,KS,67401,38.850764,-97.588009,Saline,333111,,3122411,NEI
110067425708.0,McShares,1835 E North St,Salina,KS,67401,38.850322,-97.581813,Saline,325199,,15594111,NEI
nan,Charter Waste Landfill,12035 West Murphy Road,Odessa,TX,79764.0,31.745833,-102.546661,ECTOR COUNTY,562212,,1002509,GHGRP
nan,"EPL Oil & Gas, Inc. - SP 77 A",None,Offshore,LA,0.0,28.8308,-89.4061,ORLEANS PARISH,211111,,1010333,GHGRP
nan,CVEA Cogeneration Project,Mile 2.5 Dayville Rd.,Valdez,AK,99686,61.0843,-146.2518,Chugach Census Area,221112,,1025411,NEI
nan,Glennallen Diesel Plant,Mile 187 Glenn Hwy,Glennallen,AK,99588,62.1186,-145.5294,Copper River Census Area,221112,,1025511,NEI
nan,Valdez Diesel Power Plant,West Egan Dr,Valdez,AK,99686,61.1352,-146.3533,Chugach Census Area,221112,,1025611,NEI
nan,ST LABRE MISSION,Unknown,ASHLAND,MT,00000,45.6,-106.2672,None,48811,,11140311,NEI
nan,BONANZA POWER PLANT,Unknown,BONANZA,UT,00000,40.0822,-109.2915,None,48811,,11446411,NEI
nan,ANIMAS AIR PARK HELIPORT,Unknown,DURANGO,CO,00000,37.2031,-107.8678,None,48811,,12014511,NEI
nan,Orca Power Plant,103 Orca Road,Cordova,AK,99574,60.556,-145.7535,Chugach Census Area,221112,,12660911,NEI
nan,HAARP Facility - The High Frequency Active Auroral Research Program,"Milepost 11.3, Tok Cut-Off",Gakona,AK,99586,62.3917,-145.1295,Copper River Census Area,611310,,12662511,NEI
nan,"MARYSVILLE ETHANOL, LLC",2512 BUSHA HIGHWAY,MARYSVILLE,MI,48040,42.8825,-82.4948,St. Clair,325193,,13657811,NEI
nan,Road Runner / Pacific Pride 4-260086,61313 Highway 97 South,Toppenish,WA,98949,46.369727,-120.32017,None,44711,,17310811,NEI
nan,WEST JAMESON TREATING FACILITY,FROM ROBERT LEE TAKE TX-208 N FOR 17.6 MILES. TAKE SLIGHT LEFT ONTO RANCH RD 1672 FOR 0.8 MILES. TAK,SILVER,TX,76949,32.049872,-100.693333,Coke,486210,,17910311,NEI
nan,OZONA GAS PLANT,2 M S OF SH 163,OZONA,TX,76943,30.673311,-101.20485,Crockett,211130,,6475911,NEI
nan,Marathon Petroleum Co LP,4663 W Airline Hwy,Garyville,LA,70051-0000,30.06947,-90.59586,St. John the Baptist,424710,,8018511,NEI
nan,Valdez Marine Terminal,West End of Dayville Road,Valdez,AK,99686,61.0861,-146.3892,Chugach Census Area,488320,,865711,NEI
nan,Pender Muni,Unknown,Pender,NE,00000,42.11389,-96.72893,None,48811,,9410311,NEI
nan,Animas Air Park,Unknown,Durango,CO,00000,37.20389,-107.86861,None,48811,,9811311,NEI
nan,CHEMAID LABORATORIES INC.,100 MAYHILL ST,SADDLE BROOK,NJ,7663,40.89923,-74.08892,BERGEN,325620,,0766WCHMDL1MAYH,TRI
nan,ZEUS CO INC BNJ,134 CHUBB WAY,SOMERVILLE,NJ,8876,40.556792,-74.705768,SOMERSET,326121,,0887WZSNDS134CH,TRI
nan,BLOMMER CHOCOLATE CO/E GREENVILLE PLT,1101 BLOMMER DR,EAST GREENVILLE,PA,18041,40.41568,-75.51236,MONTGOMERY,311351,,1804WBLMMR111BL,TRI
nan,ZEUS CO INC GSC,201 ZEUS LN,GASTON,SC,29053,33.844495,-81.023743,CALHOUN,326121,,2905WZSCMP21ZEU,TRI
nan,OCEANAGOLD HAILE GOLD MINE,6911 SNOWY OWL RD,KERSHAW,SC,29067,34.597431,-80.532552,LANCASTER,212221,,2906WCNGLD6911S,TRI
nan,ZEUS CO INC OSC,646 MAGNOLIA STREET,ORANGEBURG,SC,29115,33.48712,-80.85432,ORANGEBURG,326121,,2911WZSNDS646MA,TRI
nan,GITI TIRE MANUFACTURING CO (USA) LTD,1000 GITI DRIVE,RICHBURG,SC,29729,34.748817,-81.047644,CHESTER,326211,,2972WGTTRM1GITI,TRI
nan,ZEUS CO INC ASC,2499 LEVELS CHURCH RD,AIKEN,SC,29801,33.544633,-81.681224,AIKEN,326121,,2980WZSCMP2499L,TRI
nan,EBROFROST N.A. INC.,2360 PROSPECT,MEMPHIS,TN,38106,35.08205,-90.03704,SHELBY,311212,,3810WBRFRS236PR,TRI
nan,RIVIANA FOODS,2314 S. LAUDERDALE STREET,MEMPHIS,TN,38106,35.08368,-90.04458,SHELBY,311212,,3810WRVNFD2314S,TRI
nan,AMERICAN HOOD SYSTEMS INC.,172 REASER CT,ELYRIA,OH,44035,41.36746,-82.07405,LORAIN,332322,,4403WMRCNH172RE,TRI
nan,MODERN FORGE INDIANA LLC,8757 COLORADO ST,MERRILLVILLE,IN,46410,41.45912,-87.29698,LAKE,332111,,4641WMDRNF8757C,TRI
nan,LGC GENOMICS LLC,2434 BISHOP CIR E,DEXTER,MI,48130,42.32499,-83.877,WASHTENAW,325199,,4813WLGCGN2434B,TRI
nan,GEA FARM TECHNOLOGIES INC.,20903 W GALE AVE,GALESVILLE,WI,54630,44.08239,-91.37045,TREMPEALEAU,333111,,5463WGFRMT293WG,TRI
nan,CITYSERVICEVALCON LLC BILLINGS BULK FACILITY,2100 1ST AVE S,BILLINGS,MT,59101,45.783698,-108.494111,YELLOWSTONE,424710,,5910WCTYSR211ST,TRI
nan,BEN TAYLOR INC BULK FACILITY,2122 W ROOSEVELT HWY,SHELBY,MT,59474,48.516828,-111.88737,TOOLE,424710,,5947WBNTYL2122W,TRI
nan,CITYSERVICEVALCON LLC KALISPELL BULK FACILITY,640 W MONTANA ST,KALISPELL,MT,59901,48.19949,-114.32476,FLATHEAD,424710,,5990WCTYSR64WMN,TRI
nan,LAKESIDE CASTING SOLUTIONS,2 LAKESIDE DR,MONROE CITY,MO,63456,39.654759,-91.715791,MONROE,331523,,6345WLKSDC2LAKE,TRI
nan,YODER SMOKERS INC.,1816 E WASP RD,HUTCHINSON,KS,67501,37.927606,-97.894809,RENO,335220,,6750WYDRSM1816E,TRI
nan,REEVE AGRI ENERGY,5665 S OLD HIGHWAY 83,GARDEN CITY,KS,67846,37.87925,-100.88353,FINNEY,325193,,6784WRVGRN5665S,TRI
nan,MUELLER SUPPLY CO INC.,6914 HWY 2,OAK GROVE,LA,71263,32.858227,-91.411359,WEST CARROLL PARISH,332311,,7126WMLLRN6914H,TRI
nan,SUN COAST RESOURCES- ENID,5110 E OWEN K GARRIOTT RD,ENID,OK,73701,36.39754,-97.80105,GARFIELD,424710,,7370WSNCST511EW,TRI
nan,SUN COAST RESOURCES,2294 S BUFFALO ST,BUFFALO,TX,75831,31.45061,-96.05031,LEON,424710,,7583WSNCST11SBU,TRI
nan,HUNTSMAN BUILDING SOLUTIONS,3315 EAST DIV STREET,ARLINGTON,TX,76011,32.743039,-97.049116,TARRANT,325211,,7601WHNTSM3315E,TRI
nan,SUN COAST RESOURCES,6922 CAVALCADE,HOUSTON,TX,77028,29.800408,-95.302828,HARRIS,424710,,7702WSNCST6922C,TRI
nan,SUN COAST RESOURCES EDNA WAREHOUSE,176 US HIGHWAY 59 S,EDNA,TX,77957,28.97802,-96.66417,JACKSON,424710,,7795WSNCST176US,TRI
nan,SUN COAST RESOURCES,7759 JOHNNY MORRIS RD,AUSTIN,TX,78724,30.311393,-97.636723,TRAVIS,424710,,7872WSNCST7759J,TRI
nan,SUN COAST RESOURCES- MIDLAND,5606 E COUNTY ROAD 128,MIDLAND,TX,79706,31.967052,-101.972818,MIDLAND,424710,,7970WSNCST566EC,TRI
nan,KDC / ONE - THIBIANT INTERNATIONAL,20320 PRAIRIE STREET,CHATSWORTH,CA,91311,34.240923,-118.58636,LOS ANGELES,325620,,9131WTHBNT232PR,TRI
nan,IMPERIAL WESTERN PRODUCTS INC,86600 AVENUE 54,COACHELLA,CA,92236,33.65771,-116.15811,RIVERSIDE,325199,,9223WMPRLW866AB,TRI
nan,BETTS CO,2843 S MAPLE AVE,FRESNO,CA,93725,36.706914,-119.745621,FRESNO,332613,,9372WBTTSC2843S,TRI
nan,GEA FARM TECHNOLOGIES INC.  DBA GEA WS WEST,2717 S 4TH ST,FRESNO,CA,93725,36.70299,-119.76687,FRESNO,325611,,9372WGFRMT2717S,TRI
nan,ECOLUBE RECOVERY LLC,11535 N FORCE AVE,PORTLAND,OR,97217,45.60602,-122.69291,MULTNOMAH,324199,,9721WCLBRC11535,TRI
nan,FARWEST FABRICATORS,7537 POSTMA RD,MOXEE,WA,98936,46.563889,-120.396942,YAKIMA,332322,,9893WFRWST7537P,TRI
