FRS_ID,FacilityName,Address,City,State,Zip,Latitude,Longitude,County,NAICS,SIC,FacilityID,Source
110042043384.0,US Steel (Clairton Coke),400 STATE ST,CLAIRTON,PA,15025,40.3097,-79.8819,Allegheny,324199,,1000124,GHGRP
110042043384.0,USS/CLAIRTON WORKS,400 STATE ST,CLAIRTON,PA,None,40.3055,-79.87699999999998,Allegheny,331110,,8204511,NEI
110042043384.0,USS-CLAIRTON PLANT,400 STATE ST MS 71,CLAIRTON,PA,15025,40.305088,-79.876911,ALLEGHENY,331111,,15025SSCLR400ST,TRI
110010534261.0,Toledo Refining Company,1819 WOODVILLE RD.,OREGON,OH,43616,41.6328,-83.5019,LUCAS,561210,,1001056,GHGRP
110010534261.0,"Toledo Refining Company, LLC. (0448010246)",1819 Woodville Road,Oregon,OH,43616,41.6319,-83.5036,Lucas,324110,,7319811,NEI
110010534261.0,TOLEDO REFINING CO LLC,1819 WOODVILLE RD,OREGON,OH,43616,41.6295,-83.4965,LUCAS,324110,,43616SNRFN1819W,TRI
110010534261.0,TWO LLC - Veolia Water Americas (0448020080),1819 Woodville Road,Oregon,OH,None,41.6287,-83.5048,Lucas,561210,,13431911,NEI
110010534261.0,Process Solutions a division of Veolia Water Americas (0448011640),1819 Woodville Road,Oregon,OH,43616,41.6078,-83.4822,Lucas,324199,,10722611,NEI
110000336994.0,Philadelphia Refinery,3144 PASSYUNK AVENUE,PHILADELPHIA,PA,19145,39.9058,-75.2122,Philadelphia,324110,,1001261,GHGRP
110000336994.0,ATLANTIC REFINING & MARKETING CORP,Unknown,PHILADELPHIA,PA,00000,39.9198,-75.1966,Philadelphia,48811,,12025611,NEI
110000336994.0,PHILA ENERGY SOL REF/ PES,3144 PASSYUNK AVE,PHILADELPHIA,PA,19145,39.9135,-75.19889999999998,Philadelphia,324110,,6652211,NEI
110000336994.0,PHILADELPHIA ENERGY SOLUTIONS REFINING PHILADELPHIA REFINERY,3144 PASSYUNK AVE,PHILADELPHIA,PA,19145,39.9147,-75.2005,PHILADELPHIA,324110,,19145TLNTC3144P,TRI
110000582101.0,"Sunoco, Inc. (R&S) Eagle Point Facility",ROUTE 130 AND I 295 SOUTH,WESTVILLE,NJ,8093,39.8743,-75.1595,Gloucester,324110,,1001321,GHGRP
110000582101.0,SUNOCO INC (R&M) EAGLE POINT FACILITY,US RT 130 AND I-295,WEST DEPTFORD,NJ,08093,39.8615,-75.15219999999998,Gloucester,32411,,8095211,NEI
110000582101.0,SPMT-EAGLE POINT TANK FARM,RT 130 & I-295 S,WESTVILLE,NJ,8093,39.8718,-75.1558,GLOUCESTER,493190,,08093CSTLGRTES1,TRI
110015682830.0,Phillips 66 Ponca City Refinery,1000 South Pine,Ponca City,OK,74601,36.68807,-97.08786,KAY,324110,,1001920,GHGRP
110015682830.0,PONCA CITY RFNRY,1000 S PINE,PONCA CITY,OK,None,36.6754,-97.083,Kay,324110,,7320011,NEI
110015682830.0,PHILLIPS 66 PONCA CITY SITE,1000 S PINE ST,PONCA CITY,OK,746017501,36.6821,-97.0895,KAY,424710,,74603CNCPN1000S,TRI
110015682830.0,PHILLIPS 66 PONCA CITY SITE,1000 S PINE ST,PONCA CITY,OK,746017501,36.6821,-97.0895,KAY,324110,,74603CNCPN1000S,TRI
110015682830.0,PONCA CITY PIPELINE ACTIVITIES,1000 S PINE ST,PONCA CITY,OK,74601,36.6815,-97.091,Kay,486110,,10722511,NEI
110043813816.0,"St. Paul Park Refining Company, LLC",301 St. Paul Park Road,St. Paul Park,MN,55071,44.850583,-93.002139,WASHINGTON COUNTY,324110,,1002027,GHGRP
110043813816.0,Saint Paul Park Refining Co LLC,301 St Paul Park Rd,St. Paul Park,MN,55071,44.8519,-93.0013,Washington,32411,,8498611,NEI
110043813816.0,ST PAUL PARK REFINING CO LLC,301 ST PAUL PARK RD,SAINT PAUL PARK,MN,55071,44.850583,-93.002139,WASHINGTON,324110,,55071SHLND100WT,TRI
110000321189.0,PAULSBORO ASPHALT REFINERY,4 PARADISE RD.,PAULSBORO,NJ,8066,39.840932,-75.226205,GLOUCESTER COUNTY,324121,,1002103,GHGRP
110000321189.0,"NUSTAR ASPHALT REFINING, LLC",4 PARADISE RD,PAULSBORO,NJ,08066,39.8425,-75.2262,Gloucester,324110,,7201411,NEI
110000321189.0,CPI OPERATIONS LLC,4 PARADISE RD,PAULSBORO,NJ,8066,39.840932,-75.226205,GLOUCESTER,324110,,08066SVWLC4PARA,TRI
110017407153.0,TRICOR REFINING LLC,1134 Manor Street,BAKERSFIELD,CA,93308,35.4185,-119.0112,KERN,324110,,1002261,GHGRP
110017407153.0,OILDALE ENERGY LLC,1134 MANOR ST & NORRIS RD,OILDALE,CA,93308,35.4175,-119.011,Kern,221118,,424911,NEI
110017407153.0,TRICOR REFINING LLC,1134 MANOR ST,BAKERSFIELD,CA,93308,35.4185,-119.0112,KERN,324110,,93308WTCCRCORNE,TRI
110017407153.0,"TRICOR REFINING, LLC",1134 MANOR ST,OILDALE,CA,93388,35.4175,-119.011,Kern,324110,,4842911,NEI
110017407153.0,"OILDALE ENERGY, LLC",1134 MANOR ST,BAKERSFIELD,CA,93308,35.417,-119.013,Kern,221112,,14386611,NEI
110001187144.0,LUNDAY-THAGARD COMPANY,9301 SOUTH GARFIELD AVENUE,SOUTH GATE,CA,90280,33.946295,-118.16704,LOS ANGELES COUNTY,324110,,1002286,GHGRP
110001187144.0,LUNDAY-THAGARD COMPANY,9301 GARFIELD AVE,SOUTH GATE,CA,90280,33.945,-118.166,Los Angeles,324122,,5797411,NEI
110001187144.0,LUNDAY-THAGARD CO DBA WORLD OIL REFINING,9301 GARFIELD AVE,SOUTH GATE,CA,90280,33.946295,-118.16704,LOS ANGELES,324110,,90280LNDYT9301S,TRI
110041135580.0,Garyville Refinery,155 Sugarcane Road,Garyville,LA,70051,30.06132,-90.59353,ST JOHN THE BAPTIST,324110,,1003043,GHGRP
110041135580.0,Marathon Petroleum Co LP - Terminal Transport & Rail Division,4663 W Airline Hwy,Garyville,LA,None,30.0684,-90.5964,St. John the Baptist,424710,,8018511,NEI
110041135580.0,Marathon Petroleum Co LP - LA Refining Division - Garyville Refinery,4663 W Airline Hwy,Garyville,LA,70051,30.0629,-90.5986,St. John the Baptist,324110,,8241011,NEI
110041135580.0,MARATHON PETROLEUM CO LP,4663 W AIRLINE HWY,GARYVILLE,LA,70051,30.06132,-90.59353,ST. JOHN THE BAPTIST PARISH,324110,,70051MRTHNHWY61,TRI
110011031052.0,GALLUP REFINERY,92 Giant Crossing,Jamestown,NM,87347,35.490278,-108.425,MCKINLEY,324110,,1003355,GHGRP
110011031052.0,Gallup Refinery,17 miles E of Gallup on I-40,Gallup,NM,87301,35.4903,-108.425,McKinley,32411,,8105511,NEI
110011031052.0,WESTERN REFINING SOUTHWEST INC-GALLUP REFINERY,92 GIANT CROSSING ROAD,GALLUP,NM,87301,35.490278,-108.425,MCKINLEY,324110,,87301GNTRFROUTE,TRI
110012566767.0,ARCELORMITTAL WARREN  (0278000648),2234 MAIN AVE SW,WARREN,OH,44481,41.211242,-80.81682,TRUMBULL,324199,,1003380,GHGRP
110012566767.0,ArcelorMittal Warren (0278000648),2234 Main Ave SW,Warren,OH,44481,41.2042,-80.81579999999998,Trumbull,331110,,8115611,NEI
110012566767.0,CLEVELAND-CLIFFS CLEVELAND WORKS LLC DBA CLEVELAND-CLIFFS WA,2234 MAIN AVE SW,WARREN,OH,44481,41.211242,-80.81682,TRUMBULL,324199,,44482LTVST2234M,TRI
110000481611.0,KERN OIL & REFINING CO.,7724 E PANAMA LN ,BAKERSFIELD,CA,93307,35.295278,-118.921111,KERN,324110,,1004267,GHGRP
110000481611.0,KERN OIL & REFINING,PANAMA LN @ WEEDPATCH HWY,LAMONT,CA,93307,35.267,-118.923,Kern,924110,,13866611,NEI
110000481611.0,KERN OIL & REFINING CO,PANAMA LN & WEEDPATCH HWY,BAKERSFIELD,CA,93307,35.2956,-118.918,Kern,324110,,4196711,NEI
110000481611.0,KERN OIL & REFINING CO,7724 EAST PANAMA LANE,BAKERSFIELD,CA,93307,35.295278,-118.921111,KERN,324110,,93307KRNLRRR677,TRI
110000481611.0,KERN OIL & REFINING COMPANY,TEN SECTION,Placeholder,CA,00000,35.2871,-119.207,Kern,324110,,10281011,NEI
110041133163.0,Phillips 66 BAYWAY REFINERY,1400 PARK AVE,LINDEN,NJ,7036,40.6365,-74.2199,UNION,324110,,1004305,GHGRP
110041133163.0,BAYWAY REFINERY,Unknown,LINDEN,NJ,00000,40.6362,-74.2343,Union,48811,,12323111,NEI
110041133163.0,Phillips 66 Bayway Refinery,1400 Park Ave,Linden,NJ,07036,40.6401,-74.2189,Union,324110,,7903711,NEI
110041133163.0,PHILLIPS 66 CO-BAYWAY REFINERY,1400 PARK AVE,LINDEN,NJ,7036,40.6365,-74.2199,UNION,324110,,07036XXNXX1400P,TRI
110000597337.0,CONVENT REFINERY,10700 La. 44,CONVENT,LA,70723,30.10846,-90.89677,ST. JAMES PARISH,324110,,1004630,GHGRP
110000597337.0,Motiva Enterprises LLC - Convent Refinery,Hwys 44 & 70,Convent,LA,70723,30.1083,-90.8978,St. James,324110,,8239611,NEI
110000597337.0,CONVENT REFINERY,FOOT OF SUNSHINE BRIDGE- LA HW Y 44,CONVENT,LA,70723,30.10712,-90.89616,ST. JAMES PARISH,324110,,70723TXCRFFOOTO,TRI
110000597337.0,Motiva Enterprises LLC - Convent Marketing Terminal,Hwys 70 & 44 jct,Convent,LA,70723,30.1056,-90.9078,St. James,424710,,5273311,NEI
110000493555.0,Canton Refinery,2408 GAMBRINUS RD. S.W.,CANTON,OH,44706,40.7729,-81.4151,STARK,324110,,1005390,GHGRP
110000493555.0,Marathon Petroleum Company LP - Canton Refinery (1576002006),2408 Gambrinus Avenue SW,Canton,OH,44706,40.7719,-81.4156,Stark,324110,,13573011,NEI
110000493555.0,MARATHON PETROLEUM CO LP OHIO REFINING DIV,2408 GAMBRINUS AVE SW,CANTON,OH,44706,40.7736,-81.4146,STARK,324110,,44711SHLND2408G,TRI
110000493555.0,Marathon Petroleum Company LP - Canton Terminal (1576002007),2419 Gambrinus Avenue SW,Canton,OH,44706,40.7724,-81.4186,Stark,424710,,13436611,NEI
110017866727.0,COUNTRYMARK REFINING & LOGISTICS LLC,1200 REFINERY RD,MT VERNON,IN,47620,37.925417,-87.904972,POSEY,324110,,1005899,GHGRP
110017866727.0,Countrymark Refining and Logistics LLC,1200 Refinery Rd,Mount Vernon,IN,47620,37.9245,-87.9118,Posey,32411,,8166011,NEI
110017866727.0,COUNTRYMARK REFINING & LOGISTICS LLC,6701 LOWER NEW HARMONY ROAD,MOUNT VERNON,IN,47620,37.925417,-87.904972,POSEY,324110,,47620NDNFR1200R,TRI
110013831201.0,Norco Manufacturing Complex,15536 River Road,Norco,LA,70079,30.000723,-90.403768,SAINT CHARLES,324110,,1005911,GHGRP
110013831201.0,Shell Chemical LP - Norco Chemical Plant - East Site,15536 River Rd,Norco,LA,70079,29.9992,-90.3995,St. Charles,325110,,8239511,NEI
110013831201.0,SHELL NORCO CHEMICAL PLANT,15536 RIVER RD,NORCO,LA,70079,30.000964,-90.403863,ST. CHARLES PARISH,324110,,70079SHLLL1205R,TRI
110013831201.0,SHELL NORCO CHEMICAL PLANT,15536 RIVER RD,NORCO,LA,70079,30.000964,-90.403863,ST. CHARLES PARISH,325110,,70079SHLLL1205R,TRI
110000469243.0,"Tesoro Refining and Marketing Company, Salt Lake City Refinery",474 West 900 North,Salt Lake City,UT,84103,40.791667,-111.902778,SALT LAKE,324110,,1006039,GHGRP
110000469243.0,Tesoro West Coast: Salt Lake City Refinery,474 West 900 North,Salt Lake City,UT,84103,40.791,-111.903,Salt Lake,32411,,7558611,NEI
110000469243.0,TESORO REFINING & MARKETING COMPANY LLC - SLC,474 W 900 N,SALT LAKE CITY,UT,84103,40.791667,-111.902778,SALT LAKE,324110,,84103MCLCM474WE,TRI
110000469485.0,CHEVRON PRODUCTS CO - SALT LAKE REFINERY,2351 N 1100 W,SALT LAKE CITY,UT,84116,40.8249,-111.9238,DAVIS,324110,,1006189,GHGRP
110000469485.0,Chevron Products Co - Salt Lake Refinery,2351 N 1100 W,Salt Lake City,UT,84116,40.8252,-111.92,Salt Lake,32411,,8178511,NEI
110000469485.0,CHEVRON PRODUCTS CO - SALT LAKE REFINERY,2351 NORTH 1100 WEST,SALT LAKE CITY,UT,84116,40.8249,-111.9238,SALT LAKE,324110,,84116CHVRN2351N,TRI
110000499069.0,Silver Eagle Refining-Woods Cross,2355 SOUTH 1100 WEST,WOODS CROSS,UT,84087,40.866389,-111.911389,DAVIS,324110,,1006448,GHGRP
110000499069.0,Silver Eagle Refining - Woods Cross Inc.: Petroleum Products Refinin,2355 So. 1100 West,Woods Cross,UT,84087,40.8661,-111.91,Davis,32411,,8236511,NEI
110000499069.0,SILVER EAGLE REFINING WOODS CROSS,2355 S 1100 W,WOODS CROSS,UT,84087,40.866389,-111.911389,DAVIS,324110,,84087CRYSN2355S,TRI
110000366657.0,"ERP COKE, L.L.C. COKE PLANT",3500 35TH AVENUE NORTH,BIRMINGHAM,AL,35207,33.557464,-86.799671,JEFFERSON COUNTY,324199,,1006585,GHGRP
110000366657.0,BLUESTONE COKE,3500 35TH AVE N,BIRMINGHAM,AL,35207,33.557464,-86.799671,JEFFERSON,331111,,35207SLSSN35003,TRI
110000869720.0,US PUBLIC HEALTH SERVICE NATIONAL INSTITUTES OF HEALTH,9000 ROCKVILLE PIKE BLDG 13,BETHESDA,MD,20892,39.003914,-77.099119,MONTGOMERY COUNTY,561210,,1006646,GHGRP
110000869720.0,National Institutes of Health,9000 Rockville Pike,Bethesda,MD,20892,39.0037,-77.1028,Montgomery,923120,,5998311,NEI
110000474353.0,DEMENNO KERDOON,2000 N. ALAMEDA ST.,COMPTON,CA,90222,33.910116,-118.221906,LOS ANGELES,324199,,1006861,GHGRP
110000474353.0,DEMENNO/KERDOON,2000 N ALAMEDA ST,COMPTON,CA,90222,33.9102,-118.223,Los Angeles,324191,,6500711,NEI
110000474353.0,DEMENNOKERDOON DBA WORLD OIL RECYCLING,2000 NORTH ALAMEDA STREET,COMPTON,CA,90222,33.910116,-118.221906,LOS ANGELES,324191,,90222DMNNK2000N,TRI
110000326772.0,TONAWANDA COKE CORP,3875 RIVER RD.,TONAWANDA,NY,14150,42.983638,-78.92728,ERIE,324199,,1006875,GHGRP
110000326772.0,TONAWANDA COKE CORP,3875 RIVER RD,TONAWANDA,NY,14150,42.98,-78.92,Erie,331110,,7762811,NEI
110000326772.0,TONAWANDA COKE CORP,3875 RIVER RD,TONAWANDA,NY,14150,42.983638,-78.92728,ERIE,324199,,14150TNWND3875R,TRI
110000424611.0,Flint Hills Resources Pine Bend Refinery,12555 Clark Road,Rosemount,MN,55068,44.7684,-93.0406,DAKOTA COUNTY,324110,,1006985,GHGRP
110000424611.0,Flint Hills Resources Pine Bend LLC,13775 Clark Rd,Rosemount,MN,55068,44.7644,-93.0395,Dakota,32411,,6275811,NEI
110000424611.0,FLINT HILLS RESOURCES PINE BEND LLC,13775 CLARK RD,ROSEMOUNT,MN,55068,44.764434,-93.039484,DAKOTA,324110,,55164KCHRFPOBOX,TRI
110031267064.0,SHELL DEER PARK REFINERY,5900 HIGHWAY 225 EAST,DEER PARK,TX,77536,29.722222,-95.126944,HARRIS,324110,,1007002,GHGRP
110031267064.0,SHELL DEER PARK REFINERY,Unknown,DEER PARK,TX,00000,29.7151,-95.144,Harris,48811,,12193311,NEI
110031267064.0,DEER PARK PLANT,HWY 225 W OF BATTLEGROUND RD,DEER PARK,TX,77536,29.7184,-95.1186,Harris,324110,,4168511,NEI
110031267064.0,MOMENTIVE SPECIALTY CHEMICALS DEER PARK,5900 LA PORTE FWY,DEER PARK,TX,77536,29.7132,-95.1189,Harris,325211,,4982011,NEI
110031267064.0,DEER PARK REFINING LP,5900 HWY 225 EAST,DEER PARK,TX,77536,29.722222,-95.126944,HARRIS,324110,,77536DRPRK5900H,TRI
110031267064.0,WESTLAKE EPOXY INC.- DEER PARK SITE,5900 HIGHWAY 225 - GATE 7B,DEER PARK,TX,77536,29.722222,-95.126944,HARRIS,325211,,77536RSLTN5900H,TRI
110031267064.0,SHELL CHEMICAL LP,5900 HWY 225 EAST,DEER PARK,TX,77536,29.722222,-95.126944,HARRIS,325110,,77536SHLLLHIGHW,TRI
110000448837.0,MERAUX REFINERY,2500 EAST SAINT BERNARD HIGHWAY,MERAUX,LA,70075,29.930278,-89.943889,ST. BERNARD PARISH,324110,,1007059,GHGRP
110000448837.0,Valero Terminaling & Distribution Co - Meraux Terminal,2500 E St Bernard Hwy,Meraux,LA,70075,29.9295,-89.9414,St. Bernard,424710,,7204611,NEI
110000448837.0,Valero Refining - Meraux LLC - Meraux Refinery,2500 E St Bernard Hwy,Meraux,LA,70075,29.932,-89.9393,St. Bernard,324110,,7355411,NEI
110000448837.0,VALERO REFINING - MERAUX LLC MERAUX REFINERY,2500 E ST BERNARD HWY,MERAUX,LA,70075,29.930517,-89.940643,ST. BERNARD PARISH,324110,,70075MRPHY2500E,TRI
110001148598.0,Delaware City Refinery,4550 WRANGLE HILL ROAD,DELAWARE CITY,DE,19706,39.5936,-75.6337,New Castle,324110,,1007322,GHGRP
110001148598.0,Delaware City Refinery,4550 WRANGLE HILL RD,DELAWARE CITY,DE,19706,39.5886,-75.63559999999998,New Castle,32411,,588311,NEI
110001148598.0,DELAWARE CITY REFINERY,4550 WRANGLE HILL RD,DELAWARE CITY,DE,19706,39.591,-75.634,NEW CASTLE,324110,,19706TXCDL2000W,TRI
110000398338.0,BP Whiting Business Unit,2815 INDIANAPOLIS BLVD,WHITING,IN,46394,41.6703,-87.4803,Lake,324110,,1007339,GHGRP
110000398338.0,"BP PRODUCTS NORTH AMERICA INC, WHITING R",2815 INDIANAPOLIS BLVD.,WHITING,IN,46394,41.6631,-87.4796,Lake,32411,,7247711,NEI
110000398338.0,BP PRODUCTS NA WHITING BUSINESS UNIT,2815 INDIANAPOLIS BLVD,WHITING,IN,46394,41.663055,-87.479643,LAKE,324110,,46394MCLCX2815I,TRI
110000398338.0,BP Products North America Whiting Busin,2815 Indianapolis Blvd,Whiting,IN,46394,41.6622,-87.48279999999998,Lake,32411,,3988711,NEI
110000398338.0,BP Products North America Inc Hammond,2815 Indianapolis Blvd,Whiting,IN,46394,41.6603,-87.49599999999998,Lake,32411,,3984911,NEI
110056963745.0,Buckeye Port Reading Terminal,750 CLIFF ROAD,PT. READING,NJ,7064,40.564223,-74.25076,MIDDLESEX,324110,,1007595,GHGRP
110056963745.0,HESS PORT READING,Unknown,PORT READING,NJ,00000,40.6444,-74.2453,Union,48811,,11560511,NEI
110056963745.0,Hess Corporation-Port Reading Refiner,750 Cliff Road,Pt. Reading,NJ,07064,40.5591,-74.2401,Middlesex,324110,,8237311,NEI
110056963745.0,BUCKEYE PORT READING TERMINAL LLC,750 CLIFF RD,PORT READING,NJ,7064,40.564223,-74.25076,MIDDLESEX,324110,,07064MRDHS750CL,TRI
110041023807.0,ALON REFINING KROTZ SPRINGS INC,356 S. LEVEE RD,KROTZ SPRINGS,LA,70750,30.526504,-91.748383,SAINT LANDRY,324110,,1007622,GHGRP
110041023807.0,VALERO REFINING CO,Unknown,KROTZ SPRINGS,LA,00000,30.5331,-91.7501,St. Landry,48811,,12483611,NEI
110041023807.0,Alon Refining Krotz Springs Inc,Hwy 105 S,Krotz Springs,LA,70750,30.5265,-91.7484,St. Landry,324110,,8240011,NEI
110041023807.0,ALON REFINING KROTZ SPRINGS INC,HWY 105 S,KROTZ SPRINGS,LA,70750,30.526504,-91.748383,ST. LANDRY PARISH,324110,,70750HLLPTHWY10,TRI
110017419667.0,LION OIL CO-EL DORADO REFINERY,1000 MCHENRY,EL DORADO,AR,71730,33.200091,-92.675095,UNION,324110,,1007861,GHGRP
110017419667.0,LION OIL COMPANY,1000 MCHENRY DRIVE,EL DORADO,AR,71730,33.1958,-92.6794,Union,32411,,993611,NEI
110017419667.0,LION OIL CO,1000 MCHENRY AVE,EL DORADO,AR,71730,33.200091,-92.675095,UNION,324110,,71730LNLRF1000M,TRI
110008361263.0,"Catlettsburg Refining, LLC",11631 US Route 23,Catlettsburg,KY,41129,38.375,-82.6042,BOYD,324110,,1007913,GHGRP
110008361263.0,Marathon Petroleum Co LLC - Catlettsburg Refining,11631 US 23,Catlettsburg,KY,41129,38.3772,-82.5972,Boyd,32411,,7331911,NEI
110008361263.0,CATLETTSBURG REFINING LLC,11631 US RT 23,CATLETTSBURG,KY,41129,38.377246,-82.597162,BOYD,324110,,41114CTLTTPOBOX,TRI
110015862440.0,CHS MCPHERSON REFINERY INC.,2000 SOUTH MAIN STREET,MCPHERSON,KS,67460,38.347278,-97.673846,MCPHERSON,324110,,1007942,GHGRP
110015862440.0,NATIONAL COOP. REFINERY ASSN.,2000 S. MAIN,MC PHERSON,KS,67460,38.3475,-97.6692,McPherson,324110,,8067211,NEI
110015862440.0,CHS MCPHERSON REFINERY - SRU,2000 S MAIN ST,MCPHERSON,KS,67460,38.347278,-97.673846,MCPHERSON,325311,,67460NTNLC2000M,TRI
110015862440.0,CHS MCPHERSON REFINERY - SRU,2000 S MAIN ST,MCPHERSON,KS,67460,38.347278,-97.673846,MCPHERSON,324110,,67460NTNLC2000M,TRI
110000472630.0,"NAVAJO REFINING COMPANY, LLC - Artesia Refinery",501 East Main Street,ARTESIA,NM,88210,32.848593,-104.394383,EDDY,324110,,1007972,GHGRP
110000472630.0,Navajo Refining - Artesia Refinery,501 E Main St,Artesia,NM,88210,32.8486,-104.394,Eddy,32411,,7399911,NEI
110000472630.0,HOLLYFRONTIER NAVAJO REFINING LLC - ARTESIA REFINERY,501 E MAIN ST,ARTESIA,NM,88210,32.848593,-104.394383,EDDY,324110,,88210NVJRF501EA,TRI
110002899908.0,"CHEVRON PRODUCTS, EL SEGUNDO REFINERY",324 W EL SEGUNDO BLVD,EL SEGUNDO,CA,90245,33.908126,-118.41074,LOS ANGELES,324110,,1007978,GHGRP
110002899908.0,CHEVRON REFINERY,Unknown,EL SEGUNDO,CA,00000,33.9142,-118.427,Los Angeles,48811,,11161011,NEI
110002899908.0,CHEVRON PRODUCTS CO.,324 W EL SEGUNDO BLVD,EL SEGUNDO,CA,90245,33.9164,-118.419,Los Angeles,324110,,4086111,NEI
110002899908.0,CHEVRON PRODUCTS CO. DIV OF CHEVRON USA INC.,324 W EL SEGUNDO BLVD,EL SEGUNDO,CA,90245,33.9082,-118.4085,LOS ANGELES,324110,,90245CHVRN324WE,TRI
110000374087.0,"VALERO REFINING CO. (PREV. PREMCOR REFINING, PREV. WILLIAMS REFINING LLC)",543 WEST MALLORY AVENUE,MEMPHIS,TN,38109,35.085843,-90.083385,SHELBY COUNTY,324110,,1008271,GHGRP
110000374087.0,"Valero Refining Co. (Prev. Premcor Refining, Prev. Williams Refining Llc)",543 West Mallory Avenue,Memphis,TN,38109,35.0875,-90.0864,Shelby,32411,,7156111,NEI
110000374087.0,VALERO REFINING CO - TENNESSEE L.L.C.,2385 RIVERPORT ROAD,MEMPHIS,TN,38109,35.085843,-90.083385,SHELBY,324110,,38109MPCPT543WE,TRI
110033145353.0,VALERO REFINING CO - CALI FORNIA BENICIA REFINERY,3400 E SECOND ST,BENICIA,CA,94510,38.074864,-122.143574,SOLANO,324110,,1008504,GHGRP
110033145353.0,VALERO REFINING COMPANY - CALI,3400 E 2ND STREET,BENICIA,CA,94510,38.075,-122.145,Solano,324110,,14217311,NEI
110033145353.0,VALERO REFINING CO-CALI FORNIA BENICIA REFINERY,3400 E SECOND ST,BENICIA,CA,94510,38.07167,-122.13975,SOLANO,324110,,94510XXNCS3400E,TRI
110033145353.0,"NUSTAR LOGISTICS, L P",3400 E 2ND STREET,BENICIA,CA,94510,38.0722,-122.146,Solano,493190,,13843011,NEI
110032911669.0,VALERO REFINING TEXAS CITY REFINERY,1301 LOOP 197 S,TEXAS CITY,TX,77590,29.369167,-94.911111,GALVESTON,324110,,1008938,GHGRP
110032911669.0,TEXAS CITY REFINERY,LOOP 197 S @ 14TH ST,TEXAS CITY,TX,77590,29.3722,-94.9044,Galveston,324110,,4033811,NEI
110032911669.0,VALERO REFINING-TEXAS LP,1301 LOOP 197 S,TEXAS CITY,TX,77590,29.369167,-94.911111,GALVESTON,324110,,77592TXSCTLOOP1,TRI
110032911669.0,TEXAS CITY LP TANK FARM,1301 LOOP 197S,TEXAS CITY,TX,77590,29.3643,-94.9099,Galveston,424710,,13380311,NEI
110000468921.0,BIG WEST OIL LLC,333 WEST CENTER STREET,NORTH SALT LAKE,UT,84054,40.838386,-111.921443,DAVIS,324110,,1009068,GHGRP
110000468921.0,"Big West Oil, LLC: Big West Oil Refinery",333 W Center St,North Salt Lake,UT,84054,40.8384,-111.921,Davis,32411,,5067411,NEI
110000468921.0,BIG WEST OIL LLC,333 W CENTER ST,NORTH SALT LAKE,UT,84054,40.838386,-111.921443,DAVIS,324110,,84054BGWST333WE,TRI
110000600378.0,"SILVER EAGLE REFINING, INCORPORATED",2990 COUNTY ROAD 180,EVANSTON,WY,82930,41.260556,-110.806944,UINTA COUNTY,324110,,1009291,GHGRP
110000600378.0,Evanston Refining,"SW Section 23, T15N, R119W",Uinta County,WY,82930,41.2616,-110.807,Uinta,213112,,6981111,NEI
110000600378.0,SILVER EAGLE REFINING-EVANSTON,2990 COUNTY RD 180,EVANSTON,WY,82930,41.2616,-110.807,UINTA,324110,,82931XBWHYI80EX,TRI
110019744375.0,NYC-DOC Rikerâs Island,17-25 HAZEN ST,EAST ELMHURST,NY,11370,40.789585,-73.884265,QUEENS,561210,,1009700,GHGRP
110019744375.0,NYC-DOC - RIKERS ISLAND,17-25 HAZEN ST,EAST ELMHURST,NY,11370,40.79,-73.87999999999998,Bronx,92214,,8379911,NEI
110038071412.0,BOWMAN ASPHALT INC,NE CORNER & SE CORNER OF MERIDIAN AVE & CASE STREET,BAKERSFIELD,CA,93308,35.3911,-119.056,Kern,324121,,10274611,NEI
110038071412.0,BOWMAN ASPHALT,NE CORNER & SE CORNER OF MERIDIAN AVE & CASE STREET,BAKERSFIELD,CA,0,35.3915,-119.053,Kern,327992,,10239811,NEI
110070505773.0,ALON ASPHALT BAKERSIELD INC,1201 CHINA GRADE LOOP,BAKERSFIELD,CA,93308,35.4268,-119.006,Kern,324121,,10276811,NEI
110070505773.0,ASPHALT TERMINALS LLC - BAKERSFIELD,1201 CHINA GRADE LOOP,BAKERSFIELD,CA,93308,35.426807,-119.006374,KERN,424710,,93308PRMNT121CH,TRI
110006842328.0,CALAVERAS MATERIALS INC.,12523 N HIGHWAY 59,MERCED,CA,95348,37.4086,-120.43,Merced,324121,,106911,NEI
110006842328.0,CALAVERAS MATERIALS INC.,12523 N HIGHWAY 59,MERCED,CA,0,37.4719,-120.502,Merced,212321,,15836811,NEI
110000398374.0,US Steel Corp - Gary Works,1 NORTH BROADWAY,GARY,IN,46402,41.6133,-87.3281,Lake,331111,,1000418,GHGRP
110000398374.0,ARCELORMITTAL PLATE LLCGARY PLATE,1 N Broadway,Gary,IN,46402,41.6086,-87.3374,Lake,324199,,10697311,NEI
110000398374.0,US STEEL GARY WORKS,1 N Broadway,Gary,IN,46402,41.6168,-87.3217,Lake,324199,,8192011,NEI
110000398374.0,USS GARY WORKS,1 N BROADWAY,GARY,IN,46402,41.6125,-87.3114,LAKE,331111,,46402SSGRYONENO,TRI
110001193191.0,COUNTY ASPHALT,5501 IMHOFF DRIVE,MARTINEZ,CA,94553,37.9995,-122.063,Contra Costa,324121,,10718811,NEI
110001193191.0,RIGHT AWAY REDY MIX,5501 IMHOFF DRIVE,MARTINEZ,CA,94553,38.0,-122.059,Contra Costa,327320,,10718911,NEI
110024443075.0,Mesa Materials Coolidge Plant,14152 N. Attaway Rd,Coolidge,AZ,85128,33.007,-111.473,Pinal,324121,,11478211,NEI
110024443075.0,Coolidge Plant,14152 N Attaway Rd,Coolidge,AZ,85128,33.009,-111.473,Pinal,327320,,11178111,NEI
110001173337.0,CALMAT COMPANY,6029 VINEYARD AVENUE,SATICOY,CA,93030,34.2712,-119.14,Ventura,212321,,1205811,NEI
110001173337.0,CALMAT CO.,6029 VINEYARD AVE.,OXNARD,CA,93030,34.2701,-119.153,Ventura,324121,,13582411,NEI
110020888930.0,PARAMELT ARGUESO KINDT,2817 MCCRACKEN ST,MUSKEGON,MI,49441,43.2162,-86.295,Muskegon,324199,,13655711,NEI
110020888930.0,M. ARGUESO & CO. INC. (D.B.A PARAMELT),2817 MCCRACKEN ST,MUSKEGON,MI,49441,43.2017,-86.2936,MUSKEGON,325998,,49441MRGSC2817M,TRI
110001157872.0,A. TEICHERT & SON,8760 KIEFER BLVD,SACRAMENTO,CA,95826,38.5454,-121.376,Sacramento,324121,,13842311,NEI
110001157872.0,A. TEICHERT & SON,8760 KIEFER BLVD,SACRAMENTO,CA,95826,38.5426,-121.381,Sacramento,212321,,3242211,NEI
110022861679.0,KENT'S OIL SERVICE INC,3310 E MINER AVE,STOCKTON,CA,95205,37.9648,-121.247,San Joaquin,324121,,14099811,NEI
110022861679.0,KENT'S OIL SERVICE INC.,3310 E MINER AVE,STOCKTON,CA,95205,37.9649,-121.24728,SAN JOAQUIN,424710,,95206KNTSL331EM,TRI
110001185761.0,CALMAT OF FRESNO,11099 N FRIANT RD,FRESNO,CA,93730,36.8982,-119.766,Fresno,212321,,10390311,NEI
110001185761.0,CALMAT CO.,11599 OLD FRIANT ROAD,FRESNO,CA,93730,36.8983,-119.766,Fresno,324121,,14121411,NEI
110001185761.0,BUILDERS CONCRETE INC,11099 OLD FRIANT RD,FRESNO,CA,93730,36.8983,-119.766,Fresno,327331,,482311,NEI
110010482986.0,CONSOLIDATED FIBERGLASS,3801 STANDARD STREET,BAKERSFIELD,CA,93308,35.3907,-119.047,Kern,324121,,14378611,NEI
110010482986.0,CONSOLIDATED FIBERGLASS,3801 STANDARD STREET,BAKERSFIELD,CA,93308,35.3917,-119.046,Kern,324122,,5813911,NEI
110006178153.0,Harrison Construction Division of APAC-Atlantic Inc.,235 Marrestop Road,Murphy,NC,28906,35.0111,-84.22719999999998,Cherokee,324121,,14643011,NEI
110006178153.0,Harrison Construction Division of APAC-Atlantic Inc.,235 Marres Top Road,Murphy,NC,28906,35.0,-84.2167,Cherokee,212313,,13449411,NEI
110005107393.0,CHEMGUARD,204 S 6TH AVE,MANSFIELD,TX,76063,32.5562,-97.1564,Tarrant,324199,,15630811,NEI
110005107393.0,CHEMGUARD INC,204 S 6TH AVE,MANSFIELD,TX,76063,32.55703,-97.15579,TARRANT,325998,,7606WCHMGR24S6T,TRI
110066619485.0,GRANITE CONSTRUCTION COMPANY,37400 S BIRD RD,TRACY,CA,95304,37.6035,-121.346,San Joaquin,324121,,15843211,NEI
110066619485.0,GRANITE CONSTRUCTION CO.,37400 SO. BIRD ROAD,TRACY,CA,0,37.6172,-121.361,San Joaquin,212321,,16071211,NEI
110012598162.0,Howell Asphalt Co,17495 Keyesport Rd,Keyesport,IL,62253,38.7433,-89.3776,Bond,324121,,2417111,NEI
110012598162.0,Keyesport Sand & Gravel LLC,17495 Keyesport Rd,Keyesport,IL,62253,38.7433,-89.3777,Bond,212321,,2417011,NEI
110018093757.0,Conmat Inc,W Longhollow Rd & Rte 20,Elizabeth,IL,61028,42.3212,-90.2553,Jo Daviess,324121,,2443911,NEI
110018093757.0,Conmat Inc,Longhollow Rd,Elizabeth,IL,61028,42.3147,-90.2435,Jo Daviess,212312,,2443811,NEI
110018136300.0,Southern Illinois Materials Co,Route 37 N,Buncombe,IL,62912,37.4928,-88.96949999999998,Johnson,324121,,2513611,NEI
110018136300.0,Southern Illinois Stone Co,4800 N St Rte 37,Buncombe,IL,62912,37.4935,-88.9636,Johnson,212312,,2513411,NEI
110006814386.0,THE LANE CONSTRUCTION COMPANY,4101 Maritime Blvd,TAMPA,FL,None,27.9122,-82.4239,Hillsborough,324121,,3449211,NEI
110006814386.0,"MARTIN MARIETTA MATERIALS, INC.",4101 MARITIME BLVD.,TAMPA,FL,33605,27.9103,-82.43689999999998,Hillsborough,42332,,12788811,NEI
110040888457.0,"CONNELL RESOURCES, INC.",5150 SE FRONTAGE RD,FORT COLLINS AREA,CO,None,40.5141,-104.989,Larimer,324121,,3492111,NEI
110040888457.0,CONNELL RESOURCES- LYSTER PIT,3134 HIGHWAY 394,CRAIG AREA,CO,81625,40.494,-107.513,Moffat,212321,,14844111,NEI
110060335524.0,Jewell Coke Company LLP,1034 Dismal River Road,Vansant,VA,24656,37.2343,-82.03709999999998,Buchanan,324199,,4034811,NEI
110060335524.0,JEWELL COKE CO LP,1034 DISMAL RIVER RD,OAKWOOD,VA,24631,37.234409,-82.036899,BUCHANAN,331111,,24656JWLLCHWY46,TRI
110017428988.0,BP WEST COAST PROD.LLC BP CARSON REF.,2350 E 223RD ST,CARSON,CA,90749,33.8241,-118.233,Los Angeles,324110,,4073511,NEI
110017428988.0,TESORO LOS ANGELES REFINERY-CARSON OPERATIONS,24696 S WILMINGTON AVE,CARSON,CA,90745,33.8099,-118.2383,LOS ANGELES,324110,,90749RCPRD1801E,TRI
110017428988.0,TESORO LOS ANGELES REFINERY-CARSON OPERATIONS,24696 S WILMINGTON AVE,CARSON,CA,90745,33.8099,-118.2383,LOS ANGELES,424710,,90749RCPRD1801E,TRI
110017428988.0,TESORO LOS ANGELES REFINERY-CARSON OPERATIONS,24696 S WILMINGTON AVE,CARSON,CA,90745,33.8099,-118.2383,LOS ANGELES,325188,,90749RCPRD1801E,TRI
110017428988.0,ARCO TERMINAL SVCS. CORP./MARINE TERM 2,1801 SEPULVEDA BLVD,CARSON,CA,90745,33.8082,-118.237,Los Angeles,424710,,10318211,NEI
110020680789.0,Yorktown Terminal,2201 GOODWIN NECK RD,YORKTOWN,VA,23692,37.21022,-76.45366,YORK,424710,,1006907,GHGRP
110020680789.0,Western Refining Yorktown Inc,2201 Goodwin Neck Rd,Grafton,VA,None,37.2102,-76.4537,York,324110,,4195011,NEI
110020680789.0,PLAINS MARKETING LP YORKTOWN,2201 GOODWIN NECK RD,YORKTOWN,VA,23692,37.21022,-76.45366,YORK,324110,,23692MCLCM2201G,TRI
110001159040.0,CAL MAT OF CENTRAL CALIFORNIA,8517 PANAMA LANE,BAKERSFIELD,CA,93311,35.296,-119.097,Kern,327320,,14038811,NEI
110001159040.0,CALMAT CO.,8517 PANAMA LANE,BAKERSFIELD,CA,93311,35.3032,-119.102,Kern,327320,,411411,NEI
110001159040.0,"VULCAN MATERIALS CO, WESTERN D",8517 PANAMA LANE,BAKERSFIELD,CA,93311,35.296,-119.097,Kern,324121,,423311,NEI
110001159040.0,CEMEX BAKERSFIELD,8517 PANAMA LN,BAKERSFIELD,CA,93311,35.29616,-119.09769,KERN,324121,,93311VLCNM8577P,TRI
110000331347.0,FRANKLIN IND CO/FRANKLIN,600 ATLANTIC AVE,FRANKLIN,PA,16323-2206,41.4022,-79.8456,Venango,324199,,4759911,NEI
110000331347.0,FRANKLIN INVESTMENT CORP.,600 ATLANTIC AVE,FRANKLIN,PA,16323,41.40324,-79.84519,VENANGO,331221,,16323FRNKL600AT,TRI
110017887330.0,EQUILON ENTERPRISES LLC,6451 ROSEDALE HIGHWAY,BAKERSFIELD,CA,93308,35.3849,-119.072,Kern,562998,,13857911,NEI
110017887330.0,TEXACO REFINING & MARKETING,6451 ROSEDALE HIGHWAY,BAKERSFIELD,CA,93308,35.3832,-119.071,Kern,923110,,14349611,NEI
110017887330.0,ALON BAKERSFIELD REFINING,6451 ROSEDALE HWY,BAKERSFIELD,CA,93308,35.3764,-119.072,Kern,324110,,4789411,NEI
110017887330.0,BAKERSFIELD RENEWABLE FUELS LLC - AREAS 1 & 2,6451 ROSEDALE HWY,BAKERSFIELD,CA,93308,35.3825,-119.070556,KERN,324110,,93308TXCRF6451R,TRI
110001895352.0,Associated Asphalt Inc,2677 Roanoke Ave. S.W.,Roanoke,VA,24015,37.2714,-79.9867,Roanoke city,324121,,5084611,NEI
110001895352.0,ASSOCIATED ASPHALT ROANOKE LLC,2677 ROANOKE AVE SW,ROANOKE,VA,24015,37.27086,-79.98683,ROANOKE (CITY),424710,,24015SSCTD2677R,TRI
110010425584.0,Gaddie Shamrock LLC,5045 KY 55 S,Columbia,KY,42728,37.0506,-85.2603,Adair,324121,,5624811,NEI
110010425584.0,Gaddie Shamrock LLC,5045 KY 55 S,Columbia,KY,42728,37.0471,-85.2626,Adair,212312,,5624711,NEI
110044953244.0,Rogers Group Inc - Portable Canton Asphalt,2934 Canton-Blue Springs Rd,Cadiz,KY,42211,36.8083,-87.95,Trigg,324121,,5742611,NEI
110044953244.0,Rogers Group Inc,2934 Blue Springs Rd,Cadiz,KY,42211,36.8052,-87.9452,Trigg,212312,,5742111,NEI
110013838614.0,Eaton Asphalt Paving Co Inc - Portable Crushing Plant,1075 Eaton Dr,Fort Wright,KY,41094,39.0343,-84.531,Kenton,212319,,15521611,NEI
110013838614.0,Eaton Asphalt Paving,1075 Eaton Dr,Covington,KY,41017,39.0294,-84.5317,Kenton,324121,,5776511,NEI
110006758696.0,Nally & Haydon Surfacing Inc - Lebanon Asphalt Plant,1270 KY 208,Lebanon,KY,40033,37.5561,-85.2681,Marion,324121,,5928411,NEI
110006758696.0,Nally & Haydon Surfacing LLC - Chieftan 1400 Portable,1270 KY 208,Lebanon,KY,40033,37.5381,-85.2783,Marion,212312,,13642711,NEI
110002355834.0,Scottys Contracting & Stone LLC - Russellville Asphalt Plant,950 Stevenson Mill Rd,Russellville,KY,42276,36.8558,-86.8652,Logan,324121,,6035911,NEI
110002355834.0,Scottys Contracting & Stone LLC - Portable Grinder,2884 Battle Training Rd,Elizabethtown,KY,42701,37.7853,-85.87779999999998,Hardin,212313,,10712311,NEI
110008797828.0,Bowman Construction Co Inc - Nonmetallic,3399 Highway 11 E,International Falls,MN,56649,48.6029,-93.3252,Koochiching,212321,,6200911,NEI
110008797828.0,Bowman Construction Co Inc,3399 Highway 11 E,International Falls,MN,56649,48.6029,-93.3252,Koochiching,324121,,6201011,NEI
110001447051.0,McNamara Contracting Inc - Nonmetallic,5001 160th St W,Rosemount,MN,55068,44.7175,-93.1667,Dakota,212319,,6172311,NEI
110001447051.0,McNamara Contracting Inc,5001 160th St W,Rosemount,MN,55068,44.7175,-93.1667,Dakota,324121,,6276111,NEI
110001319430.0,CS McCrossan Inc - Nonmetallic,7865 Jefferson Highway,Maple Grove,MN,55311,45.0975,-93.4059,Hennepin,212321,,6249411,NEI
110001319430.0,CS McCrossan Inc - Stationary,7865 Jefferson Highway,Maple Grove,MN,55311,45.0975,-93.4059,Hennepin,324121,,6291611,NEI
110001242977.0,Lexington Quarry Co,2200 Catnip Hill Rd,Nicholasville,KY,40356,37.9319,-84.5617,Jessamine,324121,,6411211,NEI
110001242977.0,Lexington Quarry Co,2200 Catnip Hill Rd,Nicholasville,KY,40356,37.9328,-84.5558,Jessamine,212312,,6410811,NEI
110008806765.0,Hardrives Inc - Nonmetallic,14475 Quiram Dr,Rogers,MN,55374,45.5497,-94.2548,Hennepin,212321,,6454811,NEI
110008806765.0,Hardrives Inc - Plant 701,518 72nd Ave S,Waite Park,MN,56387,45.5497,-94.2548,Hennepin,324121,,6455811,NEI
110021341332.0,TESORO REFINING AND MARKETING,"1750 MARINA VISTA WAY, AMORCO",MARTINEZ,CA,94553,38.0274,-122.117,Contra Costa,424710,,175011,NEI
110021341332.0,TESORO REFINING & MARKETING CO,"150 SOLANO WAY, AVON REFINERY",MARTINEZ,CA,94553,38.027,-122.069,Contra Costa,324110,,6480811,NEI
110021341332.0,TESORO REFINING & MARKETING CO LLC,150 SOLANO WAY,MARTINEZ,CA,94553,38.0251,-122.0639,CONTRA COSTA,324110,,94553TSCCRAVONR,TRI
110021341332.0,TESORO REFINING AND MARKETING,150 SOLANO WAY,MARTINEZ,CA,94553,38.0272,-122.07,Contra Costa,447110,,10519711,NEI
110000483450.0,USS POSCO INDUSTRIES,900 LOVERIDGE ROAD,PITTSBURG,CA,94565,38.02305,-121.85565,CONTRA COSTA,331221,,1004478,GHGRP
110000483450.0,USS-POSCO INDUSTRIES,900 LOVERIDGE ROAD,PITTSBURG,CA,94565,38.0228,-121.86,Contra Costa,324199,,6529211,NEI
110000483450.0,USS-UPI LLC,900 LOVERIDGE RD - MS-67,PITTSBURG,CA,94565,38.02305,-121.85565,CONTRA COSTA,331221,,94565SSPSCPOBOX,TRI
110001188072.0,RMC LONESTAR,24325 LOMITAS,LEMON COVE,CA,93244,36.3874,-119.013,Tulare,212321,,14386011,NEI
110001188072.0,CAL MAT DBA VULCAN MATERIALS COMPANY,24325 LOMITAS DR,LEMON COVE,CA,93244,36.3856,-119.012,Tulare,324121,,6592111,NEI
110010480639.0,GRANITE CONSTRUCTION COMPANY,38940 HIGHWAY 33,COALINGA,CA,93210,36.1675,-120.364,Fresno,324121,,6611,NEI
110010480639.0,GRANITE CONSTRUCTION COMPANY,38940 HIGHWAY 33,COALINGA,CA,93210,36.1652,-120.355,Fresno,327390,,14016111,NEI
110008363181.0,Mago Construction Co LLC - Shepherdsville Asphalt Facility,KY 61,Shepherdsville,KY,40165,38.0283,-85.6819,Bullitt,324121,,6625411,NEI
110008363181.0,Mago Construction Co LLC - Portable Screening Unit,3260 N Preston Hwy,Shepherdsville,KY,40165,38.0361,-85.6833,Bullitt,212319,,13638911,NEI
110070146459.0,CALMAT CO,2340 W HIGHLAND AVE,SAN BERNARDINO,CA,92405,34.1361,-117.344,San Bernardino,324121,,724511,NEI
110070146459.0,CALPORTLAND CO SAN BERNARDINO PLANT,2400 W HIGHLAND AVE,SAN BERNARDINO,CA,92407,34.136029,-117.350891,SAN BERNARDINO,327320,,92407CHPRR2400W,TRI
110000597248.0,Citgo Petroleum Corp - Lake Charles Manufacturing Complex,1601 Hwy 108 E,Sulphur,LA,70665,30.1789,-93.3274,Calcasieu,324110,,7380411,NEI
110000597248.0,CITGO PETROLEUM CORP,1601 HWY 108 E,SULPHUR,LA,70665,30.18149,-93.324051,CALCASIEU PARISH,324110,,70602CTGPTHIGHW,TRI
110000597248.0,Citgo Petroleum Corp - Lake Charles Truck Loading Facility,4401 Hwy 108 S,Sulphur,LA,70663,30.1831,-93.3287,Calcasieu,424710,,5719311,NEI
110059309699.0,Buckeye Perth Amboy Terminal LLC,380 MAURER RD,PERTH AMBOY,NJ,08861,40.5366,-74.26229999999998,Middlesex,324110,,7444311,NEI
110059309699.0,BUCKEYE PERTH AMBOY TERMINAL,380 MAURER ROAD,PERTH AMBOY,NJ,8861,40.536936,-74.266825,MIDDLESEX,424710,,08861CHVRN1200S,TRI
110001151636.0,CALMAT CO.,17041 E KINGS CANYON RD,SANGER,CA,93657,36.7322,-119.484,Fresno,324121,,7711,NEI
110001151636.0,CALMAT OF CENTRAL CALIFORNIA,17041 E KINGS CANYON RD,SANGER,CA,93657,36.727,-119.486,Fresno,212321,,10399511,NEI
110032885723.0,FPL ENERGY MH50 LP/MARCUS HOOK,100 GREEN ST,MARCUS HOOK,PA,19061,39.8099,-75.42749999999998,Delaware,221112,,4724511,NEI
110032885723.0,SUNOCO INC (R&M)/MARCUS HOOK REFINERY,100 GREEN ST,MARCUS HOOK,PA,19061,39.8146,-75.4223,Delaware,324110,,7873611,NEI
110032885723.0,SUNOCO LLC-RACE FUELS,100 GREEN ST,MARCUS HOOK,PA,19061,39.814609,-75.42227,DELAWARE,324110,,19061SNRFNGREEN,TRI
110032885723.0,Marcus Hook Energy Center - MH750,100 Green Street,Marcus Hook,PA,19061,39.8083,-75.4225,Delaware,221112,,1000269,GHGRP
110001235226.0,"George Koch Sons, L.L.C.",10 S 11th Ave,Evansville,IN,47712,37.9774,-87.5977,Vanderburgh,324121,,7973911,NEI
110001235226.0,GEORGE KOCH SONS LLC,10 S ELEVENTH AVE,EVANSVILLE,IN,47712,37.977946,-87.596651,VANDERBURGH,333999,,47744GRGKC10SEL,TRI
110000398212.0,NLMK INDIANA,6500 S. BOUNDARY RD.,PORTAGE,IN,46368,41.62152,-87.16148,PORTER,331111,,1007866,GHGRP
110000398212.0,NLMK Indiana,6500 S Boundary Rd,Portage,IN,46368,41.6243,-87.1596,Porter,324199,,8187311,NEI
110000398212.0,NLMK INDIANA,6500 S BOUNDARY RD,PORTAGE,IN,46368,41.62225,-87.161639,PORTER,331111,,46368BTSTL6500S,TRI
110012709122.0,AGGREGATE INDUSTRIES,1831 BROADWAY,SAUGUS,MA,None,42.4484,-71.0299,Essex,327320,,7931711,NEI
110012709122.0,AGGREGATE INDUSTRIES NORTHEAST REGION INC,1831 BROADWAY,SAUGUS,MA,1906,42.448437,-71.029902,ESSEX,324121,,01906GGRGT1831B,TRI
110002009157.0,O AND G,Unknown,TORRINGTON,CT,00000,41.7737,-73.1162,Litchfield,48811,,11563311,NEI
110002009157.0,O&G INDUSTRIES INC.,255 BOGUE RD,HARWINTON,CT,6791,41.777312,-73.115213,LITCHFIELD,324121,,06791GNDST255BG,TRI
110000747568.0,KINDER MORGAN TRANSMIX/INDIANOLA PLT,ROUTE 910,INDIANOLA,PA,15051,40.5711,-79.8636,Allegheny,424710,,4715311,NEI
110000747568.0,KINDER MORGAN TRANSMIX CO LLC,918 RT 910,INDIANOLA,PA,15051,40.571179,-79.863385,ALLEGHENY,324110,,15051MRCNRSTATE,TRI
110001085904.0,"Crafco, Inc. - Allentown",1680 E Race St,Allentown,PA,18103,40.5852,-75.45699999999998,Lehigh,324122,,9197111,NEI
110001085904.0,CRAFCO INC-ALLENTOWN,1680 E RACE ST,ALLENTOWN,PA,18109,40.66025,-75.44132,LEHIGH,324121,,18103CRFCN1680E,TRI
110000869828.0,Kinder Morgan Operating Lp A -Deepwater Terminal,3302 Deepwater Terminal Rd,Richmond,VA,23231,37.4736,-77.4256,Richmond city,424710,,5083511,NEI
110000869828.0,KINDER MORGAN TRANSMIX CO LLC,3302 DEEPWATER TERMINAL RD,RICHMOND,VA,23234,37.47836,-77.42936,RICHMOND (CITY),324110,,23234PRMRY3302D,TRI
110027982565.0,"ERGON - WEST VIRGINIA, INC.",9995 OHIO RIVER BLVD.,NEWELL,WV,26050,40.6086,-80.6336,Hancock,32411,,4781911,NEI
110027982565.0,ERGON WEST VIRGINIA INC,9995 OHIO RIVER BLVD,NEWELL,WV,26050,40.611414,-80.629099,HANCOCK,324110,,26050RGNWSSTATE,TRI
110001715467.0,"ERGON TERMINALLING, INC.",7890 Birmingport RD,Mulga,AL,35118,33.5601,-87.10769999999998,Jefferson,424690,,1057011,NEI
110001715467.0,ERGON ASPHALT & EMULSIONS INC. - BIRMINGPORT,7890 BIRMINGPORT RD,MULGA,AL,35118,33.55989,-87.10675,JEFFERSON,324121,,35118RGNTR789BI,TRI
110001860576.0,"Ergon Terminaling, Inc.",1114 Visco Drive,Nashville,TN,37210,36.1614,-86.7367,Davidson,424710,,4798411,NEI
110001860576.0,ERGON ASPHALT & EMULSIONS INC. - NASHVILLE,1114 VISCO DR,NASHVILLE,TN,37210,36.16139,-86.73287,DAVIDSON,324121,,37210RGNTR1114V,TRI
110017754358.0,"Ergon Terminaling, Inc.",617 Terminal Road,Chattanooga,TN,37405,35.075,-85.33759999999998,Hamilton,493190,,6193811,NEI
110017754358.0,ERGON TERMINALING INC-CHATTANOOGA,617 TERMINAL RD,CHATTANOOGA,TN,37405,35.07502,-85.337627,HAMILTON,324121,,37405RGNTR617TE,TRI
110000895327.0,ERGON ASPHALT & EMULSIONS INC. - MEMPHIS,1989 CHANNEL AVE,MEMPHIS,TN,38113,35.09173,-90.1111,SHELBY,324121,,38113RGNTR1989C,TRI
110000895327.0,Ergon Terminaling Inc Memphis,1989 Channel Ave.,Memphis,TN,38113,35.0925,-90.1092,Shelby,45431,,2846711,NEI
110000388919.0,"Owens Corning Roofing and Asphalt, LLC (1652050040)",890 W. Smith Road,Medina,OH,44256,41.1352,-81.8895,Medina,324122,,7434311,NEI
110000388919.0,OWENS CORNING - MEDINA,890 W SMITH RD,MEDINA,OH,44256,41.13612,-81.89102,MEDINA,324121,,44256WNSCR890WE,TRI
110008820099.0,Flint Hills Resources Pine Bend LLC - Savage,12101 Yosemite Ave S,Savage,MN,55378,44.7826,-93.3529,Scott,324122,,6936811,NEI
110008820099.0,FLINT HILLS RESOURCES PINE BEND LLC SAVAGE,12101 YOSEMITE AVE S,SAVAGE,MN,55378,44.78027,-93.35305,SCOTT,324121,,55378KCHMT12101,TRI
110000433371.0,Owens Corning Roofing & Asphalt LLC,5824 S Archer Rd,Summit,IL,60501,41.7847,-87.8177,Cook,324122,,559311,NEI
110000433371.0,OWENS CORNING ROOFING & ASPHALT LLC,5824 S  ARCHER RD,SUMMIT,IL,60501,41.784714,-87.81723,COOK,324121,,60501WNSCR5824S,TRI
110012608044.0,LEAD BELT MATERIALS CO INC-PARK HILLS,600 MILL STREET,PARK HILLS,MO,63601,37.8429,-90.5412,St. Francois,212312,,7421011,NEI
110012608044.0,LEAD BELT MATERIALS CO INC,600 MILL ST,PARK HILLS,MO,63601,37.8429,-90.5412,ST. FRANCOIS,324121,,63601LDBLT6MILL,TRI
110043671130.0,ENNIS PLANT,203 CEDAR RD,ENNIS,TX,75120,32.355,-96.6412,Ellis,324122,,4161111,NEI
110043671130.0,ERGON ASPHALT & EMULSIONS INC. - ENNIS,203 CEDAR ROAD,ENNIS,TX,75119,32.355703,-96.640967,ELLIS,324121,,7511WRGNSP23CEA,TRI
110006533359.0,EAST STORAGE/SPLITTER III FACILITY,316 S MAIN ST,MONT BELVIEU,TX,77580,29.8364,-94.8937,Chambers,325110,,6599811,NEI
110006533359.0,EAST STORAGE / SPLITTER III FACILITY,316 S MAIN ST,MONT BELVIEU,TX,77580,29.840014,-94.892134,CHAMBERS,324110,,77580DMNDS316SO,TRI
110056961480.0,Mont Belvieu Complex,10207 FM 1942,Mont Belvieu,TX,77580,29.857573,-94.912893,HARRIS,211112,,1006386,GHGRP
110056961480.0,ENTERPRISE PRODUCTS MONT BELVIEU COMPLEX,10207 FM 1942,HOUSTON,TX,77210,29.8577,-94.9143,Chambers,325110,,6600111,NEI
110056961480.0,ENTERPRISE PRODUCTS OPERATING LLC,10207 FM 1942,MONT BELVIEU,TX,77580,29.857573,-94.912893,CHAMBERS,324110,,77580NTRPR10207,TRI
110028187049.0,INEOS NOVA LLC Texas City Site,2800 FM 519 E,TEXAS CITY,TX,77592,29.362224,-94.9284,GALVESTON,325199,,1003429,GHGRP
110028187049.0,INEOS STYRENICS TEXAS CITY PLANT,2800 FM 519 E,TEXAS CITY,TX,77592,29.3585,-94.9305,Galveston,325110,,10722911,NEI
110028187049.0,TEXAS CITY CHEMICAL PLANT,2800 FM 519 E,TEXAS CITY,TX,77590,29.3622,-94.9284,Galveston,325110,,3930711,NEI
110028187049.0,BP AMOCO CHEMICAL COMPANY,2800 FM 519 EAST,TEXAS CITY,TX,77590,29.361045,-94.930351,GALVESTON,221119,,77590MCLCM24015,TRI
110028187049.0,BP AMOCO CHEMICAL COMPANY,2800 FM 519 EAST,TEXAS CITY,TX,77590,29.361045,-94.930351,GALVESTON,325192,,77590MCLCM24015,TRI
110028187049.0,BP AMOCO CHEMICAL COMPANY,2800 FM 519 EAST,TEXAS CITY,TX,77590,29.361045,-94.930351,GALVESTON,324110,,77590MCLCM24015,TRI
110000464140.0,LNVA - NORTH PLANT REGIONAL TREATMENT PLANT,2655 GULF STATES RD; 1 M E OF BEAUMONT FROM SYCAMORE ST,BEAUMONT,TX,77701,30.06,-94.0644,Jefferson,221310,,7909511,NEI
110000464140.0,LNVA-NORTH REGIONAL TREATMENT PLANT,2655 GULF STATES RD,BEAUMONT,TX,77701,30.06329,-94.061311,JEFFERSON,324110,,77704NCHSRGULFS,TRI
110002345249.0,BTB REFINING,6600 UP RIVER RD,CORPUS CHRISTI,TX,78412,27.8191,-97.4901,Nueces,424710,,4179611,NEI
110002345249.0,POTAC LLC,6600 UP RIVER RD,CORPUS CHRISTI,TX,78409,27.8159,-97.49217,NUECES,324110,,78409TRFNR6600U,TRI
110000469136.0,Holly Corp: HRMC and HEP Woods Cross Operations,393 South 800 West,Woods Cross,UT,84087,40.8835,-111.9,Davis,32411,,7301411,NEI
110000469136.0,HOLLYFRONTIER WOODS CROSS REFINING LLC,393 S 800 W,WOODS CROSS,UT,84087,40.886022,-111.904759,DAVIS,324110,,84087PHLLP393SO,TRI
110002583623.0,Crafco Inc,6975 W Crafco Way,Chandler,AZ,85226,33.3066,-111.963,Maricopa,324122,,10592911,NEI
110002583623.0,CRAFCO INC - CHANDLER,6975 W CRAFCO WAY,CHANDLER,AZ,85226,33.30657,-111.962622,MARICOPA,324121,,85226CRFCN6975W,TRI
110000476057.0,ULTRAMAR INC (NSR USE ONLY),961 LA PALOMA AVE,WILMINGTON,CA,90744,33.7592,-118.266,Los Angeles,493190,,5634611,NEI
110000476057.0,ULTRAMAR INC. MARINE TERMINAL,961 LA PALOMA ST,WILMINGTON,CA,90744,33.75828,-118.26676,LOS ANGELES,324110,,90744LTRMR961LA,TRI
110002414691.0,HOLLIDAY ROCK CO INC,2193 W FOOTHILL BLVD,UPLAND,CA,91786,34.1069,-117.694,San Bernardino,212321,,4920611,NEI
110002414691.0,HOLLIDAY ROCK - FOOTHILL,2193 W FOOTHILL BLVD,UPLAND,CA,91786,34.106798,-117.693801,SAN BERNARDINO,324121,,91786HLLDY2193W,TRI
110001133130.0,"ERGON ASPHALT & EMULSIONS, INC.",14929 SLOVER AVE,FONTANA,CA,92337,34.0629,-117.479,San Bernardino,238990,,15781911,NEI
110001133130.0,ERGON ASPHALT & EMULSIONS INC. - FONTANA,14929 SLOVER AVE,FONTANA,CA,92337,34.06293,-117.47948,SAN BERNARDINO,324121,,92335KCHMT14929,TRI
110010132533.0,MISSION VALLEY ROCK CO,7999 ATHENOUR WAY,SUNOL,CA,94586,37.573,-121.882,Alameda,423320,,379811,NEI
110010132533.0,MISSION VALLEY ROCK,7999 ATHENOUR WAY,SUNOL,CA,94586,37.575903,-121.880047,ALAMEDA,324121,,9458WSNLXX7999A,TRI
110037149644.0,COFFEE LAKE CONCRETE,12000 TONQUIN RD,SHERWOOD,OR,97140,45.344997,-122.797827,WASHINGTON,327320,,97140CFFLK12TNQ,TRI
110037149644.0,COFFEE LAKE CONCRETE,12000 TONQUIN RD,SHERWOOD,OR,97140,45.344997,-122.797827,WASHINGTON,324121,,97140CFFLK12TNQ,TRI
110037149975.0,MDU RESOURCES EUGENE CONCRETE,1001 DIVISION AVE,EUGENE,OR,97404,44.099166,-123.10818,LANE,324121,,97404MDRSR11DIV,TRI
110037149975.0,MDU RESOURCES EUGENE CONCRETE,1001 DIVISION AVE,EUGENE,OR,97404,44.099166,-123.10818,LANE,327320,,97404MDRSR11DIV,TRI
110000476002.0,THE JANKOVICH CO PARAMOUNT FIXED FACILITY,14066 GARFIELD AVE,PARAMOUNT,CA,90723,33.90574,-118.16889,LOS ANGELES,424710,,90723WSTRN14066,TRI
110000476002.0,Western Petroleum Inc,14066 Garfield,Paramount,CA,90723,33.905,-118.167,Los Angeles,324199,,7875311,NEI
110018953532.0,CHEVRON PRODUCTS COMPANY,17881 GOTHARD ST,HUNTINGTON BEACH,CA,92647,33.703,-118.0,Orange,424710,,4940211,NEI
110018953532.0,CHEVRON HUNTINGTON BEACH TERMINAL,17881 GOTHARD ST,HUNTINGTON BEACH,CA,92647,33.70264,-117.9999,ORANGE,424710,,92647HNTNG17881,TRI
110018953532.0,Chevron U S A Inc Unit No 01,14881 Gothard St,Huntington Beach,CA,92647,33.7032,-118.0,Orange,324199,,391311,NEI
nan,"EPL Oil & Gas, Inc. - SP 77 A",None,Offshore,LA,0,28.8308,-89.4061,ORLEANS PARISH,211111,,1010333,GHGRP
nan,Air Liquide Large Industries U.S. Lp El Segundo,1310 E El Segundo Blvd,El Segundo,CA,90245,33.9058,-118.402,Los Angeles,32512,,10210811,NEI
nan,Cogeneration Project,Mile 2.5 Dayville Rd.,Valdez,AK,99686,61.0843,-146.252,Valdez-Cordova,221112,,1025411,NEI
nan,Glennallen Diesel Plant,Mile 187 Glenn Hwy,Glennallen,AK,99588,62.1186,-145.529,Valdez-Cordova,221112,,1025511,NEI
nan,Valdez Diesel Power Plant,West Egan Dr,Valdez,AK,99686,61.1352,-146.353,Valdez-Cordova,221112,,1025611,NEI
nan,Petro Star Valdez Refinery,Mile 2.5 Dayville Rd.,Valdez,AK,99686,61.0838,-146.253,Valdez-Cordova,324110,,1025911,NEI
nan,Valdez Pioneer Field,Unknown,Valdez,AK,00000,61.1339,-146.248,Valdez-Cordova,48811,,10551311,NEI
nan,New Chenega Airport,Unknown,New Chenega,AK,00000,60.0772,-147.992,Valdez-Cordova,48811,,10551511,NEI
nan,May Creek,Unknown,May Creek,AK,00000,61.3357,-142.687,Valdez-Cordova,48811,,10551611,NEI
nan,Middleton Island,Unknown,Middleton Island,AK,00000,59.45,-146.309,Valdez-Cordova,48811,,10551811,NEI
nan,Whittier,Unknown,Whittier,AK,00000,60.7772,-148.722,Valdez-Cordova,48811,,10551911,NEI
nan,Gulkana,Unknown,Gulkana,AK,00000,62.1549,-145.457,Valdez-Cordova,48811,,10552011,NEI
nan,Chisana,Unknown,Chisana,AK,00000,62.0712,-142.048,Valdez-Cordova,48811,,10552111,NEI
nan,Chitina,Unknown,Chitina,AK,00000,61.5829,-144.427,Valdez-Cordova,48811,,10552211,NEI
nan,Cordova Muni,Unknown,Cordova,AK,00000,60.5439,-145.727,Valdez-Cordova,48811,,10554511,NEI
nan,Merle K (Mudhole) Smith,Unknown,Cordova,AK,00000,60.4918,-145.478,Valdez-Cordova,48811,,10554611,NEI
nan,Tatitlek,Unknown,Tatitlek,AK,00000,60.8689,-146.686,Valdez-Cordova,48811,,10554711,NEI
nan,Mc Carthy Nr 2,Unknown,Mc Carthy,AK,00000,61.4371,-142.904,Valdez-Cordova,48811,,10554811,NEI
nan,"PS #10, TAPS Pump Station",None,Paxson,AK,99586,63.4233,-145.768,Valdez-Cordova,486110,,10556011,NEI
nan,Pogo Mine,38 Miles NE Of Delta Junction,Delta Junction,AK,99737,64.8,-146.56,Fairbanks North Star,212221,,10594011,NEI
nan,CROSSWIND LAKE,Unknown,CROSSWIND LAKE,AK,00000,62.4009,-146.013,Valdez-Cordova,48811,,11028311,NEI
nan,ELLAMAR,Unknown,ELLAMAR,AK,00000,60.8939,-146.704,Valdez-Cordova,48811,,11042611,NEI
nan,LONG LAKE,Unknown,LONG LAKE,AK,00000,61.3779,-143.326,Valdez-Cordova,48811,,11159911,NEI
nan,JACOBUS FIELD,Unknown,GULKANA,AK,00000,62.2803,-145.363,Valdez-Cordova,48811,,11272911,NEI
nan,SPORTS MANS PARADISE,Unknown,TOK,AK,00000,62.5121,-143.236,Valdez-Cordova,48811,,11285411,NEI
nan,SWIFT CREEK,Unknown,MCCARTHY,AK,00000,61.4112,-143.001,Valdez-Cordova,48811,,11297011,NEI
nan,BOSWELL BAY,Unknown,BOSWELL BAY,AK,00000,60.4231,-146.146,Valdez-Cordova,48811,,11298211,NEI
nan,DUFFYS TAVERN,Unknown,SLANA,AK,00000,62.7246,-143.921,Valdez-Cordova,48811,,11320011,NEI
nan,PAXSON,Unknown,PAXSON,AK,00000,63.0246,-145.501,Valdez-Cordova,48811,,11422611,NEI
nan,PERRY ISLAND,Unknown,PERRY ISLAND,AK,00000,60.6853,-147.919,Valdez-Cordova,48811,,11422711,NEI
nan,COPPER CENTER 2,Unknown,COPPER CENTER,AK,00000,61.9412,-145.294,Valdez-Cordova,48811,,11473311,NEI
nan,VALDEZ HOSPITAL,Unknown,VALDEZ,AK,00000,61.1366,-146.345,Valdez-Cordova,48811,,11486211,NEI
nan,YOUNG CREEK,Unknown,MAY CREEK,AK,00000,61.3565,-142.733,Valdez-Cordova,48811,,11518711,NEI
nan,Griffith Micro Science Inc,4900 S GIFFORD AVE,Los Angeles,CA,90058,33.9972,-118.191,Los Angeles,812990,,1157811,NEI
nan,JAKES BAR,Unknown,MCCARTHY,AK,00000,61.2187,-142.89,Valdez-Cordova,48811,,11623511,NEI
nan,STRAWBERRY POINT,Unknown,CORDOVA,AK,00000,60.3912,-146.098,Valdez-Cordova,48811,,11626011,NEI
nan,TAZLINA /SMOKEY LAKE/,Unknown,TAZLINA,AK,00000,62.0634,-146.449,Valdez-Cordova,48811,,11833011,NEI
nan,MANKOMEN LAKE,Unknown,MANKOMEN LAKE,AK,00000,62.9899,-144.48,Valdez-Cordova,48811,,11844411,NEI
nan,JOHNSTONE POINT,Unknown,HINCHINBROOK,AK,00000,60.4817,-146.584,Valdez-Cordova,48811,,11980811,NEI
nan,TOLSONA LAKE,Unknown,TOLSONA LAKE,AK,00000,62.1134,-146.041,Valdez-Cordova,48811,,12038811,NEI
nan,TAZLINA,Unknown,TAZLINA,AK,00000,62.0648,-146.461,Valdez-Cordova,48811,,12106511,NEI
nan,CHISTOCHINA,Unknown,CHISTOCHINA,AK,00000,62.5635,-144.669,Valdez-Cordova,48811,,12309011,NEI
nan,Unicircuit Inc,8192 Southpark Ln.,Littleton,CO,80120,39.5692,-105.006,Arapahoe,334412,,1238411,NEI
nan,THOMPSON PASS,Unknown,THOMPSON PASS,AK,00000,61.1773,-145.688,Valdez-Cordova,48811,,12410311,NEI
nan,GLACIER CREEK,Unknown,GLACIER CREEK,AK,00000,61.4551,-142.381,Valdez-Cordova,48811,,12411311,NEI
nan,ROBE LAKE,Unknown,VALDEZ,AK,00000,61.0871,-146.144,Valdez-Cordova,48811,,12413611,NEI
nan,DEVILS MOUNTAIN LODGE,Unknown,NABESNA,AK,00000,62.4018,-142.995,Valdez-Cordova,48811,,12528011,NEI
nan,Klamath Generation Peakers,4940 HIGHWAY 97 SOUTH,KLAMATH FALLS,OR,97603,42.1808,-121.801,Klamath,221112,,12659811,NEI
nan,Orca Power Plant,103 Orca Road,Cordova,AK,99574,60.5559,-145.754,Valdez-Cordova,221112,,12660911,NEI
nan,HAARP Research Site,"Milepost 11.3, Tok Cut-Off",Gakona,AK,99586,62.3917,-145.13,Valdez-Cordova,928110,,12662511,NEI
nan,CAT PVM-2500 Asphalt Plant,None,None,AK,None,,,Multiple (portable facilities),237310,,12663111,NEI
nan,MUSTANG STATION UNIT 4 & 5,5 MILES E OF DENVER CITY ON CR 390,DENVER CITY,TX,79323,32.9748,-102.744,Yoakum,221122,,13411811,NEI
nan,Monterey Regional Waste Management District,14201 Del Monte Blvd,Marina,CA,93933,36.7092,-121.766,Monterey,562212,,1353811,NEI
nan,Sevenmile Gulch Compressor Station,NW section 18 T21 R111,Sweetwater County,WY,82935,41.7991,-110.046,Sweetwater,2212,,14555111,NEI
nan,Kivetts Incorporated,711 Southwest Boulevard,Clinton,NC,28328,34.9873,-78.3211,Sampson,337127,,15605411,NEI
nan,MADERA GLASS COMPANY,24441 AVENUE 12,MADERA,CA,93637,36.9261,-120.106,Madera,327213,,1565611,NEI
nan,POPLAR MUNI,UNKNOWN,POPLAR,MT,00000,48.1344,-105.162,Roosevelt,48811,,16089311,NEI
nan,CVTC FIELD,UNKNOWN,VALDEZ,AK,00000,61.13,-146.371,Valdez-Cordova,48811,,16091611,NEI
nan,SHERMAN HOSPITAL RANDALL ROAD,UNKNOWN,ELGIN,IL,00000,42.0722,-88.3297,Kane,48811,,16110611,NEI
nan,Fulton County,UNKNOWN,Johnstown,NY,00000,42.9981,-74.3294,Fulton,48811,,16133411,NEI
nan,Skaneateles Aero Drome,UNKNOWN,Skaneateles,NY,00000,42.9139,-76.44079999999998,Onondaga,48811,,16134211,NEI
nan,GENCO ANADARKO PLT,701 NE 7TH ST,ANADARKO,OK,73005,35.0826,-98.229,Caddo,221112,,16154811,NEI
nan,PREMIER ETHANOL LLC D/B/A/ POET BIOREFINING - PORTLAND,None,None,IN,None,40.4137,-85.0248,Jay,325193,,16668411,NEI
nan,POET BIOREFINING North Manchester,None,None,IN,None,40.9461,-85.7834,Wabash,325193,,16668711,NEI
nan,Frenchie Draw Graham Unit Central Tank Battery,SENW Section 15 T37N R89W,Fremont County,WY,82520,43.1807,-107.51,Fremont,424710,,16675411,NEI
nan,Kirby Creek Pipeline Station,"NWNW Section 22, Township 43N, Range 92W",Hot Springs County,WY,82443,43.6858,-107.897,Hot Springs,4861,,16679911,NEI
nan,KLUNE INDUSTRIES INC,1800 N 300 W,SPANISH FORK,UT,84660,40.133,-111.66,Utah,332813,,16721911,NEI
nan,Crown Cork & Seal Co (USA),3737 E Exchange Ave,Aurora,IL,60504,41.7646,-88.26,Kane,332431,,1785211,NEI
nan,Shell Oil Prods U S Sulfur Recovery Plant,23208 S. Alameda St.,Carson,CA,90810,33.8136,-118.229,Los Angeles,3251,,2123411,NEI
nan,CITY OF MOUNTAIN VIEW (SHORELINE LANDFILL),2600 SHORELINE BLVD,MOUNTAIN VIEW,CA,94043,37.4288,-122.078,Santa Clara,562212,,2339811,NEI
nan,Arlon Inc,1100 Governor Lea Road,Bear,DE,19701,39.6031,-75.66549999999998,New Castle,33422,,2439811,NEI
nan,EMPIRE LUMBER CO (DBA KAMIAH MILLS),HWY 12 & RAILROAD AVE,Kamiah,ID,83536,46.2261,-116.019,Lewis,321113,,2467111,NEI
nan,SOUTHEAST COUNTY LANDFILL,15960 CR 672,LITHIA,FL,33547,27.7626,-82.20149999999998,Hillsborough,562212,,2594511,NEI
nan,Monroe Auto Equipment Co,200 Mcintyre Dr.,Hartwell,GA,30643,34.35,-82.95,Hart,336330,,2653211,NEI
nan,Mcclarin Plastics Inc,100 Blettner Ave.,Hanover,PA,None,39.7925,-76.998,York,326199,,3002211,NEI
nan,Tex Par Energy Inc,268 Industrial Blvd.,Bainbridge,GA,31717,30.9686,-84.62919999999998,Decatur,45431,,3704911,NEI
nan,U S Marine Corps Logistics Base Albany,814 Radford Blvd.,Albany,GA,31704,31.5481,-84.0686,Dougherty,928110,,3710411,NEI
nan,Global Stone Tenn Luttrell Company,486 Clinch Valley Road,Luttrell,TN,None,36.2333,-83.7077,Union,32741,,3933111,NEI
nan,FRITO-LAY INC.,22801 HWY 58,BAKERSFIELD,CA,93312,35.3913,-119.315,Kern,311919,,422611,NEI
nan,WHEELER RECYCLING & DISPOSAL FACILITY,None,None,IN,None,41.5152,-87.1984,Porter,562212,,5436211,NEI
nan,Osram Sylvania Prods Inc,835 Washington Rd.,Saint Marys,PA,15857,41.4406,-78.5592,Elk,335110,,5454011,NEI
nan,Innovative Coating Tech Inc,1347 Pool St. Mojave Airport Building 105,Mojave,CA,93501,35.0594,-118.165,Kern,332812,,563511,NEI
nan,CONSOLIDATED FABRICATORS,17 SAINT MARK ST,AUBURN,MA,None,42.1899,-71.824,Worcester,335312,,5688011,NEI
nan,Alcoa Inc,2500 Alumax Road,Yankton,SD,57078,42.8899,-97.3514,Yankton,331318,,6195911,NEI
nan,CPFILMS - PLANT II,4129 The Great Rd.,Fieldale,VA,24089,36.7269,-79.95059999999998,Henry,326130,,6326011,NEI
nan,East Central Mixed Mun (kanabec),"Hwy 23, 4 mi SW of Mora",Arthur,MN,55051,45.8479,-93.3508,Kanabec,562212,,6451211,NEI
nan,MHBA CB LLLP,FM 2917,Alvin,TX,77512,29.2467,-95.1964,Brazoria,325199,,6583711,NEI
nan,SILGAN CONTAINERS MFR. CORP.,3250 PATTERSON ROAD,RIVERBANK,CA,95367,37.7336,-120.939,Stanislaus,332431,,6592411,NEI
nan,Northeast Nebraska Solid Waste Coalition (NNSWC),57220 825 RD,Clarkson,NE,68629,41.7838,-97.0909,Stanton,562212,,6898411,NEI
nan,G J Chemical Co Inc,128 Doremus Ave.,Newark,NJ,7105,40.7189,-74.16469999999998,Essex,42469,,7196011,NEI
nan,Cwc Industries Inc,185 Foundry St,Newark,NJ,7105,40.7278,-74.1333,Essex,325510,,7202411,NEI
nan,Poly Foam Intl Inc Style Crest Prods,600 Hagerty Dr.,Fremont,OH,None,41.3725,-83.11279999999998,Sandusky,32612,,7294511,NEI
nan,Gibson Tube Inc,100 Aspen Hill Rd.,North Branch,NJ,None,40.5656,-74.5647,Somerset,331210,,7493411,NEI
nan,Prestone Prods Corp,250 Halls Mill Rd.,Freehold,NJ,7728,40.25,-74.25,Monmouth,325998,,7541111,NEI
nan,Kennecott Utah Copper Mine Concentrators & Power Plant,12300 S. Utah Hwy. 111,Copperton,UT,84006,40.5167,-112.15,Salt Lake,212234,,7697611,NEI
nan,GE Advanced Ceramics,22557 W. Lunn Rd.,Strongsville,OH,44136,41.2997,-81.87919999999998,Cuyahoga,327120,,7750211,NEI
nan,Machinery Recovery Services/Convertapax,5539 Gundy Dr.,Midvale,OH,44653,40.4364,-81.3542,Tuscarawas,322220,,7769211,NEI
nan,Schmidt Progressive L L C,360 Harmon Ave.,Lebanon,OH,None,39.4517,-84.1911,Warren,32612,,7771811,NEI
nan,REPUBLIC STEEL LACKAWANNA,S3049 Lakeshore Rd.,Blasdell,NY,14219,42.8017,-78.8417,Erie,331110,,7797411,NEI
nan,Owens-Brockway Glass Container Inc Plant #35,Rd. #6 County House Rd.,Auburn,NY,13021,42.9614,-76.55419999999998,Cayuga,327213,,7805311,NEI
nan,Blazer Fabricating Inc,4466 Pinson Valley Parkway,Birmingham,AL,35215,33.4879,-86.7132,Jefferson,332313,,7919111,NEI
nan,Jmc (Usa) Inc,1 Innovation Dr.,Research Triangle Park,NC,27709,35.8333,-78.8756,Durham,331110,,8052711,NEI
nan,Trinity Inds Inc,425 E. O'Connor Ave.,Lima,OH,45801,40.7575,-84.0994,Allen,332812,,8102011,NEI
nan,Whemco Ohio Fndy Div Inc,1600 McClain Rd.,Lima,OH,45804,40.7146,-84.11,Allen,331511,,8103111,NEI
nan,"Newco Metals Processing, Inc.",4635 Peerless Road,Bedford,IN,47421,38.9216,-86.5202,Lawrence,331492,,8225511,NEI
nan,Btlsr Toledo Inc,2112 Sylvan Ave.,Toledo,OH,None,41.6583,-83.575,Lucas,325211,,8262511,NEI
nan,ASHLAND INC,2401 Doyle St.,Greensboro,NC,27406,36.0433,-79.7886,Guilford,325998,,8285711,NEI
nan,Columbus Chemical Industries Inc,N4335 Temkin Rd,Columbus,WI,53925,43.3511,-89.00069999999998,Dodge,42469,,8316411,NEI
nan,Kemmerer Mine,"SWNW Section 29, Township 21 N, Range 116 W",Lincoln County,WY,83101,41.7296,-110.606,Lincoln,21211,,8419311,NEI
nan,Bunzl Extrusion,764 South Athol Road,Athol,MA,1331,42.5842,-72.2497,Worcester,339999,,8510211,NEI
nan,HEARTHSIDE FOOD SOLUTIONS,312 Rader Rd.,Mc Comb,OH,45858,41.1114,-83.79989999999998,Hancock,311821,,8543911,NEI
nan,Valdez Marine Terminal,West End of Dayville Road,Valdez,AK,99686,61.0867,-146.396,Valdez-Cordova,488320,,865711,NEI
nan,J.R. SIMPLOT COMPANY,12688 SO. COLORADO AVE.,HELM,CA,93627,36.5486,-120.108,Fresno,325998,,8811,NEI
nan,Hexcel Corp,3300 Mallard Fox Dr.,Decatur,AL,35603,34.6555,-87.07089999999998,Morgan,325220,,884811,NEI
nan,Sherwin Alumina Lp,4633 Hwy 361,Gregory,TX,78359,27.8833,-97.2625,San Patricio,331313,,9143811,NEI
nan,Dunmore Corp,145 Wharton Rd,Bristol,PA,19007,40.1175,-74.88219999999998,Bucks,326199,,9245311,NEI
nan,MASCO CABINETRY,217 Lamoka Rd,Sayre,PA,18840,41.9902,-76.575,Bradford,33711,,9248011,NEI
nan,Robinson Nevada Mining Co,4232 W White Pine Co. Rd 44,Ruth,NV,89319,39.2708,-115.013,White Pine,212234,,9371711,NEI
nan,Conocophillips Co Gulf Coast Lubes Plant,None,None,LA,None,30.1488,-93.3451,Calcasieu,324191,,9607411,NEI
nan,HB Fuller Construction Products Inc,1105 S Frontenac,Aurora,IL,60504,41.7349,-88.2305,DuPage,325520,,9730311,NEI
nan,Emd Chemicals Inc.,110 Emd Blvd,Savannah,GA,31407,32.2004,-81.1714,Chatham,325180,,9752211,NEI
nan,W. M. Sheppard Lumber Co. Inc.,Hwy 80 E,Brooklet,GA,30415,32.3708,-81.6567,Bulloch,321999,,9757511,NEI
nan,Plummer Forest Products,732 10th St,Plummer,ID,83851,47.33,-116.88,Benewah,321999,,9774411,NEI
