,TRIFD,FACILITY NAME,PRIMARY NAICS,NAICS 2,NAICS 3,NAICS 4,NAICS 5,NAICS 6,PARENT CO NAME,FRS ID,FRS_ID,FacilityName,Address,City,State,Zip,Latitude,Longitude,County,NAICS,SIC,FacilityID,Source,_merge
63,98221SHLLLWESTM,TESORO REFINING & MARKETING CO LLC,324110,issues,issues,issues,issues,issues,MARATHON PETROLEUM CORP,110000537250.0,issues,issues,issues,issues,issues,issues,issues,issues,issues,issues,issues,issues,issues,left_only
138,44482LTVST2234M,CLEVELAND-CLIFFS CLEVELAND WORKS LLC DBA CLEVELAND-CLIFFS WA,324199,issues,issues,issues,issues,issues,CLEVELAND-CLIFFS INC,110012566767.0,issues,issues,issues,issues,issues,issues,issues,issues,issues,issues,issues,issues,issues,left_only
186,48218SCKBT14ZUG,EES COKE BATTERY LLC,324199,issues,issues,issues,issues,issues,DTE ENERGY CO,110022523269.0,issues,issues,issues,issues,issues,issues,issues,issues,issues,issues,issues,issues,issues,left_only
324,4504WSNCKN3353Y,MIDDLETOWN COKE CO,324199,issues,issues,issues,issues,issues,SUNCOKE ENERGY INC,110046371500.0,issues,issues,issues,issues,issues,issues,issues,issues,issues,issues,issues,issues,issues,left_only
421,84087PHLLP393SO,HOLLYFRONTIER WOODS CROSS REFINING LLC,324110,issues,issues,issues,issues,issues,HOLLYFRONTIER CORP,110000469136.0,issues,issues,issues,issues,issues,issues,issues,issues,issues,issues,issues,issues,issues,left_only
482,79008PHLLPSTATE,PHILLLIPS 66 CO BORGER REFINERY,324110,issues,issues,issues,issues,issues,PHILLIPS 66 CO,110042005843.0,issues,issues,issues,issues,issues,issues,issues,issues,issues,issues,issues,issues,issues,left_only
748,90749RCPRD1801E,TESORO LOS ANGELES REFINERY-CARSON OPERATIONS,324110,issues,issues,issues,issues,issues,TESORO CORP,110017428988.0,issues,issues,issues,issues,issues,issues,issues,issues,issues,issues,issues,issues,issues,left_only
906,61802MLSCT705EU,EMULSICOAT INC,324121,issues,issues,issues,issues,issues,HERITAGE GROUP,110001816394.0,issues,issues,issues,issues,issues,issues,issues,issues,issues,issues,issues,issues,issues,left_only
1052,77640GRTLKCOKED,OXBOW CALCINING LLC,324199,issues,issues,issues,issues,issues,OXBOW CARBON & MINERALS HOLDINGS INC,110002042502.0,issues,issues,issues,issues,issues,issues,issues,issues,issues,issues,issues,issues,issues,left_only
1086,96707CHVRN91480,IES DOWNSTREAM LLC - KAPOLEI TERMINAL,324110,325180.0,issues,issues,issues,issues,IES DOWNSTREAM LLC,110000486304.0,issues,issues,issues,issues,issues,issues,issues,issues,issues,issues,issues,issues,issues,left_only
1230,93308TXCRF6451R,BAKERSFIELD RENEWABLE FUELS LLC - AREAS 1 & 2,324110,issues,issues,issues,issues,issues,GLOBAL CLEAN ENERGY HOLDINGS INC,110017887330.0,issues,issues,issues,issues,issues,issues,issues,issues,issues,issues,issues,issues,issues,left_only
1305,44256WNSCR890WE,OWENS CORNING - MEDINA,324121,324122.0,issues,issues,issues,issues,OWENS CORNING,110000388919.0,issues,issues,issues,issues,issues,issues,issues,issues,issues,issues,issues,issues,issues,left_only
1312,39477STHLNHIGHW,HUNT SOUTHLAND REFINING CO-SANDERSVILLE,324110,issues,issues,issues,issues,issues,HUNT REFINING CO A CORP,110000590842.0,issues,issues,issues,issues,issues,issues,issues,issues,issues,issues,issues,issues,issues,left_only
1456,16749QKRSTINTER,INTERNATIONAL WAXES INC,324199,issues,issues,issues,issues,issues,THE INTERNATIONAL GROUP INC,110000583850.0,issues,issues,issues,issues,issues,issues,issues,issues,issues,issues,issues,issues,issues,left_only
1467,70665VNTRC1920P,RAIN CII CARBON LLC LAKE CHARLES CALCINING PLANT (LCCP),324199,issues,issues,issues,issues,issues,RAIN CII CARBON LLC,110015679853.0,issues,issues,issues,issues,issues,issues,issues,issues,issues,issues,issues,issues,issues,left_only
1475,62454CCRBN12187,RAIN CII CARBON LLC,324199,issues,issues,issues,issues,issues,RAIN CII CARBON LLC,110018167053.0,issues,issues,issues,issues,issues,issues,issues,issues,issues,issues,issues,issues,issues,left_only
1594,03581GRHMS44LAN,GORHAM SAND & GRAVEL PIKE INDUSTRIES INC,324121,212321.0,issues,issues,issues,issues,CRH AMERICAS INC,110001521675.0,issues,issues,issues,issues,issues,issues,issues,issues,issues,issues,issues,issues,issues,left_only
1635,35217BCCKDRAILR,DRUMMOND CO INC ABC COKE DIV,324199,issues,issues,issues,issues,issues,DRUMMOND CO INC,110000366817.0,issues,issues,issues,issues,issues,issues,issues,issues,issues,issues,issues,issues,issues,left_only
1655,01906GGRGT1831B,AGGREGATE INDUSTRIES NORTHEAST REGION INC,324121,327320.0,issues,issues,issues,issues,HOLCIM (US) INC,110012709122.0,issues,issues,issues,issues,issues,issues,issues,issues,issues,issues,issues,issues,issues,left_only
1659,82007FRNTR2700E,CHEYENNE RENEWABLE DIESEL CO LLC,324110,issues,issues,issues,issues,issues,HF SINCLAIR CORP,110000468048.0,issues,issues,issues,issues,issues,issues,issues,issues,issues,issues,issues,issues,issues,left_only
1694,11354FLSHN12131,FLUSHING ASPHALT LLC,324121,issues,issues,issues,issues,issues,issues,110008088194.0,issues,issues,issues,issues,issues,issues,issues,issues,issues,issues,issues,issues,issues,left_only
1757,54481KCHMT741MA,FLINT HILLS RESOURCES PINE BEND LLC STEVENS POINT,324121,issues,issues,issues,issues,issues,KOCH INDUSTRIES INC,110055083430.0,issues,issues,issues,issues,issues,issues,issues,issues,issues,issues,issues,issues,issues,left_only
1895,01960GGRGT55RUS,AGGREGATE INDUSTRIES NORTHEAST REGION INC,324121,212319.0,issues,issues,issues,issues,HOLCIM (US) INC,110001956401.0,issues,issues,issues,issues,issues,issues,issues,issues,issues,issues,issues,issues,issues,left_only
1936,10550RCSPH7EDIS,RCA ASPHALT LLC,324121,issues,issues,issues,issues,issues,issues,110008053998.0,issues,issues,issues,issues,issues,issues,issues,issues,issues,issues,issues,issues,issues,left_only
1961,1476WBFFLC2998C,NESL - OLEAN HOT MIX ASPHALT,324121,issues,issues,issues,issues,issues,issues,110067200273.0,issues,issues,issues,issues,issues,issues,issues,issues,issues,issues,issues,issues,issues,left_only
1962,0427WPKNDS164SP,PIKE INDUSTRIES INC. - POLAND,324121,issues,issues,issues,issues,issues,CRH AMERICAS INC.,110008437557.0,issues,issues,issues,issues,issues,issues,issues,issues,issues,issues,issues,issues,issues,left_only
1965,9458WSNLXX7999A,MISSION VALLEY ROCK,324121,212321.0,issues,issues,issues,issues,MARTIN MARIETTA MATERIALS INC,110010132533.0,issues,issues,issues,issues,issues,issues,issues,issues,issues,issues,issues,issues,issues,left_only
2002,89119LSVGS9325S,LAS VEGAS PAVING CORP,324121,issues,issues,issues,issues,issues,LAS VEGAS PAVING CORP,110025332487.0,issues,issues,issues,issues,issues,issues,issues,issues,issues,issues,issues,issues,issues,left_only
2005,88210KCHSP2411N,HOLLYFRONTIER ASPHALT CO LLC  - ARTESIA,324121,issues,issues,issues,issues,issues,HOLLYFRONTIER CORP,110008061417.0,issues,issues,issues,issues,issues,issues,issues,issues,issues,issues,issues,issues,issues,left_only
2007,7350WRGNSP931SW,ERGON ASPHALT & EMULSIONS INC. - LAWTON,324121,issues,issues,issues,issues,issues,ERGON INC.,110013866432.0,issues,issues,issues,issues,issues,issues,issues,issues,issues,issues,issues,issues,issues,left_only
2010,21048MRYLN2914I,MARYLAND PAVING INC,324121,issues,issues,issues,issues,issues,MARYLAND PAVING INC,110023128747.0,issues,issues,issues,issues,issues,issues,issues,issues,issues,issues,issues,issues,issues,left_only
2012,12303KNGRD145CO,KING ROAD MATERIALS CORDELL ROAD FACILITY,324121,327320.0,issues,issues,issues,issues,CRH AMERICAS INC,110013325561.0,issues,issues,issues,issues,issues,issues,issues,issues,issues,issues,issues,issues,issues,left_only
2017,84655KGLYS1237S,KEIGLEY ASPHALT PLANT,324121,issues,issues,issues,issues,issues,OLDCASTLE MATERIALS,110001881474.0,issues,issues,issues,issues,issues,issues,issues,issues,issues,issues,issues,issues,issues,left_only
2019,08030KCHPTKINGW,BKEP MATERIALS LLC -- GLOUCESTER CITY,324121,issues,issues,issues,issues,issues,BLUEKNIGHT ENERGY PARTNERS LP,110007927011.0,issues,issues,issues,issues,issues,issues,issues,issues,issues,issues,issues,issues,issues,left_only
2021,38113RGNTR1989C,ERGON ASPHALT & EMULSIONS INC. - MEMPHIS,324121,424710.0,issues,issues,issues,issues,ERGON INC,110000895327.0,issues,issues,issues,issues,issues,issues,issues,issues,issues,issues,issues,issues,issues,left_only
2026,38363KCHMTHWY41,ERGON ASPHALT & EMULSIONS INC. - PARSONS,324121,issues,issues,issues,issues,issues,ERGON INC.,110008056897.0,issues,issues,issues,issues,issues,issues,issues,issues,issues,issues,issues,issues,issues,left_only
2033,52004KCHMT12THS,FLINT HILLS RESOURCES PINE BEND LLC DUBUQUE,324121,issues,issues,issues,issues,issues,KOCH INDUSTRIES INC,110000414613.0,issues,issues,issues,issues,issues,issues,issues,issues,issues,issues,issues,issues,issues,left_only
2041,90805DGNGT2400E,EDGINGTON OIL CO,324110,issues,issues,issues,issues,issues,DELEK US HOLDINGS INC,110000476315.0,issues,issues,issues,issues,issues,issues,issues,issues,issues,issues,issues,issues,issues,left_only
2066,82007KNFRV4875S,KNIFE RIVER CHEYENNE,324121,issues,issues,issues,issues,issues,MDU RESOURCES GROUP INC,110037148164.0,issues,issues,issues,issues,issues,issues,issues,issues,issues,issues,issues,issues,issues,left_only
2068,55378KCHMT12101,FLINT HILLS RESOURCES PINE BEND LLC SAVAGE,324121,issues,issues,issues,issues,issues,KOCH INDUSTRIES INC,110008820099.0,issues,issues,issues,issues,issues,issues,issues,issues,issues,issues,issues,issues,issues,left_only
2084,96707HWNND91325,PAR HAWAII REFINING LLC,324110,issues,issues,issues,issues,issues,PAR PACIFIC HOLDINGS INC.,110000486322.0,issues,issues,issues,issues,issues,issues,issues,issues,issues,issues,issues,issues,issues,left_only
2107,19061SNRFNGREEN,SUNOCO LLC-RACE FUELS,324110,issues,issues,issues,issues,issues,SUNOCO LP,110032885723.0,issues,issues,issues,issues,issues,issues,issues,issues,issues,issues,issues,issues,issues,left_only
2117,59808JTLGR48WIL,JTL GROUP MISSOULA (DBA KNIFE RIVER-MISSOULA),324121,issues,issues,issues,issues,issues,MDU RESOURCES GROUP INC,110015785319.0,issues,issues,issues,issues,issues,issues,issues,issues,issues,issues,issues,issues,issues,left_only
2120,06492TLCNC1605D,TILCON CONNECTICUT INC.,324121,issues,issues,issues,issues,issues,CRH AMERICAS INC,110007241314.0,issues,issues,issues,issues,issues,issues,issues,issues,issues,issues,issues,issues,issues,left_only
2123,92335KCHMT14929,ERGON ASPHALT & EMULSIONS INC. - FONTANA,324121,issues,issues,issues,issues,issues,ERGON INC,110001133130.0,issues,issues,issues,issues,issues,issues,issues,issues,issues,issues,issues,issues,issues,left_only
2147,23185BRNSC9393M,BRANSCOME-LEE HALL,324121,issues,issues,issues,issues,issues,COLAS INC.,110005243539.0,issues,issues,issues,issues,issues,issues,issues,issues,issues,issues,issues,issues,issues,left_only
2150,90748RCCQC1175C,TESORO WILMINGTON CALCINER,324199,issues,issues,issues,issues,issues,MARATHON PETROLEUM CORP,110001138956.0,issues,issues,issues,issues,issues,issues,issues,issues,issues,issues,issues,issues,issues,left_only
2154,85226RGNSP694WC,ERGON ASPHALT & EMULSIONS INC. - CHANDLER,324121,issues,issues,issues,issues,issues,ERGON INC,110020516164.0,issues,issues,issues,issues,issues,issues,issues,issues,issues,issues,issues,issues,issues,left_only
2169,06471TLCNC1FORE,TILCON CONNECTICUT INC,324121,issues,issues,issues,issues,issues,CRH AMERICAS INC,110002077127.0,issues,issues,issues,issues,issues,issues,issues,issues,issues,issues,issues,issues,issues,left_only
2172,68112KCHMT7075N,FLINT HILLS RESOURCES PINE BEND LLC - OMAHA 2,324121,issues,issues,issues,issues,issues,KOCH INDUSTRIES INC,110012703912.0,issues,issues,issues,issues,issues,issues,issues,issues,issues,issues,issues,issues,issues,left_only
2177,06605GNDST2426B,O&G INDUSTRIES INC.,324121,327320.0,811111.0,issues,issues,issues,O & G INDUSTRIES INC,110012809979.0,issues,issues,issues,issues,issues,issues,issues,issues,issues,issues,issues,issues,issues,left_only
2184,59106JTLGR414HE,JTL GROUP BILLINGS (DBA - KNIFE RIVER BILLINGS),324121,issues,issues,issues,issues,issues,MDU RESOURCES GROUP INC,110031019136.0,issues,issues,issues,issues,issues,issues,issues,issues,issues,issues,issues,issues,issues,left_only
2187,46312NDNHR3210W,INDIANA HARBOR COKE CO LP,324199,issues,issues,issues,issues,issues,SUNCOKE ENERGY INC,110070149427.0,issues,issues,issues,issues,issues,issues,issues,issues,issues,issues,issues,issues,issues,left_only
2226,45015TRRYH8STAN,TERRY ASPHALT MATERIALS INC,324121,issues,issues,issues,issues,issues,BARRETT INDUSTRIES CORP,110009627225.0,issues,issues,issues,issues,issues,issues,issues,issues,issues,issues,issues,issues,issues,left_only
2228,66115MPRBL450FU,ERGON ARMOR INC-KANSAS CITY,324121,issues,issues,issues,issues,issues,ERGON INC,110015679764.0,issues,issues,issues,issues,issues,issues,issues,issues,issues,issues,issues,issues,issues,left_only
2293,77017LYNDL12000,HOUSTON REFINING LP,324110,325110.0,issues,issues,issues,issues,LYONDELLBASELL INDUSTRIES,110058113704.0,issues,issues,issues,issues,issues,issues,issues,issues,issues,issues,issues,issues,issues,left_only
2323,77590MRTHNFOOTO,MARATHON PETROLEUM CO LP (PART),324110,issues,issues,issues,issues,issues,MARATHON PETROLEUM CORP,110056967368.0,issues,issues,issues,issues,issues,issues,issues,issues,issues,issues,issues,issues,issues,left_only
2366,79905LPSRF6500T,WESTERN EL PASO REFINERY,324110,issues,issues,issues,issues,issues,WESTERN REFINING INC,110042061238.0,issues,issues,issues,issues,issues,issues,issues,issues,issues,issues,issues,issues,issues,left_only
2405,70052GRMRC114JE,RAIN CII CARBON LLC,324199,issues,issues,issues,issues,issues,RAIN CII CARBON LLC,110018914781.0,issues,issues,issues,issues,issues,issues,issues,issues,issues,issues,issues,issues,issues,left_only
2414,4562WHVRHL2446G,HAVERHILL COKE CO LLC,324199,issues,issues,issues,issues,issues,SUNCOKE ENERGY INC,110054816703.0,issues,issues,issues,issues,issues,issues,issues,issues,issues,issues,issues,issues,issues,left_only
2420,31717RGNTR161SP,BKEP MATERIALS LLC - BAINBRIDGE GA,324121,issues,issues,issues,issues,issues,BLUEKNIGHT ENERGY PARTNERS LP,110009140081.0,issues,issues,issues,issues,issues,issues,issues,issues,issues,issues,issues,issues,issues,left_only
2452,6704WRGNSP8EAST,ERGON ASPHALT & EMULSIONS INC. - EL DORADO,324121,issues,issues,issues,issues,issues,ERGON INC.,110001240595.0,issues,issues,issues,issues,issues,issues,issues,issues,issues,issues,issues,issues,issues,left_only
2601,96001JFSHC174CL,J.F. SHEA CONSTRUCTION INC. AGGREGATE PRODUCTS,324121,issues,issues,issues,issues,issues,JF SHEA CONSTRUCTION INC,110009532924.0,issues,issues,issues,issues,issues,issues,issues,issues,issues,issues,issues,issues,issues,left_only
2605,26037KPPRSKOPPE,KOPPERS FOLLANSBEE TAR PLANT,324199,325110.0,issues,issues,issues,issues,KOPPERS INC,110000586027.0,issues,issues,issues,issues,issues,issues,issues,issues,issues,issues,issues,issues,issues,left_only
2622,73753GRTLKRTE1B,OXBOW CALCINING LLC,324199,issues,issues,issues,issues,issues,OXBOW CARBON & MINERALS HOLDINGS INC,110007385374.0,issues,issues,issues,issues,issues,issues,issues,issues,issues,issues,issues,issues,issues,left_only
2730,70605LKCHR3943G,REYNOLDS METALS CO LLC,324199,issues,issues,issues,issues,issues,ALCOA CORP,110000449499.0,issues,issues,issues,issues,issues,issues,issues,issues,issues,issues,issues,issues,issues,left_only
2734,82902MNSNTQUEAL,P4 PRODUCTION LLC,324199,issues,issues,issues,issues,issues,BAYER US HOLDING LP,110000859296.0,issues,issues,issues,issues,issues,issues,issues,issues,issues,issues,issues,issues,issues,left_only
2741,84054KCHMT95WES,WESTERN EMULSIONS NORTH SALT LAKE  PLANT,324121,issues,issues,issues,issues,issues,IDAHO ASPHALT SUPPLY INC,110001884523.0,issues,issues,issues,issues,issues,issues,issues,issues,issues,issues,issues,issues,issues,left_only
2743,70602CTGPTHIGHW,CITGO PETROLEUM CORP,324110,325199.0,325180.0,issues,issues,issues,CITGO HOLDING INC.,110000597248.0,issues,issues,issues,issues,issues,issues,issues,issues,issues,issues,issues,issues,issues,left_only
2780,89118KCHPR3901W,ERGON ASPHALT & EMULSIONS INC. - LAS VEGAS,324121,issues,issues,issues,issues,issues,ERGON INC.,110009460145.0,issues,issues,issues,issues,issues,issues,issues,issues,issues,issues,issues,issues,issues,left_only
2816,37210RGNTR1114V,ERGON ASPHALT & EMULSIONS INC. - NASHVILLE,324121,issues,issues,issues,issues,issues,ERGON INC,110001860576.0,issues,issues,issues,issues,issues,issues,issues,issues,issues,issues,issues,issues,issues,left_only
2819,06488GNDST236RX,O&G INDUSTRIES INC,324121,327999.0,327320.0,212319.0,811111.0,issues,O & G INDUSTRIES INC,110007078955.0,issues,issues,issues,issues,issues,issues,issues,issues,issues,issues,issues,issues,issues,left_only
2953,26037WHLNGROUTE,MOUNTAIN STATE CARBON LLC,324199,issues,issues,issues,issues,issues,CLEVELAND-CLIFFS INC.,110042081939.0,issues,issues,issues,issues,issues,issues,issues,issues,issues,issues,issues,issues,issues,left_only
3045,70079CCRBN81PRS,RAIN CII CARBON LLC,324199,issues,issues,issues,issues,issues,RAIN CII CARBON LLC,110022810449.0,issues,issues,issues,issues,issues,issues,issues,issues,issues,issues,issues,issues,issues,left_only
3053,98002CNBRNRSTSE,ICON AUBURN,324121,212321.0,issues,issues,issues,issues,OLDCASTLE INC,110031001813.0,issues,issues,issues,issues,issues,issues,issues,issues,issues,issues,issues,issues,issues,left_only
3078,35207SLSSN35003,BLUESTONE COKE,324199,issues,issues,issues,issues,issues,BLUESTONE MINERALS INC,110000366657.0,issues,issues,issues,issues,issues,issues,issues,issues,issues,issues,issues,issues,issues,left_only
3101,82609LTTLM5700E,SINCLAIR CASPER REFINING CO,324110,issues,issues,issues,issues,issues,SINCLAIR OIL CORP,110011942719.0,issues,issues,issues,issues,issues,issues,issues,issues,issues,issues,issues,issues,issues,left_only
3160,47240DVMRC992SC,DAVE O'MARA CONTRACTOR INC.,324121,issues,issues,issues,issues,issues,DAVE O'MARA CONTRACTOR INC,110001353954.0,issues,issues,issues,issues,issues,issues,issues,issues,issues,issues,issues,issues,issues,left_only
3161,18103CRFCN1680E,CRAFCO INC-ALLENTOWN,324121,issues,issues,issues,issues,issues,ERGON INC,110001085904.0,issues,issues,issues,issues,issues,issues,issues,issues,issues,issues,issues,issues,issues,left_only
3165,79403SMMTR1611M,ERGON ASPHALT & EMULSIONS INC- LUBBOCK,324121,issues,issues,issues,issues,issues,ERGON INC,110037240107.0,issues,issues,issues,issues,issues,issues,issues,issues,issues,issues,issues,issues,issues,left_only
3236,16512RCKCRFOOTO,ERIE COKE CORP,324199,issues,issues,issues,issues,issues,issues,110043970441.0,issues,issues,issues,issues,issues,issues,issues,issues,issues,issues,issues,issues,issues,left_only
3253,77807KNFRV63SH2,KNIFE RIVER CORP-SOUTH BRYAN ASPHALT PLANT,324121,issues,issues,issues,issues,issues,MDU RESOURCES GROUP INC,110037147389.0,issues,issues,issues,issues,issues,issues,issues,issues,issues,issues,issues,issues,issues,left_only
3286,77704NCHSRGULFS,LNVA-NORTH REGIONAL TREATMENT PLANT,324110,325110.0,issues,issues,issues,issues,EXXON MOBIL CORP,110000464140.0,issues,issues,issues,issues,issues,issues,issues,issues,issues,issues,issues,issues,issues,left_only
3316,15025RSTCH400ST,KOPPERS INC CLAIRTON TAR PLANT,324199,issues,issues,issues,issues,issues,KOPPERS INC,110000328823.0,issues,issues,issues,issues,issues,issues,issues,issues,issues,issues,issues,issues,issues,left_only
3354,97420CSSPH5959H,COOS ASPHALT,324121,issues,issues,issues,issues,issues,MDU RESOURCES GROUP INC,110037149993.0,issues,issues,issues,issues,issues,issues,issues,issues,issues,issues,issues,issues,issues,left_only
3450,45052CNCNN11001,MARATHON PETROLEUM CO - NORTH BEND OH TERMINAL,324121,424710.0,issues,issues,issues,issues,MARATHON PETROLEUM CORP,110002112838.0,issues,issues,issues,issues,issues,issues,issues,issues,issues,issues,issues,issues,issues,left_only
3483,33619MRNSP5201C,ASSOCIATED ASPHALT TAMPA LLC,324121,issues,issues,issues,issues,issues,ASSOCIATED ASPHALT PARTNERS LLC,110008056520.0,issues,issues,issues,issues,issues,issues,issues,issues,issues,issues,issues,issues,issues,left_only
3485,19605KCHMT3847P,RUSSELL STANDARD CORP,324121,issues,issues,issues,issues,issues,RUSSELL STANDARD CORP,110001059997.0,issues,issues,issues,issues,issues,issues,issues,issues,issues,issues,issues,issues,issues,left_only
3523,85210QLTYM38SLA,QUALITY EMULSIONS,324121,issues,issues,issues,issues,issues,issues,110039268397.0,issues,issues,issues,issues,issues,issues,issues,issues,issues,issues,issues,issues,issues,left_only
3524,62454MRTHNMARAT,MARATHON PETROLEUM CO LP ILLINOIS REFINING DIV,324110,424710.0,issues,issues,issues,issues,MARATHON PETROLEUM CORP,110000439428.0,issues,issues,issues,issues,issues,issues,issues,issues,issues,issues,issues,issues,issues,left_only
3583,78112VPRCN7124R,VP RACING FUELS INC.,324199,issues,issues,issues,issues,issues,VP RACING FUELS INC,110002465234.0,issues,issues,issues,issues,issues,issues,issues,issues,issues,issues,issues,issues,issues,left_only
3623,44509WLKRW912SA,CRAFCO INC-YOUNGSTOWN,324121,issues,issues,issues,issues,issues,ERGON INC.,110000390112.0,issues,issues,issues,issues,issues,issues,issues,issues,issues,issues,issues,issues,issues,left_only
3625,97339MDCRV2862H,MDU CORVALLIS ASPHALT,324121,issues,issues,issues,issues,issues,MDU RESOURCES GROUP INC,110037149957.0,issues,issues,issues,issues,issues,issues,issues,issues,issues,issues,issues,issues,issues,left_only
3661,78410KCHRFSUNTI,FLINT HILLS RESOURCES CORPUS CHRISTI LLC - WEST PLANT,324110,325110.0,issues,issues,issues,issues,KOCH INDUSTRIES INC,110000504918.0,issues,issues,issues,issues,issues,issues,issues,issues,issues,issues,issues,issues,issues,left_only
3699,78064RGNSP972ND,ERGON ASPHALT & EMULSIONS INC. - PLEASANTON,324121,issues,issues,issues,issues,issues,ERGON INC.,110012491151.0,issues,issues,issues,issues,issues,issues,issues,issues,issues,issues,issues,issues,issues,left_only
3701,94553TSCCRAVONR,TESORO REFINING & MARKETING CO LLC,324110,issues,issues,issues,issues,issues,MARATHON PETROLEUM CORP,110021341332.0,issues,issues,issues,issues,issues,issues,issues,issues,issues,issues,issues,issues,issues,left_only
3768,9750WSTHRN696BL,SOUTHERN OREGON READY MIX,324121,issues,issues,issues,issues,issues,JF SHEA CONSTRUCTION INC,110042003881.0,issues,issues,issues,issues,issues,issues,issues,issues,issues,issues,issues,issues,issues,left_only
3771,77522XXNBY2800D,EXXONMOBIL REFINING & SUPPLY BAYTOWN REFINERY (PART),324110,issues,issues,issues,issues,issues,EXXON MOBIL CORP,110000502901.0,issues,issues,issues,issues,issues,issues,issues,issues,issues,issues,issues,issues,issues,left_only
3814,15025SSCLR400ST,USS-CLAIRTON PLANT,324199,issues,issues,issues,issues,issues,US STEEL CORP,110042043384.0,issues,issues,issues,issues,issues,issues,issues,issues,issues,issues,issues,issues,issues,left_only
3916,6740WRGNSP11WGR,ERGON ASPHALT & EMULSIONS INC. - SALINA,324121,issues,issues,issues,issues,issues,ERGON INC.,110017507795.0,issues,issues,issues,issues,issues,issues,issues,issues,issues,issues,issues,issues,issues,left_only
3943,85713WSTRN345E3,WESTERN EMULSIONS TUCSON EMULSIONS PLANT,324121,issues,issues,issues,issues,issues,IDAHO ASPHALT SUPPLY INC,110043965420.0,issues,issues,issues,issues,issues,issues,issues,issues,issues,issues,issues,issues,issues,left_only
4027,38701SCTTB942NB,SCOTT BIODIESEL/GREENVILLE TERMINAL,324110,issues,issues,issues,issues,issues,SCOTT PETROLEUM CORP,110037144220.0,issues,issues,issues,issues,issues,issues,issues,issues,issues,issues,issues,issues,issues,left_only
4037,03608CLDRVBREWE,COLD RIVER MATERIALS,324121,212319.0,237310.0,issues,issues,issues,EUROVIA ATLANTIC COAST LLC,110007131638.0,issues,issues,issues,issues,issues,issues,issues,issues,issues,issues,issues,issues,issues,left_only
4047,83501PSPHL313HA,POE ASPHALT PAVING INC,324121,issues,issues,issues,issues,issues,POE ASPHALT PAVING INC,110031002028.0,issues,issues,issues,issues,issues,issues,issues,issues,issues,issues,issues,issues,issues,left_only
4050,0409WPKNDS81BYD,PIKE INDUSTRIES INC. - WELLS,324121,issues,issues,issues,issues,issues,CRH AMERICAS INC.,110008433347.0,issues,issues,issues,issues,issues,issues,issues,issues,issues,issues,issues,issues,issues,left_only
4053,97404MDRSR11DIV,MDU RESOURCES EUGENE CONCRETE,324121,issues,issues,issues,issues,issues,MDU RESOURCES GROUP INC,110037149975.0,issues,issues,issues,issues,issues,issues,issues,issues,issues,issues,issues,issues,issues,left_only
4094,77012HLLPT9701M,VALERO REFINING - TEXAS L.P. HOUSTON REFINERY,324110,issues,issues,issues,issues,issues,VALERO ENERGY CORP,110000460885.0,issues,issues,issues,issues,issues,issues,issues,issues,issues,issues,issues,issues,issues,left_only
4130,85335VLCNM14521,VULCAN MATERIALS CO SUN CITY,324121,212321.0,issues,issues,issues,issues,VULCAN MATERIALS CO,110013285417.0,issues,issues,issues,issues,issues,issues,issues,issues,issues,issues,issues,issues,issues,left_only
4157,0380WPKNDS65PEV,PIKE INDUSTRIES INC. - PORTSMOUTH,324121,issues,issues,issues,issues,issues,CRH AMERICAS INC,110009113958.0,issues,issues,issues,issues,issues,issues,issues,issues,issues,issues,issues,issues,issues,left_only
4163,6561WBLVNS565WU,BLEVINS ASPHALT CONSTRUCTION CO INC,324121,issues,issues,issues,issues,issues,BLEVINS ASPHALT CONSTRUCTION CO INC,110041627567.0,issues,issues,issues,issues,issues,issues,issues,issues,issues,issues,issues,issues,issues,left_only
4164,0703WWLDNS2MARS,WELDON ASPHALT CO.,324121,327320.0,issues,issues,issues,issues,WELDON MATERIALS INC,110004151989.0,issues,issues,issues,issues,issues,issues,issues,issues,issues,issues,issues,issues,issues,left_only
4166,64130VNCBR5201B,VANCE BROTHERS INC,324121,issues,issues,issues,issues,issues,VANCE BROTHERS INC,110000443388.0,issues,issues,issues,issues,issues,issues,issues,issues,issues,issues,issues,issues,issues,left_only
4232,35118RGNTR789BI,ERGON ASPHALT & EMULSIONS INC. - BIRMINGPORT,324121,issues,issues,issues,issues,issues,ERGON INC.,110001715467.0,issues,issues,issues,issues,issues,issues,issues,issues,issues,issues,issues,issues,issues,left_only
4274,82601KNFRV1461B,KNIFE RIVER CASPER,324121,issues,issues,issues,issues,issues,MDU RESOURCES GROUP INC,110037148119.0,issues,issues,issues,issues,issues,issues,issues,issues,issues,issues,issues,issues,issues,left_only
4303,08854ZGLRC600PR,ZIEGLER CHEMICAL & MINERAL CORP,324121,issues,issues,issues,issues,issues,issues,110000322213.0,issues,issues,issues,issues,issues,issues,issues,issues,issues,issues,issues,issues,issues,left_only
4306,88260LRFNNSOUTH,HOLLYFRONTIER NAVAJO REFINING LLC - LEA REFINERY,324110,issues,issues,issues,issues,issues,HOLLYFRONTIER CORP,110000600886.0,issues,issues,issues,issues,issues,issues,issues,issues,issues,issues,issues,issues,issues,left_only
4324,90744LTRMR961LA,ULTRAMAR INC. MARINE TERMINAL,324110,issues,issues,issues,issues,issues,VALERO ENERGY CORP,110000476057.0,issues,issues,issues,issues,issues,issues,issues,issues,issues,issues,issues,issues,issues,left_only
4334,89030LSVGS34N5T,LAS VEGAS PAVING CORP,324121,issues,issues,issues,issues,issues,LAS VEGAS PAVING CORP,110025332263.0,issues,issues,issues,issues,issues,issues,issues,issues,issues,issues,issues,issues,issues,left_only
4374,71067CLMTRHC62B,CALUMET PRINCETON REFINING LLC,324110,issues,issues,issues,issues,issues,CALUMET REFINING LLC,110000597499.0,issues,issues,issues,issues,issues,issues,issues,issues,issues,issues,issues,issues,issues,left_only
4409,03106HKSTT38HAC,HOOKSETT CRUSHED STONE PIKE INDUSTRIES INC,324121,212321.0,212319.0,issues,issues,issues,CRH AMERICAS INC,110004109054.0,issues,issues,issues,issues,issues,issues,issues,issues,issues,issues,issues,issues,issues,left_only
4487,39181RGNRFPOBOX,ERGON REFINING INC,324110,issues,issues,issues,issues,issues,ERGON INC,110000376575.0,issues,issues,issues,issues,issues,issues,issues,issues,issues,issues,issues,issues,issues,left_only
4494,91786HLLDY2193W,HOLLIDAY ROCK - FOOTHILL,324121,212321.0,327320.0,issues,issues,issues,HOLLIDAY ROCK CO INC,110002414691.0,issues,issues,issues,issues,issues,issues,issues,issues,issues,issues,issues,issues,issues,left_only
4533,96002JFSHC1538F,J.F. SHEA CONSTRUCTION INC FAWNDALE ROCK & ASPHALT,324121,issues,issues,issues,issues,issues,JF SHEA CONSTRUCTION INC,110039018880.0,issues,issues,issues,issues,issues,issues,issues,issues,issues,issues,issues,issues,issues,left_only
4537,7545WRGNSP29AIR,ERGON ASPHALT & EMULSIONS INC. - MT. PLEASANT,324121,issues,issues,issues,issues,issues,ERGON INC.,110005166676.0,issues,issues,issues,issues,issues,issues,issues,issues,issues,issues,issues,issues,issues,left_only
4539,78223HWLLH7811S,THE SAN ANTONIO REFINERY LLC,324110,issues,issues,issues,issues,issues,STARLIGHT RELATIVITY ACQUISITION CO LLC,110000464854.0,issues,issues,issues,issues,issues,issues,issues,issues,issues,issues,issues,issues,issues,left_only
4576,77580DMNDS316SO,EAST STORAGE / SPLITTER III FACILITY,324110,issues,issues,issues,issues,issues,ENTERPRISE PRODUCTS OPERATING LLC,110006533359.0,issues,issues,issues,issues,issues,issues,issues,issues,issues,issues,issues,issues,issues,left_only
4591,94572TSCSF2101F,PHILLIPS 66 CARBON PLANT,324199,issues,issues,issues,issues,issues,PHILLIPS 66 CO,110000483478.0,issues,issues,issues,issues,issues,issues,issues,issues,issues,issues,issues,issues,issues,left_only
4618,26050RGNWSSTATE,ERGON WEST VIRGINIA INC,324110,issues,issues,issues,issues,issues,ERGON INC,110027982565.0,issues,issues,issues,issues,issues,issues,issues,issues,issues,issues,issues,issues,issues,left_only
4640,6204WGTWYN2585E,GATEWAY ENERGY & COKE CO,324199,issues,issues,issues,issues,issues,SUNCOKE ENERGY INC,110043807538.0,issues,issues,issues,issues,issues,issues,issues,issues,issues,issues,issues,issues,issues,left_only
4646,21001MRYLN141CA,MARYLAND PAVING INC,324121,issues,issues,issues,issues,issues,MARYLAND PAVING INC,110009684092.0,issues,issues,issues,issues,issues,issues,issues,issues,issues,issues,issues,issues,issues,left_only
4648,47805VPRCN41EST,VP RACING FUELS INC.,324199,issues,issues,issues,issues,issues,VP RACING FUELS INC,110022523241.0,issues,issues,issues,issues,issues,issues,issues,issues,issues,issues,issues,issues,issues,left_only
4657,23661BRNSC1922W,BRANSCOME-HAMPTON,324121,issues,issues,issues,issues,issues,COLAS INC.,110001890437.0,issues,issues,issues,issues,issues,issues,issues,issues,issues,issues,issues,issues,issues,left_only
4660,21162MRCNS10300,OLDCASTLE APG MID-ATLANTIC WHITE MARSH MD,324199,324122.0,issues,issues,issues,issues,CRH AMERICAS INC,110001276976.0,issues,issues,issues,issues,issues,issues,issues,issues,issues,issues,issues,issues,issues,left_only
4742,8504WMSMTR7845W,VULCAN MATERIALS CO WEST BROADWAY,324121,issues,issues,issues,issues,issues,VULCAN MATERIALS CO,110017398430.0,issues,issues,issues,issues,issues,issues,issues,issues,issues,issues,issues,issues,issues,left_only
4746,89301FRLNDHC34B,FORELAND REFINING CORP EAGLE SPRINGS REFINERY,324110,issues,issues,issues,issues,issues,DEERFIELD PRODUCTION & REFINING CORP,110020516529.0,issues,issues,issues,issues,issues,issues,issues,issues,issues,issues,issues,issues,issues,left_only
4751,51111JBRNC233BR,JEBRO INC,324121,issues,issues,issues,issues,issues,MDU RESOURCES GROUP INC,110017713410.0,issues,issues,issues,issues,issues,issues,issues,issues,issues,issues,issues,issues,issues,left_only
4756,0549WPKNDS346AV,PIKE INDUSTRIES INC. - WILLISTON VT (P800),324121,issues,issues,issues,issues,issues,CRH AMERICAS INC,110043670113.0,issues,issues,issues,issues,issues,issues,issues,issues,issues,issues,issues,issues,issues,left_only
4759,78409TRFNR6600U,POTAC LLC,324110,issues,issues,issues,issues,issues,PIN OAK CORPUS CHRISTI LLC,110002345249.0,issues,issues,issues,issues,issues,issues,issues,issues,issues,issues,issues,issues,issues,left_only
4761,83687DHSPH8NSUG,IDAHO ASPHALT SUPPLY INC NAMPA PLANT,324121,issues,issues,issues,issues,issues,IDAHO ASPHALT SUPPLY INC,110001805958.0,issues,issues,issues,issues,issues,issues,issues,issues,issues,issues,issues,issues,issues,left_only
4764,47170DVMRCJUNCT,DAVE O'MARA CONTRACTOR INC.,324121,issues,issues,issues,issues,issues,DAVE O'MARA CONTRACTOR INC,110012704332.0,issues,issues,issues,issues,issues,issues,issues,issues,issues,issues,issues,issues,issues,left_only
4772,93308TXCRF3663G,BAKERSFIELD RENEWABLE FUELS LLC - AREA 3,324110,issues,issues,issues,issues,issues,GLOBAL CLEAN ENERGY HOLDINGS INC,110000526805.0,issues,issues,issues,issues,issues,issues,issues,issues,issues,issues,issues,issues,issues,left_only
4783,1415WMDLND64YUN,MIDLAND ASPHALT MATERIALS INC.,324121,issues,issues,issues,issues,issues,BARRETT INDUSTRIES CORP,110019375059.0,issues,issues,issues,issues,issues,issues,issues,issues,issues,issues,issues,issues,issues,left_only
4785,8200WCRFCN325RA,CRAFCO INC. - CHEYENNE,324121,issues,issues,issues,issues,issues,ERGON INC,110043694794.0,issues,issues,issues,issues,issues,issues,issues,issues,issues,issues,issues,issues,issues,left_only
4787,47042DVMRP6496S,DAVE O'MARA CONTRACTOR INC.,324121,issues,issues,issues,issues,issues,DAVE O'MARA CONTRACTOR INC,110022523198.0,issues,issues,issues,issues,issues,issues,issues,issues,issues,issues,issues,issues,issues,left_only
4788,45241NYRND10700,NEYRA INDUSTRIES INC,324121,issues,issues,issues,issues,issues,issues,110004577912.0,issues,issues,issues,issues,issues,issues,issues,issues,issues,issues,issues,issues,issues,left_only
4792,23504BRNSC3425W,BRANSCOME INC-NORFOLK WESTMINSTER,324121,issues,issues,issues,issues,issues,COLAS INC.,110001889886.0,issues,issues,issues,issues,issues,issues,issues,issues,issues,issues,issues,issues,issues,left_only
4795,16050WTCCRHWY26,SONNEBORN LLC,324199,issues,issues,issues,issues,issues,HF SINCLAIR CORP,110059338220.0,issues,issues,issues,issues,issues,issues,issues,issues,issues,issues,issues,issues,issues,left_only
4798,70807GRTLK2200B,OXBOW CALCINING LLC,324199,issues,issues,issues,issues,issues,OXBOW CARBON & MINERALS HOLDINGS INC.,110003360372.0,issues,issues,issues,issues,issues,issues,issues,issues,issues,issues,issues,issues,issues,left_only
4814,23607KCHPT801TE,BKEP MATERIALS LLC -- NEWPORT NEWS VA,324121,issues,issues,issues,issues,issues,BLUEKNIGHT ENERGY PARTNERS LP,110000342273.0,issues,issues,issues,issues,issues,issues,issues,issues,issues,issues,issues,issues,issues,left_only
4817,83854PSPHL2732N,POE ASPHALT PAVING INC.,324121,issues,issues,issues,issues,issues,issues,110010328412.0,issues,issues,issues,issues,issues,issues,issues,issues,issues,issues,issues,issues,issues,left_only
4818,60439NCLCH317WE,OXBOW MIDWEST CALCINING LLC,324199,issues,issues,issues,issues,issues,OXBOW CARBON & MINERALS HOLDINGS INC,110000432862.0,issues,issues,issues,issues,issues,issues,issues,issues,issues,issues,issues,issues,issues,left_only
4825,84087CRWNS1710W,PEAK ASPHALT LLC - COWBOY ASPHALT TERMINAL,324121,issues,issues,issues,issues,issues,IDAHO ASPHALT SUPPLY INC,110058916053.0,issues,issues,issues,issues,issues,issues,issues,issues,issues,issues,issues,issues,issues,left_only
4829,7875WRGNSP883NR,ERGON ASPHALT & EMULSIONS INC. - AUSTIN,324121,issues,issues,issues,issues,issues,ERGON INC.,110005038280.0,issues,issues,issues,issues,issues,issues,issues,issues,issues,issues,issues,issues,issues,left_only
4831,52339BTMNS3380L,BITUMINOUS MATERIALS & SUPPLY LP,324121,issues,issues,issues,issues,issues,HERITAGE GROUP,110001754726.0,issues,issues,issues,issues,issues,issues,issues,issues,issues,issues,issues,issues,issues,left_only
4835,06050TLCNC642BL,TILCON CONNECTICUT INC.,324121,issues,issues,issues,issues,issues,CRH AMERICAS INC,110002476348.0,issues,issues,issues,issues,issues,issues,issues,issues,issues,issues,issues,issues,issues,left_only
4838,56258KCHMT901N7,FLINT HILLS RESOURCES PINE BEND LLC MARSHALL,324121,issues,issues,issues,issues,issues,KOCH INDUSTRIES INC,110000427119.0,issues,issues,issues,issues,issues,issues,issues,issues,issues,issues,issues,issues,issues,left_only
4844,82301CRWNS1523E,PEAK ASPHALT LLC RAWLINS PLANT,324121,issues,issues,issues,issues,issues,IDAHO ASPHALT SUPPLY INC,110002136171.0,issues,issues,issues,issues,issues,issues,issues,issues,issues,issues,issues,issues,issues,left_only
4846,1422WBFFLC5CMPA,NESL - COMO PARK HOT MIX ASPHALT,324121,issues,issues,issues,issues,issues,issues,110067200264.0,issues,issues,issues,issues,issues,issues,issues,issues,issues,issues,issues,issues,issues,left_only
4850,03784LBNNC335PL,LEBANON CRUSHED STONE PIKE INDUSTRIES INC,324121,212319.0,issues,issues,issues,issues,CRH AMERICAS INC,110009420643.0,issues,issues,issues,issues,issues,issues,issues,issues,issues,issues,issues,issues,issues,left_only
4855,7220WRGNSP61SHA,ERGON ASPHALT & EMULSIONS INC. - LITTLE ROCK,324121,issues,issues,issues,issues,issues,ERGON INC.,110001700142.0,issues,issues,issues,issues,issues,issues,issues,issues,issues,issues,issues,issues,issues,left_only
4857,16041PNNZLRD2BO,CALUMET KARNS CITY REFINING LLC,324199,issues,issues,issues,issues,issues,CALUMET SPECIALTY PRODUCTS PARTNERS LP,110012413628.0,issues,issues,issues,issues,issues,issues,issues,issues,issues,issues,issues,issues,issues,left_only
4860,58078KCHMT600CE,FLINT HILLS RESOURCES PINE BEND LLC WEST FARGO,324121,issues,issues,issues,issues,issues,KOCH INDUSTRIES INC,110010350208.0,issues,issues,issues,issues,issues,issues,issues,issues,issues,issues,issues,issues,issues,left_only
4863,59714JTLGR2173F,JTL GROUP BELGRADE DBA KNIFE RIVER - BELGRADE,324121,issues,issues,issues,issues,issues,MDU RESOURCES GROUP INC,110001473799.0,issues,issues,issues,issues,issues,issues,issues,issues,issues,issues,issues,issues,issues,left_only
4866,13078JMSVL48SLV,JAMESVILLE MIX PLANT,324121,issues,issues,issues,issues,issues,BARRETT INDUSTRIES CORP,110037142874.0,issues,issues,issues,issues,issues,issues,issues,issues,issues,issues,issues,issues,issues,left_only
4868,83709BSSPH545WG,BOISE FACILITY,324121,issues,issues,issues,issues,issues,MDU RESOURCES GROUP INC,110064845477.0,issues,issues,issues,issues,issues,issues,issues,issues,issues,issues,issues,issues,issues,left_only
4871,14701STKTC57LIS,SUIT-KOTE JAMESTOWN,324121,issues,issues,issues,issues,issues,SUIT-KOTE CORP,110008054666.0,issues,issues,issues,issues,issues,issues,issues,issues,issues,issues,issues,issues,issues,left_only
4873,70043CHLMT7CKEP,RAIN CII CARBON LLC,324199,issues,issues,issues,issues,issues,RAIN CII CARBON LLC,110012818497.0,issues,issues,issues,issues,issues,issues,issues,issues,issues,issues,issues,issues,issues,left_only
4887,34744PCKSS733ED,PREFERRED MATERIALS INC-KISSIMMEE ASPHALT PLANT,324121,issues,issues,issues,issues,issues,CRH AMERICAS INC,110037145005.0,issues,issues,issues,issues,issues,issues,issues,issues,issues,issues,issues,issues,issues,left_only
4894,02072GGRGT1101T,AGGREGATE INDUSTRIES NORTHEAST REGION INC,324121,issues,issues,issues,issues,issues,HOLCIM (US) INC,110015681724.0,issues,issues,issues,issues,issues,issues,issues,issues,issues,issues,issues,issues,issues,left_only
4898,85041VLCNM483S4,VULCAN MATERIALS CO WEST 43RD,324121,212321.0,issues,issues,issues,issues,VULCAN MATERIALS CO,110039497167.0,issues,issues,issues,issues,issues,issues,issues,issues,issues,issues,issues,issues,issues,left_only
4906,97756RDMND1248N,MDU RESOURCES REDMOND CONCRETE,324121,issues,issues,issues,issues,issues,MDU RESOURCES GROUP INC,110067124445.0,issues,issues,issues,issues,issues,issues,issues,issues,issues,issues,issues,issues,issues,left_only
4920,97408GGSND952CB,EUGENE SAND & GRAVEL--COBURG,324121,issues,issues,issues,issues,issues,OLDCASTLE INC,110037149984.0,issues,issues,issues,issues,issues,issues,issues,issues,issues,issues,issues,issues,issues,left_only
4921,64130KCHMT4915C,VANCE BROTHERS INC,324121,issues,issues,issues,issues,issues,VANCE BROTHERS INC,110000443342.0,issues,issues,issues,issues,issues,issues,issues,issues,issues,issues,issues,issues,issues,left_only
4923,83221DHSPH75N55,IDAHO ASPHALT SUPPLY INC BLACKFOOT PLANT,324121,issues,issues,issues,issues,issues,IDAHO ASPHALT SUPPLY INC,110001287526.0,issues,issues,issues,issues,issues,issues,issues,issues,issues,issues,issues,issues,issues,left_only
4926,63601LDBLT6MILL,LEAD BELT MATERIALS CO INC,324121,212312.0,issues,issues,issues,issues,issues,110012608044.0,issues,issues,issues,issues,issues,issues,issues,issues,issues,issues,issues,issues,issues,left_only
4927,60501WNSCR5824S,OWENS CORNING ROOFING & ASPHALT LLC,324121,issues,issues,issues,issues,issues,OWENS CORNING,110000433371.0,issues,issues,issues,issues,issues,issues,issues,issues,issues,issues,issues,issues,issues,left_only
4935,92126VLCNM151BL,VULCAN MATERIALS CARROLL CANYON,324121,issues,issues,issues,issues,issues,VULCAN MATERIALS CO,110034175755.0,issues,issues,issues,issues,issues,issues,issues,issues,issues,issues,issues,issues,issues,left_only
4955,59105KNFRV1927D,KNIFE RIVER BILLINGS EAST SITE,324121,issues,issues,issues,issues,issues,MDU RESOURCES GROUP INC,110037143864.0,issues,issues,issues,issues,issues,issues,issues,issues,issues,issues,issues,issues,issues,left_only
4958,14891CNTRL20FAI,CENTRAL ASPHALT,324121,issues,issues,issues,issues,issues,SUIT-KOTE CORP,110019606611.0,issues,issues,issues,issues,issues,issues,issues,issues,issues,issues,issues,issues,issues,left_only
4966,83501PSPHL4341S,POE ASPHALT PAVING INC.,324121,issues,issues,issues,issues,issues,POE ASPHALT PAVING INC,110044954412.0,issues,issues,issues,issues,issues,issues,issues,issues,issues,issues,issues,issues,issues,left_only
4968,7411WPCCNT14115,APAC-CENTRAL INC TULSA GENCOR ASPHALT 4053,324121,212312.0,562111.0,issues,issues,issues,CRH AMERICAS INC,110046279497.0,issues,issues,issues,issues,issues,issues,issues,issues,issues,issues,issues,issues,issues,left_only
4971,7340WRGNSP25REF,ERGON ASPHALT & EMULSIONS INC.  - ARDMORE,324121,issues,issues,issues,issues,issues,ERGON INC.,110017358866.0,issues,issues,issues,issues,issues,issues,issues,issues,issues,issues,issues,issues,issues,left_only
4976,8200WMNTNS4511S,ERGON ASPHALT & EMULSIONS INC. - CHEYENNE,324121,issues,issues,issues,issues,issues,ERGON INC,110042003051.0,issues,issues,issues,issues,issues,issues,issues,issues,issues,issues,issues,issues,issues,left_only
4978,1448WMDLND3CLER,MIDLAND ASPHALT MATERIALS INC.,324121,issues,issues,issues,issues,issues,BARRETT INDUSTRIES CORP,110006701514.0,issues,issues,issues,issues,issues,issues,issues,issues,issues,issues,issues,issues,issues,left_only
4980,03835PKNDS383FA,PIKE INDUSTRIES INC FARMINGTON,324121,212321.0,212319.0,issues,issues,issues,CRH AMERICAS INC,110007132432.0,issues,issues,issues,issues,issues,issues,issues,issues,issues,issues,issues,issues,issues,left_only
4987,38040CRFCN121IN,CRAFCO INC-HALLS,324121,issues,issues,issues,issues,issues,ERGON INC,110012705563.0,issues,issues,issues,issues,issues,issues,issues,issues,issues,issues,issues,issues,issues,left_only
5000,4320WSHLLY395FR,SHELLY MATERIALS PLANT 90,324121,issues,issues,issues,issues,issues,CRH AMERICAS INC,110004738115.0,issues,issues,issues,issues,issues,issues,issues,issues,issues,issues,issues,issues,issues,left_only
5006,3912WWBLNS1STAT,WEBLAIN&SONS INC NATCHEZ ASPHALT PLANT,324121,issues,issues,issues,issues,issues,WEBLAIN&SONS INC,110001473405.0,issues,issues,issues,issues,issues,issues,issues,issues,issues,issues,issues,issues,issues,left_only
5008,97140CFFLK12TNQ,COFFEE LAKE CONCRETE,324121,issues,issues,issues,issues,issues,MDU RESOURCES,110037149644.0,issues,issues,issues,issues,issues,issues,issues,issues,issues,issues,issues,issues,issues,left_only
5012,38113RGNSP1655H,ERGON ARMOR-MEMPHIS,324121,issues,issues,issues,issues,issues,ERGON INC,110020518055.0,issues,issues,issues,issues,issues,issues,issues,issues,issues,issues,issues,issues,issues,left_only
5020,4413WLLDCR2214W,ALLIED CORP PLANT 76,324121,issues,issues,issues,issues,issues,CRH AMERICAS INC,110046424749.0,issues,issues,issues,issues,issues,issues,issues,issues,issues,issues,issues,issues,issues,left_only
5025,76131KCHMT600MI,ERGON ASPHALT & EMULSIONS INC - SAGINAW,324121,issues,issues,issues,issues,issues,ERGON INC,110008060383.0,issues,issues,issues,issues,issues,issues,issues,issues,issues,issues,issues,issues,issues,left_only
5027,85226CRFCN6975W,CRAFCO INC - CHANDLER,324121,issues,issues,issues,issues,issues,ERGON INC,110002583623.0,issues,issues,issues,issues,issues,issues,issues,issues,issues,issues,issues,issues,issues,left_only
5029,33610PCFLR6701E,PREFERRED MATERIALS INC-TAMPA ASPHALT PLANT,324121,issues,issues,issues,issues,issues,CRH AMERICAS INC,110008056539.0,issues,issues,issues,issues,issues,issues,issues,issues,issues,issues,issues,issues,issues,left_only
5033,35404MRCHMONEWA,MERICHEM CO,324199,325180.0,issues,issues,issues,issues,MERICHEM CO,110000367175.0,issues,issues,issues,issues,issues,issues,issues,issues,issues,issues,issues,issues,issues,left_only
5040,67801KCHMT2600B,ERGON ASPHALT & EMULSIONS INC. - DODGE CITY,324121,issues,issues,issues,issues,issues,ERGON INC.,110039508789.0,issues,issues,issues,issues,issues,issues,issues,issues,issues,issues,issues,issues,issues,left_only
5042,1366WNRWDM7971S,NORWOOD MIX PLANT,324121,issues,issues,issues,issues,issues,BARRETT INDUSTRIES CORP,110030899080.0,issues,issues,issues,issues,issues,issues,issues,issues,issues,issues,issues,issues,issues,left_only
5044,47265DVMRP485NC,DAVE O'MARA CONTRACTOR INC,324121,issues,issues,issues,issues,issues,DAVE O'MARA CONTRACTOR INC,110031114773.0,issues,issues,issues,issues,issues,issues,issues,issues,issues,issues,issues,issues,issues,left_only
5045,9970WMLSNP25HLL,EMULSION PRODUCTS CO - NORTH POLE FACILITY,324121,issues,issues,issues,issues,issues,COLASKA,110039075489.0,issues,issues,issues,issues,issues,issues,issues,issues,issues,issues,issues,issues,issues,left_only
5047,7511WRGNSP23CEA,ERGON ASPHALT & EMULSIONS INC. - ENNIS,324121,issues,issues,issues,issues,issues,ERGON INC,110043671130.0,issues,issues,issues,issues,issues,issues,issues,issues,issues,issues,issues,issues,issues,left_only
5050,67056SMMTR3INDU,ERGON ASPHALT & EMULSIONS INC. - HALSTEAD,324121,issues,issues,issues,issues,issues,ERGON INC.,110024523933.0,issues,issues,issues,issues,issues,issues,issues,issues,issues,issues,issues,issues,issues,left_only
5052,15025MRTHN1100G,MARATHON PETROLEUM CO - FLOREFFE PA ASPHALT TERMINAL,324121,424710.0,issues,issues,issues,issues,MARATHON PETROLEUM CORP,110025330586.0,issues,issues,issues,issues,issues,issues,issues,issues,issues,issues,issues,issues,issues,left_only
5056,64836BLVNSHWY71,BLEVINS ASPHALT CONSTRUCTION CO INC,324121,issues,issues,issues,issues,issues,BLEVINS ASPHALT CONSTRUCTION CO INC,110017990227.0,issues,issues,issues,issues,issues,issues,issues,issues,issues,issues,issues,issues,issues,left_only
5058,74401KCHMT2501P,BKEP MATERIALS LLC - PORT OF MUSKOGEE,324121,issues,issues,issues,issues,issues,BLUEKNIGHT ENERGY PARTNERS LP,110001645783.0,issues,issues,issues,issues,issues,issues,issues,issues,issues,issues,issues,issues,issues,left_only
5061,48801TRRYM1950W,MICHIGAN PAVING & MATERIALS CO,324121,issues,issues,issues,issues,issues,CRH AMERICAS INC,110012705144.0,issues,issues,issues,issues,issues,issues,issues,issues,issues,issues,issues,issues,issues,left_only
5065,7312WVNCBR498NR,VANCE BROTHERS INC,324121,issues,issues,issues,issues,issues,VANCE BROTHERS INC,110064388700.0,issues,issues,issues,issues,issues,issues,issues,issues,issues,issues,issues,issues,issues,left_only
5069,01887WKFLD900SA,BENEVENTO SAND & STONE CORP,324121,327320.0,issues,issues,issues,issues,issues,110013335603.0,issues,issues,issues,issues,issues,issues,issues,issues,issues,issues,issues,issues,issues,left_only
5072,7670WRGNSP182EA,ERGON ASPHALT & EMULSIONS INC - WACO,324121,issues,issues,issues,issues,issues,ERGON INC.,110006133380.0,issues,issues,issues,issues,issues,issues,issues,issues,issues,issues,issues,issues,issues,left_only
5073,64683CTYFT19E16,CITY OF TRENTON STREET DEPARTMENT,324121,issues,issues,issues,issues,issues,CITY OF TRENTON,110001449415.0,issues,issues,issues,issues,issues,issues,issues,issues,issues,issues,issues,issues,issues,left_only
5081,99163PSPHL5991S,POE ASPHALT PAVING INC.,324121,issues,issues,issues,issues,issues,issues,110031001822.0,issues,issues,issues,issues,issues,issues,issues,issues,issues,issues,issues,issues,issues,left_only
5084,43616SPHLT940NW,ASPHALT MATERIALS INC,324121,issues,issues,issues,issues,issues,HERITAGE GROUP,110004606980.0,issues,issues,issues,issues,issues,issues,issues,issues,issues,issues,issues,issues,issues,left_only
5088,59901JTLGR3131H,JTL GROUP-KALISPELL DBA KNIFE RIVER - KALISPELL,324121,issues,issues,issues,issues,issues,MDU RESOURCES GROUP INC,110020322658.0,issues,issues,issues,issues,issues,issues,issues,issues,issues,issues,issues,issues,issues,left_only
5094,0547WPKNDS326CA,PIKE INDUSTRIES INC. - NEW HAVEN (C600 & P736),324121,issues,issues,issues,issues,issues,CRH AMERICAS INC,110007329275.0,issues,issues,issues,issues,issues,issues,issues,issues,issues,issues,issues,issues,issues,left_only
5097,46268SPHLT4900W,ASPHALT MATERIALS INC,324121,issues,issues,issues,issues,issues,HERITAGE GROUP,110032883896.0,issues,issues,issues,issues,issues,issues,issues,issues,issues,issues,issues,issues,issues,left_only
5099,83854DHSPH16425,IDAHO ASPHALT SUPPLY INC HAUSER PLANT,324121,issues,issues,issues,issues,issues,IDAHO ASPHALT SUPPLY INC,110025317538.0,issues,issues,issues,issues,issues,issues,issues,issues,issues,issues,issues,issues,issues,left_only
5102,37405RGNTR617TE,ERGON TERMINALING INC-CHATTANOOGA,324121,issues,issues,issues,issues,issues,ERGON INC.,110017754358.0,issues,issues,issues,issues,issues,issues,issues,issues,issues,issues,issues,issues,issues,left_only
5105,97303SLMSP971WH,SALEM ASPHALT,324121,issues,issues,issues,issues,issues,MDU RESOURCES GROUP INC,110037149911.0,issues,issues,issues,issues,issues,issues,issues,issues,issues,issues,issues,issues,issues,left_only
5107,74015SMMTR585AR,ERGON ASPHALT & EMULSIONS INC. - CATOOSA,324121,issues,issues,issues,issues,issues,ERGON INC.,110038106288.0,issues,issues,issues,issues,issues,issues,issues,issues,issues,issues,issues,issues,issues,left_only
5112,06450SZSPHWESTF,SUZIO YORK HILL COS,324121,issues,issues,issues,issues,issues,issues,110001730609.0,issues,issues,issues,issues,issues,issues,issues,issues,issues,issues,issues,issues,issues,left_only
5116,80216VNCBR38W62,VANCE BROTHERS INC,324121,issues,issues,issues,issues,issues,VANCE BROTHERS INC,110043694785.0,issues,issues,issues,issues,issues,issues,issues,issues,issues,issues,issues,issues,issues,left_only
5118,95126RDGRH69SUN,REED & GRAHAM INC,324121,issues,issues,issues,issues,issues,issues,110001181328.0,issues,issues,issues,issues,issues,issues,issues,issues,issues,issues,issues,issues,issues,left_only
5121,0883WTRPRCFTFCR,TRAP ROCK INDUSTRIES LLC,324121,237310.0,issues,issues,issues,issues,CRH AMERICAS INC,110030807303.0,issues,issues,issues,issues,issues,issues,issues,issues,issues,issues,issues,issues,issues,left_only
5123,55106KCHMT2209C,FLINT HILLS RESOURCES PINE BEND LLC ST PAUL,324121,issues,issues,issues,issues,issues,KOCH INDUSTRIES INC,110001444884.0,issues,issues,issues,issues,issues,issues,issues,issues,issues,issues,issues,issues,issues,left_only
5136,97060MDRSR57NES,MDU RESOURCES KNIFE RIVER SUNDIAL ASPHALT,324121,issues,issues,issues,issues,issues,MDU RESOURCES GROUP INC,110037149163.0,issues,issues,issues,issues,issues,issues,issues,issues,issues,issues,issues,issues,issues,left_only
5143,06708GNDST566SL,O&G INDUSTRIES INC.,324121,issues,issues,issues,issues,issues,O & G INDUSTRIES INC,110007241626.0,issues,issues,issues,issues,issues,issues,issues,issues,issues,issues,issues,issues,issues,left_only
5147,21030MRYLN1BEAV,MARYLAND PAVING INC,324121,issues,issues,issues,issues,issues,MARYLAND PAVING INC,110023128738.0,issues,issues,issues,issues,issues,issues,issues,issues,issues,issues,issues,issues,issues,left_only
5149,3885WRGNSP35CR3,ERGON ASPHALT & EMULSIONS INC. - YELLOW CREEK,324121,424710.0,issues,issues,issues,issues,ERGON INC.,110046279175.0,issues,issues,issues,issues,issues,issues,issues,issues,issues,issues,issues,issues,issues,left_only
5151,02322TLDWR100WA,TL EDWARDS INC.,324121,issues,issues,issues,issues,issues,issues,110024350263.0,issues,issues,issues,issues,issues,issues,issues,issues,issues,issues,issues,issues,issues,left_only
5154,19714VPRCN16BRO,VP RACING FUELS,324199,issues,issues,issues,issues,issues,VP RACING FUELS INC,110012707801.0,issues,issues,issues,issues,issues,issues,issues,issues,issues,issues,issues,issues,issues,left_only
5155,92602LLMRC16JEF,ALL AMERICAN ASPHALT,324121,212321.0,issues,issues,issues,issues,issues,110031001582.0,issues,issues,issues,issues,issues,issues,issues,issues,issues,issues,issues,issues,issues,left_only
5158,1422WBFFLC8615W,NESL - WEHRLE/BARTON FACILITY,324121,327320.0,issues,issues,issues,issues,issues,110067200291.0,issues,issues,issues,issues,issues,issues,issues,issues,issues,issues,issues,issues,issues,left_only
5164,0581WPKNDS2884D,PIKE INDUSTRIES INC. - WATERFORD VT (P702 & C603),324121,issues,issues,issues,issues,issues,CRH AMERICAS INC,110010911834.0,issues,issues,issues,issues,issues,issues,issues,issues,issues,issues,issues,issues,issues,left_only
5167,97470LTMNC186BE,MDU RESOURCES ROSEBURG ASPHALT,324121,issues,issues,issues,issues,issues,MDU RESOURCES GROUP INC,110014266310.0,issues,issues,issues,issues,issues,issues,issues,issues,issues,issues,issues,issues,issues,left_only
5169,97502LTMMD3959H,MDU RESOURCES CENTRAL POINT CONCRETE,324121,issues,issues,issues,issues,issues,MDU RESOURCES GROUP INC,110001654941.0,issues,issues,issues,issues,issues,issues,issues,issues,issues,issues,issues,issues,issues,left_only
5176,1633WSTKTM1965M,SUIT-KOTE MEADVILLE,324121,issues,issues,issues,issues,issues,SUIT-KOTE CORP,110039496943.0,issues,issues,issues,issues,issues,issues,issues,issues,issues,issues,issues,issues,issues,left_only
5183,13043CLLNNINGAL,CALLANAN INDUSTRIES INC. OXBOW FACILITY,324121,212312.0,issues,issues,issues,issues,CRH AMERICAS INC,110015784864.0,issues,issues,issues,issues,issues,issues,issues,issues,issues,issues,issues,issues,issues,left_only
5185,76703KNFRV3423M,KNIFE RIVER CORP - SOUTH WACO ASPHALT PLANT,324121,issues,issues,issues,issues,issues,MDU RESOURCES GROUP INC,110037145185.0,issues,issues,issues,issues,issues,issues,issues,issues,issues,issues,issues,issues,issues,left_only
5187,13101PLKVLRT11R,POLKVILLE CRUSHED STONE/SUIT-KOTE TERMINAL,324121,issues,issues,issues,issues,issues,SUIT-KOTE CORP,110007146882.0,issues,issues,issues,issues,issues,issues,issues,issues,issues,issues,issues,issues,issues,left_only
5189,78610RTHTM117FM,ASPHALT INC BUDA CENTEX PLANT,324121,issues,issues,issues,issues,issues,ASPHALT INC. LLC,110037146852.0,issues,issues,issues,issues,issues,issues,issues,issues,issues,issues,issues,issues,issues,left_only
5191,4575WSPHLT13925,ASPHALT MATERIALS INC,324121,issues,issues,issues,issues,issues,HERITAGE GROUP,110041626121.0,issues,issues,issues,issues,issues,issues,issues,issues,issues,issues,issues,issues,issues,left_only
5194,07069FNWDSNEWPR,FANWOOD CRUSHED STONE,324121,327320.0,issues,issues,issues,issues,WELDON MATERIALS INC,110004184230.0,issues,issues,issues,issues,issues,issues,issues,issues,issues,issues,issues,issues,issues,left_only
5196,87107KCHMT4949E,HOLLYFRONTIER ASPHALT CO LLC - ALBUQUERQUE NM,324121,issues,issues,issues,issues,issues,HOLLYFRONTIER CORP,110017347771.0,issues,issues,issues,issues,issues,issues,issues,issues,issues,issues,issues,issues,issues,left_only
5198,63869KCHMTHWY61,HEARTLAND ASPHALT MATERIALS,324121,issues,issues,issues,issues,issues,DELTA COS INC,110011109549.0,issues,issues,issues,issues,issues,issues,issues,issues,issues,issues,issues,issues,issues,left_only
5200,31408KCHMT14FOU,ERGON ASPHALT & EMULSIONS INC. - GARDEN CITY,324121,issues,issues,issues,issues,issues,ERGON INC.,110044220973.0,issues,issues,issues,issues,issues,issues,issues,issues,issues,issues,issues,issues,issues,left_only
5202,75247PCTXS4525L,TEXAS BIT LESTON ASPHLAT PLANT,324121,issues,issues,issues,issues,issues,CRH AMERICAS INC,110008060285.0,issues,issues,issues,issues,issues,issues,issues,issues,issues,issues,issues,issues,issues,left_only
5203,06791GNDST255BG,O&G INDUSTRIES INC.,324121,327999.0,327320.0,issues,issues,issues,O & G INDUSTRIES INC,110002009157.0,issues,issues,issues,issues,issues,issues,issues,issues,issues,issues,issues,issues,issues,left_only
5205,89015LSVGSEASTG,LAS VEGAS PAVING CORP,324121,issues,issues,issues,issues,issues,LAS VEGAS PAVING CORP,110025332209.0,issues,issues,issues,issues,issues,issues,issues,issues,issues,issues,issues,issues,issues,left_only
5206,13045CRTLN1911L,CORTLAND ASPHALT PRODUCTS,324121,issues,issues,issues,issues,issues,SUIT-KOTE CORP,110001567652.0,issues,issues,issues,issues,issues,issues,issues,issues,issues,issues,issues,issues,issues,left_only
5208,89129LSVGSWLNEM,LAS VEGAS PAVING CORP,324121,issues,issues,issues,issues,issues,LAS VEGAS PAVING CORP,110025332502.0,issues,issues,issues,issues,issues,issues,issues,issues,issues,issues,issues,issues,issues,left_only
5210,01824GGRGT16OAK,AGGREGATE INDUSTRIES NORTHEAST REGION INC,324121,issues,issues,issues,issues,issues,HOLCIM (US) INC,110043936667.0,issues,issues,issues,issues,issues,issues,issues,issues,issues,issues,issues,issues,issues,left_only
5214,02093GGRGT400GR,AGGREGATE INDUSTRIES NORTHEAST REGION INC,324121,212319.0,issues,issues,issues,issues,HOLCIM (US) INC,110012709140.0,issues,issues,issues,issues,issues,issues,issues,issues,issues,issues,issues,issues,issues,left_only
5220,4752WDVMRC13966,DAVE O'MARA CONTRACTOR INC,324121,issues,issues,issues,issues,issues,DAVE O'MARA CONTRACTOR INC,110046123690.0,issues,issues,issues,issues,issues,issues,issues,issues,issues,issues,issues,issues,issues,left_only
