Facility Id,FRS Id,Primary NAICS Code,Industry Type (subparts),Industry Type (sectors),Unit Name,Unit Type,Unit Reporting Method,Unit Maximum Rated Heat Input Capacity (mmBTU/hr),Unit CO2 emissions (non-biogenic) ,Unit Methane (CH4) emissions ,Unit Nitrous Oxide (N2O) emissions ,Unit Biogenic CO2 emissions (metric tons),FacilityID,FacilityName,Address,City,State,Zip,Latitude,Longitude,County,NAICS,SIC
1006845,110043799752.0,211120,C,Petroleum and Natural Gas Systems,Belridge Office - EPA [11-12-13],CH (Comfort heater),Tier1/2/3,6.48,356.2,0.25,0.298,0.0,1006845,Aera Energy Belridge,59231 Main Camp Road,McKittrick,CA,93251,35.45306,-119.719337,KERN,211111,
1006845,110043799752.0,211120,C,Petroleum and Natural Gas Systems,CP-BL-04,OCS (Other combustion source),Tier1/2/3,62.5,9518.1,4.5,5.364,0.0,1006845,Aera Energy Belridge,59231 Main Camp Road,McKittrick,CA,93251,35.45306,-119.719337,KERN,211111,
1006845,110043799752.0,211120,C,Petroleum and Natural Gas Systems,CP-BL-05,OCS (Other combustion source),Tier1/2/3,62.5,11106.6,5.25,6.258,0.0,1006845,Aera Energy Belridge,59231 Main Camp Road,McKittrick,CA,93251,35.45306,-119.719337,KERN,211111,
1006845,110043799752.0,211120,C,Petroleum and Natural Gas Systems,CP-BL-09,OCS (Other combustion source),Tier1/2/3,200.0,263022.4,124.0,147.808,0.0,1006845,Aera Energy Belridge,59231 Main Camp Road,McKittrick,CA,93251,35.45306,-119.719337,KERN,211111,
1006845,110043799752.0,211120,C,Petroleum and Natural Gas Systems,CP-BL-22,OCS (Other combustion source),Tier1/2/3,85.0,310996.7,146.5,174.628,0.0,1006845,Aera Energy Belridge,59231 Main Camp Road,McKittrick,CA,93251,35.45306,-119.719337,KERN,211111,
1006845,110043799752.0,211120,C,Petroleum and Natural Gas Systems,CP-BL-23,OCS (Other combustion source),Tier1/2/3,62.5,87667.4,41.25,49.17,0.0,1006845,Aera Energy Belridge,59231 Main Camp Road,McKittrick,CA,93251,35.45306,-119.719337,KERN,211111,
1006845,110043799752.0,211120,C,Petroleum and Natural Gas Systems,CP-BL-24,OCS (Other combustion source),Tier1/2/3,85.0,335376.1,158.0,188.336,0.0,1006845,Aera Energy Belridge,59231 Main Camp Road,McKittrick,CA,93251,35.45306,-119.719337,KERN,211111,
1006845,110043799752.0,211120,C,Petroleum and Natural Gas Systems,CP-BL-26,OCS (Other combustion source),Tier1/2/3,62.5,87314.5,41.25,49.17,0.0,1006845,Aera Energy Belridge,59231 Main Camp Road,McKittrick,CA,93251,35.45306,-119.719337,KERN,211111,
1006845,110043799752.0,211120,C,Petroleum and Natural Gas Systems,CP-BL-27,OCS (Other combustion source),Tier1/2/3,62.5,51845.5,24.5,29.204,0.0,1006845,Aera Energy Belridge,59231 Main Camp Road,McKittrick,CA,93251,35.45306,-119.719337,KERN,211111,
1006845,110043799752.0,211120,C,Petroleum and Natural Gas Systems,CP-BL-28,OCS (Other combustion source),Tier1/2/3,62.5,9800.5,4.5,5.364,0.0,1006845,Aera Energy Belridge,59231 Main Camp Road,McKittrick,CA,93251,35.45306,-119.719337,KERN,211111,
1006845,110043799752.0,211120,C,Petroleum and Natural Gas Systems,GP-Beridge Propane,OCS (Other combustion source),Tier1/2/3,0.636108,1.2,0.0,0.0,0.0,1006845,Aera Energy Belridge,59231 Main Camp Road,McKittrick,CA,93251,35.45306,-119.719337,KERN,211111,
1006845,110043799752.0,211120,C,Petroleum and Natural Gas Systems,GP-BL-04,OCS (Other combustion source),Tier1/2/3,62.5,195013.9,92.0,109.664,0.0,1006845,Aera Energy Belridge,59231 Main Camp Road,McKittrick,CA,93251,35.45306,-119.719337,KERN,211111,
1006845,110043799752.0,211120,C,Petroleum and Natural Gas Systems,GP-BL-07,OCS (Other combustion source),Tier1/2/3,62.5,40982.1,19.25,22.946,0.0,1006845,Aera Energy Belridge,59231 Main Camp Road,McKittrick,CA,93251,35.45306,-119.719337,KERN,211111,
1006845,110043799752.0,211120,C,Petroleum and Natural Gas Systems,GP-BL-08,OCS (Other combustion source),Tier1/2/3,62.5,184757.0,87.0,103.704,0.0,1006845,Aera Energy Belridge,59231 Main Camp Road,McKittrick,CA,93251,35.45306,-119.719337,KERN,211111,
1006845,110043799752.0,211120,C,Petroleum and Natural Gas Systems,Belridge Office - EPA [11-12-13],CH (Comfort heater),Tier1/2/3,6.48,355.4,0.25,0.298,0.0,1006845,Aera Energy Belridge,59231 Main Camp Road,McKittrick,CA,93251,35.45306,-119.719337,KERN,211111,
1006845,110043799752.0,211120,C,Petroleum and Natural Gas Systems,CP-BL-04,OCS (Other combustion source),Tier1/2/3,62.5,20297.3,9.5,11.324,0.0,1006845,Aera Energy Belridge,59231 Main Camp Road,McKittrick,CA,93251,35.45306,-119.719337,KERN,211111,
1006845,110043799752.0,211120,C,Petroleum and Natural Gas Systems,CP-BL-05,OCS (Other combustion source),Tier1/2/3,62.5,9281.4,4.25,5.066,0.0,1006845,Aera Energy Belridge,59231 Main Camp Road,McKittrick,CA,93251,35.45306,-119.719337,KERN,211111,
1006845,110043799752.0,211120,C,Petroleum and Natural Gas Systems,CP-BL-09,OCS (Other combustion source),Tier1/2/3,200.0,247511.3,116.5,138.868,0.0,1006845,Aera Energy Belridge,59231 Main Camp Road,McKittrick,CA,93251,35.45306,-119.719337,KERN,211111,
1006845,110043799752.0,211120,C,Petroleum and Natural Gas Systems,CP-BL-22,OCS (Other combustion source),Tier1/2/3,85.0,220861.4,104.0,123.968,0.0,1006845,Aera Energy Belridge,59231 Main Camp Road,McKittrick,CA,93251,35.45306,-119.719337,KERN,211111,
1006845,110043799752.0,211120,C,Petroleum and Natural Gas Systems,CP-BL-23,OCS (Other combustion source),Tier1/2/3,62.5,94570.2,44.5,53.044,0.0,1006845,Aera Energy Belridge,59231 Main Camp Road,McKittrick,CA,93251,35.45306,-119.719337,KERN,211111,
1006845,110043799752.0,211120,C,Petroleum and Natural Gas Systems,CP-BL-24,OCS (Other combustion source),Tier1/2/3,85.0,321185.2,151.25,180.29,0.0,1006845,Aera Energy Belridge,59231 Main Camp Road,McKittrick,CA,93251,35.45306,-119.719337,KERN,211111,
1006845,110043799752.0,211120,C,Petroleum and Natural Gas Systems,CP-BL-26,OCS (Other combustion source),Tier1/2/3,62.5,106179.6,50.0,59.6,0.0,1006845,Aera Energy Belridge,59231 Main Camp Road,McKittrick,CA,93251,35.45306,-119.719337,KERN,211111,
1006845,110043799752.0,211120,C,Petroleum and Natural Gas Systems,CP-BL-27,OCS (Other combustion source),Tier1/2/3,62.5,51067.4,24.0,28.608,0.0,1006845,Aera Energy Belridge,59231 Main Camp Road,McKittrick,CA,93251,35.45306,-119.719337,KERN,211111,
1006845,110043799752.0,211120,C,Petroleum and Natural Gas Systems,GP-Beridge Propane,OCS (Other combustion source),Tier1/2/3,0.636108,1.3,0.0,0.0,0.0,1006845,Aera Energy Belridge,59231 Main Camp Road,McKittrick,CA,93251,35.45306,-119.719337,KERN,211111,
1006845,110043799752.0,211120,C,Petroleum and Natural Gas Systems,GP-BL-04,OCS (Other combustion source),Tier1/2/3,62.5,386093.1,182.0,216.944,0.0,1006845,Aera Energy Belridge,59231 Main Camp Road,McKittrick,CA,93251,35.45306,-119.719337,KERN,211111,
1006845,110043799752.0,211120,C,Petroleum and Natural Gas Systems,GP-BL-07,OCS (Other combustion source),Tier1/2/3,62.5,45730.7,21.5,25.628,0.0,1006845,Aera Energy Belridge,59231 Main Camp Road,McKittrick,CA,93251,35.45306,-119.719337,KERN,211111,
1006845,110043799752.0,211120,C,Petroleum and Natural Gas Systems,Belridge Office - EPA [11-12-13],CH (Comfort heater),Tier1/2/3,6.48,354.6,0.25,0.298,0.0,1006845,Aera Energy Belridge,59231 Main Camp Road,McKittrick,CA,93251,35.45306,-119.719337,KERN,211111,
1006845,110043799752.0,211120,C,Petroleum and Natural Gas Systems,CP-BL-04,OCS (Other combustion source),Tier1/2/3,62.5,14240.1,6.75,8.046,0.0,1006845,Aera Energy Belridge,59231 Main Camp Road,McKittrick,CA,93251,35.45306,-119.719337,KERN,211111,
1006845,110043799752.0,211120,C,Petroleum and Natural Gas Systems,CP-BL-05,OCS (Other combustion source),Tier1/2/3,62.5,9049.9,4.25,5.066,0.0,1006845,Aera Energy Belridge,59231 Main Camp Road,McKittrick,CA,93251,35.45306,-119.719337,KERN,211111,
1006845,110043799752.0,211120,C,Petroleum and Natural Gas Systems,CP-BL-09,OCS (Other combustion source),Tier1/2/3,200.0,254335.9,119.75,142.742,0.0,1006845,Aera Energy Belridge,59231 Main Camp Road,McKittrick,CA,93251,35.45306,-119.719337,KERN,211111,
1006845,110043799752.0,211120,C,Petroleum and Natural Gas Systems,CP-BL-22,OCS (Other combustion source),Tier1/2/3,85.0,295505.2,139.25,165.986,0.0,1006845,Aera Energy Belridge,59231 Main Camp Road,McKittrick,CA,93251,35.45306,-119.719337,KERN,211111,
1006845,110043799752.0,211120,C,Petroleum and Natural Gas Systems,CP-BL-23,OCS (Other combustion source),Tier1/2/3,62.5,102182.6,48.25,57.514,0.0,1006845,Aera Energy Belridge,59231 Main Camp Road,McKittrick,CA,93251,35.45306,-119.719337,KERN,211111,
1006845,110043799752.0,211120,C,Petroleum and Natural Gas Systems,CP-BL-24,OCS (Other combustion source),Tier1/2/3,85.0,328665.5,154.75,184.462,0.0,1006845,Aera Energy Belridge,59231 Main Camp Road,McKittrick,CA,93251,35.45306,-119.719337,KERN,211111,
1006845,110043799752.0,211120,C,Petroleum and Natural Gas Systems,CP-BL-26,OCS (Other combustion source),Tier1/2/3,62.5,91184.3,43.0,51.256,0.0,1006845,Aera Energy Belridge,59231 Main Camp Road,McKittrick,CA,93251,35.45306,-119.719337,KERN,211111,
1006845,110043799752.0,211120,C,Petroleum and Natural Gas Systems,CP-BL-27,OCS (Other combustion source),Tier1/2/3,62.5,37833.8,17.75,21.158,0.0,1006845,Aera Energy Belridge,59231 Main Camp Road,McKittrick,CA,93251,35.45306,-119.719337,KERN,211111,
1006845,110043799752.0,211120,C,Petroleum and Natural Gas Systems,GP-Beridge Propane,OCS (Other combustion source),Tier1/2/3,0.636108,0.6,0.0,0.0,0.0,1006845,Aera Energy Belridge,59231 Main Camp Road,McKittrick,CA,93251,35.45306,-119.719337,KERN,211111,
1006845,110043799752.0,211120,C,Petroleum and Natural Gas Systems,GP-BL-04,OCS (Other combustion source),Tier1/2/3,62.5,429560.9,202.5,241.38,0.0,1006845,Aera Energy Belridge,59231 Main Camp Road,McKittrick,CA,93251,35.45306,-119.719337,KERN,211111,
1006845,110043799752.0,211120,C,Petroleum and Natural Gas Systems,GP-BL-06,OCS (Other combustion source),Tier1/2/3,62.5,8822.8,4.25,5.066,0.0,1006845,Aera Energy Belridge,59231 Main Camp Road,McKittrick,CA,93251,35.45306,-119.719337,KERN,211111,
1006845,110043799752.0,211120,"C,NN,W","Natural Gas and Natural Gas Liquids Suppliers, Petroleum and Natural Gas Systems",Belridge Office - EPA [11-12-13],CH (Comfort heater),Tier1/2/3,6.48,354.2,0.25,0.298,0.0,1006845,Aera Energy Belridge,59231 Main Camp Road,McKittrick,CA,93251,35.45306,-119.719337,KERN,211111,
1006845,110043799752.0,211120,"C,NN,W","Natural Gas and Natural Gas Liquids Suppliers, Petroleum and Natural Gas Systems",CP-BL-04,OCS (Other combustion source),Tier1/2/3,62.5,9550.8,4.5,5.364,0.0,1006845,Aera Energy Belridge,59231 Main Camp Road,McKittrick,CA,93251,35.45306,-119.719337,KERN,211111,
1006845,110043799752.0,211120,"C,NN,W","Natural Gas and Natural Gas Liquids Suppliers, Petroleum and Natural Gas Systems",CP-BL-05,OCS (Other combustion source),Tier1/2/3,62.5,13354.5,6.25,7.45,0.0,1006845,Aera Energy Belridge,59231 Main Camp Road,McKittrick,CA,93251,35.45306,-119.719337,KERN,211111,
1006845,110043799752.0,211120,"C,NN,W","Natural Gas and Natural Gas Liquids Suppliers, Petroleum and Natural Gas Systems",CP-BL-09,OCS (Other combustion source),Tier1/2/3,200.0,261191.1,123.0,146.616,0.0,1006845,Aera Energy Belridge,59231 Main Camp Road,McKittrick,CA,93251,35.45306,-119.719337,KERN,211111,
1006845,110043799752.0,211120,"C,NN,W","Natural Gas and Natural Gas Liquids Suppliers, Petroleum and Natural Gas Systems",CP-BL-22,OCS (Other combustion source),Tier1/2/3,85.0,299782.7,141.25,168.37,0.0,1006845,Aera Energy Belridge,59231 Main Camp Road,McKittrick,CA,93251,35.45306,-119.719337,KERN,211111,
1006845,110043799752.0,211120,"C,NN,W","Natural Gas and Natural Gas Liquids Suppliers, Petroleum and Natural Gas Systems",CP-BL-23,OCS (Other combustion source),Tier1/2/3,62.5,105310.7,49.5,59.004,0.0,1006845,Aera Energy Belridge,59231 Main Camp Road,McKittrick,CA,93251,35.45306,-119.719337,KERN,211111,
1006845,110043799752.0,211120,"C,NN,W","Natural Gas and Natural Gas Liquids Suppliers, Petroleum and Natural Gas Systems",CP-BL-24,OCS (Other combustion source),Tier1/2/3,85.0,317785.5,149.75,178.502,0.0,1006845,Aera Energy Belridge,59231 Main Camp Road,McKittrick,CA,93251,35.45306,-119.719337,KERN,211111,
1006845,110043799752.0,211120,"C,NN,W","Natural Gas and Natural Gas Liquids Suppliers, Petroleum and Natural Gas Systems",CP-BL-25,OCS (Other combustion source),Tier1/2/3,62.5,70439.3,33.25,39.634,0.0,1006845,Aera Energy Belridge,59231 Main Camp Road,McKittrick,CA,93251,35.45306,-119.719337,KERN,211111,
1006845,110043799752.0,211120,"C,NN,W","Natural Gas and Natural Gas Liquids Suppliers, Petroleum and Natural Gas Systems",CP-BL-26,OCS (Other combustion source),Tier1/2/3,62.5,55200.5,26.0,30.992,0.0,1006845,Aera Energy Belridge,59231 Main Camp Road,McKittrick,CA,93251,35.45306,-119.719337,KERN,211111,
1006845,110043799752.0,211120,"C,NN,W","Natural Gas and Natural Gas Liquids Suppliers, Petroleum and Natural Gas Systems",CP-BL-27,OCS (Other combustion source),Tier1/2/3,62.5,4373.4,2.0,2.384,0.0,1006845,Aera Energy Belridge,59231 Main Camp Road,McKittrick,CA,93251,35.45306,-119.719337,KERN,211111,
1006845,110043799752.0,211120,"C,NN,W","Natural Gas and Natural Gas Liquids Suppliers, Petroleum and Natural Gas Systems",GP-Beridge Propane,OCS (Other combustion source),Tier1/2/3,0.636108,2.8,0.0,0.0,0.0,1006845,Aera Energy Belridge,59231 Main Camp Road,McKittrick,CA,93251,35.45306,-119.719337,KERN,211111,
1006845,110043799752.0,211120,"C,NN,W","Natural Gas and Natural Gas Liquids Suppliers, Petroleum and Natural Gas Systems",GP-BL-04,OCS (Other combustion source),Tier1/2/3,62.5,468104.5,220.5,262.836,0.0,1006845,Aera Energy Belridge,59231 Main Camp Road,McKittrick,CA,93251,35.45306,-119.719337,KERN,211111,
1006845,110043799752.0,211120,"C,NN,W","Natural Gas and Natural Gas Liquids Suppliers, Petroleum and Natural Gas Systems",GP-BL-06,OCS (Other combustion source),Tier1/2/3,62.5,59334.8,28.0,33.376,0.0,1006845,Aera Energy Belridge,59231 Main Camp Road,McKittrick,CA,93251,35.45306,-119.719337,KERN,211111,
1002515,110043804096.0,211130,"C,PP,UU,W","Injection of CO2, Petroleum and Natural Gas Systems, Suppliers of CO2",CP-Id: 04035-00 (GHG Only),,Tier1/2/3,36.0,78993.4,37.25,44.402,0.0,1002515,ARTESIA GAS PLANT,None,ARTESIA,NM,88210,32.7564,-104.2111,EDDY,211112,
1002515,110043804096.0,211130,"C,PP,UU,W","Injection of CO2, Petroleum and Natural Gas Systems, Suppliers of CO2",Unmetered SH1 (GHG Only),CH (Comfort heater),Tier1/2/3,0.5,0.0,0.0,0.0,0.0,1002515,ARTESIA GAS PLANT,None,ARTESIA,NM,88210,32.7564,-104.2111,EDDY,211112,
1002515,110043804096.0,211130,"C,PP,UU,W","Injection of CO2, Petroleum and Natural Gas Systems, Suppliers of CO2",Unmetered SH2 (GHG Only),CH (Comfort heater),Tier1/2/3,0.5,0.0,0.0,0.0,0.0,1002515,ARTESIA GAS PLANT,None,ARTESIA,NM,88210,32.7564,-104.2111,EDDY,211112,
1002515,110043804096.0,211130,"C,PP,UU,W","Injection of CO2, Petroleum and Natural Gas Systems, Suppliers of CO2",CP-Id: 04035-00 (GHG Only),,Tier1/2/3,36.0,65355.4,30.75,36.654,0.0,1002515,ARTESIA GAS PLANT,None,ARTESIA,NM,88210,32.7564,-104.2111,EDDY,211112,
1002515,110043804096.0,211130,"C,PP,UU,W","Injection of CO2, Petroleum and Natural Gas Systems, Suppliers of CO2",CP-Id: 04035-00 (GHG Only),,Tier1/2/3,36.0,62323.7,29.25,34.866,0.0,1002515,ARTESIA GAS PLANT,None,ARTESIA,NM,88210,32.7564,-104.2111,EDDY,211112,
1002515,110043804096.0,211130,"C,PP,UU,W","Injection of CO2, Petroleum and Natural Gas Systems, Suppliers of CO2",Unmetered SH1 (GHG Only),CH (Comfort heater),Tier1/2/3,0.5,232.4,0.0,0.0,0.0,1002515,ARTESIA GAS PLANT,None,ARTESIA,NM,88210,32.7564,-104.2111,EDDY,211112,
1002515,110043804096.0,211130,"C,PP,UU,W","Injection of CO2, Petroleum and Natural Gas Systems, Suppliers of CO2",Unmetered SH2 (GHG Only),CH (Comfort heater),Tier1/2/3,0.5,232.4,0.0,0.0,0.0,1002515,ARTESIA GAS PLANT,None,ARTESIA,NM,88210,32.7564,-104.2111,EDDY,211112,
1002515,110043804096.0,211130,"C,PP,UU,W","Injection of CO2, Petroleum and Natural Gas Systems, Suppliers of CO2",CP-Id: 04035-00 (GHG Only),,Tier1/2/3,36.0,62082.1,29.25,34.866,0.0,1002515,ARTESIA GAS PLANT,None,ARTESIA,NM,88210,32.7564,-104.2111,EDDY,211112,
1002943,110021174744.0,211130,"C,PP,W","Petroleum and Natural Gas Systems, Suppliers of CO2",GP-1,OCS (Other combustion source),Tier1/2/3,78.21302167,96519.7,45.5,54.236,0.0,1002943,"BARGATH, INC.- PARACHUTE",None,"PARACHUTE, 3.4 MI NW OF",CO,81635,39.487297,-108.111356,GARFIELD,211112,
1002943,110021174744.0,211130,"C,PP,W","Petroleum and Natural Gas Systems, Suppliers of CO2",GP-1,OCS (Other combustion source),Tier1/2/3,78.21302167,93405.8,44.0,52.448,0.0,1002943,"BARGATH, INC.- PARACHUTE",None,"PARACHUTE, 3.4 MI NW OF",CO,81635,39.487297,-108.111356,GARFIELD,211112,
1002943,110021174744.0,211130,"C,PP,W","Petroleum and Natural Gas Systems, Suppliers of CO2",GP-1,OCS (Other combustion source),Tier1/2/3,78.21302167,96474.5,45.5,54.236,0.0,1002943,"BARGATH, INC.- PARACHUTE",None,"PARACHUTE, 3.4 MI NW OF",CO,81635,39.487297,-108.111356,GARFIELD,211112,
1002325,110025328795.0,211130,"C,W",Petroleum and Natural Gas Systems,GP-001,OCS (Other combustion source),Tier1/2/3,15.39,57468.1,27.0,32.184,0.0,1002325,BENEDUM GAS PLANT,10501 HIGHWAY 1555,MIDKIFF,TX,79755,31.362088,-101.77962,UPTON,211112,
1002325,110025328795.0,211130,"C,W",Petroleum and Natural Gas Systems,GP-002,OCS (Other combustion source),Tier1/2/3,17.4,65444.8,30.75,36.654,0.0,1002325,BENEDUM GAS PLANT,10501 HIGHWAY 1555,MIDKIFF,TX,79755,31.362088,-101.77962,UPTON,211112,
1002325,110025328795.0,211130,"C,W",Petroleum and Natural Gas Systems,GP-001,OCS (Other combustion source),Tier1/2/3,13.91,61357.0,29.0,34.568,0.0,1002325,BENEDUM GAS PLANT,10501 HIGHWAY 1555,MIDKIFF,TX,79755,31.362088,-101.77962,UPTON,211112,
1002325,110025328795.0,211130,"C,W",Petroleum and Natural Gas Systems,GP-002,OCS (Other combustion source),Tier1/2/3,17.4,78373.2,37.0,44.104,0.0,1002325,BENEDUM GAS PLANT,10501 HIGHWAY 1555,MIDKIFF,TX,79755,31.362088,-101.77962,UPTON,211112,
1002325,110025328795.0,211130,"C,W",Petroleum and Natural Gas Systems,GP-001,OCS (Other combustion source),Tier1/2/3,17.4,125654.1,59.25,70.626,0.0,1002325,BENEDUM GAS PLANT,10501 HIGHWAY 1555,MIDKIFF,TX,79755,31.362088,-101.77962,UPTON,211112,
1002298,110043793419.0,211130,"C,W",Petroleum and Natural Gas Systems,GP-522715,OCS (Other combustion source),Tier1/2/3,5.5,17205.1,8.0,9.536,0.0,1002298,Bethel Gas Treating Facility,1760 Anderson County Rd 2608,Tennessee Colony,TX,75861,31.800928,-96.110294,FREESTONE,211111,
1002298,110043793419.0,211130,"C,W",Petroleum and Natural Gas Systems,GP-522715,OCS (Other combustion source),Tier1/2/3,5.5,21325.1,10.0,11.92,0.0,1002298,Bethel Gas Treating Facility,1760 Anderson County Rd 2608,Tennessee Colony,TX,75861,31.800928,-96.110294,FREESTONE,211111,
1002298,110043793419.0,211130,"C,W",Petroleum and Natural Gas Systems,GP-522715,OCS (Other combustion source),Tier1/2/3,5.5,28433.4,13.5,16.092,0.0,1002298,Bethel Gas Treating Facility,1760 Anderson County Rd 2608,Tennessee Colony,TX,75861,31.800928,-96.110294,FREESTONE,211111,
1002251,110000727697.0,211130,"C,NN,W","Natural Gas and Natural Gas Liquids Suppliers, Petroleum and Natural Gas Systems",CP-COMBUSTION,OCS (Other combustion source),Tier1/2/3,97.0,94029.2,44.25,52.746,0.0,1002251,"Big Escambia Creek Gas Production, Treating and Processing Facility (BEC)",3888 Sardis Church Road,Atmore,AL,36502,31.0717,-87.3629,ESCAMBIA,211112,
1002251,110000727697.0,211130,"C,NN,W","Natural Gas and Natural Gas Liquids Suppliers, Petroleum and Natural Gas Systems",CP-COMPRESSOR,OCS (Other combustion source),Tier1/2/3,13.546,3994.0,2.0,2.384,0.0,1002251,"Big Escambia Creek Gas Production, Treating and Processing Facility (BEC)",3888 Sardis Church Road,Atmore,AL,36502,31.0717,-87.3629,ESCAMBIA,211112,
1002251,110000727697.0,211130,"C,NN,W","Natural Gas and Natural Gas Liquids Suppliers, Petroleum and Natural Gas Systems",CP-COMBUSTION,OCS (Other combustion source),Tier1/2/3,97.0,90534.8,42.75,50.958,0.0,1002251,"Big Escambia Creek Gas Production, Treating and Processing Facility (BEC)",3888 Sardis Church Road,Atmore,AL,36502,31.0717,-87.3629,ESCAMBIA,211112,
1002251,110000727697.0,211130,"C,NN,W","Natural Gas and Natural Gas Liquids Suppliers, Petroleum and Natural Gas Systems",CP-COMPRESSOR,OCS (Other combustion source),Tier1/2/3,13.546,4145.6,2.0,2.384,0.0,1002251,"Big Escambia Creek Gas Production, Treating and Processing Facility (BEC)",3888 Sardis Church Road,Atmore,AL,36502,31.0717,-87.3629,ESCAMBIA,211112,
1002251,110000727697.0,211130,"C,NN,W","Natural Gas and Natural Gas Liquids Suppliers, Petroleum and Natural Gas Systems",CP-COMBUSTION,OCS (Other combustion source),Tier1/2/3,97.0,95643.6,45.0,53.64,0.0,1002251,"Big Escambia Creek Gas Production, Treating and Processing Facility (BEC)",3888 Sardis Church Road,Atmore,AL,36502,31.0717,-87.3629,ESCAMBIA,211112,
1002251,110000727697.0,211130,"C,NN,W","Natural Gas and Natural Gas Liquids Suppliers, Petroleum and Natural Gas Systems",CP-COMPRESSOR,OCS (Other combustion source),Tier1/2/3,13.546,7150.4,3.25,3.874,0.0,1002251,"Big Escambia Creek Gas Production, Treating and Processing Facility (BEC)",3888 Sardis Church Road,Atmore,AL,36502,31.0717,-87.3629,ESCAMBIA,211112,
1008031,110043785286.0,211130,"C,W",Petroleum and Natural Gas Systems,GP-CCE01,OCS (Other combustion source),Tier1/2/3,70.0,30353.7,14.25,16.986,0.0,1008031,Carter Creek,None,Evanston,WY,82930,41.2598744,-110.979818,CONTRA COSTA,211112,
1008031,110043785286.0,211130,"C,W",Petroleum and Natural Gas Systems,GP-CCH02,OCS (Other combustion source),Tier1/2/3,116.2,85133.8,40.0,47.68,0.0,1008031,Carter Creek,None,Evanston,WY,82930,41.2598744,-110.979818,CONTRA COSTA,211112,
1008031,110043785286.0,211130,"C,W",Petroleum and Natural Gas Systems,GP-CCE01,OCS (Other combustion source),Tier1/2/3,25.0,13244.1,6.25,7.45,0.0,1008031,Carter Creek,None,Evanston,WY,82930,41.2598744,-110.979818,CONTRA COSTA,211112,
1008031,110043785286.0,211130,"C,W",Petroleum and Natural Gas Systems,GP-CCH02,OCS (Other combustion source),Tier1/2/3,116.2,91739.9,43.25,51.554,0.0,1008031,Carter Creek,None,Evanston,WY,82930,41.2598744,-110.979818,CONTRA COSTA,211112,
1008031,110043785286.0,211130,"C,W",Petroleum and Natural Gas Systems,GP-CCE01,OCS (Other combustion source),Tier1/2/3,25.0,10739.4,5.0,5.96,0.0,1008031,Carter Creek,None,Evanston,WY,82930,41.2598744,-110.979818,CONTRA COSTA,211112,
1008031,110043785286.0,211130,"C,W",Petroleum and Natural Gas Systems,GP-CCH02,OCS (Other combustion source),Tier1/2/3,116.2,88178.3,41.5,49.468,0.0,1008031,Carter Creek,None,Evanston,WY,82930,41.2598744,-110.979818,CONTRA COSTA,211112,
1002174,110043789969.0,211130,"C,W",Petroleum and Natural Gas Systems,GP-Chipeta,OCS (Other combustion source),Tier1/2/3,31.5,12415.4,5.75,6.854,0.0,1002174,Chipeta Gas Plant,None,Vernal,UT,84078,40.0344,-109.4289,UINTAH,211111,
1002174,110043789969.0,211130,"C,W",Petroleum and Natural Gas Systems,GP-Chipeta,OCS (Other combustion source),Tier1/2/3,31.5,11373.0,5.25,6.258,0.0,1002174,Chipeta Gas Plant,None,Vernal,UT,84078,40.0344,-109.4289,UINTAH,211111,
1002174,110043789969.0,211130,"C,W",Petroleum and Natural Gas Systems,GP-522895,OCS (Other combustion source),Tier1/2/3,16.5,32197.1,15.25,18.178,0.0,1002174,Chipeta Gas Plant,None,Vernal,UT,84078,40.0344,-109.4289,UINTAH,211111,
1005858,110041481456.0,211120,"C,W",Petroleum and Natural Gas Systems,GP- Denver Unit CO2 Recovery Plant,OCS (Other combustion source),Tier1/2/3,123.0,101342.2,47.75,56.918,0.0,1005858,DENVER UNIT CO 2 RECOVERY PLANT,1.5 M N OF DENVER CITY ON SH 214,DENVER CITY,TX,79323,32.998333,-102.813611,YOAKUM,211111,
1005858,110041481456.0,211120,"C,W",Petroleum and Natural Gas Systems,GP- Denver Unit CO2 Recovery Plant,OCS (Other combustion source),Tier1/2/3,90.0,41104.9,19.25,22.946,0.0,1005858,DENVER UNIT CO 2 RECOVERY PLANT,1.5 M N OF DENVER CITY ON SH 214,DENVER CITY,TX,79323,32.998333,-102.813611,YOAKUM,211111,
1005858,110041481456.0,211120,"C,W",Petroleum and Natural Gas Systems,GP- Denver Unit CO2 Recovery Plant,OCS (Other combustion source),Tier1/2/3,90.0,45705.7,21.5,25.628,0.0,1005858,DENVER UNIT CO 2 RECOVERY PLANT,1.5 M N OF DENVER CITY ON SH 214,DENVER CITY,TX,79323,32.998333,-102.813611,YOAKUM,211111,
1006407,110000502858.0,211130,"C,NN,W","Natural Gas and Natural Gas Liquids Suppliers, Petroleum and Natural Gas Systems",CP-Id: 04404001 (GHG Only),,Tier1/2/3,13.11,20461.0,9.75,11.622,0.0,1006407,EAST TEXAS GAS PLANT,2628 US 79 NORTH,CARTHAGE,TX,75633,32.187876,-94.261875,PANOLA,211112,
1006407,110000502858.0,211130,"C,NN,W","Natural Gas and Natural Gas Liquids Suppliers, Petroleum and Natural Gas Systems",CP-Id: 04404002 (GHG Only),,Tier1/2/3,42.18,59945.1,28.25,33.674,0.0,1006407,EAST TEXAS GAS PLANT,2628 US 79 NORTH,CARTHAGE,TX,75633,32.187876,-94.261875,PANOLA,211112,
1006407,110000502858.0,211130,"C,NN,W","Natural Gas and Natural Gas Liquids Suppliers, Petroleum and Natural Gas Systems",CP-Id: 04404003 (GHG Only),,Tier1/2/3,4.24,0.0,0.0,0.0,0.0,1006407,EAST TEXAS GAS PLANT,2628 US 79 NORTH,CARTHAGE,TX,75633,32.187876,-94.261875,PANOLA,211112,
1006407,110000502858.0,211130,"C,NN,W","Natural Gas and Natural Gas Liquids Suppliers, Petroleum and Natural Gas Systems",CP-Id: 04404005 (GHG Only),,Tier1/2/3,42.08,12221.9,5.75,6.854,0.0,1006407,EAST TEXAS GAS PLANT,2628 US 79 NORTH,CARTHAGE,TX,75633,32.187876,-94.261875,PANOLA,211112,
1006407,110000502858.0,211130,"C,NN,W","Natural Gas and Natural Gas Liquids Suppliers, Petroleum and Natural Gas Systems",CP-Id: 04404006 (GHG Only),,Tier1/2/3,6.2,1743.2,0.75,0.894,0.0,1006407,EAST TEXAS GAS PLANT,2628 US 79 NORTH,CARTHAGE,TX,75633,32.187876,-94.261875,PANOLA,211112,
1006407,110000502858.0,211130,"C,NN,W","Natural Gas and Natural Gas Liquids Suppliers, Petroleum and Natural Gas Systems",CP-Id: 04405001 (GHG Only),,Tier1/2/3,11.34,11240.6,5.25,6.258,0.0,1006407,EAST TEXAS GAS PLANT,2628 US 79 NORTH,CARTHAGE,TX,75633,32.187876,-94.261875,PANOLA,211112,
1006407,110000502858.0,211130,"C,NN,W","Natural Gas and Natural Gas Liquids Suppliers, Petroleum and Natural Gas Systems",CP-Id: 04407002 (GHG Only),,Tier1/2/3,14.91,8342.0,4.0,4.768,0.0,1006407,EAST TEXAS GAS PLANT,2628 US 79 NORTH,CARTHAGE,TX,75633,32.187876,-94.261875,PANOLA,211112,
1006407,110000502858.0,211130,"C,NN,W","Natural Gas and Natural Gas Liquids Suppliers, Petroleum and Natural Gas Systems",CP-Id: 04407003 (GHG Only),,Tier1/2/3,43.79,56.2,0.0,0.0,0.0,1006407,EAST TEXAS GAS PLANT,2628 US 79 NORTH,CARTHAGE,TX,75633,32.187876,-94.261875,PANOLA,211112,
1006407,110000502858.0,211130,"C,NN,W","Natural Gas and Natural Gas Liquids Suppliers, Petroleum and Natural Gas Systems",CP-Id: 04408001 (GHG Only),,Tier1/2/3,43.75,26029.8,12.25,14.602,0.0,1006407,EAST TEXAS GAS PLANT,2628 US 79 NORTH,CARTHAGE,TX,75633,32.187876,-94.261875,PANOLA,211112,
1006407,110000502858.0,211130,"C,NN,W","Natural Gas and Natural Gas Liquids Suppliers, Petroleum and Natural Gas Systems",CP-Id: 04408002 (GHG Only),,Tier1/2/3,42.18,1.9,0.0,0.0,0.0,1006407,EAST TEXAS GAS PLANT,2628 US 79 NORTH,CARTHAGE,TX,75633,32.187876,-94.261875,PANOLA,211112,
1006407,110000502858.0,211130,"C,NN,W","Natural Gas and Natural Gas Liquids Suppliers, Petroleum and Natural Gas Systems",CP-Id: 04404001 (GHG Only),,Tier1/2/3,13.11,24159.5,11.5,13.708,0.0,1006407,EAST TEXAS GAS PLANT,2628 US 79 NORTH,CARTHAGE,TX,75633,32.187876,-94.261875,PANOLA,211112,
1006407,110000502858.0,211130,"C,NN,W","Natural Gas and Natural Gas Liquids Suppliers, Petroleum and Natural Gas Systems",CP-Id: 04404002 (GHG Only),,Tier1/2/3,42.18,61408.9,29.0,34.568,0.0,1006407,EAST TEXAS GAS PLANT,2628 US 79 NORTH,CARTHAGE,TX,75633,32.187876,-94.261875,PANOLA,211112,
1006407,110000502858.0,211130,"C,NN,W","Natural Gas and Natural Gas Liquids Suppliers, Petroleum and Natural Gas Systems",CP-Id: 04404005 (GHG Only),,Tier1/2/3,42.08,18268.7,8.5,10.132,0.0,1006407,EAST TEXAS GAS PLANT,2628 US 79 NORTH,CARTHAGE,TX,75633,32.187876,-94.261875,PANOLA,211112,
1006407,110000502858.0,211130,"C,NN,W","Natural Gas and Natural Gas Liquids Suppliers, Petroleum and Natural Gas Systems",CP-Id: 04404006 (GHG Only),,Tier1/2/3,6.2,790.7,0.25,0.298,0.0,1006407,EAST TEXAS GAS PLANT,2628 US 79 NORTH,CARTHAGE,TX,75633,32.187876,-94.261875,PANOLA,211112,
1006407,110000502858.0,211130,"C,NN,W","Natural Gas and Natural Gas Liquids Suppliers, Petroleum and Natural Gas Systems",CP-Id: 04405001 (GHG Only),,Tier1/2/3,11.34,11942.5,5.75,6.854,0.0,1006407,EAST TEXAS GAS PLANT,2628 US 79 NORTH,CARTHAGE,TX,75633,32.187876,-94.261875,PANOLA,211112,
1006407,110000502858.0,211130,"C,NN,W","Natural Gas and Natural Gas Liquids Suppliers, Petroleum and Natural Gas Systems",CP-Id: 04407002 (GHG Only),,Tier1/2/3,14.91,9177.7,4.25,5.066,0.0,1006407,EAST TEXAS GAS PLANT,2628 US 79 NORTH,CARTHAGE,TX,75633,32.187876,-94.261875,PANOLA,211112,
1006407,110000502858.0,211130,"C,NN,W","Natural Gas and Natural Gas Liquids Suppliers, Petroleum and Natural Gas Systems",CP-Id: 04407003 (GHG Only),,Tier1/2/3,43.79,10462.3,5.0,5.96,0.0,1006407,EAST TEXAS GAS PLANT,2628 US 79 NORTH,CARTHAGE,TX,75633,32.187876,-94.261875,PANOLA,211112,
1006407,110000502858.0,211130,"C,NN,W","Natural Gas and Natural Gas Liquids Suppliers, Petroleum and Natural Gas Systems",CP-Id: 04408001 (GHG Only),,Tier1/2/3,43.75,22058.0,10.5,12.516,0.0,1006407,EAST TEXAS GAS PLANT,2628 US 79 NORTH,CARTHAGE,TX,75633,32.187876,-94.261875,PANOLA,211112,
1006407,110000502858.0,211130,"C,NN,W","Natural Gas and Natural Gas Liquids Suppliers, Petroleum and Natural Gas Systems",CP-Id: 04408002 (GHG Only),,Tier1/2/3,42.18,11213.3,5.25,6.258,0.0,1006407,EAST TEXAS GAS PLANT,2628 US 79 NORTH,CARTHAGE,TX,75633,32.187876,-94.261875,PANOLA,211112,
1006407,110000502858.0,211130,"C,NN,W","Natural Gas and Natural Gas Liquids Suppliers, Petroleum and Natural Gas Systems",CP-Id: 04404001 (GHG Only),,Tier1/2/3,13.11,19769.7,9.25,11.026,0.0,1006407,EAST TEXAS GAS PLANT,2628 US 79 NORTH,CARTHAGE,TX,75633,32.187876,-94.261875,PANOLA,211112,
1006407,110000502858.0,211130,"C,NN,W","Natural Gas and Natural Gas Liquids Suppliers, Petroleum and Natural Gas Systems",CP-Id: 04404002 (GHG Only),,Tier1/2/3,42.18,55996.6,26.5,31.588,0.0,1006407,EAST TEXAS GAS PLANT,2628 US 79 NORTH,CARTHAGE,TX,75633,32.187876,-94.261875,PANOLA,211112,
1006407,110000502858.0,211130,"C,NN,W","Natural Gas and Natural Gas Liquids Suppliers, Petroleum and Natural Gas Systems",CP-Id: 04404003 (GHG Only),,Tier1/2/3,4.24,21.5,0.0,0.0,0.0,1006407,EAST TEXAS GAS PLANT,2628 US 79 NORTH,CARTHAGE,TX,75633,32.187876,-94.261875,PANOLA,211112,
1006407,110000502858.0,211130,"C,NN,W","Natural Gas and Natural Gas Liquids Suppliers, Petroleum and Natural Gas Systems",CP-Id: 04404005 (GHG Only),,Tier1/2/3,42.08,17585.9,8.25,9.834,0.0,1006407,EAST TEXAS GAS PLANT,2628 US 79 NORTH,CARTHAGE,TX,75633,32.187876,-94.261875,PANOLA,211112,
1006407,110000502858.0,211130,"C,NN,W","Natural Gas and Natural Gas Liquids Suppliers, Petroleum and Natural Gas Systems",CP-Id: 04404006 (GHG Only),,Tier1/2/3,6.2,522.3,0.25,0.298,0.0,1006407,EAST TEXAS GAS PLANT,2628 US 79 NORTH,CARTHAGE,TX,75633,32.187876,-94.261875,PANOLA,211112,
1006407,110000502858.0,211130,"C,NN,W","Natural Gas and Natural Gas Liquids Suppliers, Petroleum and Natural Gas Systems",CP-Id: 04405001 (GHG Only),,Tier1/2/3,11.34,6809.8,3.25,3.874,0.0,1006407,EAST TEXAS GAS PLANT,2628 US 79 NORTH,CARTHAGE,TX,75633,32.187876,-94.261875,PANOLA,211112,
1006407,110000502858.0,211130,"C,NN,W","Natural Gas and Natural Gas Liquids Suppliers, Petroleum and Natural Gas Systems",CP-Id: 04407002 (GHG Only),,Tier1/2/3,14.91,5432.8,2.5,2.98,0.0,1006407,EAST TEXAS GAS PLANT,2628 US 79 NORTH,CARTHAGE,TX,75633,32.187876,-94.261875,PANOLA,211112,
1006407,110000502858.0,211130,"C,NN,W","Natural Gas and Natural Gas Liquids Suppliers, Petroleum and Natural Gas Systems",CP-Id: 04407003 (GHG Only),,Tier1/2/3,43.79,12558.9,6.0,7.152,0.0,1006407,EAST TEXAS GAS PLANT,2628 US 79 NORTH,CARTHAGE,TX,75633,32.187876,-94.261875,PANOLA,211112,
1006407,110000502858.0,211130,"C,NN,W","Natural Gas and Natural Gas Liquids Suppliers, Petroleum and Natural Gas Systems",CP-Id: 04408001 (GHG Only),,Tier1/2/3,43.75,22053.5,10.5,12.516,0.0,1006407,EAST TEXAS GAS PLANT,2628 US 79 NORTH,CARTHAGE,TX,75633,32.187876,-94.261875,PANOLA,211112,
1006407,110000502858.0,211130,"C,NN,W","Natural Gas and Natural Gas Liquids Suppliers, Petroleum and Natural Gas Systems",CP-Id: 04408002 (GHG Only),,Tier1/2/3,42.18,12892.7,6.0,7.152,0.0,1006407,EAST TEXAS GAS PLANT,2628 US 79 NORTH,CARTHAGE,TX,75633,32.187876,-94.261875,PANOLA,211112,
1006407,110000502858.0,211130,"C,NN,W","Natural Gas and Natural Gas Liquids Suppliers, Petroleum and Natural Gas Systems",CP-Id: 04404001 (GHG Only),,Tier1/2/3,13.11,19880.2,9.25,11.026,0.0,1006407,EAST TEXAS GAS PLANT,2628 US 79 NORTH,CARTHAGE,TX,75633,32.187876,-94.261875,PANOLA,211112,
1006407,110000502858.0,211130,"C,NN,W","Natural Gas and Natural Gas Liquids Suppliers, Petroleum and Natural Gas Systems",CP-Id: 04404002 (GHG Only),,Tier1/2/3,42.18,47237.2,22.25,26.522,0.0,1006407,EAST TEXAS GAS PLANT,2628 US 79 NORTH,CARTHAGE,TX,75633,32.187876,-94.261875,PANOLA,211112,
1006407,110000502858.0,211130,"C,NN,W","Natural Gas and Natural Gas Liquids Suppliers, Petroleum and Natural Gas Systems",CP-Id: 04404003 (GHG Only),,Tier1/2/3,4.24,51.9,0.0,0.0,0.0,1006407,EAST TEXAS GAS PLANT,2628 US 79 NORTH,CARTHAGE,TX,75633,32.187876,-94.261875,PANOLA,211112,
1006407,110000502858.0,211130,"C,NN,W","Natural Gas and Natural Gas Liquids Suppliers, Petroleum and Natural Gas Systems",CP-Id: 04404005 (GHG Only),,Tier1/2/3,42.08,11814.0,5.5,6.556,0.0,1006407,EAST TEXAS GAS PLANT,2628 US 79 NORTH,CARTHAGE,TX,75633,32.187876,-94.261875,PANOLA,211112,
1006407,110000502858.0,211130,"C,NN,W","Natural Gas and Natural Gas Liquids Suppliers, Petroleum and Natural Gas Systems",CP-Id: 04404006 (GHG Only),,Tier1/2/3,6.2,186.4,0.0,0.0,0.0,1006407,EAST TEXAS GAS PLANT,2628 US 79 NORTH,CARTHAGE,TX,75633,32.187876,-94.261875,PANOLA,211112,
1006407,110000502858.0,211130,"C,NN,W","Natural Gas and Natural Gas Liquids Suppliers, Petroleum and Natural Gas Systems",CP-Id: 04405001 (GHG Only),,Tier1/2/3,11.34,17170.9,8.0,9.536,0.0,1006407,EAST TEXAS GAS PLANT,2628 US 79 NORTH,CARTHAGE,TX,75633,32.187876,-94.261875,PANOLA,211112,
1006407,110000502858.0,211130,"C,NN,W","Natural Gas and Natural Gas Liquids Suppliers, Petroleum and Natural Gas Systems",CP-Id: 04407002 (GHG Only),,Tier1/2/3,14.91,5208.0,2.5,2.98,0.0,1006407,EAST TEXAS GAS PLANT,2628 US 79 NORTH,CARTHAGE,TX,75633,32.187876,-94.261875,PANOLA,211112,
1006407,110000502858.0,211130,"C,NN,W","Natural Gas and Natural Gas Liquids Suppliers, Petroleum and Natural Gas Systems",CP-Id: 04407003 (GHG Only),,Tier1/2/3,43.79,5226.5,2.5,2.98,0.0,1006407,EAST TEXAS GAS PLANT,2628 US 79 NORTH,CARTHAGE,TX,75633,32.187876,-94.261875,PANOLA,211112,
1006407,110000502858.0,211130,"C,NN,W","Natural Gas and Natural Gas Liquids Suppliers, Petroleum and Natural Gas Systems",CP-Id: 04408001 (GHG Only),,Tier1/2/3,43.75,20237.9,9.5,11.324,0.0,1006407,EAST TEXAS GAS PLANT,2628 US 79 NORTH,CARTHAGE,TX,75633,32.187876,-94.261875,PANOLA,211112,
1006407,110000502858.0,211130,"C,NN,W","Natural Gas and Natural Gas Liquids Suppliers, Petroleum and Natural Gas Systems",CP-Id: 04408002 (GHG Only),,Tier1/2/3,42.18,32003.7,15.0,17.88,0.0,1006407,EAST TEXAS GAS PLANT,2628 US 79 NORTH,CARTHAGE,TX,75633,32.187876,-94.261875,PANOLA,211112,
1002326,110000503928.0,211130,"C,W",Petroleum and Natural Gas Systems,GP-001,OCS (Other combustion source),Tier1/2/3,46.0,41914.2,19.75,23.542,0.0,1002326,EAST VEALMOOR GAS PLANT,11703 EAST FM. 846,COAHOMA,TX,79511,32.494444,-101.35222,HOWARD,211112,
1002326,110000503928.0,211130,"C,W",Petroleum and Natural Gas Systems,GP-001,OCS (Other combustion source),Tier1/2/3,46.0,44649.3,21.0,25.032,0.0,1002326,EAST VEALMOOR GAS PLANT,11703 EAST FM. 846,COAHOMA,TX,79511,32.494444,-101.35222,HOWARD,211112,
1002326,110000503928.0,211130,"C,W",Petroleum and Natural Gas Systems,GP-001,OCS (Other combustion source),Tier1/2/3,46.0,52635.6,24.75,29.502,0.0,1002326,EAST VEALMOOR GAS PLANT,11703 EAST FM. 846,COAHOMA,TX,79511,32.494444,-101.35222,HOWARD,211112,
1004924,110043784535.0,211130,"C,NN,UU,W","Injection of CO2, Natural Gas and Natural Gas Liquids Suppliers, Petroleum and Natural Gas Systems",GP-1,OCS (Other combustion source),Tier1/2/3,62.5,48170.4,14.5,17.284,0.0,1004924,Elk Basin Gas Plant,37 Country Road 1NG,POWELL,WY,82435,44.866702,-108.814934,PARK,211111,
1004924,110043784535.0,211130,"C,NN,UU,W","Injection of CO2, Natural Gas and Natural Gas Liquids Suppliers, Petroleum and Natural Gas Systems",GP-2,OCS (Other combustion source),Tier1/2/3,9.0,5030.4,2.25,2.682,0.0,1004924,Elk Basin Gas Plant,37 Country Road 1NG,POWELL,WY,82435,44.866702,-108.814934,PARK,211111,
1004924,110043784535.0,211130,"C,NN,UU,W","Injection of CO2, Natural Gas and Natural Gas Liquids Suppliers, Petroleum and Natural Gas Systems",GP-3,OCS (Other combustion source),Tier1/2/3,15.0,16737.3,8.0,9.536,0.0,1004924,Elk Basin Gas Plant,37 Country Road 1NG,POWELL,WY,82435,44.866702,-108.814934,PARK,211111,
1004924,110043784535.0,211130,"C,NN,UU,W","Injection of CO2, Natural Gas and Natural Gas Liquids Suppliers, Petroleum and Natural Gas Systems",INC-1,"ICI (Incinerator, commercial and industrial)",Tier1/2/3,12.5,3428.1,1.5,1.788,0.0,1004924,Elk Basin Gas Plant,37 Country Road 1NG,POWELL,WY,82435,44.866702,-108.814934,PARK,211111,
1006800,110043792884.0,211130,"C,W",Petroleum and Natural Gas Systems,CP-Id: 01331-00 (GHG Only),,Tier1/2/3,47.0,16638.9,7.75,9.238,0.0,1006800,GOLDSMITH GAS PLANT,None,GOLDSMITH,TX,79741,31.9809,-102.6344,ECTOR,211112,
1006800,110043792884.0,211130,"C,W",Petroleum and Natural Gas Systems,CP-Id: 01398-00 (GHG Only),,Tier1/2/3,47.0,57927.9,27.25,32.482,0.0,1006800,GOLDSMITH GAS PLANT,None,GOLDSMITH,TX,79741,31.9809,-102.6344,ECTOR,211112,
1006800,110043792884.0,211130,"C,W",Petroleum and Natural Gas Systems,CP-Id: P1857-00 (GHG Only),,Tier1/2/3,180.86,155671.9,73.25,87.314,0.0,1006800,GOLDSMITH GAS PLANT,None,GOLDSMITH,TX,79741,31.9809,-102.6344,ECTOR,211112,
1006800,110043792884.0,211130,"C,W",Petroleum and Natural Gas Systems,CP-Id: P3730-00 (GHG Only),,Tier1/2/3,30.1,1942.1,1.0,1.192,0.0,1006800,GOLDSMITH GAS PLANT,None,GOLDSMITH,TX,79741,31.9809,-102.6344,ECTOR,211112,
1006800,110043792884.0,211130,"C,W",Petroleum and Natural Gas Systems,CP-Id: 01331-00 (GHG Only),,Tier1/2/3,47.0,24500.7,11.5,13.708,0.0,1006800,GOLDSMITH GAS PLANT,None,GOLDSMITH,TX,79741,31.9809,-102.6344,ECTOR,211112,
1006800,110043792884.0,211130,"C,W",Petroleum and Natural Gas Systems,CP-Id: 01398-00 (GHG Only),,Tier1/2/3,47.0,40654.2,19.25,22.946,0.0,1006800,GOLDSMITH GAS PLANT,None,GOLDSMITH,TX,79741,31.9809,-102.6344,ECTOR,211112,
1006800,110043792884.0,211130,"C,W",Petroleum and Natural Gas Systems,CP-Id: P1857-00 (GHG Only),,Tier1/2/3,180.86,154849.2,73.0,87.016,0.0,1006800,GOLDSMITH GAS PLANT,None,GOLDSMITH,TX,79741,31.9809,-102.6344,ECTOR,211112,
1006800,110043792884.0,211130,"C,W",Petroleum and Natural Gas Systems,CP-Id: 01331-00 (GHG Only),,Tier1/2/3,47.0,9718.6,4.5,5.364,0.0,1006800,GOLDSMITH GAS PLANT,None,GOLDSMITH,TX,79741,31.9809,-102.6344,ECTOR,211112,
1006800,110043792884.0,211130,"C,W",Petroleum and Natural Gas Systems,CP-Id: 01398-00 (GHG Only),,Tier1/2/3,47.0,58205.9,27.5,32.78,0.0,1006800,GOLDSMITH GAS PLANT,None,GOLDSMITH,TX,79741,31.9809,-102.6344,ECTOR,211112,
1006800,110043792884.0,211130,"C,W",Petroleum and Natural Gas Systems,CP-Id: P1857-00 (GHG Only),,Tier1/2/3,180.86,171356.0,80.75,96.254,0.0,1006800,GOLDSMITH GAS PLANT,None,GOLDSMITH,TX,79741,31.9809,-102.6344,ECTOR,211112,
1006800,110043792884.0,211130,"C,W",Petroleum and Natural Gas Systems,CP-Id: 01331-00 (GHG Only),,Tier1/2/3,47.0,9530.0,4.5,5.364,0.0,1006800,GOLDSMITH GAS PLANT,None,GOLDSMITH,TX,79741,31.9809,-102.6344,ECTOR,211112,
1006800,110043792884.0,211130,"C,W",Petroleum and Natural Gas Systems,CP-Id: 01398-00 (GHG Only),,Tier1/2/3,47.0,72862.3,34.25,40.826,0.0,1006800,GOLDSMITH GAS PLANT,None,GOLDSMITH,TX,79741,31.9809,-102.6344,ECTOR,211112,
1006800,110043792884.0,211130,"C,W",Petroleum and Natural Gas Systems,CP-Id: P1857-00 (GHG Only),,Tier1/2/3,180.86,152824.3,72.0,85.824,0.0,1006800,GOLDSMITH GAS PLANT,None,GOLDSMITH,TX,79741,31.9809,-102.6344,ECTOR,211112,
1004924,110043784535.0,211130,"C,NN,UU,W","Injection of CO2, Natural Gas and Natural Gas Liquids Suppliers, Petroleum and Natural Gas Systems",GP-1,OCS (Other combustion source),Tier1/2/3,62.5,31124.9,14.0,16.688,0.0,1004924,Elk Basin Gas Plant,37 Country Road 1NG,POWELL,WY,82435,44.866702,-108.814934,PARK,211111,
1004924,110043784535.0,211130,"C,NN,UU,W","Injection of CO2, Natural Gas and Natural Gas Liquids Suppliers, Petroleum and Natural Gas Systems",GP-2,OCS (Other combustion source),Tier1/2/3,9.0,153.4,0.0,0.0,0.0,1004924,Elk Basin Gas Plant,37 Country Road 1NG,POWELL,WY,82435,44.866702,-108.814934,PARK,211111,
1004924,110043784535.0,211130,"C,NN,UU,W","Injection of CO2, Natural Gas and Natural Gas Liquids Suppliers, Petroleum and Natural Gas Systems",GP-3,OCS (Other combustion source),Tier1/2/3,15.0,15464.6,7.25,8.642,0.0,1004924,Elk Basin Gas Plant,37 Country Road 1NG,POWELL,WY,82435,44.866702,-108.814934,PARK,211111,
1004924,110043784535.0,211130,"C,NN,UU,W","Injection of CO2, Natural Gas and Natural Gas Liquids Suppliers, Petroleum and Natural Gas Systems",INC-1,"ICI (Incinerator, commercial and industrial)",Tier1/2/3,12.5,3495.0,1.75,2.086,0.0,1004924,Elk Basin Gas Plant,37 Country Road 1NG,POWELL,WY,82435,44.866702,-108.814934,PARK,211111,
1004924,110043784535.0,211130,"C,NN,UU,W","Injection of CO2, Natural Gas and Natural Gas Liquids Suppliers, Petroleum and Natural Gas Systems",GP-1,OCS (Other combustion source),Tier1/2/3,62.5,31175.3,14.0,16.688,0.0,1004924,Elk Basin Gas Plant,37 Country Road 1NG,POWELL,WY,82435,44.866702,-108.814934,PARK,211111,
1004924,110043784535.0,211130,"C,NN,UU,W","Injection of CO2, Natural Gas and Natural Gas Liquids Suppliers, Petroleum and Natural Gas Systems",GP-2,OCS (Other combustion source),Tier1/2/3,9.0,126.5,0.0,0.0,0.0,1004924,Elk Basin Gas Plant,37 Country Road 1NG,POWELL,WY,82435,44.866702,-108.814934,PARK,211111,
1004924,110043784535.0,211130,"C,NN,UU,W","Injection of CO2, Natural Gas and Natural Gas Liquids Suppliers, Petroleum and Natural Gas Systems",GP-3,OCS (Other combustion source),Tier1/2/3,15.0,16429.5,7.75,9.238,0.0,1004924,Elk Basin Gas Plant,37 Country Road 1NG,POWELL,WY,82435,44.866702,-108.814934,PARK,211111,
1004924,110043784535.0,211130,"C,NN,UU,W","Injection of CO2, Natural Gas and Natural Gas Liquids Suppliers, Petroleum and Natural Gas Systems",INC-1,"ICI (Incinerator, commercial and industrial)",Tier1/2/3,12.5,3463.2,1.75,2.086,0.0,1004924,Elk Basin Gas Plant,37 Country Road 1NG,POWELL,WY,82435,44.866702,-108.814934,PARK,211111,
1008009,110043789040.0,211130,"C,W",Petroleum and Natural Gas Systems,CP-1,OCS (Other combustion source),Tier1/2/3,24.11,36373.5,17.25,20.562,0.0,1008009,Harmony Compressor Station,170 North Smyrna Rd.,Searcy,AR,72143,35.255486,-91.844772,WHITE,211111,
1008009,110043789040.0,211130,"C,W",Petroleum and Natural Gas Systems,GP-1,OCS (Other combustion source),Tier1/2/3,9.87,7988.5,3.75,4.47,0.0,1008009,Harmony Compressor Station,170 North Smyrna Rd.,Searcy,AR,72143,35.255486,-91.844772,WHITE,211111,
1008009,110043789040.0,211130,"C,W",Petroleum and Natural Gas Systems,CP-1,OCS (Other combustion source),Tier1/2/3,24.11,35690.7,16.75,19.966,0.0,1008009,Harmony Compressor Station,170 North Smyrna Rd.,Searcy,AR,72143,35.255486,-91.844772,WHITE,211111,
1008009,110043789040.0,211130,"C,W",Petroleum and Natural Gas Systems,GP-1,OCS (Other combustion source),Tier1/2/3,9.87,7198.4,3.5,4.172,0.0,1008009,Harmony Compressor Station,170 North Smyrna Rd.,Searcy,AR,72143,35.255486,-91.844772,WHITE,211111,
1008009,110043789040.0,211130,"C,W",Petroleum and Natural Gas Systems,CP-1,OCS (Other combustion source),Tier1/2/3,24.11,40267.8,19.0,22.648,0.0,1008009,Harmony Compressor Station,170 North Smyrna Rd.,Searcy,AR,72143,35.255486,-91.844772,WHITE,211111,
1008009,110043789040.0,211130,"C,W",Petroleum and Natural Gas Systems,GP-1,OCS (Other combustion source),Tier1/2/3,9.87,5689.8,2.75,3.278,0.0,1008009,Harmony Compressor Station,170 North Smyrna Rd.,Searcy,AR,72143,35.255486,-91.844772,WHITE,211111,
1003316,110030736764.0,211130,"C,W",Petroleum and Natural Gas Systems,GP-Hidetown,OCS (Other combustion source),Tier1/2/3,31.95,11048.9,5.25,6.258,0.0,1003316,HIDETOWN PLANT,8020 FM 3104,WHEELER,TX,79096,35.462533,-100.396697,WHEELER,211112,
1003316,110030736764.0,211130,"C,W",Petroleum and Natural Gas Systems,GP-Hidetown,OCS (Other combustion source),Tier1/2/3,31.95,5546.5,2.5,2.98,0.0,1003316,HIDETOWN PLANT,8020 FM 3104,WHEELER,TX,79096,35.462533,-100.396697,WHEELER,211112,
1003316,110030736764.0,211130,"C,W",Petroleum and Natural Gas Systems,GP-Hidetown,OCS (Other combustion source),Tier1/2/3,23.177,66.9,0.0,0.0,0.0,1003316,HIDETOWN PLANT,8020 FM 3104,WHEELER,TX,79096,35.462533,-100.396697,WHEELER,211112,
1003130,110007020856.0,211120,"C,W",Petroleum and Natural Gas Systems,GP-Indian Basin,OCS (Other combustion source),Tier1/2/3,42.8,6645.8,3.25,3.874,0.0,1003130,INDIAN BASIN GAS PLANT,329 MARATHON ROAD,LAKEWOOD,NM,88254,32.466667,-104.570556,EDDY,211111,
1003130,110007020856.0,211120,"C,PP,W","Petroleum and Natural Gas Systems, Suppliers of CO2",GP-Indian Basin,OCS (Other combustion source),Tier1/2/3,42.8,98256.8,46.25,55.13,0.0,1003130,INDIAN BASIN GAS PLANT,329 MARATHON ROAD,LAKEWOOD,NM,88254,32.466667,-104.570556,EDDY,211111,
1003130,110007020856.0,211120,"C,PP,W","Petroleum and Natural Gas Systems, Suppliers of CO2",GP-Indian Basin,OCS (Other combustion source),Tier1/2/3,42.8,97984.1,46.25,55.13,0.0,1003130,INDIAN BASIN GAS PLANT,329 MARATHON ROAD,LAKEWOOD,NM,88254,32.466667,-104.570556,EDDY,211111,
1005431,110037901134.0,211130,"C,W",Petroleum and Natural Gas Systems,CP-KKGP common pipe - Subpart C facility,OCS (Other combustion source),Tier1/2/3,32.25,43060.3,20.25,24.138,0.0,1005431,KRIPPLE KREEK GAS PLANT,1988 BRIAR CREEK RD,BOWIE,TX,76230,33.52957,-97.87651,MONTAGUE COUNTY,211111,
1005431,110037901134.0,211130,"C,W",Petroleum and Natural Gas Systems,CP-KKGP common pipe - Subpart C facility,OCS (Other combustion source),Tier1/2/3,32.25,48340.6,22.75,27.118,0.0,1005431,KRIPPLE KREEK GAS PLANT,1988 BRIAR CREEK RD,BOWIE,TX,76230,33.52957,-97.87651,MONTAGUE COUNTY,211111,
1005431,110037901134.0,211130,"C,W",Petroleum and Natural Gas Systems,CP-KKGP common pipe - Subpart C facility,OCS (Other combustion source),Tier1/2/3,32.25,53215.8,25.0,29.8,0.0,1005431,KRIPPLE KREEK GAS PLANT,1988 BRIAR CREEK RD,BOWIE,TX,76230,33.52957,-97.87651,MONTAGUE COUNTY,211111,
1003319,110043783340.0,211130,"C,NN,W","Natural Gas and Natural Gas Liquids Suppliers, Petroleum and Natural Gas Systems",CP-KGPN-PH,OCS (Other combustion source),Tier1/2/3,16.11,2347.1,1.0,1.192,0.0,1003319,MERIT ENERGY COMPANY-KALKASKA GAS PLANT,1080 PROUGH RD SW,KALKASKA,MI,49646,44.69818,-85.19514,KALKASKA COUNTY,211111,
1003319,110043783340.0,211130,"C,NN,W","Natural Gas and Natural Gas Liquids Suppliers, Petroleum and Natural Gas Systems",CP-KGPS-PH,OCS (Other combustion source),Tier1/2/3,55.0,1502.2,0.75,0.894,0.0,1003319,MERIT ENERGY COMPANY-KALKASKA GAS PLANT,1080 PROUGH RD SW,KALKASKA,MI,49646,44.69818,-85.19514,KALKASKA COUNTY,211111,
1003319,110043783340.0,211130,"C,NN,W","Natural Gas and Natural Gas Liquids Suppliers, Petroleum and Natural Gas Systems",CP-TURB-A/B,OCS (Other combustion source),Tier1/2/3,340.0,1.4,0.0,0.0,0.0,1003319,MERIT ENERGY COMPANY-KALKASKA GAS PLANT,1080 PROUGH RD SW,KALKASKA,MI,49646,44.69818,-85.19514,KALKASKA COUNTY,211111,
1003319,110043783340.0,211130,"C,NN,W","Natural Gas and Natural Gas Liquids Suppliers, Petroleum and Natural Gas Systems",Turbine C,"SCCT (CT (Turbine, simple cycle combustion))",Tier1/2/3,60.2,23488.5,11.0,13.112,0.0,1003319,MERIT ENERGY COMPANY-KALKASKA GAS PLANT,1080 PROUGH RD SW,KALKASKA,MI,49646,44.69818,-85.19514,KALKASKA COUNTY,211111,
1003319,110043783340.0,211130,"C,NN,W","Natural Gas and Natural Gas Liquids Suppliers, Petroleum and Natural Gas Systems",Turbine C WHRU,PRH (Process Heater),Tier1/2/3,20.78,4696.2,2.25,2.682,0.0,1003319,MERIT ENERGY COMPANY-KALKASKA GAS PLANT,1080 PROUGH RD SW,KALKASKA,MI,49646,44.69818,-85.19514,KALKASKA COUNTY,211111,
1003319,110043783340.0,211130,"C,NN,W","Natural Gas and Natural Gas Liquids Suppliers, Petroleum and Natural Gas Systems",CP-KGPN-PH,OCS (Other combustion source),Tier1/2/3,16.11,4875.9,2.25,2.682,0.0,1003319,MERIT ENERGY COMPANY-KALKASKA GAS PLANT,1080 PROUGH RD SW,KALKASKA,MI,49646,44.69818,-85.19514,KALKASKA COUNTY,211111,
1003319,110043783340.0,211130,"C,NN,W","Natural Gas and Natural Gas Liquids Suppliers, Petroleum and Natural Gas Systems",CP-KGPS-PH,OCS (Other combustion source),Tier1/2/3,55.0,1902.1,1.0,1.192,0.0,1003319,MERIT ENERGY COMPANY-KALKASKA GAS PLANT,1080 PROUGH RD SW,KALKASKA,MI,49646,44.69818,-85.19514,KALKASKA COUNTY,211111,
1003319,110043783340.0,211130,"C,NN,W","Natural Gas and Natural Gas Liquids Suppliers, Petroleum and Natural Gas Systems",CP-TURB-A/B,OCS (Other combustion source),Tier1/2/3,340.0,128.2,0.0,0.0,0.0,1003319,MERIT ENERGY COMPANY-KALKASKA GAS PLANT,1080 PROUGH RD SW,KALKASKA,MI,49646,44.69818,-85.19514,KALKASKA COUNTY,211111,
1003319,110043783340.0,211130,"C,NN,W","Natural Gas and Natural Gas Liquids Suppliers, Petroleum and Natural Gas Systems",Turbine C,"SCCT (CT (Turbine, simple cycle combustion))",Tier1/2/3,60.2,29801.3,14.0,16.688,0.0,1003319,MERIT ENERGY COMPANY-KALKASKA GAS PLANT,1080 PROUGH RD SW,KALKASKA,MI,49646,44.69818,-85.19514,KALKASKA COUNTY,211111,
1003319,110043783340.0,211130,"C,NN,W","Natural Gas and Natural Gas Liquids Suppliers, Petroleum and Natural Gas Systems",Turbine C WHRU,PRH (Process Heater),Tier1/2/3,20.78,6890.2,3.25,3.874,0.0,1003319,MERIT ENERGY COMPANY-KALKASKA GAS PLANT,1080 PROUGH RD SW,KALKASKA,MI,49646,44.69818,-85.19514,KALKASKA COUNTY,211111,
1003319,110043783340.0,211130,"C,NN,W","Natural Gas and Natural Gas Liquids Suppliers, Petroleum and Natural Gas Systems",CP-KGPN-PH,OCS (Other combustion source),Tier1/2/3,16.11,9883.1,4.75,5.662,0.0,1003319,MERIT ENERGY COMPANY-KALKASKA GAS PLANT,1080 PROUGH RD SW,KALKASKA,MI,49646,44.69818,-85.19514,KALKASKA COUNTY,211111,
1003319,110043783340.0,211130,"C,NN,W","Natural Gas and Natural Gas Liquids Suppliers, Petroleum and Natural Gas Systems",CP-KGPS-PH,OCS (Other combustion source),Tier1/2/3,55.0,2466.7,1.25,1.49,0.0,1003319,MERIT ENERGY COMPANY-KALKASKA GAS PLANT,1080 PROUGH RD SW,KALKASKA,MI,49646,44.69818,-85.19514,KALKASKA COUNTY,211111,
1003319,110043783340.0,211130,"C,NN,W","Natural Gas and Natural Gas Liquids Suppliers, Petroleum and Natural Gas Systems",CP-TURB-A/B,OCS (Other combustion source),Tier1/2/3,340.0,922.0,0.5,0.596,0.0,1003319,MERIT ENERGY COMPANY-KALKASKA GAS PLANT,1080 PROUGH RD SW,KALKASKA,MI,49646,44.69818,-85.19514,KALKASKA COUNTY,211111,
1003319,110043783340.0,211130,"C,NN,W","Natural Gas and Natural Gas Liquids Suppliers, Petroleum and Natural Gas Systems",Turbine C,"SCCT (CT (Turbine, simple cycle combustion))",Tier1/2/3,60.2,25154.4,11.75,14.006,0.0,1003319,MERIT ENERGY COMPANY-KALKASKA GAS PLANT,1080 PROUGH RD SW,KALKASKA,MI,49646,44.69818,-85.19514,KALKASKA COUNTY,211111,
1003319,110043783340.0,211130,"C,NN,W","Natural Gas and Natural Gas Liquids Suppliers, Petroleum and Natural Gas Systems",Turbine C WHRU,PRH (Process Heater),Tier1/2/3,20.78,4126.4,2.0,2.384,0.0,1003319,MERIT ENERGY COMPANY-KALKASKA GAS PLANT,1080 PROUGH RD SW,KALKASKA,MI,49646,44.69818,-85.19514,KALKASKA COUNTY,211111,
1006087,110000505105.0,211130,"C,NN,W","Natural Gas and Natural Gas Liquids Suppliers, Petroleum and Natural Gas Systems",CP-TOTAL PLANT FUEL,OCS (Other combustion source),Tier1/2/3,11.4,63997.0,30.25,36.058,0.0,1006087,Longview Gas Plant,3407 Camp Switch Road,Longview,TX,75604,32.503611,-94.868056,GREGG COUNTY,211112,
1006795,110043800802.0,211130,"C,W",Petroleum and Natural Gas Systems,GP-Longview,OCS (Other combustion source),Tier1/2/3,38.74,38554.2,18.25,21.754,0.0,1006795,LONGVIEW GAS PLANT,268 Milam Road,Longview,TX,75603,32.410556,-94.701667,GREGG,211112,
1006087,110000505105.0,211130,"C,NN,W","Natural Gas and Natural Gas Liquids Suppliers, Petroleum and Natural Gas Systems",CP-TOTAL PLANT FUEL,OCS (Other combustion source),Tier1/2/3,11.4,53840.8,25.25,30.098,0.0,1006087,Longview Gas Plant,3407 Camp Switch Road,Longview,TX,75604,32.503611,-94.868056,GREGG COUNTY,211112,
1006795,110043800802.0,211130,"C,W",Petroleum and Natural Gas Systems,GP-Longview,OCS (Other combustion source),Tier1/2/3,38.74,42090.1,19.75,23.542,0.0,1006795,LONGVIEW GAS PLANT,268 Milam Road,Longview,TX,75603,32.410556,-94.701667,GREGG,211112,
1006087,110000505105.0,211130,"C,NN,W","Natural Gas and Natural Gas Liquids Suppliers, Petroleum and Natural Gas Systems",CP-TOTAL PLANT FUEL,OCS (Other combustion source),Tier1/2/3,11.4,34275.7,16.25,19.37,0.0,1006087,Longview Gas Plant,3407 Camp Switch Road,Longview,TX,75604,32.503611,-94.868056,GREGG COUNTY,211112,
1006795,110043800802.0,211130,"C,W",Petroleum and Natural Gas Systems,GP-Longview,OCS (Other combustion source),Tier1/2/3,38.74,8323.3,4.0,4.768,0.0,1006795,LONGVIEW GAS PLANT,268 Milam Road,Longview,TX,75603,32.410556,-94.701667,GREGG,211112,
1002252,110043800875.0,211130,"C,W",Petroleum and Natural Gas Systems,GP-Wilderness CO2 Plant Compressors,OCS (Other combustion source),Tier1/2/3,12.7202592,14796.2,7.0,8.344,0.0,1002252,BOLP - BASIN 305 PROCESSING,1165 Elkview Drive,Gaylord,MI,49735,45.01368,-84.67351,OTSEGO COUNTY,211111,
1002252,110043800875.0,211130,"C,W",Petroleum and Natural Gas Systems,GP-Wilderness CO2 Plant Compressors,OCS (Other combustion source),Tier1/2/3,12.7202592,18093.6,8.5,10.132,0.0,1002252,BOLP - BASIN 305 PROCESSING,1165 Elkview Drive,Gaylord,MI,49735,45.01368,-84.67351,OTSEGO COUNTY,211111,
1002252,110043800875.0,211130,"C,W",Petroleum and Natural Gas Systems,GP-Wilderness CO2 Plant Compressors,OCS (Other combustion source),Tier1/2/3,12.7202592,19363.2,9.0,10.728,0.0,1002252,BOLP - BASIN 305 PROCESSING,1165 Elkview Drive,Gaylord,MI,49735,45.01368,-84.67351,OTSEGO COUNTY,211111,
1005045,110043790715.0,211130,"C,NN,W","Natural Gas and Natural Gas Liquids Suppliers, Petroleum and Natural Gas Systems",GP-1,OCS (Other combustion source),Tier1/2/3,199.0,215269.9,101.5,120.988,0.0,1005045,MBI NGLP Mont Belvieu Plant,9900 FM1942,Mont Belvieu,TX,77580,29.85031,-94.89191,CHAMBERS,211112,
1005045,110043790715.0,211130,"C,NN,W","Natural Gas and Natural Gas Liquids Suppliers, Petroleum and Natural Gas Systems",GP-1,OCS (Other combustion source),Tier1/2/3,199.0,231119.1,109.0,129.928,0.0,1005045,MBI NGLP Mont Belvieu Plant,9900 FM1942,Mont Belvieu,TX,77580,29.85031,-94.89191,CHAMBERS,211112,
1005045,110043790715.0,211130,"C,NN,W","Natural Gas and Natural Gas Liquids Suppliers, Petroleum and Natural Gas Systems",GP-1,OCS (Other combustion source),Tier1/2/3,199.0,204816.8,96.5,115.028,0.0,1005045,MBI NGLP Mont Belvieu Plant,9900 FM1942,Mont Belvieu,TX,77580,29.85031,-94.89191,CHAMBERS,211112,
1005045,110043790715.0,211130,"C,NN,W","Natural Gas and Natural Gas Liquids Suppliers, Petroleum and Natural Gas Systems",GP-1,OCS (Other combustion source),Tier1/2/3,199.0,137122.2,64.5,76.884,0.0,1005045,MBI NGLP Mont Belvieu Plant,9900 FM1942,Mont Belvieu,TX,77580,29.85031,-94.89191,CHAMBERS,211112,
1006131,110010691750.0,211130,"C,W",Petroleum and Natural Gas Systems,Comp Building - CH1 (GHG Only),CH (Comfort heater),Tier1/2/3,0.045,10.5,0.0,0.0,0.0,1006131,MEWBOURN GAS PLANT,18455 WELD COUNTY RD 35,GILCREST,CO,80623,40.266583,-104.734944,WELD,211112,
1006131,110010691750.0,211130,"C,W",Petroleum and Natural Gas Systems,Comp Building - CH2 (GHG Only),CH (Comfort heater),Tier1/2/3,0.045,10.5,0.0,0.0,0.0,1006131,MEWBOURN GAS PLANT,18455 WELD COUNTY RD 35,GILCREST,CO,80623,40.266583,-104.734944,WELD,211112,
1006131,110010691750.0,211130,"C,W",Petroleum and Natural Gas Systems,Comp Building - CH3 (GHG Only),CH (Comfort heater),Tier1/2/3,0.045,10.5,0.0,0.0,0.0,1006131,MEWBOURN GAS PLANT,18455 WELD COUNTY RD 35,GILCREST,CO,80623,40.266583,-104.734944,WELD,211112,
1006131,110010691750.0,211130,"C,W",Petroleum and Natural Gas Systems,Comp Building - CH4 (GHG Only),CH (Comfort heater),Tier1/2/3,0.045,10.5,0.0,0.0,0.0,1006131,MEWBOURN GAS PLANT,18455 WELD COUNTY RD 35,GILCREST,CO,80623,40.266583,-104.734944,WELD,211112,
1006131,110010691750.0,211130,"C,W",Petroleum and Natural Gas Systems,Comp Building - CH5 (GHG Only),CH (Comfort heater),Tier1/2/3,0.045,10.5,0.0,0.0,0.0,1006131,MEWBOURN GAS PLANT,18455 WELD COUNTY RD 35,GILCREST,CO,80623,40.266583,-104.734944,WELD,211112,
1006131,110010691750.0,211130,"C,W",Petroleum and Natural Gas Systems,Comp Building - CH6 (GHG Only),CH (Comfort heater),Tier1/2/3,0.045,10.5,0.0,0.0,0.0,1006131,MEWBOURN GAS PLANT,18455 WELD COUNTY RD 35,GILCREST,CO,80623,40.266583,-104.734944,WELD,211112,
1006131,110010691750.0,211130,"C,W",Petroleum and Natural Gas Systems,Comp Building - CH7 (GHG Only),CH (Comfort heater),Tier1/2/3,0.045,10.5,0.0,0.0,0.0,1006131,MEWBOURN GAS PLANT,18455 WELD COUNTY RD 35,GILCREST,CO,80623,40.266583,-104.734944,WELD,211112,
1006131,110010691750.0,211130,"C,W",Petroleum and Natural Gas Systems,Comp Building - CH8 (GHG Only),CH (Comfort heater),Tier1/2/3,0.045,10.5,0.0,0.0,0.0,1006131,MEWBOURN GAS PLANT,18455 WELD COUNTY RD 35,GILCREST,CO,80623,40.266583,-104.734944,WELD,211112,
1006131,110010691750.0,211130,"C,W",Petroleum and Natural Gas Systems,CP-Id: 226835 (GHG Only),,Tier1/2/3,72.7,96677.9,45.5,54.236,0.0,1006131,MEWBOURN GAS PLANT,18455 WELD COUNTY RD 35,GILCREST,CO,80623,40.266583,-104.734944,WELD,211112,
1006131,110010691750.0,211130,"C,W",Petroleum and Natural Gas Systems,CP-Id: 226836 (GHG Only),,Tier1/2/3,64.9,62095.3,29.25,34.866,0.0,1006131,MEWBOURN GAS PLANT,18455 WELD COUNTY RD 35,GILCREST,CO,80623,40.266583,-104.734944,WELD,211112,
1006131,110010691750.0,211130,"C,W",Petroleum and Natural Gas Systems,CP-Id: 228981 (GHG Only),,Tier1/2/3,72.7,63185.0,29.75,35.462,0.0,1006131,MEWBOURN GAS PLANT,18455 WELD COUNTY RD 35,GILCREST,CO,80623,40.266583,-104.734944,WELD,211112,
1006131,110010691750.0,211130,"C,W",Petroleum and Natural Gas Systems,CP-Id: 228982 (GHG Only),,Tier1/2/3,40.8,8224.7,4.0,4.768,0.0,1006131,MEWBOURN GAS PLANT,18455 WELD COUNTY RD 35,GILCREST,CO,80623,40.266583,-104.734944,WELD,211112,
1006131,110010691750.0,211130,"C,W",Petroleum and Natural Gas Systems,LP Fuel Meter House CH9 (GHG Only),CH (Comfort heater),Tier1/2/3,0.045,10.5,0.0,0.0,0.0,1006131,MEWBOURN GAS PLANT,18455 WELD COUNTY RD 35,GILCREST,CO,80623,40.266583,-104.734944,WELD,211112,
1006131,110010691750.0,211130,"C,W",Petroleum and Natural Gas Systems,Turbine Building CH11 (GHG Only),CH (Comfort heater),Tier1/2/3,0.045,10.5,0.0,0.0,0.0,1006131,MEWBOURN GAS PLANT,18455 WELD COUNTY RD 35,GILCREST,CO,80623,40.266583,-104.734944,WELD,211112,
1006131,110010691750.0,211130,"C,W",Petroleum and Natural Gas Systems,Turbine Building CH12 (GHG Only),CH (Comfort heater),Tier1/2/3,0.045,10.5,0.0,0.0,0.0,1006131,MEWBOURN GAS PLANT,18455 WELD COUNTY RD 35,GILCREST,CO,80623,40.266583,-104.734944,WELD,211112,
1006131,110010691750.0,211130,"C,W",Petroleum and Natural Gas Systems,Turbine Building CH13 (GHG Only),CH (Comfort heater),Tier1/2/3,0.045,10.5,0.0,0.0,0.0,1006131,MEWBOURN GAS PLANT,18455 WELD COUNTY RD 35,GILCREST,CO,80623,40.266583,-104.734944,WELD,211112,
1006131,110010691750.0,211130,"C,W",Petroleum and Natural Gas Systems,Turbine Building CH14 (GHG Only),CH (Comfort heater),Tier1/2/3,0.045,10.5,0.0,0.0,0.0,1006131,MEWBOURN GAS PLANT,18455 WELD COUNTY RD 35,GILCREST,CO,80623,40.266583,-104.734944,WELD,211112,
1006131,110010691750.0,211130,"C,W",Petroleum and Natural Gas Systems,Turbine Building CH15 (GHG Only),CH (Comfort heater),Tier1/2/3,0.045,10.5,0.0,0.0,0.0,1006131,MEWBOURN GAS PLANT,18455 WELD COUNTY RD 35,GILCREST,CO,80623,40.266583,-104.734944,WELD,211112,
1006131,110010691750.0,211130,"C,W",Petroleum and Natural Gas Systems,Turbine Building CH16 (GHG Only),CH (Comfort heater),Tier1/2/3,0.045,10.5,0.0,0.0,0.0,1006131,MEWBOURN GAS PLANT,18455 WELD COUNTY RD 35,GILCREST,CO,80623,40.266583,-104.734944,WELD,211112,
1006131,110010691750.0,211130,"C,W",Petroleum and Natural Gas Systems,Turbine Building CH17 (GHG Only),CH (Comfort heater),Tier1/2/3,0.045,10.5,0.0,0.0,0.0,1006131,MEWBOURN GAS PLANT,18455 WELD COUNTY RD 35,GILCREST,CO,80623,40.266583,-104.734944,WELD,211112,
1006131,110010691750.0,211130,"C,W",Petroleum and Natural Gas Systems,Turbine Building CH18 (GHG Only),CH (Comfort heater),Tier1/2/3,0.045,10.5,0.0,0.0,0.0,1006131,MEWBOURN GAS PLANT,18455 WELD COUNTY RD 35,GILCREST,CO,80623,40.266583,-104.734944,WELD,211112,
1006131,110010691750.0,211130,"C,W",Petroleum and Natural Gas Systems,Unmetered EG (GHG Only),OCS (Other combustion source),Tier1/2/3,0.5,232.4,0.0,0.0,0.0,1006131,MEWBOURN GAS PLANT,18455 WELD COUNTY RD 35,GILCREST,CO,80623,40.266583,-104.734944,WELD,211112,
1006131,110010691750.0,211130,"C,W",Petroleum and Natural Gas Systems,VRU Meter House CH10 (GHG Only),CH (Comfort heater),Tier1/2/3,0.045,10.5,0.0,0.0,0.0,1006131,MEWBOURN GAS PLANT,18455 WELD COUNTY RD 35,GILCREST,CO,80623,40.266583,-104.734944,WELD,211112,
1006131,110010691750.0,211130,"C,W",Petroleum and Natural Gas Systems,CP-Id: 226835 (GHG Only),,Tier1/2/3,72.7,100343.1,47.25,56.322,0.0,1006131,MEWBOURN GAS PLANT,18455 WELD COUNTY RD 35,GILCREST,CO,80623,40.266583,-104.734944,WELD,211112,
1006131,110010691750.0,211130,"C,W",Petroleum and Natural Gas Systems,CP-Id: 226836 (GHG Only),,Tier1/2/3,64.9,66468.4,31.25,37.25,0.0,1006131,MEWBOURN GAS PLANT,18455 WELD COUNTY RD 35,GILCREST,CO,80623,40.266583,-104.734944,WELD,211112,
1006131,110010691750.0,211130,"C,W",Petroleum and Natural Gas Systems,CP-Id: 228981 (GHG Only),,Tier1/2/3,72.7,64589.8,30.5,36.356,0.0,1006131,MEWBOURN GAS PLANT,18455 WELD COUNTY RD 35,GILCREST,CO,80623,40.266583,-104.734944,WELD,211112,
1006131,110010691750.0,211130,"C,W",Petroleum and Natural Gas Systems,CP-Id: 228982 (GHG Only),,Tier1/2/3,40.8,9372.4,4.5,5.364,0.0,1006131,MEWBOURN GAS PLANT,18455 WELD COUNTY RD 35,GILCREST,CO,80623,40.266583,-104.734944,WELD,211112,
1006131,110010691750.0,211130,"C,W",Petroleum and Natural Gas Systems,CP-Id: 226835 (GHG Only),,Tier1/2/3,72.7,90458.4,42.5,50.66,0.0,1006131,MEWBOURN GAS PLANT,18455 WELD COUNTY RD 35,GILCREST,CO,80623,40.266583,-104.734944,WELD,211112,
1006131,110010691750.0,211130,"C,W",Petroleum and Natural Gas Systems,CP-Id: 226836 (GHG Only),,Tier1/2/3,64.9,76049.7,35.75,42.614,0.0,1006131,MEWBOURN GAS PLANT,18455 WELD COUNTY RD 35,GILCREST,CO,80623,40.266583,-104.734944,WELD,211112,
1006131,110010691750.0,211130,"C,W",Petroleum and Natural Gas Systems,CP-Id: 228981 (GHG Only),,Tier1/2/3,72.7,22399.6,10.5,12.516,0.0,1006131,MEWBOURN GAS PLANT,18455 WELD COUNTY RD 35,GILCREST,CO,80623,40.266583,-104.734944,WELD,211112,
1006131,110010691750.0,211130,"C,W",Petroleum and Natural Gas Systems,CP-Id: 228982 (GHG Only),,Tier1/2/3,40.8,3199.2,1.5,1.788,0.0,1006131,MEWBOURN GAS PLANT,18455 WELD COUNTY RD 35,GILCREST,CO,80623,40.266583,-104.734944,WELD,211112,
1006131,110010691750.0,211130,"C,W",Petroleum and Natural Gas Systems,CP-Id: 226835 (GHG Only),,Tier1/2/3,72.7,85058.5,40.0,47.68,0.0,1006131,MEWBOURN GAS PLANT,18455 WELD COUNTY RD 35,GILCREST,CO,80623,40.266583,-104.734944,WELD,211112,
1006131,110010691750.0,211130,"C,W",Petroleum and Natural Gas Systems,CP-Id: 226836 (GHG Only),,Tier1/2/3,64.9,80198.9,37.75,44.998,0.0,1006131,MEWBOURN GAS PLANT,18455 WELD COUNTY RD 35,GILCREST,CO,80623,40.266583,-104.734944,WELD,211112,
1002868,110001875686.0,211120,"C,W",Petroleum and Natural Gas Systems,GP-North Cross,OCS (Other combustion source),Tier1/2/3,10.3,946.8,0.5,0.596,0.0,1002868,NORTH CROSS COMP STATION 4,4.3 M W ON US 67/385,MCCAMEY,TX,79752,31.111944,-102.298328,UPTON,211111,
1002868,110001875686.0,211120,"C,W",Petroleum and Natural Gas Systems,GP-North Cross,OCS (Other combustion source),Tier1/2/3,10.3,36485.7,17.25,20.562,0.0,1002868,NORTH CROSS COMP STATION 4,4.3 M W ON US 67/385,MCCAMEY,TX,79752,31.111944,-102.298328,UPTON,211111,
1002868,110001875686.0,211120,"C,W",Petroleum and Natural Gas Systems,GP-North Cross,OCS (Other combustion source),Tier1/2/3,10.3,38093.5,18.0,21.456,0.0,1002868,NORTH CROSS COMP STATION 4,4.3 M W ON US 67/385,MCCAMEY,TX,79752,31.111944,-102.298328,UPTON,211111,
1002668,110043816261.0,211130,"C,W",Petroleum and Natural Gas Systems,CP-Id: 629500052 (GHG Only),,Tier1/2/3,48.01,50252.8,23.75,28.31,0.0,1002668,PEGASUS GAS PLANT,None,MIDKIFF,TX,79755,31.6615,-102.1383,MIDLAND,211112,
1002668,110043816261.0,211130,"C,W",Petroleum and Natural Gas Systems,CP-Id: 629500052 (GHG Only),,Tier1/2/3,48.01,52241.9,24.5,29.204,0.0,1002668,PEGASUS GAS PLANT,None,MIDKIFF,TX,79755,31.6615,-102.1383,MIDLAND,211112,
1002668,110043816261.0,211130,"C,W",Petroleum and Natural Gas Systems,CP-Id: 629500052 (GHG Only),,Tier1/2/3,48.01,48980.8,23.0,27.416,0.0,1002668,PEGASUS GAS PLANT,None,MIDKIFF,TX,79755,31.6615,-102.1383,MIDLAND,211112,
1002668,110043816261.0,211130,"C,W",Petroleum and Natural Gas Systems,CP-Id: 629500052 (GHG Only),,Tier1/2/3,48.01,56673.8,26.75,31.886,0.0,1002668,PEGASUS GAS PLANT,None,MIDKIFF,TX,79755,31.6615,-102.1383,MIDLAND,211112,
1003045,110000878998.0,211130,"C,NN,W","Natural Gas and Natural Gas Liquids Suppliers, Petroleum and Natural Gas Systems",CP-1,OCS (Other combustion source),Tier1/2/3,29.0,25196.0,11.75,14.006,0.0,1003045,"Petro-Hunt, L.L.C.",813 123RD AVENUE SOUTHWEST,KILLDEER,ND,58640,47.344555,-103.0991,MCKENZIE COUNTY,211112,
1003045,110000878998.0,211130,"C,NN,W","Natural Gas and Natural Gas Liquids Suppliers, Petroleum and Natural Gas Systems",CP-1,OCS (Other combustion source),Tier1/2/3,29.0,27815.3,13.0,15.496,0.0,1003045,"Petro-Hunt, L.L.C.",813 123RD AVENUE SOUTHWEST,KILLDEER,ND,58640,47.344555,-103.0991,MCKENZIE COUNTY,211112,
1003045,110000878998.0,211130,"C,NN,W","Natural Gas and Natural Gas Liquids Suppliers, Petroleum and Natural Gas Systems",CP-1,OCS (Other combustion source),Tier1/2/3,29.0,26580.3,12.5,14.9,0.0,1003045,"Petro-Hunt, L.L.C.",813 123RD AVENUE SOUTHWEST,KILLDEER,ND,58640,47.344555,-103.0991,MCKENZIE COUNTY,211112,
1005965,110000562301.0,211130,"C,NN,W","Natural Gas and Natural Gas Liquids Suppliers, Petroleum and Natural Gas Systems",GP-Combustion,OCS (Other combustion source),Tier1/2/3,118.0,32911.9,15.5,18.476,0.0,1005965,PLAQUEMINE GAS PLANT,60995 DERRICK ROAD,PLAQUEMINE,LA,70764,30.235504,-91.238382,IBERVILLE,211112,
1005965,110000562301.0,211130,"C,NN,W","Natural Gas and Natural Gas Liquids Suppliers, Petroleum and Natural Gas Systems",GP-Combustion,OCS (Other combustion source),Tier1/2/3,118.0,51958.9,24.5,29.204,0.0,1005965,PLAQUEMINE GAS PLANT,60995 DERRICK ROAD,PLAQUEMINE,LA,70764,30.235504,-91.238382,IBERVILLE,211112,
1005965,110000562301.0,211130,"C,NN,W","Natural Gas and Natural Gas Liquids Suppliers, Petroleum and Natural Gas Systems",GP-Combustion,OCS (Other combustion source),Tier1/2/3,118.0,67444.2,31.75,37.846,0.0,1005965,PLAQUEMINE GAS PLANT,60995 DERRICK ROAD,PLAQUEMINE,LA,70764,30.235504,-91.238382,IBERVILLE,211112,
1006799,110043808984.0,211130,"C,W",Petroleum and Natural Gas Systems,CP-Id: 99147-00,OCS (Other combustion source),Tier1/2/3,34.58,10291.3,4.75,5.662,0.0,1006799,ROCK CREEK GAS PLANT,None,BORGER,TX,79007,35.6739,-101.4105,HUTCHINSON,211112,
1006799,110043808984.0,211130,"C,W",Petroleum and Natural Gas Systems,CP-Id: 99239-00,OCS (Other combustion source),Tier1/2/3,183.21,109647.6,51.75,61.686,0.0,1006799,ROCK CREEK GAS PLANT,None,BORGER,TX,79007,35.6739,-101.4105,HUTCHINSON,211112,
1006799,110043808984.0,211130,"C,W",Petroleum and Natural Gas Systems,CP-Id: 99241-00,OCS (Other combustion source),Tier1/2/3,25.69,12856.9,6.0,7.152,0.0,1006799,ROCK CREEK GAS PLANT,None,BORGER,TX,79007,35.6739,-101.4105,HUTCHINSON,211112,
1006799,110043808984.0,211130,"C,W",Petroleum and Natural Gas Systems,CP-Id: 99926-00,OCS (Other combustion source),Tier1/2/3,4.65,584.7,0.25,0.298,0.0,1006799,ROCK CREEK GAS PLANT,None,BORGER,TX,79007,35.6739,-101.4105,HUTCHINSON,211112,
1006799,110043808984.0,211130,"C,W",Petroleum and Natural Gas Systems,Unmetered H1,CH (Comfort heater),Tier1/2/3,0.075,34.9,0.0,0.0,0.0,1006799,ROCK CREEK GAS PLANT,None,BORGER,TX,79007,35.6739,-101.4105,HUTCHINSON,211112,
1006799,110043808984.0,211130,"C,W",Petroleum and Natural Gas Systems,Unmetered H2,CH (Comfort heater),Tier1/2/3,0.125,58.1,0.0,0.0,0.0,1006799,ROCK CREEK GAS PLANT,None,BORGER,TX,79007,35.6739,-101.4105,HUTCHINSON,211112,
1006799,110043808984.0,211130,"C,W",Petroleum and Natural Gas Systems,Unmetered H3,CH (Comfort heater),Tier1/2/3,0.075,34.9,0.0,0.0,0.0,1006799,ROCK CREEK GAS PLANT,None,BORGER,TX,79007,35.6739,-101.4105,HUTCHINSON,211112,
1006799,110043808984.0,211130,"C,W",Petroleum and Natural Gas Systems,Unmetered H4,CH (Comfort heater),Tier1/2/3,0.105,48.8,0.0,0.0,0.0,1006799,ROCK CREEK GAS PLANT,None,BORGER,TX,79007,35.6739,-101.4105,HUTCHINSON,211112,
1006799,110043808984.0,211130,"C,W",Petroleum and Natural Gas Systems,Unmetered H5,CH (Comfort heater),Tier1/2/3,0.23,106.9,0.0,0.0,0.0,1006799,ROCK CREEK GAS PLANT,None,BORGER,TX,79007,35.6739,-101.4105,HUTCHINSON,211112,
1006799,110043808984.0,211130,"C,W",Petroleum and Natural Gas Systems,CP-Id: 99147-00,OCS (Other combustion source),Tier1/2/3,34.58,10142.7,4.75,5.662,0.0,1006799,ROCK CREEK GAS PLANT,None,BORGER,TX,79007,35.6739,-101.4105,HUTCHINSON,211112,
1006799,110043808984.0,211130,"C,W",Petroleum and Natural Gas Systems,CP-Id: 99239-00,OCS (Other combustion source),Tier1/2/3,183.21,112130.8,52.75,62.878,0.0,1006799,ROCK CREEK GAS PLANT,None,BORGER,TX,79007,35.6739,-101.4105,HUTCHINSON,211112,
1006799,110043808984.0,211130,"C,W",Petroleum and Natural Gas Systems,CP-Id: 99241-00,OCS (Other combustion source),Tier1/2/3,25.69,10002.9,4.75,5.662,0.0,1006799,ROCK CREEK GAS PLANT,None,BORGER,TX,79007,35.6739,-101.4105,HUTCHINSON,211112,
1006799,110043808984.0,211130,"C,W",Petroleum and Natural Gas Systems,CP-Id: 99926-00,OCS (Other combustion source),Tier1/2/3,4.65,356.0,0.25,0.298,0.0,1006799,ROCK CREEK GAS PLANT,None,BORGER,TX,79007,35.6739,-101.4105,HUTCHINSON,211112,
1006799,110043808984.0,211130,"C,W",Petroleum and Natural Gas Systems,CP-Id: 99147-00 (GHG Only),,Tier1/2/3,34.58,12278.7,5.75,6.854,0.0,1006799,ROCK CREEK GAS PLANT,None,BORGER,TX,79007,35.6739,-101.4105,HUTCHINSON,211112,
1006799,110043808984.0,211130,"C,W",Petroleum and Natural Gas Systems,CP-Id: 99239-00 (GHG Only),,Tier1/2/3,183.21,111813.0,52.75,62.878,0.0,1006799,ROCK CREEK GAS PLANT,None,BORGER,TX,79007,35.6739,-101.4105,HUTCHINSON,211112,
1006799,110043808984.0,211130,"C,W",Petroleum and Natural Gas Systems,CP-Id: 99241-00 (GHG Only),,Tier1/2/3,25.69,12008.8,5.75,6.854,0.0,1006799,ROCK CREEK GAS PLANT,None,BORGER,TX,79007,35.6739,-101.4105,HUTCHINSON,211112,
1006799,110043808984.0,211130,"C,W",Petroleum and Natural Gas Systems,CP-Id: 99926-00 (GHG Only),,Tier1/2/3,4.65,382.1,0.25,0.298,0.0,1006799,ROCK CREEK GAS PLANT,None,BORGER,TX,79007,35.6739,-101.4105,HUTCHINSON,211112,
1006799,110043808984.0,211130,"C,W",Petroleum and Natural Gas Systems,Unmetered H1 (GHG Only),CH (Comfort heater),Tier1/2/3,0.075,34.9,0.0,0.0,0.0,1006799,ROCK CREEK GAS PLANT,None,BORGER,TX,79007,35.6739,-101.4105,HUTCHINSON,211112,
1006799,110043808984.0,211130,"C,W",Petroleum and Natural Gas Systems,Unmetered H2 (GHG Only),CH (Comfort heater),Tier1/2/3,0.125,58.1,0.0,0.0,0.0,1006799,ROCK CREEK GAS PLANT,None,BORGER,TX,79007,35.6739,-101.4105,HUTCHINSON,211112,
1006799,110043808984.0,211130,"C,W",Petroleum and Natural Gas Systems,Unmetered H3 (GHG Only),CH (Comfort heater),Tier1/2/3,0.075,34.9,0.0,0.0,0.0,1006799,ROCK CREEK GAS PLANT,None,BORGER,TX,79007,35.6739,-101.4105,HUTCHINSON,211112,
1006799,110043808984.0,211130,"C,W",Petroleum and Natural Gas Systems,Unmetered H4 (GHG Only),CH (Comfort heater),Tier1/2/3,0.105,48.8,0.0,0.0,0.0,1006799,ROCK CREEK GAS PLANT,None,BORGER,TX,79007,35.6739,-101.4105,HUTCHINSON,211112,
1006799,110043808984.0,211130,"C,W",Petroleum and Natural Gas Systems,Unmetered H5 (GHG Only),CH (Comfort heater),Tier1/2/3,0.23,106.9,0.0,0.0,0.0,1006799,ROCK CREEK GAS PLANT,None,BORGER,TX,79007,35.6739,-101.4105,HUTCHINSON,211112,
1006799,110043808984.0,211130,"C,W",Petroleum and Natural Gas Systems,CP-Id: 99147-00 (GHG Only),,Tier1/2/3,34.58,13563.4,6.5,7.748,0.0,1006799,ROCK CREEK GAS PLANT,None,BORGER,TX,79007,35.6739,-101.4105,HUTCHINSON,211112,
1006799,110043808984.0,211130,"C,W",Petroleum and Natural Gas Systems,CP-Id: 99239-00 (GHG Only),,Tier1/2/3,183.21,108471.6,51.0,60.792,0.0,1006799,ROCK CREEK GAS PLANT,None,BORGER,TX,79007,35.6739,-101.4105,HUTCHINSON,211112,
1006799,110043808984.0,211130,"C,W",Petroleum and Natural Gas Systems,CP-Id: 99241-00 (GHG Only),,Tier1/2/3,25.69,14404.9,6.75,8.046,0.0,1006799,ROCK CREEK GAS PLANT,None,BORGER,TX,79007,35.6739,-101.4105,HUTCHINSON,211112,
1006799,110043808984.0,211130,"C,W",Petroleum and Natural Gas Systems,CP-Id: 99926-00 (GHG Only),,Tier1/2/3,4.65,217.2,0.0,0.0,0.0,1006799,ROCK CREEK GAS PLANT,None,BORGER,TX,79007,35.6739,-101.4105,HUTCHINSON,211112,
1001812,110000562720.0,211130,"C,UU,W","Injection of CO2, Petroleum and Natural Gas Systems",GP-522676,OCS (Other combustion source),Tier1/2/3,98.0,301.2,0.25,0.298,0.0,1001812,SAN JUAN RIVER GAS PLANT,99 Road 6500,KIRTLAND,NM,87417,36.7592,-108.35967,SAN JUAN COUNTY,211111,
1001812,110000562720.0,211130,"C,UU,W","Injection of CO2, Petroleum and Natural Gas Systems",GP-522676,OCS (Other combustion source),Tier1/2/3,98.0,36032.1,17.0,20.264,0.0,1001812,SAN JUAN RIVER GAS PLANT,99 Road 6500,KIRTLAND,NM,87417,36.7592,-108.35967,SAN JUAN COUNTY,211111,
1001812,110000562720.0,211130,"C,UU,W","Injection of CO2, Petroleum and Natural Gas Systems",GP-522676,OCS (Other combustion source),Tier1/2/3,98.0,40889.0,19.25,22.946,0.0,1001812,SAN JUAN RIVER GAS PLANT,99 Road 6500,KIRTLAND,NM,87417,36.7592,-108.35967,SAN JUAN COUNTY,211111,
1001806,110033349552.0,211120,"C,W",Petroleum and Natural Gas Systems,CP-1,OCS (Other combustion source),Tier1/2/3,170.0,59044.7,27.75,33.078,0.0,1001806,SEMINOLE GAS PROCESSING PLANT,3.5 MI NW ON SH 214,SEMINOLE,TX,79360,32.7578,-102.681,GAINES,211112,
1001806,110033349552.0,211120,"C,PP,W","Petroleum and Natural Gas Systems, Suppliers of CO2",CP-1,OCS (Other combustion source),Tier1/2/3,170.0,360118.8,169.75,202.342,0.0,1001806,SEMINOLE GAS PROCESSING PLANT,3.5 MI NW ON SH 214,SEMINOLE,TX,79360,32.7578,-102.681,GAINES,211112,
1001806,110033349552.0,211120,"C,W",Petroleum and Natural Gas Systems,CP-1,OCS (Other combustion source),Tier1/2/3,170.0,358895.3,169.0,201.448,0.0,1001806,SEMINOLE GAS PROCESSING PLANT,3.5 MI NW ON SH 214,SEMINOLE,TX,79360,32.7578,-102.681,GAINES,211112,
1002195,110043795408.0,211130,"C,W",Petroleum and Natural Gas Systems,CP-Id: 41804-01,OCS (Other combustion source),Tier1/2/3,16.0,27957.8,13.25,15.794,0.0,1002195,Sneed Booster Station,None,Dumas,TX,79029,35.8117,-101.6294,MOORE,211111,
1002195,110043795408.0,211130,"C,W",Petroleum and Natural Gas Systems,CP-Id: 41804-01,OCS (Other combustion source),Tier1/2/3,16.0,25314.5,12.0,14.304,0.0,1002195,Sneed Booster Station,None,Dumas,TX,79029,35.8117,-101.6294,MOORE,211111,
1002195,110043795408.0,211130,"C,W",Petroleum and Natural Gas Systems,CP-Id: 41804-01 (GHG Only),,Tier1/2/3,16.0,28084.2,13.25,15.794,0.0,1002195,Sneed Booster Station,None,Dumas,TX,79029,35.8117,-101.6294,MOORE,211111,
1002195,110043795408.0,211130,"C,W",Petroleum and Natural Gas Systems,CP-Id: 41804-01 (GHG Only),,Tier1/2/3,16.0,25444.1,12.0,14.304,0.0,1002195,Sneed Booster Station,None,Dumas,TX,79029,35.8117,-101.6294,MOORE,211111,
1006311,110043810374.0,211130,"C,NN,W","Natural Gas and Natural Gas Liquids Suppliers, Petroleum and Natural Gas Systems",CP-Id: 36401003 (GHG Only),,Tier1/2/3,10.56,5770.9,2.75,3.278,0.0,1006311,SONORA GAS PLANT,None,SONORA,TX,76950,30.56,-100.5881,SUTTON,211112,
1006311,110043810374.0,211130,"C,NN,W","Natural Gas and Natural Gas Liquids Suppliers, Petroleum and Natural Gas Systems",CP-Id: 36401004 (GHG Only),,Tier1/2/3,13.5,4013.9,2.0,2.384,0.0,1006311,SONORA GAS PLANT,None,SONORA,TX,76950,30.56,-100.5881,SUTTON,211112,
1006311,110043810374.0,211130,"C,NN,W","Natural Gas and Natural Gas Liquids Suppliers, Petroleum and Natural Gas Systems",CP-Id: 36401003 (GHG Only),,Tier1/2/3,10.56,15376.3,7.25,8.642,0.0,1006311,SONORA GAS PLANT,None,SONORA,TX,76950,30.56,-100.5881,SUTTON,211112,
1006311,110043810374.0,211130,"C,NN,W","Natural Gas and Natural Gas Liquids Suppliers, Petroleum and Natural Gas Systems",CP-Id: 36401004 (GHG Only),,Tier1/2/3,13.5,23463.2,11.0,13.112,0.0,1006311,SONORA GAS PLANT,None,SONORA,TX,76950,30.56,-100.5881,SUTTON,211112,
1006311,110043810374.0,211130,"C,NN,W","Natural Gas and Natural Gas Liquids Suppliers, Petroleum and Natural Gas Systems",CP-Id: 36401003 (GHG Only),,Tier1/2/3,10.56,15704.3,7.5,8.94,0.0,1006311,SONORA GAS PLANT,None,SONORA,TX,76950,30.56,-100.5881,SUTTON,211112,
1006311,110043810374.0,211130,"C,NN,W","Natural Gas and Natural Gas Liquids Suppliers, Petroleum and Natural Gas Systems",CP-Id: 36401004 (GHG Only),,Tier1/2/3,13.5,25911.3,12.25,14.602,0.0,1006311,SONORA GAS PLANT,None,SONORA,TX,76950,30.56,-100.5881,SUTTON,211112,
1006311,110043810374.0,211130,"C,NN,W","Natural Gas and Natural Gas Liquids Suppliers, Petroleum and Natural Gas Systems",CP-Id: 36401003 (GHG Only),,Tier1/2/3,10.56,15327.1,7.25,8.642,0.0,1006311,SONORA GAS PLANT,None,SONORA,TX,76950,30.56,-100.5881,SUTTON,211112,
1006311,110043810374.0,211130,"C,NN,W","Natural Gas and Natural Gas Liquids Suppliers, Petroleum and Natural Gas Systems",CP-Id: 36401004 (GHG Only),,Tier1/2/3,13.5,25857.7,12.25,14.602,0.0,1006311,SONORA GAS PLANT,None,SONORA,TX,76950,30.56,-100.5881,SUTTON,211112,
1005018,110043784802.0,211130,"C,W",Petroleum and Natural Gas Systems,Unit 1,"SCCT (CT (Turbine, simple cycle combustion))",Tier1/2/3,32.84,15002.8,7.0,8.344,0.0,1005018,South Carlsbad Turbine Station,65 Robson Road,Carlsbad,NM,88220,32.411867,-104.239539,EDDY,211111,
1005018,110043784802.0,211130,"C,W",Petroleum and Natural Gas Systems,Unit 2,"SCCT (CT (Turbine, simple cycle combustion))",Tier1/2/3,32.84,15053.4,7.0,8.344,0.0,1005018,South Carlsbad Turbine Station,65 Robson Road,Carlsbad,NM,88220,32.411867,-104.239539,EDDY,211111,
1005018,110043784802.0,211130,"C,W",Petroleum and Natural Gas Systems,Unit 3b,PRH (Process Heater),Tier1/2/3,1.5,0.0,0.0,0.0,0.0,1005018,South Carlsbad Turbine Station,65 Robson Road,Carlsbad,NM,88220,32.411867,-104.239539,EDDY,211111,
1005018,110043784802.0,211130,"C,W",Petroleum and Natural Gas Systems,Unit 4b,MWC (Municipal waste combustor),Tier1/2/3,29.6,0.0,0.0,0.0,0.0,1005018,South Carlsbad Turbine Station,65 Robson Road,Carlsbad,NM,88220,32.411867,-104.239539,EDDY,211111,
1005018,110043784802.0,211130,"C,W",Petroleum and Natural Gas Systems,Unit 1,"SCCT (CT (Turbine, simple cycle combustion))",Tier1/2/3,32.84,14649.2,7.0,8.344,0.0,1005018,South Carlsbad Turbine Station,65 Robson Road,Carlsbad,NM,88220,32.411867,-104.239539,EDDY,211111,
1005018,110043784802.0,211130,"C,W",Petroleum and Natural Gas Systems,Unit 2,"SCCT (CT (Turbine, simple cycle combustion))",Tier1/2/3,32.84,14237.3,6.75,8.046,0.0,1005018,South Carlsbad Turbine Station,65 Robson Road,Carlsbad,NM,88220,32.411867,-104.239539,EDDY,211111,
1005018,110043784802.0,211130,"C,W",Petroleum and Natural Gas Systems,Unit 1,"SCCT (CT (Turbine, simple cycle combustion))",Tier1/2/3,32.84,14668.5,7.0,8.344,0.0,1005018,South Carlsbad Turbine Station,65 Robson Road,Carlsbad,NM,88220,32.411867,-104.239539,EDDY,211111,
1005018,110043784802.0,211130,"C,W",Petroleum and Natural Gas Systems,Unit 2,"SCCT (CT (Turbine, simple cycle combustion))",Tier1/2/3,32.84,14662.5,7.0,8.344,0.0,1005018,South Carlsbad Turbine Station,65 Robson Road,Carlsbad,NM,88220,32.411867,-104.239539,EDDY,211111,
1006798,110001844274.0,486210,"C,W",Petroleum and Natural Gas Systems,CP-Id: MPP800704 (GHG Only),,Tier1/2/3,27.0,11947.2,5.75,6.854,0.0,1006798,SOUTH CHESTER CO2 REMOVAL FACILITY,6250 OLD STATE ROAD,JOHANNESBURG,MI,49751,44.915,-84.5406,OTSEGO,221210,
1006798,110001844274.0,486210,"C,W",Petroleum and Natural Gas Systems,CP-Id: MPP80071 (GHG Only),,Tier1/2/3,53.5,7027.7,3.25,3.874,0.0,1006798,SOUTH CHESTER CO2 REMOVAL FACILITY,6250 OLD STATE ROAD,JOHANNESBURG,MI,49751,44.915,-84.5406,OTSEGO,221210,
1006798,110001844274.0,486210,"C,W",Petroleum and Natural Gas Systems,CP-Id: MPP805161 (GHG Only),,Tier1/2/3,40.0,113.2,0.0,0.0,0.0,1006798,SOUTH CHESTER CO2 REMOVAL FACILITY,6250 OLD STATE ROAD,JOHANNESBURG,MI,49751,44.915,-84.5406,OTSEGO,221210,
1006798,110001844274.0,486210,"C,W",Petroleum and Natural Gas Systems,CP-Id: MPP805201 (GHG Only),,Tier1/2/3,51.231,22402.8,10.5,12.516,0.0,1006798,SOUTH CHESTER CO2 REMOVAL FACILITY,6250 OLD STATE ROAD,JOHANNESBURG,MI,49751,44.915,-84.5406,OTSEGO,221210,
1006798,110001844274.0,486210,"C,W",Petroleum and Natural Gas Systems,CP-Id: MPP805221 (GHG Only),,Tier1/2/3,51.231,22658.2,10.75,12.814,0.0,1006798,SOUTH CHESTER CO2 REMOVAL FACILITY,6250 OLD STATE ROAD,JOHANNESBURG,MI,49751,44.915,-84.5406,OTSEGO,221210,
1006798,110001844274.0,486210,"C,W",Petroleum and Natural Gas Systems,CP-Id: MPP805241 (GHG Only),,Tier1/2/3,7.6,15545.7,7.25,8.642,0.0,1006798,SOUTH CHESTER CO2 REMOVAL FACILITY,6250 OLD STATE ROAD,JOHANNESBURG,MI,49751,44.915,-84.5406,OTSEGO,221210,
1006798,110001844274.0,486210,"C,W",Petroleum and Natural Gas Systems,CP-Id: MPP805271 (GHG Only),,Tier1/2/3,41.0,16539.0,7.75,9.238,0.0,1006798,SOUTH CHESTER CO2 REMOVAL FACILITY,6250 OLD STATE ROAD,JOHANNESBURG,MI,49751,44.915,-84.5406,OTSEGO,221210,
1006798,110001844274.0,486210,"C,W",Petroleum and Natural Gas Systems,CP-Id: MPP805281 (GHG Only),,Tier1/2/3,51.231,15383.0,7.25,8.642,0.0,1006798,SOUTH CHESTER CO2 REMOVAL FACILITY,6250 OLD STATE ROAD,JOHANNESBURG,MI,49751,44.915,-84.5406,OTSEGO,221210,
1006798,110001844274.0,486210,"C,W",Petroleum and Natural Gas Systems,CP-Id: MPP805331 (GHG Only),,Tier1/2/3,76.0,20719.1,9.75,11.622,0.0,1006798,SOUTH CHESTER CO2 REMOVAL FACILITY,6250 OLD STATE ROAD,JOHANNESBURG,MI,49751,44.915,-84.5406,OTSEGO,221210,
1006798,110001844274.0,486210,"C,W",Petroleum and Natural Gas Systems,Unmetered F1 (GHG Only),CH (Comfort heater),Tier1/2/3,0.14,65.1,0.0,0.0,0.0,1006798,SOUTH CHESTER CO2 REMOVAL FACILITY,6250 OLD STATE ROAD,JOHANNESBURG,MI,49751,44.915,-84.5406,OTSEGO,221210,
1006798,110001844274.0,486210,"C,W",Petroleum and Natural Gas Systems,Unmetered F2 (GHG Only),CH (Comfort heater),Tier1/2/3,0.105,48.8,0.0,0.0,0.0,1006798,SOUTH CHESTER CO2 REMOVAL FACILITY,6250 OLD STATE ROAD,JOHANNESBURG,MI,49751,44.915,-84.5406,OTSEGO,221210,
1006798,110001844274.0,486210,"C,W",Petroleum and Natural Gas Systems,Unmetered SH1 (GHG Only),CH (Comfort heater),Tier1/2/3,0.007,3.3,0.0,0.0,0.0,1006798,SOUTH CHESTER CO2 REMOVAL FACILITY,6250 OLD STATE ROAD,JOHANNESBURG,MI,49751,44.915,-84.5406,OTSEGO,221210,
1006798,110001844274.0,486210,"C,W",Petroleum and Natural Gas Systems,Unmetered SH2 (GHG Only),CH (Comfort heater),Tier1/2/3,0.007,3.3,0.0,0.0,0.0,1006798,SOUTH CHESTER CO2 REMOVAL FACILITY,6250 OLD STATE ROAD,JOHANNESBURG,MI,49751,44.915,-84.5406,OTSEGO,221210,
1006798,110001844274.0,486210,"C,W",Petroleum and Natural Gas Systems,Unmetered SH3 (GHG Only),CH (Comfort heater),Tier1/2/3,0.007,3.3,0.0,0.0,0.0,1006798,SOUTH CHESTER CO2 REMOVAL FACILITY,6250 OLD STATE ROAD,JOHANNESBURG,MI,49751,44.915,-84.5406,OTSEGO,221210,
1006798,110001844274.0,486210,"C,W",Petroleum and Natural Gas Systems,Unmetered SH4 (GHG Only),CH (Comfort heater),Tier1/2/3,0.007,3.3,0.0,0.0,0.0,1006798,SOUTH CHESTER CO2 REMOVAL FACILITY,6250 OLD STATE ROAD,JOHANNESBURG,MI,49751,44.915,-84.5406,OTSEGO,221210,
1006798,110001844274.0,486210,"C,W",Petroleum and Natural Gas Systems,CP-Id: MPP800704 (GHG Only),,Tier1/2/3,27.0,5659.5,2.75,3.278,0.0,1006798,SOUTH CHESTER CO2 REMOVAL FACILITY,6250 OLD STATE ROAD,JOHANNESBURG,MI,49751,44.915,-84.5406,OTSEGO,221210,
1006798,110001844274.0,486210,"C,W",Petroleum and Natural Gas Systems,CP-Id: MPP805161 (GHG Only),,Tier1/2/3,40.0,3882.0,1.75,2.086,0.0,1006798,SOUTH CHESTER CO2 REMOVAL FACILITY,6250 OLD STATE ROAD,JOHANNESBURG,MI,49751,44.915,-84.5406,OTSEGO,221210,
1006798,110001844274.0,486210,"C,W",Petroleum and Natural Gas Systems,CP-Id: MPP805201 (GHG Only),,Tier1/2/3,51.231,22283.6,10.5,12.516,0.0,1006798,SOUTH CHESTER CO2 REMOVAL FACILITY,6250 OLD STATE ROAD,JOHANNESBURG,MI,49751,44.915,-84.5406,OTSEGO,221210,
1006798,110001844274.0,486210,"C,W",Petroleum and Natural Gas Systems,CP-Id: MPP805221 (GHG Only),,Tier1/2/3,51.231,22525.0,10.5,12.516,0.0,1006798,SOUTH CHESTER CO2 REMOVAL FACILITY,6250 OLD STATE ROAD,JOHANNESBURG,MI,49751,44.915,-84.5406,OTSEGO,221210,
1006798,110001844274.0,486210,"C,W",Petroleum and Natural Gas Systems,CP-Id: MPP805241 (GHG Only),,Tier1/2/3,7.6,24.1,0.0,0.0,0.0,1006798,SOUTH CHESTER CO2 REMOVAL FACILITY,6250 OLD STATE ROAD,JOHANNESBURG,MI,49751,44.915,-84.5406,OTSEGO,221210,
1006798,110001844274.0,486210,"C,W",Petroleum and Natural Gas Systems,CP-Id: MPP805271 (GHG Only),,Tier1/2/3,41.0,31528.3,14.75,17.582,0.0,1006798,SOUTH CHESTER CO2 REMOVAL FACILITY,6250 OLD STATE ROAD,JOHANNESBURG,MI,49751,44.915,-84.5406,OTSEGO,221210,
1006798,110001844274.0,486210,"C,W",Petroleum and Natural Gas Systems,CP-Id: MPP805281 (GHG Only),,Tier1/2/3,51.231,21795.6,10.25,12.218,0.0,1006798,SOUTH CHESTER CO2 REMOVAL FACILITY,6250 OLD STATE ROAD,JOHANNESBURG,MI,49751,44.915,-84.5406,OTSEGO,221210,
1006798,110001844274.0,486210,"C,W",Petroleum and Natural Gas Systems,CP-Id: MPP805331 (GHG Only),,Tier1/2/3,76.0,17245.0,8.25,9.834,0.0,1006798,SOUTH CHESTER CO2 REMOVAL FACILITY,6250 OLD STATE ROAD,JOHANNESBURG,MI,49751,44.915,-84.5406,OTSEGO,221210,
1006798,110001844274.0,486210,"C,W",Petroleum and Natural Gas Systems,CP-Id: MPP800704 (GHG Only),,Tier1/2/3,27.0,15085.4,7.0,8.344,0.0,1006798,SOUTH CHESTER CO2 REMOVAL FACILITY,6250 OLD STATE ROAD,JOHANNESBURG,MI,49751,44.915,-84.5406,OTSEGO,221210,
1006798,110001844274.0,486210,"C,W",Petroleum and Natural Gas Systems,CP-Id: MPP805161 (GHG Only),,Tier1/2/3,40.0,7589.4,3.5,4.172,0.0,1006798,SOUTH CHESTER CO2 REMOVAL FACILITY,6250 OLD STATE ROAD,JOHANNESBURG,MI,49751,44.915,-84.5406,OTSEGO,221210,
1006798,110001844274.0,486210,"C,W",Petroleum and Natural Gas Systems,CP-Id: MPP805201 (GHG Only),,Tier1/2/3,51.231,25753.9,12.25,14.602,0.0,1006798,SOUTH CHESTER CO2 REMOVAL FACILITY,6250 OLD STATE ROAD,JOHANNESBURG,MI,49751,44.915,-84.5406,OTSEGO,221210,
1006798,110001844274.0,486210,"C,W",Petroleum and Natural Gas Systems,CP-Id: MPP805221 (GHG Only),,Tier1/2/3,51.231,23365.5,11.0,13.112,0.0,1006798,SOUTH CHESTER CO2 REMOVAL FACILITY,6250 OLD STATE ROAD,JOHANNESBURG,MI,49751,44.915,-84.5406,OTSEGO,221210,
1006798,110001844274.0,486210,"C,W",Petroleum and Natural Gas Systems,CP-Id: MPP805241 (GHG Only),,Tier1/2/3,7.6,473.9,0.25,0.298,0.0,1006798,SOUTH CHESTER CO2 REMOVAL FACILITY,6250 OLD STATE ROAD,JOHANNESBURG,MI,49751,44.915,-84.5406,OTSEGO,221210,
1006798,110001844274.0,486210,"C,W",Petroleum and Natural Gas Systems,CP-Id: MPP805271 (GHG Only),,Tier1/2/3,41.0,35620.4,16.75,19.966,0.0,1006798,SOUTH CHESTER CO2 REMOVAL FACILITY,6250 OLD STATE ROAD,JOHANNESBURG,MI,49751,44.915,-84.5406,OTSEGO,221210,
1006798,110001844274.0,486210,"C,W",Petroleum and Natural Gas Systems,CP-Id: MPP805281 (GHG Only),,Tier1/2/3,51.231,24350.9,11.5,13.708,0.0,1006798,SOUTH CHESTER CO2 REMOVAL FACILITY,6250 OLD STATE ROAD,JOHANNESBURG,MI,49751,44.915,-84.5406,OTSEGO,221210,
1006798,110001844274.0,486210,"C,W",Petroleum and Natural Gas Systems,CP-Id: MPP805331 (GHG Only),,Tier1/2/3,51.231,24531.2,11.5,13.708,0.0,1006798,SOUTH CHESTER CO2 REMOVAL FACILITY,6250 OLD STATE ROAD,JOHANNESBURG,MI,49751,44.915,-84.5406,OTSEGO,221210,
1006798,110001844274.0,486210,"C,W",Petroleum and Natural Gas Systems,CP-Id: MPP800704 (GHG Only),,Tier1/2/3,27.0,16953.2,8.0,9.536,0.0,1006798,SOUTH CHESTER CO2 REMOVAL FACILITY,6250 OLD STATE ROAD,JOHANNESBURG,MI,49751,44.915,-84.5406,OTSEGO,221210,
1006798,110001844274.0,486210,"C,W",Petroleum and Natural Gas Systems,CP-Id: MPP805161 (GHG Only),,Tier1/2/3,40.0,8349.6,4.0,4.768,0.0,1006798,SOUTH CHESTER CO2 REMOVAL FACILITY,6250 OLD STATE ROAD,JOHANNESBURG,MI,49751,44.915,-84.5406,OTSEGO,221210,
1006798,110001844274.0,486210,"C,W",Petroleum and Natural Gas Systems,CP-Id: MPP805201 (GHG Only),,Tier1/2/3,51.231,25863.4,12.25,14.602,0.0,1006798,SOUTH CHESTER CO2 REMOVAL FACILITY,6250 OLD STATE ROAD,JOHANNESBURG,MI,49751,44.915,-84.5406,OTSEGO,221210,
1006798,110001844274.0,486210,"C,W",Petroleum and Natural Gas Systems,CP-Id: MPP805221 (GHG Only),,Tier1/2/3,51.231,25558.8,12.0,14.304,0.0,1006798,SOUTH CHESTER CO2 REMOVAL FACILITY,6250 OLD STATE ROAD,JOHANNESBURG,MI,49751,44.915,-84.5406,OTSEGO,221210,
1006798,110001844274.0,486210,"C,W",Petroleum and Natural Gas Systems,CP-Id: MPP805241 (GHG Only),,Tier1/2/3,7.6,25787.2,12.25,14.602,0.0,1006798,SOUTH CHESTER CO2 REMOVAL FACILITY,6250 OLD STATE ROAD,JOHANNESBURG,MI,49751,44.915,-84.5406,OTSEGO,221210,
1006798,110001844274.0,486210,"C,W",Petroleum and Natural Gas Systems,CP-Id: MPP805271 (GHG Only),,Tier1/2/3,41.0,8464.5,4.0,4.768,0.0,1006798,SOUTH CHESTER CO2 REMOVAL FACILITY,6250 OLD STATE ROAD,JOHANNESBURG,MI,49751,44.915,-84.5406,OTSEGO,221210,
1006798,110001844274.0,486210,"C,W",Petroleum and Natural Gas Systems,CP-Id: MPP805281 (GHG Only),,Tier1/2/3,51.231,17840.5,8.5,10.132,0.0,1006798,SOUTH CHESTER CO2 REMOVAL FACILITY,6250 OLD STATE ROAD,JOHANNESBURG,MI,49751,44.915,-84.5406,OTSEGO,221210,
1006798,110001844274.0,486210,"C,W",Petroleum and Natural Gas Systems,CP-Id: MPP805331 (GHG Only),,Tier1/2/3,51.231,27902.8,13.25,15.794,0.0,1006798,SOUTH CHESTER CO2 REMOVAL FACILITY,6250 OLD STATE ROAD,JOHANNESBURG,MI,49751,44.915,-84.5406,OTSEGO,221210,
1006798,110001844274.0,221210,"C,W",Petroleum and Natural Gas Systems,CP-Id: MPP800704 (GHG Only),,Tier1/2/3,27.0,19017.0,9.0,10.728,0.0,1006798,SOUTH CHESTER CO2 REMOVAL FACILITY,6250 OLD STATE ROAD,JOHANNESBURG,MI,49751,44.915,-84.5406,OTSEGO,221210,
1006798,110001844274.0,221210,"C,W",Petroleum and Natural Gas Systems,CP-Id: MPP805161 (GHG Only),,Tier1/2/3,40.0,7803.6,3.75,4.47,0.0,1006798,SOUTH CHESTER CO2 REMOVAL FACILITY,6250 OLD STATE ROAD,JOHANNESBURG,MI,49751,44.915,-84.5406,OTSEGO,221210,
1006798,110001844274.0,221210,"C,W",Petroleum and Natural Gas Systems,CP-Id: MPP805201 (GHG Only),,Tier1/2/3,51.231,24549.8,11.5,13.708,0.0,1006798,SOUTH CHESTER CO2 REMOVAL FACILITY,6250 OLD STATE ROAD,JOHANNESBURG,MI,49751,44.915,-84.5406,OTSEGO,221210,
1006798,110001844274.0,221210,"C,W",Petroleum and Natural Gas Systems,CP-Id: MPP805221 (GHG Only),,Tier1/2/3,51.231,21802.4,10.25,12.218,0.0,1006798,SOUTH CHESTER CO2 REMOVAL FACILITY,6250 OLD STATE ROAD,JOHANNESBURG,MI,49751,44.915,-84.5406,OTSEGO,221210,
1006798,110001844274.0,221210,"C,W",Petroleum and Natural Gas Systems,CP-Id: MPP805241 (GHG Only),,Tier1/2/3,7.6,15392.0,7.25,8.642,0.0,1006798,SOUTH CHESTER CO2 REMOVAL FACILITY,6250 OLD STATE ROAD,JOHANNESBURG,MI,49751,44.915,-84.5406,OTSEGO,221210,
1006798,110001844274.0,221210,"C,W",Petroleum and Natural Gas Systems,CP-Id: MPP805271 (GHG Only),,Tier1/2/3,41.0,21974.4,10.25,12.218,0.0,1006798,SOUTH CHESTER CO2 REMOVAL FACILITY,6250 OLD STATE ROAD,JOHANNESBURG,MI,49751,44.915,-84.5406,OTSEGO,221210,
1006798,110001844274.0,221210,"C,W",Petroleum and Natural Gas Systems,CP-Id: MPP805281 (GHG Only),,Tier1/2/3,51.231,20709.2,9.75,11.622,0.0,1006798,SOUTH CHESTER CO2 REMOVAL FACILITY,6250 OLD STATE ROAD,JOHANNESBURG,MI,49751,44.915,-84.5406,OTSEGO,221210,
1006798,110001844274.0,221210,"C,W",Petroleum and Natural Gas Systems,CP-Id: MPP805331 (GHG Only),,Tier1/2/3,51.231,23870.9,11.25,13.41,0.0,1006798,SOUTH CHESTER CO2 REMOVAL FACILITY,6250 OLD STATE ROAD,JOHANNESBURG,MI,49751,44.915,-84.5406,OTSEGO,221210,
1006798,110001844274.0,221210,"C,W",Petroleum and Natural Gas Systems,Unmetered F1 (GHG Only),CH (Comfort heater),Tier1/2/3,0.14,65.1,0.0,0.0,0.0,1006798,SOUTH CHESTER CO2 REMOVAL FACILITY,6250 OLD STATE ROAD,JOHANNESBURG,MI,49751,44.915,-84.5406,OTSEGO,221210,
1006798,110001844274.0,221210,"C,W",Petroleum and Natural Gas Systems,Unmetered F2 (GHG Only),CH (Comfort heater),Tier1/2/3,0.105,48.8,0.0,0.0,0.0,1006798,SOUTH CHESTER CO2 REMOVAL FACILITY,6250 OLD STATE ROAD,JOHANNESBURG,MI,49751,44.915,-84.5406,OTSEGO,221210,
1006798,110001844274.0,221210,"C,W",Petroleum and Natural Gas Systems,Unmetered SH1 (GHG Only),CH (Comfort heater),Tier1/2/3,0.007,3.3,0.0,0.0,0.0,1006798,SOUTH CHESTER CO2 REMOVAL FACILITY,6250 OLD STATE ROAD,JOHANNESBURG,MI,49751,44.915,-84.5406,OTSEGO,221210,
1006798,110001844274.0,221210,"C,W",Petroleum and Natural Gas Systems,Unmetered SH2 (GHG Only),CH (Comfort heater),Tier1/2/3,0.007,3.3,0.0,0.0,0.0,1006798,SOUTH CHESTER CO2 REMOVAL FACILITY,6250 OLD STATE ROAD,JOHANNESBURG,MI,49751,44.915,-84.5406,OTSEGO,221210,
1006798,110001844274.0,221210,"C,W",Petroleum and Natural Gas Systems,Unmetered SH3 (GHG Only),CH (Comfort heater),Tier1/2/3,0.007,3.3,0.0,0.0,0.0,1006798,SOUTH CHESTER CO2 REMOVAL FACILITY,6250 OLD STATE ROAD,JOHANNESBURG,MI,49751,44.915,-84.5406,OTSEGO,221210,
1006798,110001844274.0,221210,"C,W",Petroleum and Natural Gas Systems,Unmetered SH4 (GHG Only),CH (Comfort heater),Tier1/2/3,0.007,3.3,0.0,0.0,0.0,1006798,SOUTH CHESTER CO2 REMOVAL FACILITY,6250 OLD STATE ROAD,JOHANNESBURG,MI,49751,44.915,-84.5406,OTSEGO,221210,
1006798,110001844274.0,221210,"C,W",Petroleum and Natural Gas Systems,CP-Id: MPP800704,,Tier1/2/3,31.8,741.353,0.25,0.298,0.0,1006798,SOUTH CHESTER CO2 REMOVAL FACILITY,6250 OLD STATE ROAD,JOHANNESBURG,MI,49751,44.915,-84.5406,OTSEGO,221210,
1006798,110001844274.0,221210,"C,W",Petroleum and Natural Gas Systems,CP-Id: MPP805161,,Tier1/2/3,56.0,5144.196,2.5,2.98,0.0,1006798,SOUTH CHESTER CO2 REMOVAL FACILITY,6250 OLD STATE ROAD,JOHANNESBURG,MI,49751,44.915,-84.5406,OTSEGO,221210,
1006798,110001844274.0,221210,"C,W",Petroleum and Natural Gas Systems,CP-Id: MPP805201,,Tier1/2/3,76.0,27711.593,13.0,15.496,0.0,1006798,SOUTH CHESTER CO2 REMOVAL FACILITY,6250 OLD STATE ROAD,JOHANNESBURG,MI,49751,44.915,-84.5406,OTSEGO,221210,
1006798,110001844274.0,221210,"C,W",Petroleum and Natural Gas Systems,CP-Id: MPP805221,,Tier1/2/3,76.0,20757.137,9.75,11.622,0.0,1006798,SOUTH CHESTER CO2 REMOVAL FACILITY,6250 OLD STATE ROAD,JOHANNESBURG,MI,49751,44.915,-84.5406,OTSEGO,221210,
1006798,110001844274.0,221210,"C,W",Petroleum and Natural Gas Systems,CP-Id: MPP805241,,Tier1/2/3,7.6,29747.046,14.0,16.688,0.0,1006798,SOUTH CHESTER CO2 REMOVAL FACILITY,6250 OLD STATE ROAD,JOHANNESBURG,MI,49751,44.915,-84.5406,OTSEGO,221210,
1006798,110001844274.0,221210,"C,W",Petroleum and Natural Gas Systems,CP-Id: MPP805271,,Tier1/2/3,38.064,2423.793,1.25,1.49,0.0,1006798,SOUTH CHESTER CO2 REMOVAL FACILITY,6250 OLD STATE ROAD,JOHANNESBURG,MI,49751,44.915,-84.5406,OTSEGO,221210,
1006798,110001844274.0,221210,"C,W",Petroleum and Natural Gas Systems,CP-Id: MPP805281,,Tier1/2/3,76.0,21990.76,10.25,12.218,0.0,1006798,SOUTH CHESTER CO2 REMOVAL FACILITY,6250 OLD STATE ROAD,JOHANNESBURG,MI,49751,44.915,-84.5406,OTSEGO,221210,
1006798,110001844274.0,221210,"C,W",Petroleum and Natural Gas Systems,CP-Id: MPP805331,,Tier1/2/3,76.0,23419.306,11.0,13.112,0.0,1006798,SOUTH CHESTER CO2 REMOVAL FACILITY,6250 OLD STATE ROAD,JOHANNESBURG,MI,49751,44.915,-84.5406,OTSEGO,221210,
1006798,110001844274.0,221210,"C,W",Petroleum and Natural Gas Systems,F1,CH (Comfort heater),Tier1/2/3,0.14,65.073,0.0,0.0,0.0,1006798,SOUTH CHESTER CO2 REMOVAL FACILITY,6250 OLD STATE ROAD,JOHANNESBURG,MI,49751,44.915,-84.5406,OTSEGO,221210,
1006798,110001844274.0,221210,"C,W",Petroleum and Natural Gas Systems,F2,CH (Comfort heater),Tier1/2/3,0.105,48.805,0.0,0.0,0.0,1006798,SOUTH CHESTER CO2 REMOVAL FACILITY,6250 OLD STATE ROAD,JOHANNESBURG,MI,49751,44.915,-84.5406,OTSEGO,221210,
1006798,110001844274.0,221210,"C,W",Petroleum and Natural Gas Systems,SH1,CH (Comfort heater),Tier1/2/3,0.007,3.254,0.0,0.0,0.0,1006798,SOUTH CHESTER CO2 REMOVAL FACILITY,6250 OLD STATE ROAD,JOHANNESBURG,MI,49751,44.915,-84.5406,OTSEGO,221210,
1006798,110001844274.0,221210,"C,W",Petroleum and Natural Gas Systems,SH2,CH (Comfort heater),Tier1/2/3,0.007,3.254,0.0,0.0,0.0,1006798,SOUTH CHESTER CO2 REMOVAL FACILITY,6250 OLD STATE ROAD,JOHANNESBURG,MI,49751,44.915,-84.5406,OTSEGO,221210,
1006798,110001844274.0,221210,"C,W",Petroleum and Natural Gas Systems,SH3,CH (Comfort heater),Tier1/2/3,0.007,3.254,0.0,0.0,0.0,1006798,SOUTH CHESTER CO2 REMOVAL FACILITY,6250 OLD STATE ROAD,JOHANNESBURG,MI,49751,44.915,-84.5406,OTSEGO,221210,
1006798,110001844274.0,221210,"C,W",Petroleum and Natural Gas Systems,SH4,CH (Comfort heater),Tier1/2/3,0.007,3.254,0.0,0.0,0.0,1006798,SOUTH CHESTER CO2 REMOVAL FACILITY,6250 OLD STATE ROAD,JOHANNESBURG,MI,49751,44.915,-84.5406,OTSEGO,221210,
1006798,110001844274.0,221210,"C,W",Petroleum and Natural Gas Systems,CP-Id: MPP800704,,Tier1/2/3,31.8,12498.251,5.9,7.152,0.0,1006798,SOUTH CHESTER CO2 REMOVAL FACILITY,6250 OLD STATE ROAD,JOHANNESBURG,MI,49751,44.915,-84.5406,OTSEGO,221210,
1006798,110001844274.0,221210,"C,W",Petroleum and Natural Gas Systems,CP-Id: MPP805161,,Tier1/2/3,56.0,7816.874,3.675,4.47,0.0,1006798,SOUTH CHESTER CO2 REMOVAL FACILITY,6250 OLD STATE ROAD,JOHANNESBURG,MI,49751,44.915,-84.5406,OTSEGO,221210,
1006798,110001844274.0,221210,"C,W",Petroleum and Natural Gas Systems,CP-Id: MPP805201,,Tier1/2/3,76.0,27795.168,13.1,15.496,0.0,1006798,SOUTH CHESTER CO2 REMOVAL FACILITY,6250 OLD STATE ROAD,JOHANNESBURG,MI,49751,44.915,-84.5406,OTSEGO,221210,
1006798,110001844274.0,221210,"C,W",Petroleum and Natural Gas Systems,CP-Id: MPP805221,,Tier1/2/3,76.0,21604.863,10.175,12.218,0.0,1006798,SOUTH CHESTER CO2 REMOVAL FACILITY,6250 OLD STATE ROAD,JOHANNESBURG,MI,49751,44.915,-84.5406,OTSEGO,221210,
1006798,110001844274.0,221210,"C,W",Petroleum and Natural Gas Systems,CP-Id: MPP805241,,Tier1/2/3,7.6,15127.487,7.125,8.642,0.0,1006798,SOUTH CHESTER CO2 REMOVAL FACILITY,6250 OLD STATE ROAD,JOHANNESBURG,MI,49751,44.915,-84.5406,OTSEGO,221210,
1006798,110001844274.0,221210,"C,W",Petroleum and Natural Gas Systems,CP-Id: MPP805271,,Tier1/2/3,38.064,16170.97,7.625,8.94,0.0,1006798,SOUTH CHESTER CO2 REMOVAL FACILITY,6250 OLD STATE ROAD,JOHANNESBURG,MI,49751,44.915,-84.5406,OTSEGO,221210,
1006798,110001844274.0,221210,"C,W",Petroleum and Natural Gas Systems,CP-Id: MPP805281,,Tier1/2/3,76.0,22226.304,10.475,12.516,0.0,1006798,SOUTH CHESTER CO2 REMOVAL FACILITY,6250 OLD STATE ROAD,JOHANNESBURG,MI,49751,44.915,-84.5406,OTSEGO,221210,
1006798,110001844274.0,221210,"C,W",Petroleum and Natural Gas Systems,CP-Id: MPP805331,,Tier1/2/3,76.0,25364.334,11.95,14.304,0.0,1006798,SOUTH CHESTER CO2 REMOVAL FACILITY,6250 OLD STATE ROAD,JOHANNESBURG,MI,49751,44.915,-84.5406,OTSEGO,221210,
1006798,110001844274.0,221210,"C,W",Petroleum and Natural Gas Systems,F1,CH (Comfort heater),Tier1/2/3,0.14,65.073,0.025,0.0,0.0,1006798,SOUTH CHESTER CO2 REMOVAL FACILITY,6250 OLD STATE ROAD,JOHANNESBURG,MI,49751,44.915,-84.5406,OTSEGO,221210,
1006798,110001844274.0,221210,"C,W",Petroleum and Natural Gas Systems,F2,CH (Comfort heater),Tier1/2/3,0.105,48.805,0.025,0.0,0.0,1006798,SOUTH CHESTER CO2 REMOVAL FACILITY,6250 OLD STATE ROAD,JOHANNESBURG,MI,49751,44.915,-84.5406,OTSEGO,221210,
1006798,110001844274.0,221210,"C,W",Petroleum and Natural Gas Systems,CP-Id: MPP800704,OCS (Other combustion source),Tier1/2/3,31.8,23519.983,11.075,13.112,0.0,1006798,SOUTH CHESTER CO2 REMOVAL FACILITY,6250 OLD STATE ROAD,JOHANNESBURG,MI,49751,44.915,-84.5406,OTSEGO,221210,
1006798,110001844274.0,221210,"C,W",Petroleum and Natural Gas Systems,CP-Id: MPP805161,OCS (Other combustion source),Tier1/2/3,56.0,8415.689,3.975,4.768,0.0,1006798,SOUTH CHESTER CO2 REMOVAL FACILITY,6250 OLD STATE ROAD,JOHANNESBURG,MI,49751,44.915,-84.5406,OTSEGO,221210,
1006798,110001844274.0,221210,"C,W",Petroleum and Natural Gas Systems,CP-Id: MPP805201,OCS (Other combustion source),Tier1/2/3,76.0,25619.915,12.075,14.304,0.0,1006798,SOUTH CHESTER CO2 REMOVAL FACILITY,6250 OLD STATE ROAD,JOHANNESBURG,MI,49751,44.915,-84.5406,OTSEGO,221210,
1006798,110001844274.0,221210,"C,W",Petroleum and Natural Gas Systems,CP-Id: MPP805221,OCS (Other combustion source),Tier1/2/3,76.0,21291.185,10.025,11.92,0.0,1006798,SOUTH CHESTER CO2 REMOVAL FACILITY,6250 OLD STATE ROAD,JOHANNESBURG,MI,49751,44.915,-84.5406,OTSEGO,221210,
1006798,110001844274.0,221210,"C,W",Petroleum and Natural Gas Systems,CP-Id: MPP805241,OCS (Other combustion source),Tier1/2/3,7.6,9187.476,4.325,5.066,0.0,1006798,SOUTH CHESTER CO2 REMOVAL FACILITY,6250 OLD STATE ROAD,JOHANNESBURG,MI,49751,44.915,-84.5406,OTSEGO,221210,
1006798,110001844274.0,221210,"C,W",Petroleum and Natural Gas Systems,CP-Id: MPP805271,OCS (Other combustion source),Tier1/2/3,38.064,22925.62,10.8,12.814,0.0,1006798,SOUTH CHESTER CO2 REMOVAL FACILITY,6250 OLD STATE ROAD,JOHANNESBURG,MI,49751,44.915,-84.5406,OTSEGO,221210,
1006798,110001844274.0,221210,"C,W",Petroleum and Natural Gas Systems,CP-Id: MPP805281,OCS (Other combustion source),Tier1/2/3,76.0,23467.052,11.05,13.112,0.0,1006798,SOUTH CHESTER CO2 REMOVAL FACILITY,6250 OLD STATE ROAD,JOHANNESBURG,MI,49751,44.915,-84.5406,OTSEGO,221210,
1006798,110001844274.0,221210,"C,W",Petroleum and Natural Gas Systems,CP-Id: MPP805331,OCS (Other combustion source),Tier1/2/3,76.0,25203.027,11.875,14.006,0.0,1006798,SOUTH CHESTER CO2 REMOVAL FACILITY,6250 OLD STATE ROAD,JOHANNESBURG,MI,49751,44.915,-84.5406,OTSEGO,221210,
1006798,110001844274.0,221210,"C,W",Petroleum and Natural Gas Systems,CP-Id: MPP800704,OCS (Other combustion source),Tier1/2/3,31.8,25827.28,12.175,14.602,0.0,1006798,SOUTH CHESTER CO2 REMOVAL FACILITY,6250 OLD STATE ROAD,JOHANNESBURG,MI,49751,44.915,-84.5406,OTSEGO,221210,
1006798,110001844274.0,221210,"C,W",Petroleum and Natural Gas Systems,CP-Id: MPP805161,OCS (Other combustion source),Tier1/2/3,56.0,6941.165,3.275,3.874,0.0,1006798,SOUTH CHESTER CO2 REMOVAL FACILITY,6250 OLD STATE ROAD,JOHANNESBURG,MI,49751,44.915,-84.5406,OTSEGO,221210,
1006798,110001844274.0,221210,"C,W",Petroleum and Natural Gas Systems,CP-Id: MPP805201,OCS (Other combustion source),Tier1/2/3,76.0,22217.343,10.475,12.516,0.0,1006798,SOUTH CHESTER CO2 REMOVAL FACILITY,6250 OLD STATE ROAD,JOHANNESBURG,MI,49751,44.915,-84.5406,OTSEGO,221210,
1006798,110001844274.0,221210,"C,W",Petroleum and Natural Gas Systems,CP-Id: MPP805221,OCS (Other combustion source),Tier1/2/3,76.0,20847.972,9.825,11.622,0.0,1006798,SOUTH CHESTER CO2 REMOVAL FACILITY,6250 OLD STATE ROAD,JOHANNESBURG,MI,49751,44.915,-84.5406,OTSEGO,221210,
1006798,110001844274.0,221210,"C,W",Petroleum and Natural Gas Systems,CP-Id: MPP805241,OCS (Other combustion source),Tier1/2/3,7.6,15648.212,7.375,8.94,0.0,1006798,SOUTH CHESTER CO2 REMOVAL FACILITY,6250 OLD STATE ROAD,JOHANNESBURG,MI,49751,44.915,-84.5406,OTSEGO,221210,
1006798,110001844274.0,221210,"C,W",Petroleum and Natural Gas Systems,CP-Id: MPP805271,OCS (Other combustion source),Tier1/2/3,38.064,17376.792,8.2,9.834,0.0,1006798,SOUTH CHESTER CO2 REMOVAL FACILITY,6250 OLD STATE ROAD,JOHANNESBURG,MI,49751,44.915,-84.5406,OTSEGO,221210,
1006798,110001844274.0,221210,"C,W",Petroleum and Natural Gas Systems,CP-Id: MPP805281,OCS (Other combustion source),Tier1/2/3,76.0,22704.55,10.7,12.814,0.0,1006798,SOUTH CHESTER CO2 REMOVAL FACILITY,6250 OLD STATE ROAD,JOHANNESBURG,MI,49751,44.915,-84.5406,OTSEGO,221210,
1006798,110001844274.0,221210,"C,W",Petroleum and Natural Gas Systems,CP-Id: MPP805331,OCS (Other combustion source),Tier1/2/3,76.0,23643.546,11.15,13.41,0.0,1006798,SOUTH CHESTER CO2 REMOVAL FACILITY,6250 OLD STATE ROAD,JOHANNESBURG,MI,49751,44.915,-84.5406,OTSEGO,221210,
1006798,110001844274.0,221210,"C,W",Petroleum and Natural Gas Systems,F1,CH (Comfort heater),Tier1/2/3,0.14,65.202,0.025,0.0,0.0,1006798,SOUTH CHESTER CO2 REMOVAL FACILITY,6250 OLD STATE ROAD,JOHANNESBURG,MI,49751,44.915,-84.5406,OTSEGO,221210,
1006798,110001844274.0,221210,"C,W",Petroleum and Natural Gas Systems,F2,CH (Comfort heater),Tier1/2/3,0.105,48.901,0.025,0.0,0.0,1006798,SOUTH CHESTER CO2 REMOVAL FACILITY,6250 OLD STATE ROAD,JOHANNESBURG,MI,49751,44.915,-84.5406,OTSEGO,221210,
1006798,110001844274.0,221210,"C,W",Petroleum and Natural Gas Systems,SH1,CH (Comfort heater),Tier1/2/3,0.007,3.26,0.0,0.0,0.0,1006798,SOUTH CHESTER CO2 REMOVAL FACILITY,6250 OLD STATE ROAD,JOHANNESBURG,MI,49751,44.915,-84.5406,OTSEGO,221210,
1006798,110001844274.0,221210,"C,W",Petroleum and Natural Gas Systems,SH2,CH (Comfort heater),Tier1/2/3,0.007,3.26,0.0,0.0,0.0,1006798,SOUTH CHESTER CO2 REMOVAL FACILITY,6250 OLD STATE ROAD,JOHANNESBURG,MI,49751,44.915,-84.5406,OTSEGO,221210,
1006798,110001844274.0,221210,"C,W",Petroleum and Natural Gas Systems,SH3,CH (Comfort heater),Tier1/2/3,0.007,3.26,0.0,0.0,0.0,1006798,SOUTH CHESTER CO2 REMOVAL FACILITY,6250 OLD STATE ROAD,JOHANNESBURG,MI,49751,44.915,-84.5406,OTSEGO,221210,
1006798,110001844274.0,221210,"C,W",Petroleum and Natural Gas Systems,SH4,CH (Comfort heater),Tier1/2/3,0.007,3.26,0.0,0.0,0.0,1006798,SOUTH CHESTER CO2 REMOVAL FACILITY,6250 OLD STATE ROAD,JOHANNESBURG,MI,49751,44.915,-84.5406,OTSEGO,221210,
1006798,110001844274.0,221210,"C,W",Petroleum and Natural Gas Systems,CP-Id: MPP800704,OCS (Other combustion source),Tier1/2/3,31.8,18694.919,8.825,10.43,0.0,1006798,SOUTH CHESTER CO2 REMOVAL FACILITY,6250 OLD STATE ROAD,JOHANNESBURG,MI,49751,44.915,-84.5406,OTSEGO,221210,
1006798,110001844274.0,221210,"C,W",Petroleum and Natural Gas Systems,CP-Id: MPP805161,OCS (Other combustion source),Tier1/2/3,56.0,7323.641,3.45,4.172,0.0,1006798,SOUTH CHESTER CO2 REMOVAL FACILITY,6250 OLD STATE ROAD,JOHANNESBURG,MI,49751,44.915,-84.5406,OTSEGO,221210,
1006798,110001844274.0,221210,"C,W",Petroleum and Natural Gas Systems,CP-Id: MPP805201,OCS (Other combustion source),Tier1/2/3,76.0,28400.003,13.4,16.092,0.0,1006798,SOUTH CHESTER CO2 REMOVAL FACILITY,6250 OLD STATE ROAD,JOHANNESBURG,MI,49751,44.915,-84.5406,OTSEGO,221210,
1006798,110001844274.0,221210,"C,W",Petroleum and Natural Gas Systems,CP-Id: MPP805221,OCS (Other combustion source),Tier1/2/3,76.0,30784.643,14.525,17.284,0.0,1006798,SOUTH CHESTER CO2 REMOVAL FACILITY,6250 OLD STATE ROAD,JOHANNESBURG,MI,49751,44.915,-84.5406,OTSEGO,221210,
1006798,110001844274.0,221210,"C,W",Petroleum and Natural Gas Systems,CP-Id: MPP805241,OCS (Other combustion source),Tier1/2/3,7.6,12715.057,6.0,7.152,0.0,1006798,SOUTH CHESTER CO2 REMOVAL FACILITY,6250 OLD STATE ROAD,JOHANNESBURG,MI,49751,44.915,-84.5406,OTSEGO,221210,
1006798,110001844274.0,221210,"C,W",Petroleum and Natural Gas Systems,CP-Id: MPP805271,OCS (Other combustion source),Tier1/2/3,38.064,30131.739,14.2,16.986,0.0,1006798,SOUTH CHESTER CO2 REMOVAL FACILITY,6250 OLD STATE ROAD,JOHANNESBURG,MI,49751,44.915,-84.5406,OTSEGO,221210,
1006798,110001844274.0,221210,"C,W",Petroleum and Natural Gas Systems,CP-Id: MPP805281,OCS (Other combustion source),Tier1/2/3,76.0,28106.531,13.25,15.794,0.0,1006798,SOUTH CHESTER CO2 REMOVAL FACILITY,6250 OLD STATE ROAD,JOHANNESBURG,MI,49751,44.915,-84.5406,OTSEGO,221210,
1006798,110001844274.0,221210,"C,W",Petroleum and Natural Gas Systems,CP-Id: MPP805331,OCS (Other combustion source),Tier1/2/3,76.0,34695.238,16.35,19.37,0.0,1006798,SOUTH CHESTER CO2 REMOVAL FACILITY,6250 OLD STATE ROAD,JOHANNESBURG,MI,49751,44.915,-84.5406,OTSEGO,221210,
1006798,110001844274.0,221210,"C,W",Petroleum and Natural Gas Systems,F1,CH (Comfort heater),Tier1/2/3,0.14,65.024,0.025,0.0,0.0,1006798,SOUTH CHESTER CO2 REMOVAL FACILITY,6250 OLD STATE ROAD,JOHANNESBURG,MI,49751,44.915,-84.5406,OTSEGO,221210,
1006798,110001844274.0,221210,"C,W",Petroleum and Natural Gas Systems,F2,CH (Comfort heater),Tier1/2/3,0.105,48.768,0.025,0.0,0.0,1006798,SOUTH CHESTER CO2 REMOVAL FACILITY,6250 OLD STATE ROAD,JOHANNESBURG,MI,49751,44.915,-84.5406,OTSEGO,221210,
1006798,110001844274.0,221210,"C,W",Petroleum and Natural Gas Systems,SH1,CH (Comfort heater),Tier1/2/3,0.007,3.251,0.0,0.0,0.0,1006798,SOUTH CHESTER CO2 REMOVAL FACILITY,6250 OLD STATE ROAD,JOHANNESBURG,MI,49751,44.915,-84.5406,OTSEGO,221210,
1006798,110001844274.0,221210,"C,W",Petroleum and Natural Gas Systems,SH2,CH (Comfort heater),Tier1/2/3,0.007,3.251,0.0,0.0,0.0,1006798,SOUTH CHESTER CO2 REMOVAL FACILITY,6250 OLD STATE ROAD,JOHANNESBURG,MI,49751,44.915,-84.5406,OTSEGO,221210,
1006798,110001844274.0,221210,"C,W",Petroleum and Natural Gas Systems,SH3,CH (Comfort heater),Tier1/2/3,0.007,3.251,0.0,0.0,0.0,1006798,SOUTH CHESTER CO2 REMOVAL FACILITY,6250 OLD STATE ROAD,JOHANNESBURG,MI,49751,44.915,-84.5406,OTSEGO,221210,
1006798,110001844274.0,221210,"C,W",Petroleum and Natural Gas Systems,SH4,CH (Comfort heater),Tier1/2/3,0.007,3.251,0.0,0.0,0.0,1006798,SOUTH CHESTER CO2 REMOVAL FACILITY,6250 OLD STATE ROAD,JOHANNESBURG,MI,49751,44.915,-84.5406,OTSEGO,221210,
1002378,110043793570.0,211130,"C,W",Petroleum and Natural Gas Systems,CP-Id: 71437015 (GHG Only),,Tier1/2/3,18.8,41934.8,19.75,23.542,0.0,1002378,SOUTHWEST OZONA GAS PLANT,None,OZONA,TX,76943,30.4462,-101.4674,CROCKETT,211112,
1002378,110043793570.0,211130,"C,W",Petroleum and Natural Gas Systems,CP-Id: 71437015 (GHG Only),,Tier1/2/3,18.8,43398.7,20.5,24.436,0.0,1002378,SOUTHWEST OZONA GAS PLANT,None,OZONA,TX,76943,30.4462,-101.4674,CROCKETT,211112,
1002378,110043793570.0,211130,"C,W",Petroleum and Natural Gas Systems,CP-Id: 71437015 (GHG Only),,Tier1/2/3,18.8,38445.5,18.0,21.456,0.0,1002378,SOUTHWEST OZONA GAS PLANT,None,OZONA,TX,76943,30.4462,-101.4674,CROCKETT,211112,
1002378,110043793570.0,211130,"C,W",Petroleum and Natural Gas Systems,CP-Id: 71437015 (GHG Only),,Tier1/2/3,18.8,36258.0,17.0,20.264,0.0,1002378,SOUTHWEST OZONA GAS PLANT,None,OZONA,TX,76943,30.4462,-101.4674,CROCKETT,211112,
1004400,110043797781.0,211120,"C,W",Petroleum and Natural Gas Systems,GP-1,OCS (Other combustion source),Tier1/2/3,36.4,104789.9,49.25,58.706,0.0,1004400,Springridge South Compressor Station,686 Hwy 789,Keatchie,LA,71046,32.195001,-93.901028,DE SOTO,211111,
1004400,110043797781.0,211120,"C,W",Petroleum and Natural Gas Systems,GP-2,OCS (Other combustion source),Tier1/2/3,0.83202,9.3,0.0,0.0,0.0,1004400,Springridge South Compressor Station,686 Hwy 789,Keatchie,LA,71046,32.195001,-93.901028,DE SOTO,211111,
1004400,110043797781.0,211120,"C,W",Petroleum and Natural Gas Systems,GP-1,OCS (Other combustion source),Tier1/2/3,36.4,117204.4,55.25,65.858,0.0,1004400,Springridge South Compressor Station,686 Hwy 789,Keatchie,LA,71046,32.195001,-93.901028,DE SOTO,211111,
1004400,110043797781.0,211120,"C,W",Petroleum and Natural Gas Systems,GP-2,OCS (Other combustion source),Tier1/2/3,0.83202,2.5,0.0,0.0,0.0,1004400,Springridge South Compressor Station,686 Hwy 789,Keatchie,LA,71046,32.195001,-93.901028,DE SOTO,211111,
1004400,110043797781.0,211120,"C,W",Petroleum and Natural Gas Systems,GP-1,OCS (Other combustion source),Tier1/2/3,36.4,115937.9,54.75,65.262,0.0,1004400,Springridge South Compressor Station,686 Hwy 789,Keatchie,LA,71046,32.195001,-93.901028,DE SOTO,211111,
1004400,110043797781.0,211120,"C,W",Petroleum and Natural Gas Systems,GP-2,OCS (Other combustion source),Tier1/2/3,0.83202,0.8,0.0,0.0,0.0,1004400,Springridge South Compressor Station,686 Hwy 789,Keatchie,LA,71046,32.195001,-93.901028,DE SOTO,211111,
1002778,110043806174.0,211130,"C,W",Petroleum and Natural Gas Systems,GP-AMINE,OCS (Other combustion source),Tier1/2/3,30.0,21765.1,10.25,12.218,0.0,1002778,"TALCO Midstream Assets, LTD. - Holly Common Point #3 Compressor Station",8451 Hwy. 175,Grand Cane,LA,71032,32.16151,-93.713075,DE SOTO PARISH,211111,
1002778,110043806174.0,211130,"C,W",Petroleum and Natural Gas Systems,GP-COMP,OCS (Other combustion source),Tier1/2/3,38.68,47669.0,22.5,26.82,0.0,1002778,"TALCO Midstream Assets, LTD. - Holly Common Point #3 Compressor Station",8451 Hwy. 175,Grand Cane,LA,71032,32.16151,-93.713075,DE SOTO PARISH,211111,
1002778,110043806174.0,211130,"C,W",Petroleum and Natural Gas Systems,GP-DEHY,OCS (Other combustion source),Tier1/2/3,2.0,3243.0,1.5,1.788,0.0,1002778,"TALCO Midstream Assets, LTD. - Holly Common Point #3 Compressor Station",8451 Hwy. 175,Grand Cane,LA,71032,32.16151,-93.713075,DE SOTO PARISH,211111,
1002778,110043806174.0,211130,"C,W",Petroleum and Natural Gas Systems,GP-Diesel,OCS (Other combustion source),Tier1/2/3,1.1,1.1,0.0,0.0,0.0,1002778,"TALCO Midstream Assets, LTD. - Holly Common Point #3 Compressor Station",8451 Hwy. 175,Grand Cane,LA,71032,32.16151,-93.713075,DE SOTO PARISH,211111,
1002778,110043806174.0,211130,"C,W",Petroleum and Natural Gas Systems,GP-AMINE,OCS (Other combustion source),Tier1/2/3,30.0,29574.9,14.0,16.688,0.0,1002778,"TALCO Midstream Assets, LTD. - Holly Common Point #3 Compressor Station",8451 Hwy. 175,Grand Cane,LA,71032,32.16151,-93.713075,DE SOTO PARISH,211111,
1002778,110043806174.0,211130,"C,W",Petroleum and Natural Gas Systems,GP-COMP,OCS (Other combustion source),Tier1/2/3,38.68,41663.0,19.75,23.542,0.0,1002778,"TALCO Midstream Assets, LTD. - Holly Common Point #3 Compressor Station",8451 Hwy. 175,Grand Cane,LA,71032,32.16151,-93.713075,DE SOTO PARISH,211111,
1002778,110043806174.0,211130,"C,W",Petroleum and Natural Gas Systems,GP-DEHY,OCS (Other combustion source),Tier1/2/3,2.0,1435.6,0.75,0.894,0.0,1002778,"TALCO Midstream Assets, LTD. - Holly Common Point #3 Compressor Station",8451 Hwy. 175,Grand Cane,LA,71032,32.16151,-93.713075,DE SOTO PARISH,211111,
1002778,110043806174.0,211130,"C,W",Petroleum and Natural Gas Systems,GP-AMINE,OCS (Other combustion source),Tier1/2/3,30.0,29536.0,14.0,16.688,0.0,1002778,"TALCO Midstream Assets, LTD. - Holly Common Point #3 Compressor Station",8451 Hwy. 175,Grand Cane,LA,71032,32.16151,-93.713075,DE SOTO PARISH,211111,
1002778,110043806174.0,211130,"C,W",Petroleum and Natural Gas Systems,GP-COMP,OCS (Other combustion source),Tier1/2/3,38.68,40469.4,19.0,22.648,0.0,1002778,"TALCO Midstream Assets, LTD. - Holly Common Point #3 Compressor Station",8451 Hwy. 175,Grand Cane,LA,71032,32.16151,-93.713075,DE SOTO PARISH,211111,
1002778,110043806174.0,211130,"C,W",Petroleum and Natural Gas Systems,GP-DEHY,OCS (Other combustion source),Tier1/2/3,2.0,1670.7,0.75,0.894,0.0,1002778,"TALCO Midstream Assets, LTD. - Holly Common Point #3 Compressor Station",8451 Hwy. 175,Grand Cane,LA,71032,32.16151,-93.713075,DE SOTO PARISH,211111,
1001638,110043792429.0,211130,"C,W",Petroleum and Natural Gas Systems,GP-All Engines/Heaters,OCS (Other combustion source),Tier1/2/3,24.3,93458.71668,44.03445,52.4890644,0.0,1001638,TARGA MIDKIFF GAS PROCESSING PLANT,17400 E FM 2401,MIDKIFF,TX,79755,31.502598,-101.911987,UPTON,211112,
1001638,110043792429.0,211130,"C,W",Petroleum and Natural Gas Systems,GP-All Engines/Heaters,OCS (Other combustion source),Tier1/2/3,24.3,83049.51497,39.1300014,46.64296167,0.0,1001638,TARGA MIDKIFF GAS PROCESSING PLANT,17400 E FM 2401,MIDKIFF,TX,79755,31.502598,-101.911987,UPTON,211112,
1001638,110043792429.0,211130,"C,W",Petroleum and Natural Gas Systems,GP-All Engines/Heaters,OCS (Other combustion source),Tier1/2/3,24.3,85827.20677,40.43875177,48.20299212,0.0,1001638,TARGA MIDKIFF GAS PROCESSING PLANT,17400 E FM 2401,MIDKIFF,TX,79755,31.502598,-101.911987,UPTON,211112,
1001894,110014004273.0,211130,"C,NN,W","Natural Gas and Natural Gas Liquids Suppliers, Petroleum and Natural Gas Systems",CP-1,OCS (Other combustion source),Tier1/2/3,93.0,167355.5911,78.8520501,93.99164372,0.0,1001894,TIOGA GAS PROCESSING PLANT,10340 68TH STREET NORTHWEST,TIOGA,ND,58852,48.40152,-102.91418,WILLIAMS COUNTY,211112,
1001894,110014004273.0,211130,"C,NN,W","Natural Gas and Natural Gas Liquids Suppliers, Petroleum and Natural Gas Systems",CP-1,OCS (Other combustion source),Tier1/2/3,93.0,173737.3774,81.85892265,97.5758358,0.0,1001894,TIOGA GAS PROCESSING PLANT,10340 68TH STREET NORTHWEST,TIOGA,ND,58852,48.40152,-102.91418,WILLIAMS COUNTY,211112,
1001894,110014004273.0,211130,"C,NN,W","Natural Gas and Natural Gas Liquids Suppliers, Petroleum and Natural Gas Systems",CP-1,OCS (Other combustion source),Tier1/2/3,93.0,171716.4721,80.90674335,96.44083807,0.0,1001894,TIOGA GAS PROCESSING PLANT,10340 68TH STREET NORTHWEST,TIOGA,ND,58852,48.40152,-102.91418,WILLIAMS COUNTY,211112,
1003097,110008165939.0,211130,"C,W",Petroleum and Natural Gas Systems,GP-Trinidad,OCS (Other combustion source),Tier1/2/3,38.57,27475.3,13.0,15.496,0.0,1003097,TRINIDAD GAS PROCESSING PLANT,795 LONE STAR ROAD,TRINIDAD,TX,75163,32.127458,-96.085153,HENDERSON,211112,
1003097,110008165939.0,211130,"C,W",Petroleum and Natural Gas Systems,GP-Trinidad,OCS (Other combustion source),Tier1/2/3,38.57,27785.9,13.0,15.496,0.0,1003097,TRINIDAD GAS PROCESSING PLANT,795 LONE STAR ROAD,TRINIDAD,TX,75163,32.127458,-96.085153,HENDERSON,211112,
1003097,110008165939.0,211130,"C,W",Petroleum and Natural Gas Systems,GP-Trinidad,OCS (Other combustion source),Tier1/2/3,38.57,29344.5,13.75,16.39,0.0,1003097,TRINIDAD GAS PROCESSING PLANT,795 LONE STAR ROAD,TRINIDAD,TX,75163,32.127458,-96.085153,HENDERSON,211112,
1004502,110022737289.0,211130,"C,W",Petroleum and Natural Gas Systems,Unit No. 12 (H-5701),PRH (Process Heater),Tier1/2/3,64.2,4578.3,2.25,2.682,0.0,1004502,VAL VERDE TREATER,119 COUNTY ROAD 4900,BLOOMFIELD,NM,87413,36.731389,-107.955277,SAN JUAN,211111,
1004502,110022737289.0,211130,"C,W",Petroleum and Natural Gas Systems,Unit No. 13 (H-5771),PRH (Process Heater),Tier1/2/3,3.8,277.6,0.25,0.298,0.0,1004502,VAL VERDE TREATER,119 COUNTY ROAD 4900,BLOOMFIELD,NM,87413,36.731389,-107.955277,SAN JUAN,211111,
1004502,110022737289.0,211130,"C,W",Petroleum and Natural Gas Systems,Unit No. 15 (H-6702),PRH (Process Heater),Tier1/2/3,64.2,2309.6,1.0,1.192,0.0,1004502,VAL VERDE TREATER,119 COUNTY ROAD 4900,BLOOMFIELD,NM,87413,36.731389,-107.955277,SAN JUAN,211111,
1004502,110022737289.0,211130,"C,W",Petroleum and Natural Gas Systems,Unit No. 16 (H-6701),PRH (Process Heater),Tier1/2/3,64.2,2309.6,1.0,1.192,0.0,1004502,VAL VERDE TREATER,119 COUNTY ROAD 4900,BLOOMFIELD,NM,87413,36.731389,-107.955277,SAN JUAN,211111,
1004502,110022737289.0,211130,"C,W",Petroleum and Natural Gas Systems,Unit No. 17 (H-6771),PRH (Process Heater),Tier1/2/3,3.8,136.7,0.0,0.0,0.0,1004502,VAL VERDE TREATER,119 COUNTY ROAD 4900,BLOOMFIELD,NM,87413,36.731389,-107.955277,SAN JUAN,211111,
1004502,110022737289.0,211130,"C,W",Petroleum and Natural Gas Systems,Unit No. 20 (H-7752),PRH (Process Heater),Tier1/2/3,61.8,27911.8,13.25,15.794,0.0,1004502,VAL VERDE TREATER,119 COUNTY ROAD 4900,BLOOMFIELD,NM,87413,36.731389,-107.955277,SAN JUAN,211111,
1004502,110022737289.0,211130,"C,W",Petroleum and Natural Gas Systems,Unit No. 21 (H-7751),PRH (Process Heater),Tier1/2/3,61.8,28803.7,13.5,16.092,0.0,1004502,VAL VERDE TREATER,119 COUNTY ROAD 4900,BLOOMFIELD,NM,87413,36.731389,-107.955277,SAN JUAN,211111,
1004502,110022737289.0,211130,"C,W",Petroleum and Natural Gas Systems,Unit No. 22 (H-7771),PRH (Process Heater),Tier1/2/3,3.8,1771.1,0.75,0.894,0.0,1004502,VAL VERDE TREATER,119 COUNTY ROAD 4900,BLOOMFIELD,NM,87413,36.731389,-107.955277,SAN JUAN,211111,
1004502,110022737289.0,211130,"C,W",Petroleum and Natural Gas Systems,Unit No. 25 (H-8752),PRH (Process Heater),Tier1/2/3,61.8,27629.8,13.0,15.496,0.0,1004502,VAL VERDE TREATER,119 COUNTY ROAD 4900,BLOOMFIELD,NM,87413,36.731389,-107.955277,SAN JUAN,211111,
1004502,110022737289.0,211130,"C,W",Petroleum and Natural Gas Systems,Unit No. 26 (H-8751),PRH (Process Heater),Tier1/2/3,61.8,27633.0,13.0,15.496,0.0,1004502,VAL VERDE TREATER,119 COUNTY ROAD 4900,BLOOMFIELD,NM,87413,36.731389,-107.955277,SAN JUAN,211111,
1004502,110022737289.0,211130,"C,W",Petroleum and Natural Gas Systems,Unit No. 28 (H-8771),PRH (Process Heater),Tier1/2/3,3.8,1740.9,0.75,0.894,0.0,1004502,VAL VERDE TREATER,119 COUNTY ROAD 4900,BLOOMFIELD,NM,87413,36.731389,-107.955277,SAN JUAN,211111,
1004502,110022737289.0,211130,"C,W",Petroleum and Natural Gas Systems,Unit No. 7 (H-4701),PRH (Process Heater),Tier1/2/3,64.2,6656.2,3.25,3.874,0.0,1004502,VAL VERDE TREATER,119 COUNTY ROAD 4900,BLOOMFIELD,NM,87413,36.731389,-107.955277,SAN JUAN,211111,
1004502,110022737289.0,211130,"C,W",Petroleum and Natural Gas Systems,Unit No. 8 (H-4702),PRH (Process Heater),Tier1/2/3,64.2,5791.0,2.75,3.278,0.0,1004502,VAL VERDE TREATER,119 COUNTY ROAD 4900,BLOOMFIELD,NM,87413,36.731389,-107.955277,SAN JUAN,211111,
1004502,110022737289.0,211130,"C,W",Petroleum and Natural Gas Systems,Unit No. 9 (H-4471),PRH (Process Heater),Tier1/2/3,3.8,459.7,0.25,0.298,0.0,1004502,VAL VERDE TREATER,119 COUNTY ROAD 4900,BLOOMFIELD,NM,87413,36.731389,-107.955277,SAN JUAN,211111,
1004502,110022737289.0,211130,"C,W",Petroleum and Natural Gas Systems,Unit No. 12 (H-5701),PRH (Process Heater),Tier1/2/3,64.2,25718.7,12.0,14.304,0.0,1004502,VAL VERDE TREATER,119 COUNTY ROAD 4900,BLOOMFIELD,NM,87413,36.731389,-107.955277,SAN JUAN,211111,
1004502,110022737289.0,211130,"C,W",Petroleum and Natural Gas Systems,Unit No. 13 (H-5771),PRH (Process Heater),Tier1/2/3,3.8,1611.4,0.75,0.894,0.0,1004502,VAL VERDE TREATER,119 COUNTY ROAD 4900,BLOOMFIELD,NM,87413,36.731389,-107.955277,SAN JUAN,211111,
1004502,110022737289.0,211130,"C,W",Petroleum and Natural Gas Systems,Unit No. 15 (H-6702),PRH (Process Heater),Tier1/2/3,64.2,0.0,0.0,0.0,0.0,1004502,VAL VERDE TREATER,119 COUNTY ROAD 4900,BLOOMFIELD,NM,87413,36.731389,-107.955277,SAN JUAN,211111,
1004502,110022737289.0,211130,"C,W",Petroleum and Natural Gas Systems,Unit No. 16 (H-6701),PRH (Process Heater),Tier1/2/3,64.2,0.0,0.0,0.0,0.0,1004502,VAL VERDE TREATER,119 COUNTY ROAD 4900,BLOOMFIELD,NM,87413,36.731389,-107.955277,SAN JUAN,211111,
1004502,110022737289.0,211130,"C,W",Petroleum and Natural Gas Systems,Unit No. 17 (H-6771),PRH (Process Heater),Tier1/2/3,3.8,0.0,0.0,0.0,0.0,1004502,VAL VERDE TREATER,119 COUNTY ROAD 4900,BLOOMFIELD,NM,87413,36.731389,-107.955277,SAN JUAN,211111,
1004502,110022737289.0,211130,"C,W",Petroleum and Natural Gas Systems,Unit No. 20 (H-7752),PRH (Process Heater),Tier1/2/3,61.8,27639.6,13.0,15.496,0.0,1004502,VAL VERDE TREATER,119 COUNTY ROAD 4900,BLOOMFIELD,NM,87413,36.731389,-107.955277,SAN JUAN,211111,
1004502,110022737289.0,211130,"C,W",Petroleum and Natural Gas Systems,Unit No. 21 (H-7751),PRH (Process Heater),Tier1/2/3,61.8,28475.8,13.5,16.092,0.0,1004502,VAL VERDE TREATER,119 COUNTY ROAD 4900,BLOOMFIELD,NM,87413,36.731389,-107.955277,SAN JUAN,211111,
1004502,110022737289.0,211130,"C,W",Petroleum and Natural Gas Systems,Unit No. 22 (H-7771),PRH (Process Heater),Tier1/2/3,3.8,1766.1,0.75,0.894,0.0,1004502,VAL VERDE TREATER,119 COUNTY ROAD 4900,BLOOMFIELD,NM,87413,36.731389,-107.955277,SAN JUAN,211111,
1004502,110022737289.0,211130,"C,W",Petroleum and Natural Gas Systems,Unit No. 25 (H-8752),PRH (Process Heater),Tier1/2/3,61.8,27118.2,12.75,15.198,0.0,1004502,VAL VERDE TREATER,119 COUNTY ROAD 4900,BLOOMFIELD,NM,87413,36.731389,-107.955277,SAN JUAN,211111,
1004502,110022737289.0,211130,"C,W",Petroleum and Natural Gas Systems,Unit No. 26 (H-8751),PRH (Process Heater),Tier1/2/3,61.8,27141.2,12.75,15.198,0.0,1004502,VAL VERDE TREATER,119 COUNTY ROAD 4900,BLOOMFIELD,NM,87413,36.731389,-107.955277,SAN JUAN,211111,
1004502,110022737289.0,211130,"C,W",Petroleum and Natural Gas Systems,Unit No. 28 (H-8771),PRH (Process Heater),Tier1/2/3,3.8,1700.5,0.75,0.894,0.0,1004502,VAL VERDE TREATER,119 COUNTY ROAD 4900,BLOOMFIELD,NM,87413,36.731389,-107.955277,SAN JUAN,211111,
1004502,110022737289.0,211130,"C,W",Petroleum and Natural Gas Systems,Unit No. 7 (H-4701),PRH (Process Heater),Tier1/2/3,64.2,19597.3,9.25,11.026,0.0,1004502,VAL VERDE TREATER,119 COUNTY ROAD 4900,BLOOMFIELD,NM,87413,36.731389,-107.955277,SAN JUAN,211111,
1004502,110022737289.0,211130,"C,W",Petroleum and Natural Gas Systems,Unit No. 8 (H-4702),PRH (Process Heater),Tier1/2/3,64.2,14433.1,6.75,8.046,0.0,1004502,VAL VERDE TREATER,119 COUNTY ROAD 4900,BLOOMFIELD,NM,87413,36.731389,-107.955277,SAN JUAN,211111,
1004502,110022737289.0,211130,"C,W",Petroleum and Natural Gas Systems,Unit No. 9 (H-4471),PRH (Process Heater),Tier1/2/3,3.8,1245.5,0.5,0.596,0.0,1004502,VAL VERDE TREATER,119 COUNTY ROAD 4900,BLOOMFIELD,NM,87413,36.731389,-107.955277,SAN JUAN,211111,
1004502,110022737289.0,211130,"C,W",Petroleum and Natural Gas Systems,Unit No. 11 (H-5702),PRH (Process Heater),Tier1/2/3,64.2,0.0,0.0,0.0,0.0,1004502,VAL VERDE TREATER,119 COUNTY ROAD 4900,BLOOMFIELD,NM,87413,36.731389,-107.955277,SAN JUAN,211111,
1004502,110022737289.0,211130,"C,W",Petroleum and Natural Gas Systems,Unit No. 12 (H-5701),PRH (Process Heater),Tier1/2/3,73.0,24690.0,11.75,14.006,0.0,1004502,VAL VERDE TREATER,119 COUNTY ROAD 4900,BLOOMFIELD,NM,87413,36.731389,-107.955277,SAN JUAN,211111,
1004502,110022737289.0,211130,"C,W",Petroleum and Natural Gas Systems,Unit No. 13 (H-5771),PRH (Process Heater),Tier1/2/3,3.8,1590.6,0.75,0.894,0.0,1004502,VAL VERDE TREATER,119 COUNTY ROAD 4900,BLOOMFIELD,NM,87413,36.731389,-107.955277,SAN JUAN,211111,
1004502,110022737289.0,211130,"C,W",Petroleum and Natural Gas Systems,Unit No. 20 (H-7752),PRH (Process Heater),Tier1/2/3,61.8,24799.9,11.75,14.006,0.0,1004502,VAL VERDE TREATER,119 COUNTY ROAD 4900,BLOOMFIELD,NM,87413,36.731389,-107.955277,SAN JUAN,211111,
1004502,110022737289.0,211130,"C,W",Petroleum and Natural Gas Systems,Unit No. 21 (H-7751),PRH (Process Heater),Tier1/2/3,61.8,28213.4,13.25,15.794,0.0,1004502,VAL VERDE TREATER,119 COUNTY ROAD 4900,BLOOMFIELD,NM,87413,36.731389,-107.955277,SAN JUAN,211111,
1004502,110022737289.0,211130,"C,W",Petroleum and Natural Gas Systems,Unit No. 22 (H-7771),PRH (Process Heater),Tier1/2/3,3.8,1611.4,0.75,0.894,0.0,1004502,VAL VERDE TREATER,119 COUNTY ROAD 4900,BLOOMFIELD,NM,87413,36.731389,-107.955277,SAN JUAN,211111,
1004502,110022737289.0,211130,"C,W",Petroleum and Natural Gas Systems,Unit No. 25 (H-8752),PRH (Process Heater),Tier1/2/3,61.8,28318.4,13.25,15.794,0.0,1004502,VAL VERDE TREATER,119 COUNTY ROAD 4900,BLOOMFIELD,NM,87413,36.731389,-107.955277,SAN JUAN,211111,
1004502,110022737289.0,211130,"C,W",Petroleum and Natural Gas Systems,Unit No. 26 (H-8751),PRH (Process Heater),Tier1/2/3,61.8,28626.6,13.5,16.092,0.0,1004502,VAL VERDE TREATER,119 COUNTY ROAD 4900,BLOOMFIELD,NM,87413,36.731389,-107.955277,SAN JUAN,211111,
1004502,110022737289.0,211130,"C,W",Petroleum and Natural Gas Systems,Unit No. 28 (H-8771),PRH (Process Heater),Tier1/2/3,3.8,1766.3,0.75,0.894,0.0,1004502,VAL VERDE TREATER,119 COUNTY ROAD 4900,BLOOMFIELD,NM,87413,36.731389,-107.955277,SAN JUAN,211111,
1004502,110022737289.0,211130,"C,W",Petroleum and Natural Gas Systems,Unit No. 7 (H-4701),PRH (Process Heater),Tier1/2/3,73.0,26631.6,12.5,14.9,0.0,1004502,VAL VERDE TREATER,119 COUNTY ROAD 4900,BLOOMFIELD,NM,87413,36.731389,-107.955277,SAN JUAN,211111,
1004502,110022737289.0,211130,"C,W",Petroleum and Natural Gas Systems,Unit No. 8 (H-4702),PRH (Process Heater),Tier1/2/3,73.0,25500.7,12.0,14.304,0.0,1004502,VAL VERDE TREATER,119 COUNTY ROAD 4900,BLOOMFIELD,NM,87413,36.731389,-107.955277,SAN JUAN,211111,
1004502,110022737289.0,211130,"C,W",Petroleum and Natural Gas Systems,Unit No. 9 (H-4471),PRH (Process Heater),Tier1/2/3,3.8,1650.5,0.75,0.894,0.0,1004502,VAL VERDE TREATER,119 COUNTY ROAD 4900,BLOOMFIELD,NM,87413,36.731389,-107.955277,SAN JUAN,211111,
1003317,110031262489.0,211130,"C,W",Petroleum and Natural Gas Systems,GP-Weatherford,OCS (Other combustion source),Tier1/2/3,153.8,52410.7,24.75,29.502,0.0,1003317,WEATHERFORD PLANT,451 JONES ROAD,WEATHERFORD,TX,76088,32.73335,-97.8744,PARKER COUNTY,211111,
1003317,110031262489.0,211130,"C,W",Petroleum and Natural Gas Systems,GP-Weatherford,OCS (Other combustion source),Tier1/2/3,153.8,53241.0,25.0,29.8,0.0,1003317,WEATHERFORD PLANT,451 JONES ROAD,WEATHERFORD,TX,76088,32.73335,-97.8744,PARKER COUNTY,211111,
1003317,110031262489.0,211130,"C,W",Petroleum and Natural Gas Systems,GP-Weatherford,OCS (Other combustion source),Tier1/2/3,14.937,14386.1,6.75,8.046,0.0,1003317,WEATHERFORD PLANT,451 JONES ROAD,WEATHERFORD,TX,76088,32.73335,-97.8744,PARKER COUNTY,211111,
1004110,110043796416.0,211130,"C,W",Petroleum and Natural Gas Systems,GP-01,OCS (Other combustion source),Tier1/2/3,29.05,17381.0,8.25,9.834,0.0,1004110,West Frenchie Draw Amine Plant,150 Deer Creek Rd. / North of Highway 20-26,Lysite,WY,82642,43.287261,-107.621532,FREMONT COUNTY,211112,
1004110,110043796416.0,211130,"C,W",Petroleum and Natural Gas Systems,GP-01,OCS (Other combustion source),Tier1/2/3,29.05,14141.8,6.75,8.046,0.0,1004110,West Frenchie Draw Amine Plant,150 Deer Creek Rd. / North of Highway 20-26,Lysite,WY,82642,43.287261,-107.621532,FREMONT COUNTY,211112,
1004110,110043796416.0,211130,"C,W",Petroleum and Natural Gas Systems,GP-01,OCS (Other combustion source),Tier1/2/3,29.05,17324.8,8.25,9.834,0.0,1004110,West Frenchie Draw Amine Plant,150 Deer Creek Rd. / North of Highway 20-26,Lysite,WY,82642,43.287261,-107.621532,FREMONT COUNTY,211112,
1006270,110000538473.0,211130,"C,NN,W","Natural Gas and Natural Gas Liquids Suppliers, Petroleum and Natural Gas Systems",GP-SiteCombustion,OCS (Other combustion source),Tier1/2/3,32.7,44792.7,21.0,25.032,0.0,1006270,XTO - Cotton Valley Gas Plant,1256 Marathon Rd,Cotton Valley,LA,71018,32.7847,-93.3744,WEBSTER,211111,
1006270,110000538473.0,211130,"C,NN,W","Natural Gas and Natural Gas Liquids Suppliers, Petroleum and Natural Gas Systems",GP-SiteCombustion,OCS (Other combustion source),Tier1/2/3,32.7,39972.7,18.75,22.35,0.0,1006270,XTO - Cotton Valley Gas Plant,1256 Marathon Rd,Cotton Valley,LA,71018,32.7847,-93.3744,WEBSTER,211111,
1006270,110000538473.0,211130,"C,NN,W","Natural Gas and Natural Gas Liquids Suppliers, Petroleum and Natural Gas Systems",GP-SiteCombustion,OCS (Other combustion source),Tier1/2/3,32.7,45528.1,21.5,25.628,0.0,1006270,XTO - Cotton Valley Gas Plant,1256 Marathon Rd,Cotton Valley,LA,71018,32.7847,-93.3744,WEBSTER,211111,
1002385,110043814085.0,211130,"C,W",Petroleum and Natural Gas Systems,GP- Yellowhammer Gas Plant,OCS (Other combustion source),Tier1/2/3,58.075,31217.5,14.75,17.582,0.0,1002385,Yellowhammer Gas Plant,13700 DAUPHIN ISLAND PARKWAY,CODEN,AL,36523,30.4025,-88.130556,MOBILE,211112,
1002385,110043814085.0,211130,"C,W",Petroleum and Natural Gas Systems,GP- Yellowhammer Gas Plant,OCS (Other combustion source),Tier1/2/3,58.075,35665.9,16.75,19.966,0.0,1002385,Yellowhammer Gas Plant,13700 DAUPHIN ISLAND PARKWAY,CODEN,AL,36523,30.4025,-88.130556,MOBILE,211112,
1002385,110043814085.0,211130,"C,W",Petroleum and Natural Gas Systems,GP- Yellowhammer Gas Plant,OCS (Other combustion source),Tier1/2/3,58.075,53242.4,25.0,29.8,0.0,1002385,Yellowhammer Gas Plant,13700 DAUPHIN ISLAND PARKWAY,CODEN,AL,36523,30.4025,-88.130556,MOBILE,211112,
