FRS_ID,Source,Flows,CO2 missing,FacilityName,City,State,Latitude,Longitude,city
110070737782.0,GHGRP,"['Biogenic CO2', 'Carbon Dioxide', 'Methane', 'Nitrous Oxide']",False,ADVANSIX INCORPORATED - HOPEWELL,HOPEWELL,VA,37.1815,-77.1621,hopewell
110067123865.0,GHGRP,"['Carbon Dioxide', 'Methane', 'Nitrous Oxide']",False,"PCS Nitrogen Ohio, L.P.",Lima,OH,40.711256,-84.138157,lima
110070288634.0,GHGRP,"['Carbon Dioxide', 'Methane', 'Nitrous Oxide']",False,AGRIUM US BORGER NITROGEN OPERATIONS,BORGER,TX,35.6411,-101.4203,borger
110071162506.0,GHGRP,"['Carbon Dioxide', 'Methane', 'Nitrous Oxide']",False,"CF Industries Nitrogen, LLC - Yazoo City Facility",YAZOO,MS,32.928056,-90.407222,yazoo
110070753886.0,GHGRP,"['Carbon Dioxide', 'Methane', 'Nitrous Oxide']",False,"PCS NITROGEN FERTILIZER, L.P.",AUGUSTA,GA,33.47,-81.97,augusta
110070915484.0,GHGRP,"['Carbon Dioxide', 'Methane', 'Nitrous Oxide']",False,Tampa Port Services,St. James,LA,30.00583,-90.877047,st. james
110058904618.0,GHGRP NEI TRI,"['Ammonia', 'Carbon Dioxide', 'Chlorine', 'Methane', 'Nitrate compounds (water dissociable; reportable only when in aqueous solution)', 'Nitric acid', 'Nitrous Oxide']",False,US Nitrogen LLC,Midway,TN,36.1939,-83.00266,midway
110000598531.0,GHGRP NEI TRI,"['Ammonia', 'Benzene', 'Carbon Dioxide', 'Carbon Monoxide', 'Chlorine', 'Copper compounds', 'Formaldehyde', 'Hexane', 'Methane', 'Methanol', 'Naphthalene', 'Nickel', 'Nickel compounds', 'Nitrate compounds (water dissociable; reportable only when in aqueous solution)', 'Nitrogen Oxides', 'Nitrous Oxide', 'PM10-PM2.5', 'PM2.5 Primary (Filt + Cond)', 'Sulfur Dioxide', 'Toluene', 'Volatile Organic Compounds']",False,PRYOR CHEMICAL,PRYOR,OK,36.24268,-95.27871,pryor
110038344002.0,GHGRP NEI TRI,"['1,4-Dichlorobenzene', 'Acetaldehyde', 'Acrolein', 'Ammonia', 'Antimony', 'Arsenic', 'Benzene', 'Beryllium', 'Cadmium', 'Carbon Dioxide', 'Carbon Monoxide', 'Carbonyl Sulfide', 'Chromium (VI)', 'Chromium III', 'Cobalt', 'Ethyl Benzene', 'Formaldehyde', 'Hexane', 'Hydrochloric Acid', 'Hydrogen Cyanide', 'Hydrogen Fluoride', 'Hydrogen Sulfide', 'Lead', 'Lead compounds', 'Manganese', 'Manganese compounds', 'Mercury', 'Mercury compounds', 'Methane', 'Naphthalene', 'Nickel', 'Nitrogen Oxides', 'Nitrous Oxide', 'PAH/POM - Unspecified', 'PM10-PM2.5', 'PM2.5 Primary (Filt + Cond)', 'Phosphorus', 'Selenium', 'Sulfur Dioxide', 'Toluene', 'Volatile Organic Compounds', 'Xylenes (Mixed Isomers)']",False,"MISSISSIPPI POWER COMPANY, DAVID M RATCL",DEKALB,MS,32.6538,-88.7574,dekalb
110038344002.0,GHGRP NEI TRI,"['1,4-Dichlorobenzene', 'Acetaldehyde', 'Acrolein', 'Ammonia', 'Antimony', 'Arsenic', 'Benzene', 'Beryllium', 'Cadmium', 'Carbon Dioxide', 'Carbon Monoxide', 'Carbonyl Sulfide', 'Chromium (VI)', 'Chromium III', 'Cobalt', 'Ethyl Benzene', 'Formaldehyde', 'Hexane', 'Hydrochloric Acid', 'Hydrogen Cyanide', 'Hydrogen Fluoride', 'Hydrogen Sulfide', 'Lead', 'Lead compounds', 'Manganese', 'Manganese compounds', 'Mercury', 'Mercury compounds', 'Methane', 'Naphthalene', 'Nickel', 'Nitrogen Oxides', 'Nitrous Oxide', 'PAH/POM - Unspecified', 'PM10-PM2.5', 'PM2.5 Primary (Filt + Cond)', 'Phosphorus', 'Selenium', 'Sulfur Dioxide', 'Toluene', 'Volatile Organic Compounds', 'Xylenes (Mixed Isomers)']",False,DAVID  M RATCLIFFE FACILITY,DE KALB,MS,32.642618,-88.75487,de kalb
110071071484.0,GHGRP NEI,"['Acetaldehyde', 'Ammonia', 'Anthracene', 'Benz[a]Anthracene', 'Benzene', 'Carbon Dioxide', 'Carbon Monoxide', 'Chlorine', 'Chrysene', 'Fluoranthene', 'Fluorene', 'Formaldehyde', 'Hexane', 'Mercury', 'Methane', 'Methanol', 'Naphthalene', 'Nitrogen Oxides', 'Nitrous Oxide', 'PM10-PM2.5', 'PM2.5 Primary (Filt + Cond)', 'Phenanthrene', 'Pyrene', 'Sulfur Dioxide', 'Toluene', 'Volatile Organic Compounds', 'Xylenes (Mixed Isomers)']",False,Dyno Nobel LA  Ammonia LLC - Ammonia Production Facilty,Waggaman,LA,29.96175,-90.26835,waggaman
110055072424.0,GHGRP NEI TRI,"['2-Methylnaphthalene', 'Acetaldehyde', 'Ammonia', 'Arsenic', 'Benzene', 'Cadmium', 'Carbon Dioxide', 'Carbon Monoxide', 'Chromium (VI)', 'Chromium III', 'Cobalt', 'Fluoranthene', 'Fluorene', 'Formaldehyde', 'Hexane', 'Lead', 'Manganese', 'Methane', 'Methanol', 'Naphthalene', 'Nickel', 'Nitrate compounds (water dissociable; reportable only when in aqueous solution)', 'Nitric acid', 'Nitrogen Oxides', 'Nitrous Oxide', 'PM10-PM2.5', 'PM2.5 Primary (Filt + Cond)', 'Phenanthrene', 'Pyrene', 'Sulfur Dioxide', 'Toluene', 'Volatile Organic Compounds', 'Xylenes (Mixed Isomers)']",False,IOWA FERTILIZER COMPANY,WEVER,IA,40.6921,-91.2309,wever
110000606158.0,GHGRP NEI TRI,"['1,3-Butadiene', '2-Methylnaphthalene', 'Acenaphthene', 'Acenaphthylene', 'Acetaldehyde', 'Acrolein', 'Ammonia', 'Anthracene', 'Arsenic', 'Benz[a]Anthracene', 'Benzene', 'Benzo[a]Pyrene', 'Benzo[b]Fluoranthene', 'Benzo[g,h,i,]Perylene', 'Benzo[k]Fluoranthene', 'Beryllium', 'Cadmium', 'Carbon Dioxide', 'Carbon Monoxide', 'Chromium (VI)', 'Chromium III', 'Chromium compounds (except for chromite ore mined in the Transvaal Region)', 'Chrysene', 'Cobalt', 'Copper compounds', 'Cyanide', 'Dibenzo[a,h]Anthracene', 'Ethyl Benzene', 'Fluoranthene', 'Fluorene', 'Formaldehyde', 'Hexane', 'Hydrogen Sulfide', 'Indeno[1,2,3-c,d]Pyrene', 'Manganese', 'Mercury', 'Methane', 'Methanol', 'Naphthalene', 'Nickel', 'Nickel compounds', 'Nitric acid', 'Nitrogen Oxides', 'Nitrous Oxide', 'PM10-PM2.5', 'PM2.5 Primary (Filt + Cond)', 'Phenanthrene', 'Phenol', 'Phosphorus', 'Propylene Oxide', 'Pyrene', 'Selenium', 'Sulfur Dioxide', 'Toluene', 'Volatile Organic Compounds', 'Xylenes (Mixed Isomers)', 'Zinc compounds']",False,East Dubuque Nitrogen Fertilizers LLC,East Dubuque,IL,42.44351,-90.556082,east dubuque
110000600369.0,GHGRP NEI TRI,"['1,3-Butadiene', '2-Methylnaphthalene', '3-Methylcholanthrene', '7,12-Dimethylbenz[a]Anthracene', 'Acenaphthene', 'Acenaphthylene', 'Acetaldehyde', 'Acrolein', 'Ammonia', 'Anthracene', 'Arsenic', 'Arsenic compounds', 'Benz[a]Anthracene', 'Benzene', 'Benzo[a]Pyrene', 'Benzo[b]Fluoranthene', 'Benzo[g,h,i,]Perylene', 'Benzo[k]Fluoranthene', 'Beryllium', 'Cadmium', 'Carbon Dioxide', 'Carbon Monoxide', 'Chlorine', 'Chromium (VI)', 'Chromium III', 'Chromium compounds (except for chromite ore mined in the Transvaal Region)', 'Chrysene', 'Cobalt', 'Copper compounds', 'Dibenzo[a,h]Anthracene', 'Ethyl Benzene', 'Fluoranthene', 'Fluorene', 'Formaldehyde', 'Hexane', 'Hydrogen Fluoride', 'Hydrogen Sulfide', 'Indeno[1,2,3-c,d]Pyrene', 'Lead', 'Lead compounds', 'Manganese', 'Manganese compounds', 'Mercury', 'Methane', 'Naphthalene', 'Nickel', 'Nickel compounds', 'Nitrogen Oxides', 'Nitrous Oxide', 'PM10-PM2.5', 'PM2.5 Primary (Filt + Cond)', 'Phenanthrene', 'Polycyclic aromatic compounds', 'Pyrene', 'Selenium', 'Selenium compounds', 'Sulfur Dioxide', 'Sulfuric acid (acid aerosols including mists, vapors, gas, fog, and other airborne forms of any particle size)', 'Toluene', 'Volatile Organic Compounds', 'Xylenes (Mixed Isomers)', 'Zinc compounds']",False,Rock Springs Fertilizer Complex,Sweetwater,WY,41.53841,-109.12746,sweetwater
110000600369.0,GHGRP NEI TRI,"['1,3-Butadiene', '2-Methylnaphthalene', '3-Methylcholanthrene', '7,12-Dimethylbenz[a]Anthracene', 'Acenaphthene', 'Acenaphthylene', 'Acetaldehyde', 'Acrolein', 'Ammonia', 'Anthracene', 'Arsenic', 'Arsenic compounds', 'Benz[a]Anthracene', 'Benzene', 'Benzo[a]Pyrene', 'Benzo[b]Fluoranthene', 'Benzo[g,h,i,]Perylene', 'Benzo[k]Fluoranthene', 'Beryllium', 'Cadmium', 'Carbon Dioxide', 'Carbon Monoxide', 'Chlorine', 'Chromium (VI)', 'Chromium III', 'Chromium compounds (except for chromite ore mined in the Transvaal Region)', 'Chrysene', 'Cobalt', 'Copper compounds', 'Dibenzo[a,h]Anthracene', 'Ethyl Benzene', 'Fluoranthene', 'Fluorene', 'Formaldehyde', 'Hexane', 'Hydrogen Fluoride', 'Hydrogen Sulfide', 'Indeno[1,2,3-c,d]Pyrene', 'Lead', 'Lead compounds', 'Manganese', 'Manganese compounds', 'Mercury', 'Methane', 'Naphthalene', 'Nickel', 'Nickel compounds', 'Nitrogen Oxides', 'Nitrous Oxide', 'PM10-PM2.5', 'PM2.5 Primary (Filt + Cond)', 'Phenanthrene', 'Polycyclic aromatic compounds', 'Pyrene', 'Selenium', 'Selenium compounds', 'Sulfur Dioxide', 'Sulfuric acid (acid aerosols including mists, vapors, gas, fog, and other airborne forms of any particle size)', 'Toluene', 'Volatile Organic Compounds', 'Xylenes (Mixed Isomers)', 'Zinc compounds']",False,SIMPLOT PHOSPHATES LLC,ROCK SPRINGS,WY,41.53841,-109.12746,rock springs
110000748059.0,GHGRP NEI TRI,"['2-Methylnaphthalene', 'Acetaldehyde', 'Ammonia', 'Anthracene', 'Arsenic', 'Barium compounds (except for barium sulfate (CAS No. 7727-43-7))', 'Benz[a]Anthracene', 'Benzene', 'Cadmium', 'Cadmium compounds', 'Carbon Dioxide', 'Carbon Monoxide', 'Chlorine', 'Chromium (VI)', 'Chromium III', 'Chromium compounds (except for chromite ore mined in the Transvaal Region)', 'Chrysene', 'Cobalt', 'Copper compounds', 'Fluoranthene', 'Fluorene', 'Formaldehyde', 'Hexane', 'Hydrogen Fluoride', 'Lead', 'Lead compounds', 'Manganese', 'Manganese compounds', 'Mercury', 'Mercury compounds', 'Methane', 'Methanol', 'Naphthalene', 'Nickel', 'Nickel compounds', 'Nitric acid', 'Nitrogen Oxides', 'Nitrous Oxide', 'PM10-PM2.5', 'PM2.5 Primary (Filt + Cond)', 'Phenanthrene', 'Phosphorus', 'Pyrene', 'Sulfur Dioxide', 'Sulfuric acid (acid aerosols including mists, vapors, gas, fog, and other airborne forms of any particle size)', 'Toluene', 'Vanadium compounds', 'Volatile Organic Compounds', 'Xylenes (Mixed Isomers)', 'Zinc compounds']",False,PCS Nitrogen Fertilizer LP - Geismar Facility,Geismar,LA,30.21975,-91.05614,geismar
110000468066.0,GHGRP NEI TRI,"['1,1,2,2-Tetrachloroethane', '1,1,2-Trichloroethane', '1,3-Butadiene', '1,3-Dichloropropene', '2,2,4-Trimethylpentane', '2-Methylnaphthalene', '3-Methylcholanthrene', '7,12-Dimethylbenz[a]Anthracene', 'Acenaphthene', 'Acenaphthylene', 'Acetaldehyde', 'Acrolein', 'Ammonia', 'Anthracene', 'Arsenic', 'Benz[a]Anthracene', 'Benzene', 'Benzo[a]Pyrene', 'Benzo[b]Fluoranthene', 'Benzo[e]Pyrene', 'Benzo[g,h,i,]Perylene', 'Benzo[k]Fluoranthene', 'Beryllium', 'Biphenyl', 'Cadmium', 'Carbon Dioxide', 'Carbon Monoxide', 'Carbon Tetrachloride', 'Chlorobenzene', 'Chloroform', 'Chromium (VI)', 'Chromium III', 'Chrysene', 'Cobalt', 'Dibenzo[a,h]Anthracene', 'Ethyl Benzene', 'Ethylene Dibromide', 'Ethylene Dichloride', 'Ethylene Glycol', 'Ethylidene Dichloride', 'Fluoranthene', 'Fluorene', 'Formaldehyde', 'Hexane', 'Indeno[1,2,3-c,d]Pyrene', 'Lead', 'Manganese', 'Mercury', 'Methane', 'Methanol', 'Methylene Chloride', 'Naphthalene', 'Nickel', 'Nitric acid', 'Nitrogen Oxides', 'Nitrous Oxide', 'PM10-PM2.5', 'PM2.5 Primary (Filt + Cond)', 'Perylene', 'Phenanthrene', 'Phenol', 'Propylene Dichloride', 'Pyrene', 'Selenium', 'Styrene', 'Sulfur Dioxide', 'Toluene', 'Vinyl Chloride', 'Volatile Organic Compounds', 'Xylenes (Mixed Isomers)']",False,Cheyenne Plant,Laramie,WY,41.09528,-104.91466,laramie
110000468066.0,GHGRP NEI TRI,"['1,1,2,2-Tetrachloroethane', '1,1,2-Trichloroethane', '1,3-Butadiene', '1,3-Dichloropropene', '2,2,4-Trimethylpentane', '2-Methylnaphthalene', '3-Methylcholanthrene', '7,12-Dimethylbenz[a]Anthracene', 'Acenaphthene', 'Acenaphthylene', 'Acetaldehyde', 'Acrolein', 'Ammonia', 'Anthracene', 'Arsenic', 'Benz[a]Anthracene', 'Benzene', 'Benzo[a]Pyrene', 'Benzo[b]Fluoranthene', 'Benzo[e]Pyrene', 'Benzo[g,h,i,]Perylene', 'Benzo[k]Fluoranthene', 'Beryllium', 'Biphenyl', 'Cadmium', 'Carbon Dioxide', 'Carbon Monoxide', 'Carbon Tetrachloride', 'Chlorobenzene', 'Chloroform', 'Chromium (VI)', 'Chromium III', 'Chrysene', 'Cobalt', 'Dibenzo[a,h]Anthracene', 'Ethyl Benzene', 'Ethylene Dibromide', 'Ethylene Dichloride', 'Ethylene Glycol', 'Ethylidene Dichloride', 'Fluoranthene', 'Fluorene', 'Formaldehyde', 'Hexane', 'Indeno[1,2,3-c,d]Pyrene', 'Lead', 'Manganese', 'Mercury', 'Methane', 'Methanol', 'Methylene Chloride', 'Naphthalene', 'Nickel', 'Nitric acid', 'Nitrogen Oxides', 'Nitrous Oxide', 'PM10-PM2.5', 'PM2.5 Primary (Filt + Cond)', 'Perylene', 'Phenanthrene', 'Phenol', 'Propylene Dichloride', 'Pyrene', 'Selenium', 'Styrene', 'Sulfur Dioxide', 'Toluene', 'Vinyl Chloride', 'Volatile Organic Compounds', 'Xylenes (Mixed Isomers)']",False,DYNO NOBEL INC-CHEYENNE PLANT,CHEYENNE,WY,41.0949,-104.908,cheyenne
110000589373.0,GHGRP NEI TRI,"['Ammonia', 'Benzene', 'Carbon Dioxide', 'Carbon Monoxide', 'Chlorine', 'Chromium (VI)', 'Chromium III', 'Chromium compounds (except for chromite ore mined in the Transvaal Region)', 'Copper compounds', 'Formaldehyde', 'Hexane', 'Methane', 'Methanol', 'Naphthalene', 'Nickel', 'Nickel compounds', 'Nitric acid', 'Nitrogen Oxides', 'Nitrous Oxide', 'Sulfur Dioxide', 'Toluene', 'Volatile Organic Compounds']",False,Cherokee Nitrogen LLC,Cherokee,AL,34.806635,-87.936948,cherokee
110000596846.0,GHGRP NEI TRI,"['1,1,2,2-Tetrachloroethane', '1,3-Butadiene', '2-Methylnaphthalene', 'Acetaldehyde', 'Acrolein', 'Ammonia', 'Anthracene', 'Antimony', 'Arsenic', 'Benz[a]Anthracene', 'Benzene', 'Beryllium', 'Cadmium', 'Carbon Dioxide', 'Carbon Monoxide', 'Chlorine', 'Chromium (VI)', 'Chromium III', 'Chrysene', 'Cobalt', 'Copper compounds', 'Dibutyl Phthalate', 'Fluoranthene', 'Fluorene', 'Formaldehyde', 'Hexane', 'Lead', 'Manganese', 'Mercury', 'Methane', 'Methanol', 'Methylene Chloride', 'Naphthalene', 'Nickel', 'Nitric acid', 'Nitrogen Oxides', 'Nitrous Oxide', 'PM10-PM2.5', 'PM2.5 Primary (Filt + Cond)', 'Phenanthrene', 'Pyrene', 'Sulfur Dioxide', 'Toluene', 'Volatile Organic Compounds', 'Xylenes (Mixed Isomers)', 'Zinc compounds']",False,Koch Fertilizer Beatrice LLC,Beatrice,NE,40.319735,-96.840743,beatrice
110000536714.0,GHGRP NEI TRI,"['1,1,2,2-Tetrachloroethane', '1,3-Butadiene', '2-Methylnaphthalene', 'Acetaldehyde', 'Acrolein', 'Ammonia', 'Anthracene', 'Arsenic', 'Benz[a]Anthracene', 'Benzene', 'Cadmium', 'Carbon Dioxide', 'Carbon Monoxide', 'Chlorine', 'Chromium (VI)', 'Chromium III', 'Chrysene', 'Cobalt', 'Fluoranthene', 'Fluorene', 'Formaldehyde', 'Hexane', 'Lead', 'Manganese', 'Mercury', 'Methane', 'Methanol', 'Methylene Chloride', 'Naphthalene', 'Nickel', 'Nitrate compounds (water dissociable; reportable only when in aqueous solution)', 'Nitric acid', 'Nitrogen Oxides', 'Nitrous Oxide', 'PM10-PM2.5', 'PM2.5 Primary (Filt + Cond)', 'Phenanthrene', 'Pyrene', 'Sulfur Dioxide', 'Toluene', 'Volatile Organic Compounds', 'Xylenes (Mixed Isomers)']",False,KOCH FERTILIZER PLANT,ENID,OK,36.3791,-97.7613,enid
110000413972.0,GHGRP NEI,"['2-Methylnaphthalene', 'Acetaldehyde', 'Ammonia', 'Arsenic', 'Benz[a]Anthracene', 'Benzene', 'Cadmium', 'Carbon Dioxide', 'Carbon Monoxide', 'Chromium (VI)', 'Chromium III', 'Chrysene', 'Cobalt', 'Ethylene Glycol', 'Fluoranthene', 'Fluorene', 'Formaldehyde', 'Hexane', 'Lead', 'Manganese', 'Methane', 'Methanol', 'Naphthalene', 'Nickel', 'Nitrogen Oxides', 'Nitrous Oxide', 'PM10-PM2.5', 'PM2.5 Primary (Filt + Cond)', 'Phenanthrene', 'Pyrene', 'Sulfur Dioxide', 'Toluene', 'Volatile Organic Compounds', 'Xylenes (Mixed Isomers)']",False,GREEN VALLEY CHEMICAL CORPORATION,CRESTON,IA,41.116891,-94.355137,creston
110010507861.0,GHGRP NEI TRI,"['2-Methylnaphthalene', 'Acetaldehyde', 'Ammonia', 'Arsenic', 'Benz[a]Anthracene', 'Benzene', 'Cadmium', 'Carbon Dioxide', 'Carbon Monoxide', 'Chromium (VI)', 'Chromium III', 'Chrysene', 'Cobalt', 'Fluoranthene', 'Fluorene', 'Formaldehyde', 'Hexane', 'Lead', 'Manganese', 'Methane', 'Methanol', 'Naphthalene', 'Nickel', 'Nitrate compounds (water dissociable; reportable only when in aqueous solution)', 'Nitric acid', 'Nitrogen Oxides', 'Nitrous Oxide', 'PM10-PM2.5', 'PM2.5 Primary (Filt + Cond)', 'Phenanthrene', 'Pyrene', 'Sulfur Dioxide', 'Toluene', 'Volatile Organic Compounds', 'Xylenes (Mixed Isomers)']",False,"KOCH FERTILIZER FT. DODGE, LLC",Duncombe,IA,42.499657,-94.016942,duncombe
110041415885.0,GHGRP NEI TRI,"['2-Methylnaphthalene', 'Ammonia', 'Arsenic', 'Benzene', 'Cadmium', 'Carbon Dioxide', 'Carbon Monoxide', 'Chromium (VI)', 'Chromium III', 'Cobalt', 'Fluoranthene', 'Fluorene', 'Formaldehyde', 'Hexane', 'Lead', 'Manganese', 'Methane', 'Naphthalene', 'Nickel', 'Nitric acid', 'Nitrogen Oxides', 'Nitrous Oxide', 'PM10-PM2.5', 'PM2.5 Primary (Filt + Cond)', 'Phenanthrene', 'Pyrene', 'Toluene', 'Volatile Organic Compounds']",False,Dyno Nobel Incorporated,Deer Island,OR,45.9122,-122.8286,deer island
110014466372.0,GHGRP NEI TRI,"['2,2,4-Trimethylpentane', 'Acetaldehyde', 'Ammonia', 'Arsenic', 'Benzene', 'Cadmium', 'Carbon Dioxide', 'Carbon Monoxide', 'Chlorine', 'Chromium (VI)', 'Chromium III', 'Cobalt', 'Copper compounds', 'Cumene', 'Ethyl Benzene', 'Formaldehyde', 'Hexane', 'Hydroquinone', 'Lead', 'Manganese', 'Mercury', 'Methane', 'Methanol', 'Naphthalene', 'Nickel', 'Nickel compounds', 'Nitric acid', 'Nitrogen Oxides', 'Nitrous Oxide', 'PAH, total', 'PM10-PM2.5', 'PM2.5 Primary (Filt + Cond)', 'Sulfur Dioxide', 'Toluene', 'Volatile Organic Compounds', 'Xylenes (Mixed Isomers)', 'Zinc compounds']",False,CF Industries Nitrogen LLC - Donaldsonville Nitrogen Complex,Donaldsonville,LA,30.09863,-90.95653,donaldsonville
110000454320.0,GHGRP NEI TRI,"['2-Methylnaphthalene', 'Acetaldehyde', 'Ammonia', 'Anthracene', 'Arsenic', 'Benz[a]Anthracene', 'Benzene', 'Cadmium', 'Carbon Dioxide', 'Carbon Monoxide', 'Chromium (VI)', 'Chromium III', 'Chrysene', 'Cobalt', 'Fluoranthene', 'Fluorene', 'Formaldehyde', 'Hexane', 'Lead', 'Manganese', 'Mercury', 'Methane', 'Methanol', 'Naphthalene', 'Nickel', 'Nitrate compounds (water dissociable; reportable only when in aqueous solution)', 'Nitric acid', 'Nitrogen Oxides', 'Nitrous Oxide', 'PM10-PM2.5', 'PM2.5 Primary (Filt + Cond)', 'Phenanthrene', 'Pyrene', 'Sulfur Dioxide', 'Toluene', 'Volatile Organic Compounds', 'Xylenes (Mixed Isomers)']",False,WOODWARD COMPLEX,WOODWARD,OK,36.43771,-99.47111,woodward
110000579856.0,GHGRP NEI TRI,"['2-Methylnaphthalene', 'Acetaldehyde', 'Ammonia', 'Anthracene', 'Arsenic', 'Benz[a]Anthracene', 'Benzene', 'Cadmium', 'Carbon Dioxide', 'Carbon Monoxide', 'Carbonyl Sulfide', 'Chromium (VI)', 'Chromium III', 'Chromium compounds (except for chromite ore mined in the Transvaal Region)', 'Chrysene', 'Cobalt', 'Cobalt compounds', 'Fluoranthene', 'Fluorene', 'Formaldehyde', 'Hexane', 'Hydrogen Sulfide', 'Lead', 'Lead compounds', 'Manganese', 'Mercury', 'Mercury compounds', 'Methane', 'Molybdenum trioxide', 'Naphthalene', 'Nickel', 'Nickel compounds', 'Nitrate compounds (water dissociable; reportable only when in aqueous solution)', 'Nitric acid', 'Nitrogen Oxides', 'Nitrous Oxide', 'PM10-PM2.5', 'PM2.5 Primary (Filt + Cond)', 'Phenanthrene', 'Pyrene', 'Sulfur Dioxide', 'Toluene', 'Vanadium compounds', 'Volatile Organic Compounds', 'Xylenes (Mixed Isomers)', 'Zinc compounds']",False,CRNF - Coffeyville,Coffeyville,KS,37.046034,-95.60679,coffeyville
110021074317.0,GHGRP NEI TRI,"['2-Methylnaphthalene', 'Acetaldehyde', 'Ammonia', 'Anthracene', 'Arsenic', 'Benz[a]Anthracene', 'Benzene', 'Cadmium', 'Carbon Dioxide', 'Carbon Monoxide', 'Chromium (VI)', 'Chromium III', 'Chrysene', 'Cobalt', 'Fluoranthene', 'Fluorene', 'Formaldehyde', 'Hexane', 'Lead', 'Manganese', 'Mercury', 'Methane', 'Methanol', 'Naphthalene', 'Nickel', 'Nitrate compounds (water dissociable; reportable only when in aqueous solution)', 'Nitric acid', 'Nitrogen Oxides', 'Nitrous Oxide', 'PM10-PM2.5', 'PM2.5 Primary (Filt + Cond)', 'Phenanthrene', 'Pyrene', 'Sulfur Dioxide', 'Toluene', 'Volatile Organic Compounds', 'Xylenes (Mixed Isomers)']",False,Koch Fertilizer Dodge City,Dodge City,KS,37.777013,-99.929746,dodge city
110022360899.0,GHGRP NEI,"['Acetonitrile', 'Ammonia', 'Benzene', 'Biphenyl', 'Carbon Dioxide', 'Carbon Monoxide', 'Catechol', 'Dibenzofuran', 'Ethyl Benzene', 'Formaldehyde', 'Hexane', 'Hydrogen Sulfide', 'Methane', 'Methanol', 'Naphthalene', 'Nickel', 'Nitrogen Oxides', 'Nitrous Oxide', 'PAH, total', 'PM10-PM2.5', 'PM2.5 Primary (Filt + Cond)', 'Phenol', 'Quinoline', 'Sulfur Dioxide', 'Toluene', 'Volatile Organic Compounds', 'Xylenes (Mixed Isomers)', 'm-Cresol', 'o-Cresol', 'p-Cresol']",False,Dakota Gasification Company - Great Plains Synfuels Plant,Beulah,ND,47.360814,-101.838222,beulah
110000414089.0,GHGRP NEI TRI,"['1,1,2,2-Tetrachloroethane', '1,1,2-Trichloroethane', '1,3-Butadiene', '1,3-Dichloropropene', '2,2,4-Trimethylpentane', '2-Methylnaphthalene', 'Acenaphthene', 'Acenaphthylene', 'Acetaldehyde', 'Acrolein', 'Aluminum oxide (fibrous forms)', 'Ammonia', 'Anthracene', 'Arsenic', 'Benz[a]Anthracene', 'Benzene', 'Benzo[a]Pyrene', 'Benzo[b]Fluoranthene', 'Benzo[e]Pyrene', 'Benzo[g,h,i,]Perylene', 'Benzo[k]Fluoranthene', 'Biphenyl', 'Cadmium', 'Carbon Dioxide', 'Carbon Monoxide', 'Chlorobenzene', 'Chloroform', 'Chromium (VI)', 'Chromium III', 'Chromium compounds (except for chromite ore mined in the Transvaal Region)', 'Chrysene', 'Cobalt', 'Copper compounds', 'Ethyl Benzene', 'Ethyl Chloride', 'Ethylene Dichloride', 'Ethylidene Dichloride', 'Fluoranthene', 'Fluorene', 'Formaldehyde', 'Hexane', 'Indeno[1,2,3-c,d]Pyrene', 'Lead', 'Lead compounds', 'Manganese', 'Manganese compounds', 'Mercury', 'Methane', 'Methanol', 'Methylene Chloride', 'Naphthalene', 'Nickel', 'Nickel compounds', 'Nitric acid', 'Nitrogen Oxides', 'Nitrous Oxide', 'PM10-PM2.5', 'PM2.5 Primary (Filt + Cond)', 'Perylene', 'Phenanthrene', 'Phenol', 'Propylene Dichloride', 'Pyrene', 'Selenium', 'Styrene', 'Sulfur Dioxide', 'Toluene', 'Vinyl Chloride', 'Volatile Organic Compounds', 'Xylenes (Mixed Isomers)', 'Zinc compounds']",False,"CF INDUSTRIES NITROGEN, LLC - PORT NEAL COMPLEX",SERGEANT BLUFF,IA,42.32858,-96.37772,sergeant bluff
110000550332.0,GHGRP NEI TRI,"['2-Methylnaphthalene', 'Acetaldehyde', 'Acrolein', 'Ammonia', 'Anthracene', 'Arsenic', 'Benz[a]Anthracene', 'Benzene', 'Cadmium', 'Carbon Dioxide', 'Carbon Monoxide', 'Chlorine', 'Chromium (VI)', 'Chromium III', 'Chrysene', 'Cobalt', 'Ethyl Benzene', 'Fluoranthene', 'Fluorene', 'Formaldehyde', 'Hexane', 'Lead', 'Manganese', 'Mercury', 'Methane', 'Methanol', 'Naphthalene', 'Nickel', 'Nitric acid', 'Nitrogen Oxides', 'Nitrous Oxide', 'PM10-PM2.5', 'PM2.5 Primary (Filt + Cond)', 'Phenanthrene', 'Phenol', 'Pyrene', 'Sulfur Dioxide', 'Toluene', 'Volatile Organic Compounds', 'Xylenes (Mixed Isomers)', 'Zinc compounds']",False,VERDIGRIS PLANT,CLAREMORE,OK,36.23454,-95.7174,claremore
110000746373.0,GHGRP NEI TRI,"['2-Methylnaphthalene', 'Acetaldehyde', 'Ammonia', 'Arsenic', 'Benzene', 'Cadmium', 'Carbon Dioxide', 'Carbon Monoxide', 'Chromium (VI)', 'Chromium III', 'Cobalt', 'Copper compounds', 'Fluoranthene', 'Fluorene', 'Formaldehyde', 'Hexane', 'Lead', 'Manganese', 'Mercury', 'Methane', 'Methanol', 'Naphthalene', 'Nickel', 'Nickel compounds', 'Nitric acid', 'Nitrogen Oxides', 'Nitrous Oxide', 'PM10-PM2.5', 'PM2.5 Primary (Filt + Cond)', 'Phenanthrene', 'Pyrene', 'Sulfur Dioxide', 'Sulfuric acid (acid aerosols including mists, vapors, gas, fog, and other airborne forms of any particle size)', 'Toluene', 'Volatile Organic Compounds', 'Xylenes (Mixed Isomers)']",False,EL DORADO CHEMICAL COMPANY-EL DORADO,EL DORADO,AR,33.267144,-92.693601,el dorado
