TRIFD,FACILITY NAME,PRIMARY NAICS,NAICS 2,NAICS 3,NAICS 4,NAICS 5,NAICS 6,PARENT CO NAME,FRS ID,FRS_ID,FacilityName,Address,City,State,Zip,Latitude,Longitude,County,NAICS,SIC,FacilityID,Source,_merge
74602JPTRC14MIS,JUPITER SULPHUR LLC,325311,issues,issues,issues,issues,issues,TESSENDERLO KERLEY INC,110000455757,issues,issues,issues,issues,issues,issues,issues,issues,issues,issues,issues,issues,issues,left_only
77571RHMND13300,BAYPORT_TX,325199,issues,issues,issues,issues,issues,DOW INC,110000463613,issues,issues,issues,issues,issues,issues,issues,issues,issues,issues,issues,issues,issues,left_only
30721MRCNM1202D,POLYVENTIVE - DALTON,325199,issues,issues,issues,issues,issues,POLYVENTIVE LLC,110000359193,issues,issues,issues,issues,issues,issues,issues,issues,issues,issues,issues,issues,issues,left_only
77520LNXSS85WBA,LANXESS CORP-BAYTOWN,325199,issues,issues,issues,issues,issues,LANXESS CORP,110000463098,issues,issues,issues,issues,issues,issues,issues,issues,issues,issues,issues,issues,issues,left_only
95826PRCTR8201F,PROCTER & GAMBLE MFG. CO.,325199,issues,issues,issues,issues,issues,THE PROCTER & GAMBLE CO,110017423448,issues,issues,issues,issues,issues,issues,issues,issues,issues,issues,issues,issues,issues,left_only
30060NRTHC1525C,KEMIRA CHEMICALS INC,325199,issues,issues,issues,issues,issues,KEMIRA CHEMICALS INC,110000355838,issues,issues,issues,issues,issues,issues,issues,issues,issues,issues,issues,issues,issues,left_only
77086PLTND11623,PILOT INDUSTRIES OF TEXAS INC,325199,325194.0,issues,issues,issues,issues,PILOT CHEMICAL CORP,110000462053,issues,issues,issues,issues,issues,issues,issues,issues,issues,issues,issues,issues,issues,left_only
25303CWSTV437MA,COVESTRO LLC,325199,issues,issues,issues,issues,issues,COVESTRO LLC,110013764266,issues,issues,issues,issues,issues,issues,issues,issues,issues,issues,issues,issues,issues,left_only
30120RSRCN8RIVE,INNOVATIVE CHEMICAL TECHNOLOGIES INC.,325199,issues,issues,issues,issues,issues,issues,110013399223,issues,issues,issues,issues,issues,issues,issues,issues,issues,issues,issues,issues,issues,left_only
33873VNDLH2394V,IPS VANDOLAH POWER,221112,issues,issues,issues,issues,issues,NORTHERN STAR GENERATION LLC,110017411718,issues,issues,issues,issues,issues,issues,issues,issues,issues,issues,issues,issues,issues,left_only
44004CCDNT725ST,HUNTSMAN ADVANCED MATERIALS AMERICAS,325199,issues,issues,issues,issues,issues,HUNTSMAN CORP,110000384986,issues,issues,issues,issues,issues,issues,issues,issues,issues,issues,issues,issues,issues,left_only
43228RSYNX1979A,ISP CHEMICALS LLC,325199,325412.0,issues,issues,issues,issues,ASHLAND LLC,110000382693,issues,issues,issues,issues,issues,issues,issues,issues,issues,issues,issues,issues,issues,left_only
29304BLCKMPOBOX,SANTOLUBES MANUFACTURING LLC  DBA BLACKMAN UHLER SPECIALTIES,325199,issues,issues,issues,issues,issues,SANTOLUBES LLC,110000352797,issues,issues,issues,issues,issues,issues,issues,issues,issues,issues,issues,issues,issues,left_only
1731WCLPNM155PI,CALPINE MID MERIT LLC YORK ENERGY CENTER,221112,issues,issues,issues,issues,issues,CALPINE CORP,110043196528,issues,issues,issues,issues,issues,issues,issues,issues,issues,issues,issues,issues,issues,left_only
21620HLSMRMDRTE,EASTMAN SPECIALTIES CORP,325199,issues,issues,issues,issues,issues,EASTMAN CHEMICAL CO,110000340275,issues,issues,issues,issues,issues,issues,issues,issues,issues,issues,issues,issues,issues,left_only
60525PNCXX8400J,UOP LLC MCCOOK PLANT,325199,325180.0,541712.0,issues,issues,issues,HONEYWELL INTERNATIONAL INC,110000433638,issues,issues,issues,issues,issues,issues,issues,issues,issues,issues,issues,issues,issues,left_only
77520CHMCL12321,CHEMICALS INC,325199,issues,issues,issues,issues,issues,CHEMICALS INC,110009115545,issues,issues,issues,issues,issues,issues,issues,issues,issues,issues,issues,issues,issues,left_only
33848FLRDP6525O,DUKE ENERGY FLORIDA LLC-INTERCESSION CITY POWER PLANT,221112,issues,issues,issues,issues,issues,DUKE ENERGY CORP,110005984328,issues,issues,issues,issues,issues,issues,issues,issues,issues,issues,issues,issues,issues,left_only
23237WKCHM1600B,FUJIFILM WAKO CHEMICALS USA CORP,325199,issues,issues,issues,issues,issues,issues,110000341979,issues,issues,issues,issues,issues,issues,issues,issues,issues,issues,issues,issues,issues,left_only
01887CHMGN33IND,CHEMGENES CORP,325199,issues,issues,issues,issues,issues,issues,110003445790,issues,issues,issues,issues,issues,issues,issues,issues,issues,issues,issues,issues,issues,left_only
53202PHRMC2202N,THERMO FISHER SCIENTIFIC MILWAUKEE LLC,325199,issues,issues,issues,issues,issues,THERMO FISHER SCIENTIFIC INC,110000418236,issues,issues,issues,issues,issues,issues,issues,issues,issues,issues,issues,issues,issues,left_only
45414MLSNC5600B,TATE & LYLE CITRIC ACID,325199,issues,issues,issues,issues,issues,TATE & LYLE INGREDIENTS AMERICAS LLC,110000394742,issues,issues,issues,issues,issues,issues,issues,issues,issues,issues,issues,issues,issues,left_only
61537HNRYFRICHA,UNITY ENVIROTECH OF ILLINOIS,325312,issues,issues,issues,issues,issues,issues,110007051448,issues,issues,issues,issues,issues,issues,issues,issues,issues,issues,issues,issues,issues,left_only
36614MRCNCCYANA,KEMIRA CHEMICALS INC,325199,issues,issues,issues,issues,issues,KEMIRA CHEMICALS INC,110041965460,issues,issues,issues,issues,issues,issues,issues,issues,issues,issues,issues,issues,issues,left_only
08536FRMNCPRINC,FIRMENICH INC,325199,325620.0,311930.0,issues,issues,issues,issues,110000321651,issues,issues,issues,issues,issues,issues,issues,issues,issues,issues,issues,issues,issues,left_only
5971WDVGTS241UN,DAVE GATES GENERATING STATION,221112,issues,issues,issues,issues,issues,NORTHWESTERN ENERGY CORP,110043693964,issues,issues,issues,issues,issues,issues,issues,issues,issues,issues,issues,issues,issues,left_only
31323BFLCRCHEMI,FLOCRYL LLC - ACRYLAMIDE PLANT,325199,issues,issues,issues,issues,issues,SNF HOLDING CO,110027375775,issues,issues,issues,issues,issues,issues,issues,issues,issues,issues,issues,issues,issues,left_only
07105LNCHM268DO,ELAN CHEMICAL CO INC,325199,issues,issues,issues,issues,issues,issues,110000319423,issues,issues,issues,issues,issues,issues,issues,issues,issues,issues,issues,issues,issues,left_only
70821STFFRAIRLI,SOLVAY USA INC,325199,issues,issues,issues,issues,issues,SOLVAY HOLDING INC,110000450100,issues,issues,issues,issues,issues,issues,issues,issues,issues,issues,issues,issues,issues,left_only
06810RSCRP36OLD,RSA CORP,325199,issues,issues,issues,issues,issues,issues,110011370097,issues,issues,issues,issues,issues,issues,issues,issues,issues,issues,issues,issues,issues,left_only
11205BRKLYBROOK,BROOKLYN NAVY YARD COGENERATION FACILITY,221112,issues,issues,issues,issues,issues,AXIUM BNY COGENERATION PARTNERS LLC,110009461910,issues,issues,issues,issues,issues,issues,issues,issues,issues,issues,issues,issues,issues,left_only
2905WCLMBN1CALP,DOMINION ENERGY SOUTH CAROLINA - COLUMBIA ENERGY CENTER,221112,issues,issues,issues,issues,issues,DOMINION ENERGY INC,110016798866,issues,issues,issues,issues,issues,issues,issues,issues,issues,issues,issues,issues,issues,left_only
68840NTRFL6090O,THE ANDERSONS INC. - GIBBON,325312,issues,issues,issues,issues,issues,THE ANDERSONS INC,110000448347,issues,issues,issues,issues,issues,issues,issues,issues,issues,issues,issues,issues,issues,left_only
36201MNSNT300BI,SOLUTIA INC ANNISTON PLANT,325199,issues,issues,issues,issues,issues,EASTMAN CHEMICAL CO,110000368806,issues,issues,issues,issues,issues,issues,issues,issues,issues,issues,issues,issues,issues,left_only
68008MDWST650IN,EVONIK CORP,325199,issues,issues,issues,issues,issues,EVONIK CORP,110040981532,issues,issues,issues,issues,issues,issues,issues,issues,issues,issues,issues,issues,issues,left_only
31533FFNCC1415W,OPTIMA CHEMICAL GROUP LLC,325199,issues,issues,issues,issues,issues,issues,110000360644,issues,issues,issues,issues,issues,issues,issues,issues,issues,issues,issues,issues,issues,left_only
10993BWLNPSAMSO,BOWLINE POINT GENERATING STATION,221112,issues,issues,issues,issues,issues,GENON HOLDINGS INC.,110000582352,issues,issues,issues,issues,issues,issues,issues,issues,issues,issues,issues,issues,issues,left_only
36330MRGNN200WE,MORGAN FUEL LLC,325199,issues,issues,issues,issues,issues,MORGAN INC,110000369119,issues,issues,issues,issues,issues,issues,issues,issues,issues,issues,issues,issues,issues,left_only
65769SYNTXFIRST,BCP INGREDIENTS INC.,325199,issues,issues,issues,issues,issues,BALCHEM CORP,110000444788,issues,issues,issues,issues,issues,issues,issues,issues,issues,issues,issues,issues,issues,left_only
53085LDRCH6100H,ALDRICH CHEMICAL CO LLC,325199,issues,issues,issues,issues,issues,EMD HOLDING CORP.,110000605872,issues,issues,issues,issues,issues,issues,issues,issues,issues,issues,issues,issues,issues,left_only
37406NNDST2651R,NIPPON SHOKUBAI AMERICA INDUSTRIES INC. (FORMERLY NA INDUSTR,325199,issues,issues,issues,issues,issues,issues,110000371856,issues,issues,issues,issues,issues,issues,issues,issues,issues,issues,issues,issues,issues,left_only
12803BRDNC64FAR,HEXION INC-MOREAU FACILITY,325199,issues,issues,issues,issues,issues,HEXION HOLDINGS CORP,110056967581,issues,issues,issues,issues,issues,issues,issues,issues,issues,issues,issues,issues,issues,left_only
33916HFSCN3052M,FORT MYERS POWER PLANT,221112,issues,issues,issues,issues,issues,NEXTERA ENERGY INC,110000365248,issues,issues,issues,issues,issues,issues,issues,issues,issues,issues,issues,issues,issues,left_only
76031SCHMN2311P,SACHEM INC,325199,issues,issues,issues,issues,issues,SACHEM INC,110000459003,issues,issues,issues,issues,issues,issues,issues,issues,issues,issues,issues,issues,issues,left_only
33004FLRDPGRIFF,FPL-LAUDERDALE POWER PLANT,221112,issues,issues,issues,issues,issues,NEXTERA ENERGY INC,110002044065,issues,issues,issues,issues,issues,issues,issues,issues,issues,issues,issues,issues,issues,left_only
30722STNDR1010V,TIARCO-RST,325199,issues,issues,issues,issues,issues,TEXTILE RUBBER & CHEMICAL CO. INC.,110000359255,issues,issues,issues,issues,issues,issues,issues,issues,issues,issues,issues,issues,issues,left_only
60053RGSTC8210N,REGIS TECHNOLOGIES INC.,325199,issues,issues,issues,issues,issues,issues,110000429661,issues,issues,issues,issues,issues,issues,issues,issues,issues,issues,issues,issues,issues,left_only
7073WMTHNX4171H,METHANEX USA SERVICES LLC,325199,issues,issues,issues,issues,issues,issues,110046528227,issues,issues,issues,issues,issues,issues,issues,issues,issues,issues,issues,issues,issues,left_only
62206CCDNT500MO,OCCIDENTAL CHEMICAL CORP SAUGET PLANT,325199,325180.0,issues,issues,issues,issues,OCCIDENTAL CHEMICAL HOLDING CORP,110000500486,issues,issues,issues,issues,issues,issues,issues,issues,issues,issues,issues,issues,issues,left_only
6183WRGDNV3NAND,REG DANVILLE LLC,325199,issues,issues,issues,issues,issues,RENEWABLE ENERGY GROUP INC,110037141269,issues,issues,issues,issues,issues,issues,issues,issues,issues,issues,issues,issues,issues,left_only
77541SHNTS565HW,SHIN-ETSU SILICONES OF AMERICA INC,325199,issues,issues,issues,issues,issues,SHIN-ETSU CHEMICAL,110013362770,issues,issues,issues,issues,issues,issues,issues,issues,issues,issues,issues,issues,issues,left_only
29927JSPRG1719P,DOMINION ENERGY SOUTH CAROLINA - JASPER GENERATING STATION,221112,issues,issues,issues,issues,issues,DOMINION ENERGY INC,110020013590,issues,issues,issues,issues,issues,issues,issues,issues,issues,issues,issues,issues,issues,left_only
47150SPWNM2049I,SPAWN MATE INC,325311,issues,issues,issues,issues,issues,MONTEREY MUSHROOMS INC,110000402010,issues,issues,issues,issues,issues,issues,issues,issues,issues,issues,issues,issues,issues,left_only
34956MRTNPSR710,FPL-MARTIN PLANT,221112,issues,issues,issues,issues,issues,NEXTERA ENERGY INC,110008320566,issues,issues,issues,issues,issues,issues,issues,issues,issues,issues,issues,issues,issues,left_only
36311SLSSNHIGHW,ARICHEM LLC,325199,issues,issues,issues,issues,issues,issues,110010380694,issues,issues,issues,issues,issues,issues,issues,issues,issues,issues,issues,issues,issues,left_only
39120MCPTRRIVER,WORLD ENERGY NATCHEZ LLC,325199,issues,issues,issues,issues,issues,WORLD ENERGY LLC,110000376441,issues,issues,issues,issues,issues,issues,issues,issues,issues,issues,issues,issues,issues,left_only
01201PTTSF235ME,PITTSFIELD GENERATING CO LP,221112,issues,issues,issues,issues,issues,PITTSFIELD GENERATING CO LP,110000308480,issues,issues,issues,issues,issues,issues,issues,issues,issues,issues,issues,issues,issues,left_only
19136QKRCT7360M,QUAKER CITY CHEMICALS,325199,issues,issues,issues,issues,issues,issues,110000336930,issues,issues,issues,issues,issues,issues,issues,issues,issues,issues,issues,issues,issues,left_only
39180BNGCR1833H,ERGON BIOFUELS LLC,325199,issues,issues,issues,issues,issues,issues,110000376502,issues,issues,issues,issues,issues,issues,issues,issues,issues,issues,issues,issues,issues,left_only
15201PRSSR3419S,PRESSURE CHEMICAL CO,325199,issues,issues,issues,issues,issues,issues,110000329467,issues,issues,issues,issues,issues,issues,issues,issues,issues,issues,issues,issues,issues,left_only
23434LLDCL2301W,SOLENIS LLC,325199,issues,issues,issues,issues,issues,PLATINUM EQUITY LLC,110020677999,issues,issues,issues,issues,issues,issues,issues,issues,issues,issues,issues,issues,issues,left_only
02191FRRVR9BRID,CALPINE FORE RIVER ENERGY CENTER LLC,221112,issues,issues,issues,issues,issues,CALPINE CORP,110024352289,issues,issues,issues,issues,issues,issues,issues,issues,issues,issues,issues,issues,issues,left_only
77507CRPNT11002,E R CARPENTER LP,325199,325998.0,issues,issues,issues,issues,CARPENTER URETHANES 1 LLC,110000462794,issues,issues,issues,issues,issues,issues,issues,issues,issues,issues,issues,issues,issues,left_only
33834SCPYN6697N,SECI MIDULLA GENERATING STATION,221112,issues,issues,issues,issues,issues,SEMINOLE ELECTRIC COOPERATIVE,110035803262,issues,issues,issues,issues,issues,issues,issues,issues,issues,issues,issues,issues,issues,left_only
77507NSSNC12330,NISSAN CHEMICAL AMERICA PASADENA PLANT,325199,issues,issues,issues,issues,issues,NISSAN CHEMICAL AMERICA CORP,110005172357,issues,issues,issues,issues,issues,issues,issues,issues,issues,issues,issues,issues,issues,left_only
73801DPWTR1210A,DEEPWATER CHEMICALS INC.,325199,325180.0,issues,issues,issues,issues,issues,110000454311,issues,issues,issues,issues,issues,issues,issues,issues,issues,issues,issues,issues,issues,left_only
02780TNTNM1314S,TAUNTON MUNICIPAL LIGHTING PLANT - CLEARY FLOOD STATION,221112,issues,issues,issues,issues,issues,issues,110000312064,issues,issues,issues,issues,issues,issues,issues,issues,issues,issues,issues,issues,issues,left_only
7009WDYNNB18RIV,DYNO NOBEL LOUISIANA AMMONIA LLC,325311,issues,issues,issues,issues,issues,DYNO NOBEL INC,110071071484,issues,issues,issues,issues,issues,issues,issues,issues,issues,issues,issues,issues,issues,left_only
18327HCDVSROUTE,VERTELLUS DWG LLC,325199,325180.0,issues,issues,issues,issues,V GLOBAL HOLDINGS LLC,110011537088,issues,issues,issues,issues,issues,issues,issues,issues,issues,issues,issues,issues,issues,left_only
21869VNNPWCHAPE,VIENNA GENERATING STATION,221112,issues,issues,issues,issues,issues,NRG ENERGY INC,110000585260,issues,issues,issues,issues,issues,issues,issues,issues,issues,issues,issues,issues,issues,left_only
77015PNNWL2231H,ARKEMA INC,325199,issues,issues,issues,issues,issues,ARKEMA DELAWARE INC,110056638526,issues,issues,issues,issues,issues,issues,issues,issues,issues,issues,issues,issues,issues,left_only
3976WTVCLD255LN,U.S. TVA CALEDONIA COMBINED CYCLE PLANT,221112,issues,issues,issues,issues,issues,US TENNESSEE VALLEY AUTHORITY,110016774864,issues,issues,issues,issues,issues,issues,issues,issues,issues,issues,issues,issues,issues,left_only
76063TXSLT100US,HONEYWELL ELECTRONIC CHEMICALS LLC,325199,issues,issues,issues,issues,issues,HONEYWELL INTERNATIONAL INC,110000599139,issues,issues,issues,issues,issues,issues,issues,issues,issues,issues,issues,issues,issues,left_only
07114CHMFL92896,CHEM FLUER/FIRMENICH INC,325199,issues,issues,issues,issues,issues,issues,110006175370,issues,issues,issues,issues,issues,issues,issues,issues,issues,issues,issues,issues,issues,left_only
37821GRTLKROUTE,"SI GROUP, INC. - NEWPORT TN",325199,issues,issues,issues,issues,issues,SI GROUP INC,110035828129,issues,issues,issues,issues,issues,issues,issues,issues,issues,issues,issues,issues,issues,left_only
32205NNCMP2051N,IFF CHEMICAL HOLDINGS INC,325199,issues,issues,issues,issues,issues,INTERNATIONAL FLAVORS & FRAGRANCES INC,110000361830,issues,issues,issues,issues,issues,issues,issues,issues,issues,issues,issues,issues,issues,left_only
02830CNSTT1575S,OCEAN STATE POWER,221112,issues,issues,issues,issues,issues,LS POWER DEVELOPMENT LLC,110000312180,issues,issues,issues,issues,issues,issues,issues,issues,issues,issues,issues,issues,issues,left_only
3867WTVSTH2881S,US TVA SOUTHAVEN COMBINED CYCLE PLANT,221112,issues,issues,issues,issues,issues,US TENNESSEE VALLEY AUTHORITY,110039204303,issues,issues,issues,issues,issues,issues,issues,issues,issues,issues,issues,issues,issues,left_only
14760NDCKL140MO,INDECK-OLEAN ENERGY CENTER,221112,issues,issues,issues,issues,issues,INDECK ENERGY,110001596381,issues,issues,issues,issues,issues,issues,issues,issues,issues,issues,issues,issues,issues,left_only
70734BRDNC9288H,HEXION INC,325199,issues,issues,issues,issues,issues,HEXION HOLDINGS CORP,110002056024,issues,issues,issues,issues,issues,issues,issues,issues,issues,issues,issues,issues,issues,left_only
28144PRGRS5755N,SOUTHERN CO ROWAN COUNTY POWER PLANT,221112,issues,issues,issues,issues,issues,SOUTHERN CO,110020516486,issues,issues,issues,issues,issues,issues,issues,issues,issues,issues,issues,issues,issues,left_only
55808MBYSY110SP,TATE & LYLE DULUTH,325199,issues,issues,issues,issues,issues,TATE & LYLE INGREDIENTS AMERICAS LLC,110000426370,issues,issues,issues,issues,issues,issues,issues,issues,issues,issues,issues,issues,issues,left_only
93308SLXNS2343P,NUSIL TECHNOLOGY LLC,325199,issues,issues,issues,issues,issues,AVANTOR PERFORMANCE MATERIALS INC,110002925229,issues,issues,issues,issues,issues,issues,issues,issues,issues,issues,issues,issues,issues,left_only
03801CNDNW99OLD,ESSENTIAL POWER NEWINGTON,221112,issues,issues,issues,issues,issues,NAUTILUS POWER LLC,110021167011,issues,issues,issues,issues,issues,issues,issues,issues,issues,issues,issues,issues,issues,left_only
56001MNKTN1FAZI,MANKATO ENERGY CENTER,221112,issues,issues,issues,issues,issues,SOUTHWEST GENERATION OPERATING CO LLC,110025213061,issues,issues,issues,issues,issues,issues,issues,issues,issues,issues,issues,issues,issues,left_only
07032KRNYGHACKE,PSEG KEARNY GENERATING STATION,221112,issues,issues,issues,issues,issues,PUBLIC SERVICE ENTERPRISE GROUP,110006367528,issues,issues,issues,issues,issues,issues,issues,issues,issues,issues,issues,issues,issues,left_only
32234JBRND1MINU,JEA BRANDY BRANCH GENERATING STATION,221112,issues,issues,issues,issues,issues,JEA,110009104021,issues,issues,issues,issues,issues,issues,issues,issues,issues,issues,issues,issues,issues,left_only
52553JNMTS1AJIN,AJINOMOTO HEALTH & NUTRITION N.A. INC.,325199,issues,issues,issues,issues,issues,AJINOMOTO HEALTH & NUTRITION N.A. INC,110035869165,issues,issues,issues,issues,issues,issues,issues,issues,issues,issues,issues,issues,issues,left_only
06412CRYDY67WIN,PURIFICATION TECHNOLOGIES LLC,325199,issues,issues,issues,issues,issues,AVANTOR PERFORMANCE MATERIALS INC,110000316104,issues,issues,issues,issues,issues,issues,issues,issues,issues,issues,issues,issues,issues,left_only
2501WPTMBL91WDU,OPTIMA BELLE LLC,325199,issues,issues,issues,issues,issues,OPTIMA CHEMICAL,110000344182,issues,issues,issues,issues,issues,issues,issues,issues,issues,issues,issues,issues,issues,left_only
0218WBRNTR15PTT,BRAINTREE ELECTRIC LIGHT DEPARTMENT,221112,issues,issues,issues,issues,issues,issues,110002011625,issues,issues,issues,issues,issues,issues,issues,issues,issues,issues,issues,issues,issues,left_only
01852LWLLP2TANN,TANNER STREET GENERATION LLC,221112,issues,issues,issues,issues,issues,issues,110001959195,issues,issues,issues,issues,issues,issues,issues,issues,issues,issues,issues,issues,issues,left_only
01089CMWST15AGA,ESSENTIAL POWER MASSACHUSETTS LLC WEST SPRINGFIELD STATION,221112,issues,issues,issues,issues,issues,NAUTILUS POWER LLC,110045630956,issues,issues,issues,issues,issues,issues,issues,issues,issues,issues,issues,issues,issues,left_only
44125RSRCH4353E,RESEARCH ORGANICS LLC,325199,325998.0,325414.0,issues,issues,issues,EMD HOLDING CORP,110000387420,issues,issues,issues,issues,issues,issues,issues,issues,issues,issues,issues,issues,issues,left_only
53545TWNST3631P,TWIN STATE INC,325312,issues,issues,issues,issues,issues,TWIN STATE INC,110000419743,issues,issues,issues,issues,issues,issues,issues,issues,issues,issues,issues,issues,issues,left_only
08701LKWDC123EN,LAKEWOOD COGENERATION,221112,issues,issues,issues,issues,issues,NAUTILUS POWER LLC,110000321811,issues,issues,issues,issues,issues,issues,issues,issues,issues,issues,issues,issues,issues,left_only
07928STTNL116SU,ISP CHEMICALS LLC,325199,issues,issues,issues,issues,issues,ASHLAND LLC,110000320803,issues,issues,issues,issues,issues,issues,issues,issues,issues,issues,issues,issues,issues,left_only
21130PRRYM900CH,PERRYMAN GENERATING STATION,221112,issues,issues,issues,issues,issues,CONSTELLATION ENERGY GENERATION LLC,110000499559,issues,issues,issues,issues,issues,issues,issues,issues,issues,issues,issues,issues,issues,left_only
23224BLLMD1860C,BELLEMEADE POWER STATION,221112,issues,issues,issues,issues,issues,DOMINION ENERGY INC,110002404390,issues,issues,issues,issues,issues,issues,issues,issues,issues,issues,issues,issues,issues,left_only
02840NWPRT312CN,NEWPORT BIODIESEL INC,325199,issues,issues,issues,issues,issues,issues,110055218438,issues,issues,issues,issues,issues,issues,issues,issues,issues,issues,issues,issues,issues,left_only
0609WLGNQN26CAN,ALGONQUIN POWER WINDSOR LOCKS LLC,221112,issues,issues,issues,issues,issues,issues,110024519001,issues,issues,issues,issues,issues,issues,issues,issues,issues,issues,issues,issues,issues,left_only
38603STVBN352HW,U.S. TVA MAGNOLIA COMBINED CYCLE PLANT,221112,issues,issues,issues,issues,issues,US TENNESSEE VALLEY AUTHORITY,110009113486,issues,issues,issues,issues,issues,issues,issues,issues,issues,issues,issues,issues,issues,left_only
33316FPLPR8100E,FPL PORT EVERGLADES ENERGY CENTER,221112,issues,issues,issues,issues,issues,NEXTERA ENERGY INC,110055206584,issues,issues,issues,issues,issues,issues,issues,issues,issues,issues,issues,issues,issues,left_only
37857STVJHOLDHW,U.S. TVA JOHN SEVIER COMBINED CYCLE PLANT,221112,issues,issues,issues,issues,issues,US TENNESSEE VALLEY AUTHORITY,110000607530,issues,issues,issues,issues,issues,issues,issues,issues,issues,issues,issues,issues,issues,left_only
11980CTHNS5ZRNB,CAITHNESS LONG ISLAND ENERGY CENTER,221112,issues,issues,issues,issues,issues,CAITHNESS LONG ISLAND LLC,110040566893,issues,issues,issues,issues,issues,issues,issues,issues,issues,issues,issues,issues,issues,left_only
51459WSTCN461ST,REG RALSTON LLC,325199,issues,issues,issues,issues,issues,RENEWABLE ENERGY GROUP INC,110015684730,issues,issues,issues,issues,issues,issues,issues,issues,issues,issues,issues,issues,issues,left_only
42302WNSBR1145E,OWENSBORO GRAIN BIODIESEL LLC,325199,issues,issues,issues,issues,issues,OWENSBORO GRAIN HOLDING CO INC,110000757501,issues,issues,issues,issues,issues,issues,issues,issues,issues,issues,issues,issues,issues,left_only
50441TWNSTRR2MA,TWIN STATE INC,325312,issues,issues,issues,issues,issues,TWIN STATE INC,110000413393,issues,issues,issues,issues,issues,issues,issues,issues,issues,issues,issues,issues,issues,left_only
06457KLNNR1349R,KLEEN ENERGY SYSTEMS LLC,221112,issues,issues,issues,issues,issues,KLEEN ENERGY HOLDINGS LLC,110038324382,issues,issues,issues,issues,issues,issues,issues,issues,issues,issues,issues,issues,issues,left_only
96763MLCTR1001N,MAUI ELECTRIC CO LTD MIKI BASIN GENERATING STATION,221112,221121.0,issues,issues,issues,issues,HAWAIIAN ELECTRIC INDUSTRIES INC,110001764029,issues,issues,issues,issues,issues,issues,issues,issues,issues,issues,issues,issues,issues,left_only
54130FXNRGN231E,FOX ENERGY CENTER,221112,issues,issues,issues,issues,issues,WEC ENERGY GROUP,110023013228,issues,issues,issues,issues,issues,issues,issues,issues,issues,issues,issues,issues,issues,left_only
53190LSPWH111CO,LSP WHITEWATER LP,221112,issues,issues,issues,issues,issues,LSP WHITEWATER I LLC,110043795970,issues,issues,issues,issues,issues,issues,issues,issues,issues,issues,issues,issues,issues,left_only
08067PDRCK143US,PEDRICKTOWN COGENERATION CO LP,221112,issues,issues,issues,issues,issues,TALEN ENERGY CORP,110000582094,issues,issues,issues,issues,issues,issues,issues,issues,issues,issues,issues,issues,issues,left_only
3347WWSTCN255ST,FLORIDA POWER & LIGHT-WEST COUNTY ENERGY CENTER PLANT,221112,issues,issues,issues,issues,issues,NEXTERA ENERGY INC,110007477391,issues,issues,issues,issues,issues,issues,issues,issues,issues,issues,issues,issues,issues,left_only
96766KPWRP4941K,KAPAIA POWER STATION,221112,issues,issues,issues,issues,issues,KAUAI ISLAND UTILITY COOPERATIVE,110015679050,issues,issues,issues,issues,issues,issues,issues,issues,issues,issues,issues,issues,issues,left_only
96749PNGNRPUNAM,HAWAII ELECTRIC LIGHT CO INC PUNA GENERATING STATION,221112,221121.0,issues,issues,issues,issues,HAWAIIAN ELECTRIC INDUSTRIES INC,110000601377,issues,issues,issues,issues,issues,issues,issues,issues,issues,issues,issues,issues,issues,left_only
38012STVLG615EL,U.S. TVA LAGOON CREEK COMBUSTION TURBINE PLANT,221112,issues,issues,issues,issues,issues,US TENNESSEE VALLEY AUTHORITY,110070828181,issues,issues,issues,issues,issues,issues,issues,issues,issues,issues,issues,issues,issues,left_only
11691BYSWT1425B,BAYSWATER PEAKING FACILITY LLC,221112,issues,issues,issues,issues,issues,issues,110019673441,issues,issues,issues,issues,issues,issues,issues,issues,issues,issues,issues,issues,issues,left_only
02215DVNCD474BR,MATEP LLC,221112,issues,issues,issues,issues,issues,LONGWOOD ENERGY PARTNERS LLC,110000881733,issues,issues,issues,issues,issues,issues,issues,issues,issues,issues,issues,issues,issues,left_only
11704PNLWN38PAT,PINELAWN POWER,221112,issues,issues,issues,issues,issues,PINELAWN POWER LLC,110023138451,issues,issues,issues,issues,issues,issues,issues,issues,issues,issues,issues,issues,issues,left_only
12822NDCKC24WHI,INDECK-CORINTH ENERGY CENTER,221112,issues,issues,issues,issues,issues,INDECK ENERGY,110000324934,issues,issues,issues,issues,issues,issues,issues,issues,issues,issues,issues,issues,issues,left_only
60090PRCYH430SO,SLIDE PRODUCTS INC,325199,issues,issues,issues,issues,issues,issues,110000430294,issues,issues,issues,issues,issues,issues,issues,issues,issues,issues,issues,issues,issues,left_only
