TRIFD,FACILITY NAME,PRIMARY NAICS,NAICS 2,NAICS 3,NAICS 4,NAICS 5,NAICS 6,PARENT CO NAME,FRS ID,FRS_ID,FacilityName,Address,City,State,Zip,Latitude,Longitude,County,NAICS,SIC,FacilityID,Source,_merge
98221SHLLLWESTM,TESORO REFINING & MARKETING CO LLC,324110,issues,issues,issues,issues,issues,MARATHON PETROLEUM CORP,110000537250.0,issues,issues,issues,issues,issues,issues,issues,issues,issues,issues,issues,issues,issues,left_only
44482LTVST2234M,CLEVELAND-CLIFFS CLEVELAND WORKS LLC DBA CLEVELAND-CLIFFS WA,324199,issues,issues,issues,issues,issues,CLEVELAND-CLIFFS INC,110012566767.0,issues,issues,issues,issues,issues,issues,issues,issues,issues,issues,issues,issues,issues,left_only
83705KCHMT4303G,ERGON ASPHALT & EMULSIONS INC. - BOISE,324121,issues,issues,issues,issues,issues,ERGON INC,110001805486.0,issues,issues,issues,issues,issues,issues,issues,issues,issues,issues,issues,issues,issues,left_only
48218SCKBT14ZUG,EES COKE BATTERY LLC,324199,issues,issues,issues,issues,issues,DTE ENERGY CO,110022523269.0,issues,issues,issues,issues,issues,issues,issues,issues,issues,issues,issues,issues,issues,left_only
4504WSNCKN3353Y,MIDDLETOWN COKE CO,324199,issues,issues,issues,issues,issues,SUNCOKE ENERGY INC,110046371500.0,issues,issues,issues,issues,issues,issues,issues,issues,issues,issues,issues,issues,issues,left_only
84087PHLLP393SO,HOLLYFRONTIER WOODS CROSS REFINING LLC,324110,issues,issues,issues,issues,issues,HOLLYFRONTIER CORP,110000469136.0,issues,issues,issues,issues,issues,issues,issues,issues,issues,issues,issues,issues,issues,left_only
9170WRWNDL165FT,VULCAN MATERIALS CO - IRWINDALE,324121,212321.0,issues,issues,issues,issues,VULCAN MATERIALS CO,110001187992.0,issues,issues,issues,issues,issues,issues,issues,issues,issues,issues,issues,issues,issues,left_only
74107SNRFN1700S,HOLLYFRONTIER TULSA REFINING WEST FACILITY,324110,issues,issues,issues,issues,issues,HOLLYFRONTIER CORP,110000454981.0,issues,issues,issues,issues,issues,issues,issues,issues,issues,issues,issues,issues,issues,left_only
7841WCRPSC6746U,VALERO CORPUS CHRISTI ASPHALT TERMINAL,324121,issues,issues,issues,issues,issues,VALERO ENERGY CORP,110031302720.0,issues,issues,issues,issues,issues,issues,issues,issues,issues,issues,issues,issues,issues,left_only
15062MNSSN345DO,CLEVELAND-CLIFFS MONESSEN COKE LLC,324199,issues,issues,issues,issues,issues,CLEVELAND-CLIFFS MONESSEN COKE LLC,110000329118.0,issues,issues,issues,issues,issues,issues,issues,issues,issues,issues,issues,issues,issues,left_only
90749RCPRD1801E,TESORO LOS ANGELES REFINERY-CARSON OPERATIONS,324110,issues,issues,issues,issues,issues,TESORO CORP,110017428988.0,issues,issues,issues,issues,issues,issues,issues,issues,issues,issues,issues,issues,issues,left_only
3947WRNCCR863LD,RAIN CII CARBON LLC-PURVIS CALCINING PLANT,324199,issues,issues,issues,issues,issues,RAIN CII CARBON LLC,110002206611.0,issues,issues,issues,issues,issues,issues,issues,issues,issues,issues,issues,issues,issues,left_only
61802MLSCT705EU,EMULSICOAT INC,324121,issues,issues,issues,issues,issues,HERITAGE GROUP,110001816394.0,issues,issues,issues,issues,issues,issues,issues,issues,issues,issues,issues,issues,issues,left_only
77640GRTLKCOKED,OXBOW CALCINING LLC,324199,issues,issues,issues,issues,issues,OXBOW CARBON & MINERALS HOLDINGS INC,110002042502.0,issues,issues,issues,issues,issues,issues,issues,issues,issues,issues,issues,issues,issues,left_only
96707CHVRN91480,IES DOWNSTREAM LLC - KAPOLEI TERMINAL,324110,325180.0,issues,issues,issues,issues,IES DOWNSTREAM LLC,110000486304.0,issues,issues,issues,issues,issues,issues,issues,issues,issues,issues,issues,issues,issues,left_only
93308TXCRF6451R,BAKERSFIELD RENEWABLE FUELS LLC - AREAS 1 & 2,324110,issues,issues,issues,issues,issues,GLOBAL CLEAN ENERGY HOLDINGS INC,110017887330.0,issues,issues,issues,issues,issues,issues,issues,issues,issues,issues,issues,issues,issues,left_only
44256WNSCR890WE,OWENS CORNING - MEDINA,324121,324122.0,issues,issues,issues,issues,OWENS CORNING,110000388919.0,issues,issues,issues,issues,issues,issues,issues,issues,issues,issues,issues,issues,issues,left_only
39477STHLNHIGHW,HUNT SOUTHLAND REFINING CO-SANDERSVILLE,324110,issues,issues,issues,issues,issues,HUNT REFINING CO A CORP,110000590842.0,issues,issues,issues,issues,issues,issues,issues,issues,issues,issues,issues,issues,issues,left_only
16749QKRSTINTER,INTERNATIONAL WAXES INC,324199,issues,issues,issues,issues,issues,THE INTERNATIONAL GROUP INC,110000583850.0,issues,issues,issues,issues,issues,issues,issues,issues,issues,issues,issues,issues,issues,left_only
70665VNTRC1920P,RAIN CII CARBON LLC LAKE CHARLES CALCINING PLANT (LCCP),324199,issues,issues,issues,issues,issues,RAIN CII CARBON LLC,110015679853.0,issues,issues,issues,issues,issues,issues,issues,issues,issues,issues,issues,issues,issues,left_only
62454CCRBN12187,RAIN CII CARBON LLC,324199,issues,issues,issues,issues,issues,RAIN CII CARBON LLC,110018167053.0,issues,issues,issues,issues,issues,issues,issues,issues,issues,issues,issues,issues,issues,left_only
03581GRHMS44LAN,GORHAM SAND & GRAVEL PIKE INDUSTRIES INC,324121,212321.0,issues,issues,issues,issues,CRH AMERICAS INC,110001521675.0,issues,issues,issues,issues,issues,issues,issues,issues,issues,issues,issues,issues,issues,left_only
35217BCCKDRAILR,DRUMMOND CO INC ABC COKE DIV,324199,issues,issues,issues,issues,issues,DRUMMOND CO INC,110000366817.0,issues,issues,issues,issues,issues,issues,issues,issues,issues,issues,issues,issues,issues,left_only
01906GGRGT1831B,AGGREGATE INDUSTRIES NORTHEAST REGION INC,324121,327320.0,issues,issues,issues,issues,HOLCIM (US) INC,110012709122.0,issues,issues,issues,issues,issues,issues,issues,issues,issues,issues,issues,issues,issues,left_only
42101CCHLD407RA,VALOR LLC,324199,issues,issues,issues,issues,issues,VALOR LLC,110000380221.0,issues,issues,issues,issues,issues,issues,issues,issues,issues,issues,issues,issues,issues,left_only
11354FLSHN12131,FLUSHING ASPHALT LLC,324121,issues,issues,issues,issues,issues,issues,110008088194.0,issues,issues,issues,issues,issues,issues,issues,issues,issues,issues,issues,issues,issues,left_only
8411WWSTVL6685W,WEST VALLEY,324121,327320.0,issues,issues,issues,issues,KILGORE COS LLC,110070070514.0,issues,issues,issues,issues,issues,issues,issues,issues,issues,issues,issues,issues,issues,left_only
54481KCHMT741MA,FLINT HILLS RESOURCES PINE BEND LLC STEVENS POINT,324121,issues,issues,issues,issues,issues,KOCH INDUSTRIES INC,110055083430.0,issues,issues,issues,issues,issues,issues,issues,issues,issues,issues,issues,issues,issues,left_only
7043WFRNKL47CCR,BARRIERE CONSTRUCTION CO LLC - FRANKLINTON ASPHALT PLA,324121,issues,issues,issues,issues,issues,issues,110071043424.0,issues,issues,issues,issues,issues,issues,issues,issues,issues,issues,issues,issues,issues,left_only
4900WMCHGN2GLEN,MICHIGAN PAVING & MATERIALS CO - KALAMAZOO ASPHALT,324121,issues,issues,issues,issues,issues,CRH AMERICAS INC,110001840358.0,issues,issues,issues,issues,issues,issues,issues,issues,issues,issues,issues,issues,issues,left_only
7008WVLRMR1455H,VALERO DONALDSONVILLE ASPHALT TERMINAL,324121,issues,issues,issues,issues,issues,VALERO ENERGY CORP,110007278935.0,issues,issues,issues,issues,issues,issues,issues,issues,issues,issues,issues,issues,issues,left_only
1476WBFFLC2998C,NESL - OLEAN HOT MIX ASPHALT,324121,issues,issues,issues,issues,issues,issues,110067200273.0,issues,issues,issues,issues,issues,issues,issues,issues,issues,issues,issues,issues,issues,left_only
0427WPKNDS164SP,PIKE INDUSTRIES INC. - POLAND,324121,issues,issues,issues,issues,issues,CRH AMERICAS INC.,110008437557.0,issues,issues,issues,issues,issues,issues,issues,issues,issues,issues,issues,issues,issues,left_only
9458WSNLXX7999A,MISSION VALLEY ROCK,324121,212321.0,issues,issues,issues,issues,MARTIN MARIETTA MATERIALS INC,110010132533.0,issues,issues,issues,issues,issues,issues,issues,issues,issues,issues,issues,issues,issues,left_only
7754WKNDRM47CLI,KINDER MORGAN CRUDE & CONDENSATE LLC,324110,issues,issues,issues,issues,issues,KINDER MORGAN,110069234661.0,issues,issues,issues,issues,issues,issues,issues,issues,issues,issues,issues,issues,issues,left_only
03106BRXND1500H,BROX INDUSTRIES INC,324121,issues,issues,issues,issues,issues,BROX INDUSTRIES INC,110004092758.0,issues,issues,issues,issues,issues,issues,issues,issues,issues,issues,issues,issues,issues,left_only
7813WRTHTM21946,ASPHALT INC HANSON GARDEN RIDGE PLANT,324121,issues,issues,issues,issues,issues,ASPHALT INC. LLC,110070071519.0,issues,issues,issues,issues,issues,issues,issues,issues,issues,issues,issues,issues,issues,left_only
08030KCHPTKINGW,BKEP MATERIALS LLC -- GLOUCESTER CITY,324121,issues,issues,issues,issues,issues,BLUEKNIGHT ENERGY PARTNERS LP,110007927011.0,issues,issues,issues,issues,issues,issues,issues,issues,issues,issues,issues,issues,issues,left_only
38113RGNTR1989C,ERGON ASPHALT & EMULSIONS INC. - MEMPHIS,324121,424710.0,issues,issues,issues,issues,ERGON INC,110000895327.0,issues,issues,issues,issues,issues,issues,issues,issues,issues,issues,issues,issues,issues,left_only
84770STKRP1843E,STAKER & PARSON COS ST GEORGE READY-MIX & ASPHALT,324121,issues,issues,issues,issues,issues,CRH AMERICAS INC,110022811885.0,issues,issues,issues,issues,issues,issues,issues,issues,issues,issues,issues,issues,issues,left_only
52004KCHMT12THS,FLINT HILLS RESOURCES PINE BEND LLC DUBUQUE,324121,issues,issues,issues,issues,issues,KOCH INDUSTRIES INC,110000414613.0,issues,issues,issues,issues,issues,issues,issues,issues,issues,issues,issues,issues,issues,left_only
13424RSKNY9DRYR,ORISKANY,324121,issues,issues,issues,issues,issues,SUIT-KOTE CORP,110069533062.0,issues,issues,issues,issues,issues,issues,issues,issues,issues,issues,issues,issues,issues,left_only
2230WTHLNC561CU,VIRGINIA PAVING ALEXANDRIA PLANT,324121,237310.0,issues,issues,issues,issues,EUROVIA ATLANTIC COAST LLC,110060257065.0,issues,issues,issues,issues,issues,issues,issues,issues,issues,issues,issues,issues,issues,left_only
7863WRTHTM1725C,ASPHALT INC RONALD REAGAN PLANT,324121,issues,issues,issues,issues,issues,ASPHALT INC. LLC,110060280529.0,issues,issues,issues,issues,issues,issues,issues,issues,issues,issues,issues,issues,issues,left_only
90805DGNGT2400E,EDGINGTON OIL CO,324110,issues,issues,issues,issues,issues,DELEK US HOLDINGS INC,110000476315.0,issues,issues,issues,issues,issues,issues,issues,issues,issues,issues,issues,issues,issues,left_only
4839WCDLLC51777,CADILLAC ASPHALT LLC - WIXOM,324121,issues,issues,issues,issues,issues,CRH AMERICAS INC,110016725935.0,issues,issues,issues,issues,issues,issues,issues,issues,issues,issues,issues,issues,issues,left_only
82007KNFRV4875S,KNIFE RIVER CHEYENNE,324121,issues,issues,issues,issues,issues,MDU RESOURCES GROUP INC,110037148164.0,issues,issues,issues,issues,issues,issues,issues,issues,issues,issues,issues,issues,issues,left_only
55378KCHMT12101,FLINT HILLS RESOURCES PINE BEND LLC SAVAGE,324121,issues,issues,issues,issues,issues,KOCH INDUSTRIES INC,110008820099.0,issues,issues,issues,issues,issues,issues,issues,issues,issues,issues,issues,issues,issues,left_only
3109WRVSCN441RI,REEVES CONSTRUCTION COMPANY-VIENNA HMAF,324121,issues,issues,issues,issues,issues,REEVES CONSTRUCTION CO,110060259152.0,issues,issues,issues,issues,issues,issues,issues,issues,issues,issues,issues,issues,issues,left_only
96707HWNND91325,PAR HAWAII REFINING LLC,324110,issues,issues,issues,issues,issues,PAR PACIFIC HOLDINGS INC.,110000486322.0,issues,issues,issues,issues,issues,issues,issues,issues,issues,issues,issues,issues,issues,left_only
19061SNRFNGREEN,SUNOCO LLC-RACE FUELS,324110,issues,issues,issues,issues,issues,SUNOCO LP,110032885723.0,issues,issues,issues,issues,issues,issues,issues,issues,issues,issues,issues,issues,issues,left_only
59808JTLGR48WIL,JTL GROUP MISSOULA (DBA KNIFE RIVER-MISSOULA),324121,issues,issues,issues,issues,issues,MDU RESOURCES GROUP INC,110015785319.0,issues,issues,issues,issues,issues,issues,issues,issues,issues,issues,issues,issues,issues,left_only
1613WMRCRP121PE,MERCER PLANT,324121,issues,issues,issues,issues,issues,RUSSELL STANDARD CORP,110070071191.0,issues,issues,issues,issues,issues,issues,issues,issues,issues,issues,issues,issues,issues,left_only
1705WPNNSY647CA,PENNSY SUPPLY INC SILVER SPRING FACILITY,324121,327320.0,212319.0,issues,issues,issues,CRH AMERICAS INC,110060258572.0,issues,issues,issues,issues,issues,issues,issues,issues,issues,issues,issues,issues,issues,left_only
23185BRNSC9393M,BRANSCOME-LEE HALL,324121,issues,issues,issues,issues,issues,COLAS INC.,110005243539.0,issues,issues,issues,issues,issues,issues,issues,issues,issues,issues,issues,issues,issues,left_only
90748RCCQC1175C,TESORO WILMINGTON CALCINER,324199,issues,issues,issues,issues,issues,MARATHON PETROLEUM CORP,110001138956.0,issues,issues,issues,issues,issues,issues,issues,issues,issues,issues,issues,issues,issues,left_only
9574WVLCNM98DEL,VULCAN MATERIALS CO ROSEVILLE ASPHALT PLANT,324121,issues,issues,issues,issues,issues,VULCAN MATERIALS CO,110070070686.0,issues,issues,issues,issues,issues,issues,issues,issues,issues,issues,issues,issues,issues,left_only
4890WSPRTN38WDS,MICHIGAN PAVING & MATERIALS CO. SPARTAN ASPHALT - LANSING,324121,issues,issues,issues,issues,issues,CRH AMERICAS INC,110001298514.0,issues,issues,issues,issues,issues,issues,issues,issues,issues,issues,issues,issues,issues,left_only
06471TLCNC1FORE,TILCON CONNECTICUT INC,324121,issues,issues,issues,issues,issues,CRH AMERICAS INC,110002077127.0,issues,issues,issues,issues,issues,issues,issues,issues,issues,issues,issues,issues,issues,left_only
68112KCHMT7075N,FLINT HILLS RESOURCES PINE BEND LLC - OMAHA 2,324121,issues,issues,issues,issues,issues,KOCH INDUSTRIES INC,110012703912.0,issues,issues,issues,issues,issues,issues,issues,issues,issues,issues,issues,issues,issues,left_only
06605GNDST2426B,O&G INDUSTRIES INC.,324121,327320.0,811111.0,issues,issues,issues,O & G INDUSTRIES INC,110012809979.0,issues,issues,issues,issues,issues,issues,issues,issues,issues,issues,issues,issues,issues,left_only
4353WSTNCP136FR,STONECO PLANT 110,324121,327320.0,issues,issues,issues,issues,CRH AMERICAS INC,110001618508.0,issues,issues,issues,issues,issues,issues,issues,issues,issues,issues,issues,issues,issues,left_only
59106JTLGR414HE,JTL GROUP BILLINGS (DBA - KNIFE RIVER BILLINGS),324121,issues,issues,issues,issues,issues,MDU RESOURCES GROUP INC,110031019136.0,issues,issues,issues,issues,issues,issues,issues,issues,issues,issues,issues,issues,issues,left_only
46312NDNHR3210W,INDIANA HARBOR COKE CO LP,324199,issues,issues,issues,issues,issues,SUNCOKE ENERGY INC,110070149427.0,issues,issues,issues,issues,issues,issues,issues,issues,issues,issues,issues,issues,issues,left_only
42501THSMR501RE,CONTINENTAL REFINING CO LLC,324110,issues,issues,issues,issues,issues,CONTINENTAL REFINING CO LLC,110000381113.0,issues,issues,issues,issues,issues,issues,issues,issues,issues,issues,issues,issues,issues,left_only
4430WRSSLL99HAZ,RUSSELL STANDARD / HAMMAKER EAST LTD,324121,issues,issues,issues,issues,issues,RUSSELL STANDARD CORP,110069626462.0,issues,issues,issues,issues,issues,issues,issues,issues,issues,issues,issues,issues,issues,left_only
45015TRRYH8STAN,TERRY ASPHALT MATERIALS INC,324121,issues,issues,issues,issues,issues,BARRETT INDUSTRIES CORP,110009627225.0,issues,issues,issues,issues,issues,issues,issues,issues,issues,issues,issues,issues,issues,left_only
7865WMNRHT1421L,MANOR HOT MIX PLANT,324121,issues,issues,issues,issues,issues,CRH AMERICAS INC.,110070244646.0,issues,issues,issues,issues,issues,issues,issues,issues,issues,issues,issues,issues,issues,left_only
77017LYNDL12000,HOUSTON REFINING LP,324110,325110.0,issues,issues,issues,issues,LYONDELLBASELL INDUSTRIES,110058113704.0,issues,issues,issues,issues,issues,issues,issues,issues,issues,issues,issues,issues,issues,left_only
77590MRTHNFOOTO,MARATHON PETROLEUM CO LP (PART),324110,issues,issues,issues,issues,issues,MARATHON PETROLEUM CORP,110056967368.0,issues,issues,issues,issues,issues,issues,issues,issues,issues,issues,issues,issues,issues,left_only
70052GRMRC114JE,RAIN CII CARBON LLC,324199,issues,issues,issues,issues,issues,RAIN CII CARBON LLC,110018914781.0,issues,issues,issues,issues,issues,issues,issues,issues,issues,issues,issues,issues,issues,left_only
4817WCDLLC1351H,CADILLAC ASPHALT LLC - ROMULUS,324121,issues,issues,issues,issues,issues,CRH AMERICAS INC,110001830172.0,issues,issues,issues,issues,issues,issues,issues,issues,issues,issues,issues,issues,issues,left_only
4562WHVRHL2446G,HAVERHILL COKE CO LLC,324199,issues,issues,issues,issues,issues,SUNCOKE ENERGY INC,110054816703.0,issues,issues,issues,issues,issues,issues,issues,issues,issues,issues,issues,issues,issues,left_only
7908WVLRPR671FM,VALERO PARTNERS MCKEE,324110,issues,issues,issues,issues,issues,VALERO ENERGY PARTNERS LP,110070135387.0,issues,issues,issues,issues,issues,issues,issues,issues,issues,issues,issues,issues,issues,left_only
96001JFSHC174CL,J.F. SHEA CONSTRUCTION INC. AGGREGATE PRODUCTS,324121,issues,issues,issues,issues,issues,JF SHEA CONSTRUCTION INC,110009532924.0,issues,issues,issues,issues,issues,issues,issues,issues,issues,issues,issues,issues,issues,left_only
26037KPPRSKOPPE,KOPPERS FOLLANSBEE TAR PLANT,324199,325110.0,issues,issues,issues,issues,KOPPERS INC,110000586027.0,issues,issues,issues,issues,issues,issues,issues,issues,issues,issues,issues,issues,issues,left_only
73753GRTLKRTE1B,OXBOW CALCINING LLC,324199,issues,issues,issues,issues,issues,OXBOW CARBON & MINERALS HOLDINGS INC,110007385374.0,issues,issues,issues,issues,issues,issues,issues,issues,issues,issues,issues,issues,issues,left_only
70605LKCHR3943G,REYNOLDS METALS CO LLC,324199,issues,issues,issues,issues,issues,ALCOA CORP,110000449499.0,issues,issues,issues,issues,issues,issues,issues,issues,issues,issues,issues,issues,issues,left_only
7752WTRFCTSUTHR,TRIFECTA TRADING,493190,issues,issues,issues,issues,issues,issues,110069266662.0,issues,issues,issues,issues,issues,issues,issues,issues,issues,issues,issues,issues,issues,left_only
1220WCLLNN11DUN,CALLANAN INDUSTRIES ALBANY ASPHALT PLANT,324121,issues,issues,issues,issues,issues,OLDCASTLE INC,110066948619.0,issues,issues,issues,issues,issues,issues,issues,issues,issues,issues,issues,issues,issues,left_only
82902MNSNTQUEAL,P4 PRODUCTION LLC,324199,issues,issues,issues,issues,issues,BAYER US HOLDING LP,110000859296.0,issues,issues,issues,issues,issues,issues,issues,issues,issues,issues,issues,issues,issues,left_only
70602CTGPTHIGHW,CITGO PETROLEUM CORP,324110,325199.0,325180.0,issues,issues,issues,CITGO HOLDING INC.,110000597248.0,issues,issues,issues,issues,issues,issues,issues,issues,issues,issues,issues,issues,issues,left_only
85747VLCNM65SLD,VULCAN MATERIALS CO BLACK ANGUS,324121,issues,issues,issues,issues,issues,VULCAN MATERIALS CO,110022904954.0,issues,issues,issues,issues,issues,issues,issues,issues,issues,issues,issues,issues,issues,left_only
85213VLCNM341EV,VULCAN MATERIALS CO VAL VISTA,324121,issues,issues,issues,issues,issues,VULCAN MATERIALS CO,110064473396.0,issues,issues,issues,issues,issues,issues,issues,issues,issues,issues,issues,issues,issues,left_only
4230WVLRLL12ALS,VALOR LLC,324199,issues,issues,issues,issues,issues,VALOR LLC,110070238790.0,issues,issues,issues,issues,issues,issues,issues,issues,issues,issues,issues,issues,issues,left_only
7840WBCKYT151SU,BUCKEYE TEXAS PROCESSING LLC-CORPUS CHRISTI,324110,issues,issues,issues,issues,issues,BUCKEYE PARTNERS LP,110063235002.0,issues,issues,issues,issues,issues,issues,issues,issues,issues,issues,issues,issues,issues,left_only
26037WHLNGROUTE,MOUNTAIN STATE CARBON LLC,324199,issues,issues,issues,issues,issues,CLEVELAND-CLIFFS INC.,110042081939.0,issues,issues,issues,issues,issues,issues,issues,issues,issues,issues,issues,issues,issues,left_only
70079CCRBN81PRS,RAIN CII CARBON LLC,324199,issues,issues,issues,issues,issues,RAIN CII CARBON LLC,110022810449.0,issues,issues,issues,issues,issues,issues,issues,issues,issues,issues,issues,issues,issues,left_only
98002CNBRNRSTSE,ICON AUBURN,324121,212321.0,issues,issues,issues,issues,OLDCASTLE INC,110031001813.0,issues,issues,issues,issues,issues,issues,issues,issues,issues,issues,issues,issues,issues,left_only
35207SLSSN35003,BLUESTONE COKE,324199,issues,issues,issues,issues,issues,BLUESTONE MINERALS INC,110000366657.0,issues,issues,issues,issues,issues,issues,issues,issues,issues,issues,issues,issues,issues,left_only
82609LTTLM5700E,SINCLAIR CASPER REFINING CO,324110,issues,issues,issues,issues,issues,SINCLAIR OIL CORP,110011942719.0,issues,issues,issues,issues,issues,issues,issues,issues,issues,issues,issues,issues,issues,left_only
47240DVMRC992SC,DAVE O'MARA CONTRACTOR INC.,324121,issues,issues,issues,issues,issues,DAVE O'MARA CONTRACTOR INC,110001353954.0,issues,issues,issues,issues,issues,issues,issues,issues,issues,issues,issues,issues,issues,left_only
4311WSHLLY8328W,SHELLY MATERIALS PLANT 24 (0180000002),324121,issues,issues,issues,issues,issues,CRH AMERICAS INC,110054242093.0,issues,issues,issues,issues,issues,issues,issues,issues,issues,issues,issues,issues,issues,left_only
79403SMMTR1611M,ERGON ASPHALT & EMULSIONS INC- LUBBOCK,324121,issues,issues,issues,issues,issues,ERGON INC,110037240107.0,issues,issues,issues,issues,issues,issues,issues,issues,issues,issues,issues,issues,issues,left_only
4834WCDLLC4751W,CADILLAC ASPHALT L.L.C. - CLARKSTON,324121,issues,issues,issues,issues,issues,CRH AMERICAS INC,110001298925.0,issues,issues,issues,issues,issues,issues,issues,issues,issues,issues,issues,issues,issues,left_only
16512RCKCRFOOTO,ERIE COKE CORP,324199,issues,issues,issues,issues,issues,issues,110043970441.0,issues,issues,issues,issues,issues,issues,issues,issues,issues,issues,issues,issues,issues,left_only
77807KNFRV63SH2,KNIFE RIVER CORP-SOUTH BRYAN ASPHALT PLANT,324121,issues,issues,issues,issues,issues,MDU RESOURCES GROUP INC,110037147389.0,issues,issues,issues,issues,issues,issues,issues,issues,issues,issues,issues,issues,issues,left_only
77704NCHSRGULFS,LNVA-NORTH REGIONAL TREATMENT PLANT,324110,325110.0,issues,issues,issues,issues,EXXON MOBIL CORP,110000464140.0,issues,issues,issues,issues,issues,issues,issues,issues,issues,issues,issues,issues,issues,left_only
59106KCHMT7315M,WESTERN EMULSIONS INC BILLINGS  PLANT,324121,issues,issues,issues,issues,issues,IDAHO ASPHALT SUPPLY INC,110012704644.0,issues,issues,issues,issues,issues,issues,issues,issues,issues,issues,issues,issues,issues,left_only
98660LBNSP1112W,ALBINA ASPHALT,324121,issues,issues,issues,issues,issues,issues,110008062504.0,issues,issues,issues,issues,issues,issues,issues,issues,issues,issues,issues,issues,issues,left_only
2001WFRTMY1155W,FORT MYER CONSTRUCTION PLANT 2,324121,issues,issues,issues,issues,issues,issues,110070057847.0,issues,issues,issues,issues,issues,issues,issues,issues,issues,issues,issues,issues,issues,left_only
97420CSSPH5959H,COOS ASPHALT,324121,issues,issues,issues,issues,issues,MDU RESOURCES GROUP INC,110037149993.0,issues,issues,issues,issues,issues,issues,issues,issues,issues,issues,issues,issues,issues,left_only
45052CNCNN11001,MARATHON PETROLEUM CO - NORTH BEND OH TERMINAL,324121,424710.0,issues,issues,issues,issues,MARATHON PETROLEUM CORP,110002112838.0,issues,issues,issues,issues,issues,issues,issues,issues,issues,issues,issues,issues,issues,left_only
77640FNLNDHIGHW,TOTALENERGIES PETROCHEMICALS & REFINING USA INC-PORT ARTHUR,324110,issues,issues,issues,issues,issues,TOTALENERGIES HOLDINGS USA INC,110000755200.0,issues,issues,issues,issues,issues,issues,issues,issues,issues,issues,issues,issues,issues,left_only
85210QLTYM38SLA,QUALITY EMULSIONS,324121,issues,issues,issues,issues,issues,issues,110039268397.0,issues,issues,issues,issues,issues,issues,issues,issues,issues,issues,issues,issues,issues,left_only
62454MRTHNMARAT,MARATHON PETROLEUM CO LP ILLINOIS REFINING DIV,324110,424710.0,issues,issues,issues,issues,MARATHON PETROLEUM CORP,110000439428.0,issues,issues,issues,issues,issues,issues,issues,issues,issues,issues,issues,issues,issues,left_only
78112VPRCN7124R,VP RACING FUELS INC.,324199,issues,issues,issues,issues,issues,VP RACING FUELS INC,110002465234.0,issues,issues,issues,issues,issues,issues,issues,issues,issues,issues,issues,issues,issues,left_only
7702WVLRHS974CL,VALERO HOUSTON ASPHALT TERMINAL,324121,issues,issues,issues,issues,issues,VALERO ENERGY CORP,110034011593.0,issues,issues,issues,issues,issues,issues,issues,issues,issues,issues,issues,issues,issues,left_only
97339MDCRV2862H,MDU CORVALLIS ASPHALT,324121,issues,issues,issues,issues,issues,MDU RESOURCES GROUP INC,110037149957.0,issues,issues,issues,issues,issues,issues,issues,issues,issues,issues,issues,issues,issues,left_only
78410KCHRFSUNTI,FLINT HILLS RESOURCES CORPUS CHRISTI LLC - WEST PLANT,324110,325110.0,issues,issues,issues,issues,KOCH INDUSTRIES INC,110000504918.0,issues,issues,issues,issues,issues,issues,issues,issues,issues,issues,issues,issues,issues,left_only
94553TSCCRAVONR,TESORO REFINING & MARKETING CO LLC,324110,issues,issues,issues,issues,issues,MARATHON PETROLEUM CORP,110021341332.0,issues,issues,issues,issues,issues,issues,issues,issues,issues,issues,issues,issues,issues,left_only
7007WVLRPR1492R,VALERO PARTNERS LA LLC- TERMINAL,324110,issues,issues,issues,issues,issues,VALERO ENERGY CORP,110070135385.0,issues,issues,issues,issues,issues,issues,issues,issues,issues,issues,issues,issues,issues,left_only
9750WSTHRN696BL,SOUTHERN OREGON READY MIX,324121,issues,issues,issues,issues,issues,JF SHEA CONSTRUCTION INC,110042003881.0,issues,issues,issues,issues,issues,issues,issues,issues,issues,issues,issues,issues,issues,left_only
77522XXNBY2800D,EXXONMOBIL REFINING & SUPPLY BAYTOWN REFINERY (PART),324110,issues,issues,issues,issues,issues,EXXON MOBIL CORP,110000502901.0,issues,issues,issues,issues,issues,issues,issues,issues,issues,issues,issues,issues,issues,left_only
15025SSCLR400ST,USS-CLAIRTON PLANT,324199,issues,issues,issues,issues,issues,US STEEL CORP,110042043384.0,issues,issues,issues,issues,issues,issues,issues,issues,issues,issues,issues,issues,issues,left_only
85713WSTRN345E3,WESTERN EMULSIONS TUCSON EMULSIONS PLANT,324121,issues,issues,issues,issues,issues,IDAHO ASPHALT SUPPLY INC,110043965420.0,issues,issues,issues,issues,issues,issues,issues,issues,issues,issues,issues,issues,issues,left_only
4835WCSGNW16255,ACE-SAGINAW ASPHALT PAVING CO,324121,issues,issues,issues,issues,issues,EDW C LEVY CO,110063002272.0,issues,issues,issues,issues,issues,issues,issues,issues,issues,issues,issues,issues,issues,left_only
38701SCTTB942NB,SCOTT BIODIESEL/GREENVILLE TERMINAL,324110,issues,issues,issues,issues,issues,SCOTT PETROLEUM CORP,110037144220.0,issues,issues,issues,issues,issues,issues,issues,issues,issues,issues,issues,issues,issues,left_only
1644WWHLRT358WH,WHEELERTOWN PLANT,324121,issues,issues,issues,issues,issues,issues,110070070850.0,issues,issues,issues,issues,issues,issues,issues,issues,issues,issues,issues,issues,issues,left_only
0573WPKNDS2275R,PIKE INDUSTRIES INC - DANBY (C613 & P733),324121,issues,issues,issues,issues,issues,OLDCASTLE INC,110008211363.0,issues,issues,issues,issues,issues,issues,issues,issues,issues,issues,issues,issues,issues,left_only
83501PSPHL313HA,POE ASPHALT PAVING INC,324121,issues,issues,issues,issues,issues,POE ASPHALT PAVING INC,110031002028.0,issues,issues,issues,issues,issues,issues,issues,issues,issues,issues,issues,issues,issues,left_only
4810WCDLLC857SW,CADILLAC ASPHALT LLC - ANN ARBOR,324121,issues,issues,issues,issues,issues,CRH AMERICAS INC,110001841589.0,issues,issues,issues,issues,issues,issues,issues,issues,issues,issues,issues,issues,issues,left_only
0409WPKNDS81BYD,PIKE INDUSTRIES INC. - WELLS,324121,issues,issues,issues,issues,issues,CRH AMERICAS INC.,110008433347.0,issues,issues,issues,issues,issues,issues,issues,issues,issues,issues,issues,issues,issues,left_only
97404MDRSR11DIV,MDU RESOURCES EUGENE CONCRETE,324121,issues,issues,issues,issues,issues,MDU RESOURCES GROUP INC,110037149975.0,issues,issues,issues,issues,issues,issues,issues,issues,issues,issues,issues,issues,issues,left_only
70143TNNCL500WE,CHALMETTE REFINING LLC,324110,325110.0,424710.0,issues,issues,issues,PBF ENERGY INC,110045634774.0,issues,issues,issues,issues,issues,issues,issues,issues,issues,issues,issues,issues,issues,left_only
77012HLLPT9701M,VALERO REFINING - TEXAS L.P. HOUSTON REFINERY,324110,issues,issues,issues,issues,issues,VALERO ENERGY CORP,110000460885.0,issues,issues,issues,issues,issues,issues,issues,issues,issues,issues,issues,issues,issues,left_only
0380WPKNDS65PEV,PIKE INDUSTRIES INC. - PORTSMOUTH,324121,issues,issues,issues,issues,issues,CRH AMERICAS INC,110009113958.0,issues,issues,issues,issues,issues,issues,issues,issues,issues,issues,issues,issues,issues,left_only
7874WRTHTM651FM,ASPHALT INC MIX MUSTANG RIDGE PLANT,324121,issues,issues,issues,issues,issues,ASPHALT INC. LLC,110069331869.0,issues,issues,issues,issues,issues,issues,issues,issues,issues,issues,issues,issues,issues,left_only
6561WBLVNS565WU,BLEVINS ASPHALT CONSTRUCTION CO INC,324121,issues,issues,issues,issues,issues,BLEVINS ASPHALT CONSTRUCTION CO INC,110041627567.0,issues,issues,issues,issues,issues,issues,issues,issues,issues,issues,issues,issues,issues,left_only
0703WWLDNS2MARS,WELDON ASPHALT CO.,324121,327320.0,issues,issues,issues,issues,WELDON MATERIALS INC,110004151989.0,issues,issues,issues,issues,issues,issues,issues,issues,issues,issues,issues,issues,issues,left_only
64130VNCBR5201B,VANCE BROTHERS INC,324121,issues,issues,issues,issues,issues,VANCE BROTHERS INC,110000443388.0,issues,issues,issues,issues,issues,issues,issues,issues,issues,issues,issues,issues,issues,left_only
82601KNFRV1461B,KNIFE RIVER CASPER,324121,issues,issues,issues,issues,issues,MDU RESOURCES GROUP INC,110037148119.0,issues,issues,issues,issues,issues,issues,issues,issues,issues,issues,issues,issues,issues,left_only
08854ZGLRC600PR,ZIEGLER CHEMICAL & MINERAL CORP,324121,issues,issues,issues,issues,issues,issues,110000322213.0,issues,issues,issues,issues,issues,issues,issues,issues,issues,issues,issues,issues,issues,left_only
88260LRFNNSOUTH,HOLLYFRONTIER NAVAJO REFINING LLC - LEA REFINERY,324110,issues,issues,issues,issues,issues,HOLLYFRONTIER CORP,110000600886.0,issues,issues,issues,issues,issues,issues,issues,issues,issues,issues,issues,issues,issues,left_only
90744LTRMR961LA,ULTRAMAR INC. MARINE TERMINAL,324110,issues,issues,issues,issues,issues,VALERO ENERGY CORP,110000476057.0,issues,issues,issues,issues,issues,issues,issues,issues,issues,issues,issues,issues,issues,left_only
0703WWLDNS11HAR,WELDON ASPHALT CO,324121,issues,issues,issues,issues,issues,WELDON MATERIALS INC,110006440388.0,issues,issues,issues,issues,issues,issues,issues,issues,issues,issues,issues,issues,issues,left_only
03106HKSTT38HAC,HOOKSETT CRUSHED STONE PIKE INDUSTRIES INC,324121,212321.0,212319.0,issues,issues,issues,CRH AMERICAS INC,110004109054.0,issues,issues,issues,issues,issues,issues,issues,issues,issues,issues,issues,issues,issues,left_only
03839BRXND253RO,BROX INDUSTRIES INC,324121,issues,issues,issues,issues,issues,BROX INDUSTRIES INC,110009113921.0,issues,issues,issues,issues,issues,issues,issues,issues,issues,issues,issues,issues,issues,left_only
39181RGNRFPOBOX,ERGON REFINING INC,324110,issues,issues,issues,issues,issues,ERGON INC,110000376575.0,issues,issues,issues,issues,issues,issues,issues,issues,issues,issues,issues,issues,issues,left_only
91786HLLDY2193W,HOLLIDAY ROCK - FOOTHILL,324121,212321.0,327320.0,issues,issues,issues,HOLLIDAY ROCK CO INC,110002414691.0,issues,issues,issues,issues,issues,issues,issues,issues,issues,issues,issues,issues,issues,left_only
96002JFSHC1538F,J.F. SHEA CONSTRUCTION INC FAWNDALE ROCK & ASPHALT,324121,issues,issues,issues,issues,issues,JF SHEA CONSTRUCTION INC,110039018880.0,issues,issues,issues,issues,issues,issues,issues,issues,issues,issues,issues,issues,issues,left_only
78223HWLLH7811S,THE SAN ANTONIO REFINERY LLC,324110,issues,issues,issues,issues,issues,STARLIGHT RELATIVITY ACQUISITION CO LLC,110000464854.0,issues,issues,issues,issues,issues,issues,issues,issues,issues,issues,issues,issues,issues,left_only
77580DMNDS316SO,EAST STORAGE / SPLITTER III FACILITY,324110,issues,issues,issues,issues,issues,ENTERPRISE PRODUCTS OPERATING LLC,110006533359.0,issues,issues,issues,issues,issues,issues,issues,issues,issues,issues,issues,issues,issues,left_only
99705PTRST1200H,PETRO STAR INC. NORTH POLE REFINERY,324110,issues,issues,issues,issues,issues,ARCTIC SLOPE REGIONAL CORP,110055089149.0,issues,issues,issues,issues,issues,issues,issues,issues,issues,issues,issues,issues,issues,left_only
83687TNLNX16625,TEN LANE,324121,issues,issues,issues,issues,issues,OLDCASTLE MATERIALS,110025331709.0,issues,issues,issues,issues,issues,issues,issues,issues,issues,issues,issues,issues,issues,left_only
94572TSCSF2101F,PHILLIPS 66 CARBON PLANT,324199,issues,issues,issues,issues,issues,PHILLIPS 66 CO,110000483478.0,issues,issues,issues,issues,issues,issues,issues,issues,issues,issues,issues,issues,issues,left_only
6204WGTWYN2585E,GATEWAY ENERGY & COKE CO,324199,issues,issues,issues,issues,issues,SUNCOKE ENERGY INC,110043807538.0,issues,issues,issues,issues,issues,issues,issues,issues,issues,issues,issues,issues,issues,left_only
47805VPRCN41EST,VP RACING FUELS INC.,324199,issues,issues,issues,issues,issues,VP RACING FUELS INC,110022523241.0,issues,issues,issues,issues,issues,issues,issues,issues,issues,issues,issues,issues,issues,left_only
23661BRNSC1922W,BRANSCOME-HAMPTON,324121,issues,issues,issues,issues,issues,COLAS INC.,110001890437.0,issues,issues,issues,issues,issues,issues,issues,issues,issues,issues,issues,issues,issues,left_only
21162MRCNS10300,OLDCASTLE APG MID-ATLANTIC WHITE MARSH MD,324199,324122.0,issues,issues,issues,issues,CRH AMERICAS INC,110001276976.0,issues,issues,issues,issues,issues,issues,issues,issues,issues,issues,issues,issues,issues,left_only
8504WMSMTR7845W,VULCAN MATERIALS CO WEST BROADWAY,324121,issues,issues,issues,issues,issues,VULCAN MATERIALS CO,110017398430.0,issues,issues,issues,issues,issues,issues,issues,issues,issues,issues,issues,issues,issues,left_only
89301FRLNDHC34B,FORELAND REFINING CORP EAGLE SPRINGS REFINERY,324110,issues,issues,issues,issues,issues,DEERFIELD PRODUCTION & REFINING CORP,110020516529.0,issues,issues,issues,issues,issues,issues,issues,issues,issues,issues,issues,issues,issues,left_only
01564PNDLF194WR,PANDOLF PERKINS CO,324121,issues,issues,issues,issues,issues,EH PERKINS CONSTRUCTION INC,110001958445.0,issues,issues,issues,issues,issues,issues,issues,issues,issues,issues,issues,issues,issues,left_only
2740WGRNSB1124S,GREENSBORO PLANT,324121,issues,issues,issues,issues,issues,RUSSELL STANDARD CORP,110070070851.0,issues,issues,issues,issues,issues,issues,issues,issues,issues,issues,issues,issues,issues,left_only
0549WPKNDS346AV,PIKE INDUSTRIES INC. - WILLISTON VT (P800),324121,issues,issues,issues,issues,issues,CRH AMERICAS INC,110043670113.0,issues,issues,issues,issues,issues,issues,issues,issues,issues,issues,issues,issues,issues,left_only
78409TRFNR6600U,POTAC LLC,324110,issues,issues,issues,issues,issues,PIN OAK CORPUS CHRISTI LLC,110002345249.0,issues,issues,issues,issues,issues,issues,issues,issues,issues,issues,issues,issues,issues,left_only
40258MRTHN8600C,MARATHON PETROLEUM CO - LOUISVILLE CANE RUN TERMINAL,324121,424710.0,issues,issues,issues,issues,MARATHON PETROLEUM CORP,110009573791.0,issues,issues,issues,issues,issues,issues,issues,issues,issues,issues,issues,issues,issues,left_only
93308TXCRF3663G,BAKERSFIELD RENEWABLE FUELS LLC - AREA 3,324110,issues,issues,issues,issues,issues,GLOBAL CLEAN ENERGY HOLDINGS INC,110000526805.0,issues,issues,issues,issues,issues,issues,issues,issues,issues,issues,issues,issues,issues,left_only
4907WMCHGN4646W,MICHIGAN PAVING & MATERIALS - PAW PAW (KLETT) ASPHALT PLAN,324121,issues,issues,issues,issues,issues,CRH AMERICAS INC,110071042506.0,issues,issues,issues,issues,issues,issues,issues,issues,issues,issues,issues,issues,issues,left_only
1415WMDLND64YUN,MIDLAND ASPHALT MATERIALS INC.,324121,issues,issues,issues,issues,issues,BARRETT INDUSTRIES CORP,110019375059.0,issues,issues,issues,issues,issues,issues,issues,issues,issues,issues,issues,issues,issues,left_only
23504BRNSC3425W,BRANSCOME INC-NORFOLK WESTMINSTER,324121,issues,issues,issues,issues,issues,COLAS INC.,110001889886.0,issues,issues,issues,issues,issues,issues,issues,issues,issues,issues,issues,issues,issues,left_only
16050WTCCRHWY26,SONNEBORN LLC,324199,issues,issues,issues,issues,issues,HF SINCLAIR CORP,110059338220.0,issues,issues,issues,issues,issues,issues,issues,issues,issues,issues,issues,issues,issues,left_only
70807GRTLK2200B,OXBOW CALCINING LLC,324199,issues,issues,issues,issues,issues,OXBOW CARBON & MINERALS HOLDINGS INC.,110003360372.0,issues,issues,issues,issues,issues,issues,issues,issues,issues,issues,issues,issues,issues,left_only
8523WVLCNM939EH,VULCAN MATERIALS CO  QUEEN CREEK PLANT,324121,212313.0,issues,issues,issues,issues,VULCAN MATERIALS CO,110070133574.0,issues,issues,issues,issues,issues,issues,issues,issues,issues,issues,issues,issues,issues,left_only
6304WFRDWB235CR,NEW FRONTIER MATERIALS OPERATIONS ALPHA LLC NORTH ASPHALT,324121,issues,issues,issues,issues,issues,issues,110017980274.0,issues,issues,issues,issues,issues,issues,issues,issues,issues,issues,issues,issues,issues,left_only
7886WMRTNS429ZA,MARTIN ASPHALT - HONDO,324121,issues,issues,issues,issues,issues,MARTIN MIDSTREAM PTNRS LP,110070247339.0,issues,issues,issues,issues,issues,issues,issues,issues,issues,issues,issues,issues,issues,left_only
77587GLFST300CH,MARTIN ASPHALT-SOUTH HOUSTON,324121,issues,issues,issues,issues,issues,MARTIN MIDSTREAM PTNRS LP,110001867677.0,issues,issues,issues,issues,issues,issues,issues,issues,issues,issues,issues,issues,issues,left_only
83854PSPHL2732N,POE ASPHALT PAVING INC.,324121,issues,issues,issues,issues,issues,issues,110010328412.0,issues,issues,issues,issues,issues,issues,issues,issues,issues,issues,issues,issues,issues,left_only
60439NCLCH317WE,OXBOW MIDWEST CALCINING LLC,324199,issues,issues,issues,issues,issues,OXBOW CARBON & MINERALS HOLDINGS INC,110000432862.0,issues,issues,issues,issues,issues,issues,issues,issues,issues,issues,issues,issues,issues,left_only
7276WSHRPS13585,APAC-CENTRAL INC SHARPS ASPHALT,324121,issues,issues,issues,issues,issues,CRH AMERICAS INC,110070070208.0,issues,issues,issues,issues,issues,issues,issues,issues,issues,issues,issues,issues,issues,left_only
3007WDYKSP2775M,DYKES PAVING & CONSTRUCTION,324121,issues,issues,issues,issues,issues,issues,110070046127.0,issues,issues,issues,issues,issues,issues,issues,issues,issues,issues,issues,issues,issues,left_only
56258KCHMT901N7,FLINT HILLS RESOURCES PINE BEND LLC MARSHALL,324121,issues,issues,issues,issues,issues,KOCH INDUSTRIES INC,110000427119.0,issues,issues,issues,issues,issues,issues,issues,issues,issues,issues,issues,issues,issues,left_only
1422WBFFLC5CMPA,NESL - COMO PARK HOT MIX ASPHALT,324121,issues,issues,issues,issues,issues,issues,110067200264.0,issues,issues,issues,issues,issues,issues,issues,issues,issues,issues,issues,issues,issues,left_only
9170WWSTRN382LI,WESTERN EMULSIONS IRWINDALE PLANT,324121,issues,issues,issues,issues,issues,IDAHO ASPHALT SUPPLY INC,110069521725.0,issues,issues,issues,issues,issues,issues,issues,issues,issues,issues,issues,issues,issues,left_only
03784LBNNC335PL,LEBANON CRUSHED STONE PIKE INDUSTRIES INC,324121,212319.0,issues,issues,issues,issues,CRH AMERICAS INC,110009420643.0,issues,issues,issues,issues,issues,issues,issues,issues,issues,issues,issues,issues,issues,left_only
1514WTHLNC1SHER,NORTHEAST PAVING SPRINGDALE PLANT,324121,237310.0,issues,issues,issues,issues,EUROVIA ATLANTIC COAST LLC,110067129930.0,issues,issues,issues,issues,issues,issues,issues,issues,issues,issues,issues,issues,issues,left_only
16041PNNZLRD2BO,CALUMET KARNS CITY REFINING LLC,324199,issues,issues,issues,issues,issues,CALUMET SPECIALTY PRODUCTS PARTNERS LP,110012413628.0,issues,issues,issues,issues,issues,issues,issues,issues,issues,issues,issues,issues,issues,left_only
58078KCHMT600CE,FLINT HILLS RESOURCES PINE BEND LLC WEST FARGO,324121,issues,issues,issues,issues,issues,KOCH INDUSTRIES INC,110010350208.0,issues,issues,issues,issues,issues,issues,issues,issues,issues,issues,issues,issues,issues,left_only
59714JTLGR2173F,JTL GROUP BELGRADE DBA KNIFE RIVER - BELGRADE,324121,issues,issues,issues,issues,issues,MDU RESOURCES GROUP INC,110001473799.0,issues,issues,issues,issues,issues,issues,issues,issues,issues,issues,issues,issues,issues,left_only
13078JMSVL48SLV,JAMESVILLE MIX PLANT,324121,issues,issues,issues,issues,issues,BARRETT INDUSTRIES CORP,110037142874.0,issues,issues,issues,issues,issues,issues,issues,issues,issues,issues,issues,issues,issues,left_only
83709BSSPH545WG,BOISE FACILITY,324121,issues,issues,issues,issues,issues,MDU RESOURCES GROUP INC,110064845477.0,issues,issues,issues,issues,issues,issues,issues,issues,issues,issues,issues,issues,issues,left_only
70043CHLMT7CKEP,RAIN CII CARBON LLC,324199,issues,issues,issues,issues,issues,RAIN CII CARBON LLC,110012818497.0,issues,issues,issues,issues,issues,issues,issues,issues,issues,issues,issues,issues,issues,left_only
8412WGRNTC691SU,GRANITE CONSTRUCTION CO-COTTONWOOD ASPHALT PLANT FACI,324121,issues,issues,issues,issues,issues,GRANITE CONSTRUCTION INC,110001881170.0,issues,issues,issues,issues,issues,issues,issues,issues,issues,issues,issues,issues,issues,left_only
4932WMCHGN3566M,MICHIGAN PAVING & MATERIALS - GR NORTH (COMSTOCK PARK),324121,issues,issues,issues,issues,issues,CRH AMERICAS INC,110003595164.0,issues,issues,issues,issues,issues,issues,issues,issues,issues,issues,issues,issues,issues,left_only
34744PCKSS733ED,PREFERRED MATERIALS INC-KISSIMMEE ASPHALT PLANT,324121,issues,issues,issues,issues,issues,CRH AMERICAS INC,110037145005.0,issues,issues,issues,issues,issues,issues,issues,issues,issues,issues,issues,issues,issues,left_only
8260WJTLGR1461B,JTL GROUP INC - VR MINE,324121,issues,issues,issues,issues,issues,MDU RESOURCES GROUP INC,110032664524.0,issues,issues,issues,issues,issues,issues,issues,issues,issues,issues,issues,issues,issues,left_only
1422WSTKTB55CMP,SUIT-KOTE BUFFALO,324121,issues,issues,issues,issues,issues,SUIT-KOTE CORP,110019025589.0,issues,issues,issues,issues,issues,issues,issues,issues,issues,issues,issues,issues,issues,left_only
85041VLCNM483S4,VULCAN MATERIALS CO WEST 43RD,324121,212321.0,issues,issues,issues,issues,VULCAN MATERIALS CO,110039497167.0,issues,issues,issues,issues,issues,issues,issues,issues,issues,issues,issues,issues,issues,left_only
8207WKNFRV998HU,KNIFE RIVER LARAMIE,324121,issues,issues,issues,issues,issues,MDU RESOURCES GROUP INC,110067670470.0,issues,issues,issues,issues,issues,issues,issues,issues,issues,issues,issues,issues,issues,left_only
97756RDMND1248N,MDU RESOURCES REDMOND CONCRETE,324121,issues,issues,issues,issues,issues,MDU RESOURCES GROUP INC,110067124445.0,issues,issues,issues,issues,issues,issues,issues,issues,issues,issues,issues,issues,issues,left_only
97408GGSND952CB,EUGENE SAND & GRAVEL--COBURG,324121,issues,issues,issues,issues,issues,OLDCASTLE INC,110037149984.0,issues,issues,issues,issues,issues,issues,issues,issues,issues,issues,issues,issues,issues,left_only
64130KCHMT4915C,VANCE BROTHERS INC,324121,issues,issues,issues,issues,issues,VANCE BROTHERS INC,110000443342.0,issues,issues,issues,issues,issues,issues,issues,issues,issues,issues,issues,issues,issues,left_only
63601LDBLT6MILL,LEAD BELT MATERIALS CO INC,324121,212312.0,issues,issues,issues,issues,issues,110012608044.0,issues,issues,issues,issues,issues,issues,issues,issues,issues,issues,issues,issues,issues,left_only
60501WNSCR5824S,OWENS CORNING ROOFING & ASPHALT LLC,324121,issues,issues,issues,issues,issues,OWENS CORNING,110000433371.0,issues,issues,issues,issues,issues,issues,issues,issues,issues,issues,issues,issues,issues,left_only
92126VLCNM151BL,VULCAN MATERIALS CARROLL CANYON,324121,issues,issues,issues,issues,issues,VULCAN MATERIALS CO,110034175755.0,issues,issues,issues,issues,issues,issues,issues,issues,issues,issues,issues,issues,issues,left_only
4811WCDLLC1785R,CADILLAC ASPHALT LLC - RAWSONVILLE,324121,issues,issues,issues,issues,issues,CRH AMERICAS INC,110001830261.0,issues,issues,issues,issues,issues,issues,issues,issues,issues,issues,issues,issues,issues,left_only
84043STKRP1262N,STAKER & PARSON COS POINT EAST,324121,issues,issues,issues,issues,issues,OLDCASTLE INC,110038031634.0,issues,issues,issues,issues,issues,issues,issues,issues,issues,issues,issues,issues,issues,left_only
7864WSWRDP11729,SEWARD PLANT,324121,issues,issues,issues,issues,issues,OLDCASTLE MATERIALS INC,110069291661.0,issues,issues,issues,issues,issues,issues,issues,issues,issues,issues,issues,issues,issues,left_only
7825WBCKMN18495,BECKMANN ASPHALT PLANTS NO 4 & 5,324121,issues,issues,issues,issues,issues,CRH AMERICAS INC.,110033492370.0,issues,issues,issues,issues,issues,issues,issues,issues,issues,issues,issues,issues,issues,left_only
46222MRTHN255NB,MARATHON PETROLEUM CO - INDIANAPOLIS ASPHALT TERMINAL,324121,424710.0,issues,issues,issues,issues,MARATHON PETROLEUM CORP,110013296352.0,issues,issues,issues,issues,issues,issues,issues,issues,issues,issues,issues,issues,issues,left_only
59105KNFRV1927D,KNIFE RIVER BILLINGS EAST SITE,324121,issues,issues,issues,issues,issues,MDU RESOURCES GROUP INC,110037143864.0,issues,issues,issues,issues,issues,issues,issues,issues,issues,issues,issues,issues,issues,left_only
4804WCDLLC67MAR,CADILLAC ASPHALT LLC - MT. CLEMENS,324121,issues,issues,issues,issues,issues,CRH AMERICAS INC,110001298649.0,issues,issues,issues,issues,issues,issues,issues,issues,issues,issues,issues,issues,issues,left_only
87113LFRGS621CH,VULCAN OSUNA ASPHALT,324121,327320.0,issues,issues,issues,issues,VULCAN MATERIALS CO,110001551829.0,issues,issues,issues,issues,issues,issues,issues,issues,issues,issues,issues,issues,issues,left_only
83501PSPHL4341S,POE ASPHALT PAVING INC.,324121,issues,issues,issues,issues,issues,POE ASPHALT PAVING INC,110044954412.0,issues,issues,issues,issues,issues,issues,issues,issues,issues,issues,issues,issues,issues,left_only
4723WDVMRC1117W,DAVE O'MARA CONTRACTOR INC,324121,issues,issues,issues,issues,issues,DAVE O'MARA CONTRACTOR INC,110017701968.0,issues,issues,issues,issues,issues,issues,issues,issues,issues,issues,issues,issues,issues,left_only
8200WMNTNS4511S,ERGON ASPHALT & EMULSIONS INC. - CHEYENNE,324121,issues,issues,issues,issues,issues,ERGON INC,110042003051.0,issues,issues,issues,issues,issues,issues,issues,issues,issues,issues,issues,issues,issues,left_only
1448WMDLND3CLER,MIDLAND ASPHALT MATERIALS INC.,324121,issues,issues,issues,issues,issues,BARRETT INDUSTRIES CORP,110006701514.0,issues,issues,issues,issues,issues,issues,issues,issues,issues,issues,issues,issues,issues,left_only
03835PKNDS383FA,PIKE INDUSTRIES INC FARMINGTON,324121,212321.0,212319.0,issues,issues,issues,CRH AMERICAS INC,110007132432.0,issues,issues,issues,issues,issues,issues,issues,issues,issues,issues,issues,issues,issues,left_only
1704WPNNSY2PRES,PENNSY SUPPLY INC PRESCOTT FACILITY,324121,327320.0,issues,issues,issues,issues,CRH AMERICAS INC,110001028192.0,issues,issues,issues,issues,issues,issues,issues,issues,issues,issues,issues,issues,issues,left_only
78140LLPTRHWY87,LAZARUS REFINERY LLC,324110,issues,issues,issues,issues,issues,issues,110037848498.0,issues,issues,issues,issues,issues,issues,issues,issues,issues,issues,issues,issues,issues,left_only
7670WWCHTM71SLP,WACO HOT MIX PLANT,324121,issues,issues,issues,issues,issues,CRH AMERICAS INC.,110070071248.0,issues,issues,issues,issues,issues,issues,issues,issues,issues,issues,issues,issues,issues,left_only
1349WLTCHF363RA,LITCHFIELD MIX PLANT,324121,212319.0,issues,issues,issues,issues,BARRETT INDUSTRIES CORP,110019486590.0,issues,issues,issues,issues,issues,issues,issues,issues,issues,issues,issues,issues,issues,left_only
4320WSHLLY395FR,SHELLY MATERIALS PLANT 90,324121,issues,issues,issues,issues,issues,CRH AMERICAS INC,110004738115.0,issues,issues,issues,issues,issues,issues,issues,issues,issues,issues,issues,issues,issues,left_only
97208TRMBL11910,OWENS CORNING ROOFING & ASPHALT LLC,324121,issues,issues,issues,issues,issues,OWENS CORNING,110008062210.0,issues,issues,issues,issues,issues,issues,issues,issues,issues,issues,issues,issues,issues,left_only
3912WWBLNS1STAT,WEBLAIN&SONS INC NATCHEZ ASPHALT PLANT,324121,issues,issues,issues,issues,issues,WEBLAIN&SONS INC,110001473405.0,issues,issues,issues,issues,issues,issues,issues,issues,issues,issues,issues,issues,issues,left_only
5273WNVBFL56444,CLINTON BIODIESEL LLC,324110,issues,issues,issues,issues,issues,issues,110024825055.0,issues,issues,issues,issues,issues,issues,issues,issues,issues,issues,issues,issues,issues,left_only
97140CFFLK12TNQ,COFFEE LAKE CONCRETE,324121,issues,issues,issues,issues,issues,MDU RESOURCES,110037149644.0,issues,issues,issues,issues,issues,issues,issues,issues,issues,issues,issues,issues,issues,left_only
1754WPNNSY2743L,PENNSY SUPPLY INC EAST PETERSBURG HMA PLANT,324121,issues,issues,issues,issues,issues,CRH AMERICAS INC,110007390046.0,issues,issues,issues,issues,issues,issues,issues,issues,issues,issues,issues,issues,issues,left_only
1501WTHLNC2PRES,NORTHEAST PAVING BRIDGEVILLE PLANT,324121,237310.0,issues,issues,issues,issues,EUROVIA ATLANTIC COAST LLC,110055233019.0,issues,issues,issues,issues,issues,issues,issues,issues,issues,issues,issues,issues,issues,left_only
6811WMNRCH22AVE,MONARCH OIL CO,324121,issues,issues,issues,issues,issues,MARTIN MIDSTREAM PTNRS LP,110010164053.0,issues,issues,issues,issues,issues,issues,issues,issues,issues,issues,issues,issues,issues,left_only
4809WCDLLC67SUT,CADILLAC ASPHALT LLC - DIX,324121,issues,issues,issues,issues,issues,CRH AMERICAS INC,110067595668.0,issues,issues,issues,issues,issues,issues,issues,issues,issues,issues,issues,issues,issues,left_only
4413WLLDCR2214W,ALLIED CORP PLANT 76,324121,issues,issues,issues,issues,issues,CRH AMERICAS INC,110046424749.0,issues,issues,issues,issues,issues,issues,issues,issues,issues,issues,issues,issues,issues,left_only
9721WCLBRC11535,ECOLUBE RECOVERY LLC,324199,issues,issues,issues,issues,issues,issues,110071325264.0,issues,issues,issues,issues,issues,issues,issues,issues,issues,issues,issues,issues,issues,left_only
33610PCFLR6701E,PREFERRED MATERIALS INC-TAMPA ASPHALT PLANT,324121,issues,issues,issues,issues,issues,CRH AMERICAS INC,110008056539.0,issues,issues,issues,issues,issues,issues,issues,issues,issues,issues,issues,issues,issues,left_only
4808WCDLLC24BAR,CADILLAC ASPHALT LLC - TROY,324121,issues,issues,issues,issues,issues,CRH AMERICAS INC,110001298916.0,issues,issues,issues,issues,issues,issues,issues,issues,issues,issues,issues,issues,issues,left_only
35404MRCHMONEWA,MERICHEM CO,324199,325180.0,issues,issues,issues,issues,MERICHEM CO,110000367175.0,issues,issues,issues,issues,issues,issues,issues,issues,issues,issues,issues,issues,issues,left_only
9895WCLMBR1811T,COLUMBIA READY MIX ANDERSON PIT,324121,issues,issues,issues,issues,issues,OLDCASTLE INC,110015548344.0,issues,issues,issues,issues,issues,issues,issues,issues,issues,issues,issues,issues,issues,left_only
1864WPNNSY3ARMS,PENNSY SUPPLY INC PITTSTON FACILITY,324121,issues,issues,issues,issues,issues,CRH AMERICAS INC,110060261602.0,issues,issues,issues,issues,issues,issues,issues,issues,issues,issues,issues,issues,issues,left_only
1366WNRWDM7971S,NORWOOD MIX PLANT,324121,issues,issues,issues,issues,issues,BARRETT INDUSTRIES CORP,110030899080.0,issues,issues,issues,issues,issues,issues,issues,issues,issues,issues,issues,issues,issues,left_only
47265DVMRP485NC,DAVE O'MARA CONTRACTOR INC,324121,issues,issues,issues,issues,issues,DAVE O'MARA CONTRACTOR INC,110031114773.0,issues,issues,issues,issues,issues,issues,issues,issues,issues,issues,issues,issues,issues,left_only
9970WMLSNP25HLL,EMULSION PRODUCTS CO - NORTH POLE FACILITY,324121,issues,issues,issues,issues,issues,COLASKA,110039075489.0,issues,issues,issues,issues,issues,issues,issues,issues,issues,issues,issues,issues,issues,left_only
15025MRTHN1100G,MARATHON PETROLEUM CO - FLOREFFE PA ASPHALT TERMINAL,324121,424710.0,issues,issues,issues,issues,MARATHON PETROLEUM CORP,110025330586.0,issues,issues,issues,issues,issues,issues,issues,issues,issues,issues,issues,issues,issues,left_only
48801TRRYM1950W,MICHIGAN PAVING & MATERIALS CO,324121,issues,issues,issues,issues,issues,CRH AMERICAS INC,110012705144.0,issues,issues,issues,issues,issues,issues,issues,issues,issues,issues,issues,issues,issues,left_only
7312WVNCBR498NR,VANCE BROTHERS INC,324121,issues,issues,issues,issues,issues,VANCE BROTHERS INC,110064388700.0,issues,issues,issues,issues,issues,issues,issues,issues,issues,issues,issues,issues,issues,left_only
01887WKFLD900SA,BENEVENTO SAND & STONE CORP,324121,327320.0,issues,issues,issues,issues,issues,110013335603.0,issues,issues,issues,issues,issues,issues,issues,issues,issues,issues,issues,issues,issues,left_only
64683CTYFT19E16,CITY OF TRENTON STREET DEPARTMENT,324121,issues,issues,issues,issues,issues,CITY OF TRENTON,110001449415.0,issues,issues,issues,issues,issues,issues,issues,issues,issues,issues,issues,issues,issues,left_only
0433WBLRCK177LY,PIKE INDUSTRIES INC. - SIDNEY,324121,issues,issues,issues,issues,issues,CRH AMERICAS INC.,110008437236.0,issues,issues,issues,issues,issues,issues,issues,issues,issues,issues,issues,issues,issues,left_only
99163PSPHL5991S,POE ASPHALT PAVING INC.,324121,issues,issues,issues,issues,issues,issues,110031001822.0,issues,issues,issues,issues,issues,issues,issues,issues,issues,issues,issues,issues,issues,left_only
59901JTLGR3131H,JTL GROUP-KALISPELL DBA KNIFE RIVER - KALISPELL,324121,issues,issues,issues,issues,issues,MDU RESOURCES GROUP INC,110020322658.0,issues,issues,issues,issues,issues,issues,issues,issues,issues,issues,issues,issues,issues,left_only
4950WMCHGN11MAR,MICHIGAN PAVING & MATERIALS CO. - GR SOUTH,324121,issues,issues,issues,issues,issues,CRH AMERICAS INC,110009599960.0,issues,issues,issues,issues,issues,issues,issues,issues,issues,issues,issues,issues,issues,left_only
7003WBTTSP1268L,BARRIERE CONSTRUCTION CO LLC - BOUTTE ASPHALT PLANT,324121,issues,issues,issues,issues,issues,issues,110071043384.0,issues,issues,issues,issues,issues,issues,issues,issues,issues,issues,issues,issues,issues,left_only
0547WPKNDS326CA,PIKE INDUSTRIES INC. - NEW HAVEN (C600 & P736),324121,issues,issues,issues,issues,issues,CRH AMERICAS INC,110007329275.0,issues,issues,issues,issues,issues,issues,issues,issues,issues,issues,issues,issues,issues,left_only
46268SPHLT4900W,ASPHALT MATERIALS INC,324121,issues,issues,issues,issues,issues,HERITAGE GROUP,110032883896.0,issues,issues,issues,issues,issues,issues,issues,issues,issues,issues,issues,issues,issues,left_only
37405RGNTR617TE,ERGON TERMINALING INC-CHATTANOOGA,324121,issues,issues,issues,issues,issues,ERGON INC.,110017754358.0,issues,issues,issues,issues,issues,issues,issues,issues,issues,issues,issues,issues,issues,left_only
97303SLMSP971WH,SALEM ASPHALT,324121,issues,issues,issues,issues,issues,MDU RESOURCES GROUP INC,110037149911.0,issues,issues,issues,issues,issues,issues,issues,issues,issues,issues,issues,issues,issues,left_only
06450SZSPHWESTF,SUZIO YORK HILL COS,324121,issues,issues,issues,issues,issues,issues,110001730609.0,issues,issues,issues,issues,issues,issues,issues,issues,issues,issues,issues,issues,issues,left_only
4920WMCHGN16NEL,MICHIGAN PAVING & MATERIALS CO - JACKSON,324121,issues,issues,issues,issues,issues,CRH AMERICAS INC,110007275965.0,issues,issues,issues,issues,issues,issues,issues,issues,issues,issues,issues,issues,issues,left_only
80216VNCBR38W62,VANCE BROTHERS INC,324121,issues,issues,issues,issues,issues,VANCE BROTHERS INC,110043694785.0,issues,issues,issues,issues,issues,issues,issues,issues,issues,issues,issues,issues,issues,left_only
9505WGRNTC38BAS,GRANITE CONSTRUCTION COMPANY-SANTA CLARA ASPHALT FACILITY,324121,issues,issues,issues,issues,issues,issues,110066412901.0,issues,issues,issues,issues,issues,issues,issues,issues,issues,issues,issues,issues,issues,left_only
0883WTRPRCFTFCR,TRAP ROCK INDUSTRIES LLC,324121,237310.0,issues,issues,issues,issues,CRH AMERICAS INC,110030807303.0,issues,issues,issues,issues,issues,issues,issues,issues,issues,issues,issues,issues,issues,left_only
55106KCHMT2209C,FLINT HILLS RESOURCES PINE BEND LLC ST PAUL,324121,issues,issues,issues,issues,issues,KOCH INDUSTRIES INC,110001444884.0,issues,issues,issues,issues,issues,issues,issues,issues,issues,issues,issues,issues,issues,left_only
1705WPNNSY28NRT,PENNSY SUPPLY INC FIDDLER ELBOW NORTH FACILITY,324121,327320.0,issues,issues,issues,issues,OLDCASTLE INC,110060257163.0,issues,issues,issues,issues,issues,issues,issues,issues,issues,issues,issues,issues,issues,left_only
4831WCDLLC12345,CADILLAC ASPHALT - SHELBY PLANT,324121,issues,issues,issues,issues,issues,CRH AMERICAS INC,110040874925.0,issues,issues,issues,issues,issues,issues,issues,issues,issues,issues,issues,issues,issues,left_only
3380WTHLNC335RE,LAKELAND HMA PLANT,324121,237310.0,issues,issues,issues,issues,HUBBARD CONSTRUCTION,110001737318.0,issues,issues,issues,issues,issues,issues,issues,issues,issues,issues,issues,issues,issues,left_only
97060MDRSR57NES,MDU RESOURCES KNIFE RIVER SUNDIAL ASPHALT,324121,issues,issues,issues,issues,issues,MDU RESOURCES GROUP INC,110037149163.0,issues,issues,issues,issues,issues,issues,issues,issues,issues,issues,issues,issues,issues,left_only
77701PCTXS86PIN,GULF COAST PINE STREET ASPHALT PLANT,324121,issues,issues,issues,issues,issues,CRH AMERICAS INC,110037147156.0,issues,issues,issues,issues,issues,issues,issues,issues,issues,issues,issues,issues,issues,left_only
8900WLSVGSVETER,LAS VEGAS PAVING CORP,324121,issues,issues,issues,issues,issues,LAS VEGAS PAVING CORP,110070244640.0,issues,issues,issues,issues,issues,issues,issues,issues,issues,issues,issues,issues,issues,left_only
29205SCNCX2700W,ASSOCIATED ASPHALT COLUMBIA LLC,324121,issues,issues,issues,issues,issues,ASSOCIATED ASPHALT PARTNERS LLC,110017202445.0,issues,issues,issues,issues,issues,issues,issues,issues,issues,issues,issues,issues,issues,left_only
21030MRYLN1BEAV,MARYLAND PAVING INC,324121,issues,issues,issues,issues,issues,MARYLAND PAVING INC,110023128738.0,issues,issues,issues,issues,issues,issues,issues,issues,issues,issues,issues,issues,issues,left_only
02322TLDWR100WA,TL EDWARDS INC.,324121,issues,issues,issues,issues,issues,issues,110024350263.0,issues,issues,issues,issues,issues,issues,issues,issues,issues,issues,issues,issues,issues,left_only
7813WSPHLT29649,ASPHALT INC. GARDEN RIDGE,324121,issues,issues,issues,issues,issues,ASPHALT INC. LLC,110070244798.0,issues,issues,issues,issues,issues,issues,issues,issues,issues,issues,issues,issues,issues,left_only
92602LLMRC16JEF,ALL AMERICAN ASPHALT,324121,212321.0,issues,issues,issues,issues,issues,110031001582.0,issues,issues,issues,issues,issues,issues,issues,issues,issues,issues,issues,issues,issues,left_only
8575WSWNRD931SS,SWAN RD. ASPHALT PLANT,324121,issues,issues,issues,issues,issues,GRANITE CONSTRUCTION INC,110067123507.0,issues,issues,issues,issues,issues,issues,issues,issues,issues,issues,issues,issues,issues,left_only
1422WBFFLC8615W,NESL - WEHRLE/BARTON FACILITY,324121,327320.0,issues,issues,issues,issues,issues,110067200291.0,issues,issues,issues,issues,issues,issues,issues,issues,issues,issues,issues,issues,issues,left_only
38113WNSCR2301C,OWENS CORNING ROOFING & ASPHALT LLC MEMPHIS TRUMBULL ASPHALT,324121,issues,issues,issues,issues,issues,OWENS CORNING,110001857866.0,issues,issues,issues,issues,issues,issues,issues,issues,issues,issues,issues,issues,issues,left_only
0581WPKNDS2884D,PIKE INDUSTRIES INC. - WATERFORD VT (P702 & C603),324121,issues,issues,issues,issues,issues,CRH AMERICAS INC,110010911834.0,issues,issues,issues,issues,issues,issues,issues,issues,issues,issues,issues,issues,issues,left_only
97470LTMNC186BE,MDU RESOURCES ROSEBURG ASPHALT,324121,issues,issues,issues,issues,issues,MDU RESOURCES GROUP INC,110014266310.0,issues,issues,issues,issues,issues,issues,issues,issues,issues,issues,issues,issues,issues,left_only
97502LTMMD3959H,MDU RESOURCES CENTRAL POINT CONCRETE,324121,issues,issues,issues,issues,issues,MDU RESOURCES GROUP INC,110001654941.0,issues,issues,issues,issues,issues,issues,issues,issues,issues,issues,issues,issues,issues,left_only
03051BRXND85GRE,BROX INDUSTRIES INC,324121,issues,issues,issues,issues,issues,BROX INDUSTRIES INC,110013336390.0,issues,issues,issues,issues,issues,issues,issues,issues,issues,issues,issues,issues,issues,left_only
7080WBTNRG1261S,BARRIERE CONSTRUCTION CO LLC - BATON ROUGE ASPHALT PLA,324121,issues,issues,issues,issues,issues,issues,110071043404.0,issues,issues,issues,issues,issues,issues,issues,issues,issues,issues,issues,issues,issues,left_only
1633WSTKTM1965M,SUIT-KOTE MEADVILLE,324121,issues,issues,issues,issues,issues,SUIT-KOTE CORP,110039496943.0,issues,issues,issues,issues,issues,issues,issues,issues,issues,issues,issues,issues,issues,left_only
0409WPKNDS95WAR,PIKE INDUSTRIES - WESTBROOK,324121,issues,issues,issues,issues,issues,CRH AMERICAS INC.,110064777193.0,issues,issues,issues,issues,issues,issues,issues,issues,issues,issues,issues,issues,issues,left_only
2123WMRYLN619BA,MARYLAND PAVING ROSEDALE LLC,324121,issues,issues,issues,issues,issues,MARYLAND PAVING INC,110001276262.0,issues,issues,issues,issues,issues,issues,issues,issues,issues,issues,issues,issues,issues,left_only
76703KNFRV3423M,KNIFE RIVER CORP - SOUTH WACO ASPHALT PLANT,324121,issues,issues,issues,issues,issues,MDU RESOURCES GROUP INC,110037145185.0,issues,issues,issues,issues,issues,issues,issues,issues,issues,issues,issues,issues,issues,left_only
13101PLKVLRT11R,POLKVILLE CRUSHED STONE/SUIT-KOTE TERMINAL,324121,issues,issues,issues,issues,issues,SUIT-KOTE CORP,110007146882.0,issues,issues,issues,issues,issues,issues,issues,issues,issues,issues,issues,issues,issues,left_only
78610RTHTM117FM,ASPHALT INC BUDA CENTEX PLANT,324121,issues,issues,issues,issues,issues,ASPHALT INC. LLC,110037146852.0,issues,issues,issues,issues,issues,issues,issues,issues,issues,issues,issues,issues,issues,left_only
7872WSPHLT11824,ASPHALT INC. HAROLD GREEN,324121,issues,issues,issues,issues,issues,ASPHALT INC. LLC,110070071547.0,issues,issues,issues,issues,issues,issues,issues,issues,issues,issues,issues,issues,issues,left_only
4575WSPHLT13925,ASPHALT MATERIALS INC,324121,issues,issues,issues,issues,issues,HERITAGE GROUP,110041626121.0,issues,issues,issues,issues,issues,issues,issues,issues,issues,issues,issues,issues,issues,left_only
8565WTNGRN9499W,TANGERINE RD ASPHALT PLANT,324121,issues,issues,issues,issues,issues,GRANITE CONSTRUCTION INC,110070244647.0,issues,issues,issues,issues,issues,issues,issues,issues,issues,issues,issues,issues,issues,left_only
07069FNWDSNEWPR,FANWOOD CRUSHED STONE,324121,327320.0,issues,issues,issues,issues,WELDON MATERIALS INC,110004184230.0,issues,issues,issues,issues,issues,issues,issues,issues,issues,issues,issues,issues,issues,left_only
63869KCHMTHWY61,HEARTLAND ASPHALT MATERIALS,324121,issues,issues,issues,issues,issues,DELTA COS INC,110011109549.0,issues,issues,issues,issues,issues,issues,issues,issues,issues,issues,issues,issues,issues,left_only
39212PCMSS2902M,APAC-MISSISSIPPI & PRECISION PACKAGING,324121,issues,issues,issues,issues,issues,CRH AMERICAS INC,110002214130.0,issues,issues,issues,issues,issues,issues,issues,issues,issues,issues,issues,issues,issues,left_only
1462WRQSRC6RIDG,IROQUOIS ROCK PRODUCTS/ HENRIETTA DRUM,324121,issues,issues,issues,issues,issues,OLDCASTLE MATERIALS INC,110070234692.0,issues,issues,issues,issues,issues,issues,issues,issues,issues,issues,issues,issues,issues,left_only
02093GGRGT400GR,AGGREGATE INDUSTRIES NORTHEAST REGION INC,324121,212319.0,issues,issues,issues,issues,HOLCIM (US) INC,110012709140.0,issues,issues,issues,issues,issues,issues,issues,issues,issues,issues,issues,issues,issues,left_only
7866WSPHLT6755E,ASPHALT INC. SPICEWOOD,324121,issues,issues,issues,issues,issues,ASPHALT INC. LLC,110070071546.0,issues,issues,issues,issues,issues,issues,issues,issues,issues,issues,issues,issues,issues,left_only
9538WWNTNP1165N,SANTA FE MATERIALS WINTON PLANT,324121,212321.0,issues,issues,issues,issues,A TEICHERT & SON INC,110046371591.0,issues,issues,issues,issues,issues,issues,issues,issues,issues,issues,issues,issues,issues,left_only
9540WTDDRD26GHI,SYAR INDUSTRIES,324121,issues,issues,issues,issues,issues,issues,110070232611.0,issues,issues,issues,issues,issues,issues,issues,issues,issues,issues,issues,issues,issues,left_only
4752WDVMRC13966,DAVE O'MARA CONTRACTOR INC,324121,issues,issues,issues,issues,issues,DAVE O'MARA CONTRACTOR INC,110046123690.0,issues,issues,issues,issues,issues,issues,issues,issues,issues,issues,issues,issues,issues,left_only
