FRS_ID,Source,Flows,CO2 missing,FacilityName,City,State,Latitude,Longitude,city
110070239631.0,GHGRP,"['Carbon Dioxide', 'Methane', 'Nitrous Oxide']",False,TESORO CORPORATION-ANACORTES REFINERY,ANACORTES,WA,48.491139,-122.575056,anacortes
110008214360.0,GHGRP NEI TRI,"['1,2,4-Trimethylbenzene', '1,3-Butadiene', '1,4-Dichlorobenzene', '2,2,4-Trimethylpentane', 'Acetaldehyde', 'Acrolein', 'Ammonia', 'Anthracene', 'Arsenic', 'Benzene', 'Benzo[g,h,i]perylene', 'Biphenyl', 'Bis(2-Ethylhexyl)Phthalate', 'Cadmium', 'Carbon Dioxide', 'Carbon Disulfide', 'Carbon Monoxide', 'Carbonyl Sulfide', 'Chlorine', 'Chloroform', 'Chromium (VI)', 'Chromium III', 'Cobalt', 'Cobalt compounds', 'Copper compounds', 'Cresol/Cresylic Acid (Mixed Isomers)', 'Cumene', 'Cyclohexane', 'Dibutyl Phthalate', 'Diethanolamine', 'Ethyl Benzene', 'Ethylene', 'Formaldehyde', 'Hexane', 'Hydrogen Cyanide', 'Hydrogen Sulfide', 'Isoprene', 'Lead', 'Lead compounds', 'Manganese', 'Mercury compounds', 'Methane', 'Methanol', 'Methyl Bromide', 'Methylene Chloride', 'Molybdenum trioxide', 'Naphthalene', 'Nickel', 'Nickel compounds', 'Nitrogen Oxides', 'Nitrous Oxide', 'PAH, total', 'PM10-PM2.5', 'PM2.5 Primary (Filt + Cond)', 'Phenanthrene', 'Phenol', 'Phosphorus', 'Polycyclic aromatic compounds', 'Propylene', 'Styrene', 'Sulfur Dioxide', 'Sulfuric acid (acid aerosols including mists, vapors, gas, fog, and other airborne forms of any particle size)', 'Tetrachloroethylene', 'Toluene', 'Vanadium compounds', 'Volatile Organic Compounds', 'Xylenes (Mixed Isomers)']",False,SHELL PUGET SOUND REFINERY,Anacortes,WA,48.4666,-122.562,anacortes
110000481611.0,GHGRP NEI TRI,"['1,2,4-Trimethylbenzene', '2-Methylnaphthalene', 'Acetaldehyde', 'Acrolein', 'Ammonia', 'Anthracene', 'Arsenic', 'Benzene', 'Benzo[g,h,i,]Perylene', 'Biogenic CO2', 'Cadmium', 'Carbon Dioxide', 'Carbon Monoxide', 'Certain glycol ethers', 'Chromium (VI)', 'Chromium III', 'Cobalt', 'Cumene', 'Cyclohexane', 'Ethyl Benzene', 'Fluorene', 'Formaldehyde', 'Hexane', 'Hydrogen Sulfide', 'Lead', 'Lead compounds', 'Manganese', 'Mercury', 'Mercury compounds', 'Methane', 'Naphthalene', 'Nickel', 'Nitrogen Oxides', 'Nitrous Oxide', 'PAH/POM - Unspecified', 'PM10-PM2.5', 'PM2.5 Primary (Filt + Cond)', 'Phenanthrene', 'Phenol', 'Polycyclic aromatic compounds (includes 25 specific compounds)', 'Pyrene', 'Sulfur Dioxide', 'Toluene', 'Volatile Organic Compounds', 'Xylenes (Mixed Isomers)']",False,KERN OIL & REFINING CO.,BAKERSFIELD,CA,35.2956,-118.9184,bakersfield
110000481684.0,GHGRP NEI,"['2-Methylnaphthalene', 'Acetaldehyde', 'Anthracene', 'Arsenic', 'Benzene', 'Benzo[g,h,i,]Perylene', 'Cadmium', 'Carbon Dioxide', 'Carbon Monoxide', 'Chromium (VI)', 'Chromium III', 'Cobalt', 'Fluorene', 'Formaldehyde', 'Hexane', 'Lead', 'Manganese', 'Mercury', 'Methane', 'Naphthalene', 'Nickel', 'Nitrogen Oxides', 'Nitrous Oxide', 'PM10-PM2.5', 'PM2.5 Primary (Filt + Cond)', 'Phenanthrene', 'Polycyclic aromatic compounds (includes 25 specific compounds)', 'Pyrene', 'Sulfur Dioxide', 'Toluene', 'Volatile Organic Compounds', 'Xylenes (Mixed Isomers)']",False,SAN JOAQUIN REFINING COMPANY,BAKERSFIELD,CA,35.3972,-119.0467,bakersfield
110017407153.0,GHGRP NEI TRI,"['Acetaldehyde', 'Acrolein', 'Arsenic', 'Benzene', 'Benzo[g,h,i]perylene', 'Cadmium', 'Carbon Dioxide', 'Carbon Monoxide', 'Chromium (VI)', 'Chromium III', 'Cobalt', 'Ethyl Benzene', 'Formaldehyde', 'Hexane', 'Lead', 'Manganese', 'Mercury', 'Methane', 'Naphthalene', 'Nickel', 'Nitrogen Oxides', 'Nitrous Oxide', 'PAH/POM - Unspecified', 'PM10-PM2.5', 'PM2.5 Primary (Filt + Cond)', 'Polycyclic aromatic compounds', 'Sulfur Dioxide', 'Toluene', 'Volatile Organic Compounds', 'Xylenes (Mixed Isomers)']",False,TRICOR REFINING LLC,BAKERSFIELD,CA,35.4185,-119.0112,bakersfield
110000428421.0,GHGRP NEI TRI,"['1,2,4-Trimethylbenzene', '1,3-Butadiene', 'Acetaldehyde', 'Ammonia', 'Anthracene', 'Benzene', 'Benzo[g,h,i,]Perylene', 'Carbon Dioxide', 'Carbon Monoxide', 'Carbonyl Sulfide', 'Certain glycol ethers', 'Cobalt', 'Cobalt compounds', 'Cumene', 'Cyanide', 'Cyclohexane', 'Diethanolamine', 'Dioxin and dioxin-like compounds', 'Ethyl Benzene', 'Ethylene', 'Ethylene Glycol', 'Fluorene', 'Formaldehyde', 'Hexane', 'Hydrogen Fluoride', 'Hydrogen Sulfide', 'Hydrogen cyanide', 'Isoprene', 'Lead', 'Lead compounds', 'Mercury', 'Mercury compounds', 'Methane', 'Methanol', 'Molybdenum trioxide', 'Naphthalene', 'Nitrogen Oxides', 'Nitrous Oxide', 'PM10-PM2.5', 'PM2.5 Primary (Filt + Cond)', 'Phenanthrene', 'Phenol', 'Polycyclic aromatic compounds (includes 25 specific compounds)', 'Propylene', 'Pyrene', 'Sulfur Dioxide', 'Sulfuric acid (acid aerosols including mists, vapors, gas, fog, and other airborne forms of any particle size)', 'Toluene', 'Vanadium compounds', 'Volatile Organic Compounds', 'Xylenes (Mixed Isomers)', 'Zinc compounds']",False,EXXONMOBIL BILLINGS REFINERY,BILLINGS,MT,45.813904,-108.433295,billings
110043806085.0,GHGRP NEI TRI,"['1,2,4-Trimethylbenzene', '1,3-Butadiene', 'Acetaldehyde', 'Ammonia', 'Anthracene', 'Benzene', 'Benzo[g,h,i,]Perylene', 'Biphenyl', 'Carbon Dioxide', 'Carbon Monoxide', 'Chromium (VI)', 'Chromium III', 'Chromium compounds (except for chromite ore mined in the Transvaal Region)', 'Cobalt', 'Cobalt compounds', 'Cumene', 'Dioxin and dioxin-like compounds', 'Ethyl Benzene', 'Ethylene', 'Fluorene', 'Formaldehyde', 'Hexane', 'Hydrochloric Acid', 'Hydrogen Fluoride', 'Hydrogen Sulfide', 'Lead', 'Lead compounds', 'Mercury', 'Mercury compounds', 'Methane', 'Methanol', 'Naphthalene', 'Nickel', 'Nickel compounds', 'Nitrogen Oxides', 'Nitrous Oxide', 'PM10-PM2.5', 'PM2.5 Primary (Filt + Cond)', 'Phenanthrene', 'Phenol', 'Polycyclic aromatic compounds (includes 25 specific compounds)', 'Propylene', 'Pyrene', 'Styrene', 'Sulfur Dioxide', 'Tetrachloroethylene', 'Toluene', 'Volatile Organic Compounds', 'Xylenes (Mixed Isomers)', 'Zinc compounds']",False,BILLINGS REFINERY,BILLINGS,MT,45.780642,-108.489063,billings
110071161537.0,GHGRP,"['Carbon Dioxide', 'Methane', 'Nitrous Oxide']",False,Los Angeles Refinery (LAR),CARSON,CA,33.82431,-118.23237,carson
110038102969.0,GHGRP NEI TRI,"['1,2,4-Trimethylbenzene', '1,3-Butadiene', 'Acetaldehyde', 'Ammonia', 'Arsenic', 'Asbestos', 'Benzene', 'Benzo[g,h,i]perylene', 'Beryllium', 'Cadmium', 'Carbon Dioxide', 'Carbon Monoxide', 'Carbonyl Sulfide', 'Chromium (VI)', 'Cobalt', 'Cobalt compounds', 'Cyclohexane', 'Diethanolamine', 'Ethyl Benzene', 'Ethylene', 'Formaldehyde', 'Hexane', 'Hydrogen Sulfide', 'Lead', 'Lead compounds', 'Mercury', 'Mercury compounds', 'Methane', 'Methanol', 'Methyl Chloroform', 'Molybdenum trioxide', 'Naphthalene', 'Nickel', 'Nickel compounds', 'Nitrogen Oxides', 'Nitrous Oxide', 'PAH/POM - Unspecified', 'PM10-PM2.5', 'PM2.5 Primary (Filt + Cond)', 'Phenanthrene', 'Phenol', 'Polycyclic aromatic compounds', 'Propylene', 'Styrene', 'Sulfur Dioxide', 'Toluene', 'Volatile Organic Compounds', 'Xylenes (Mixed Isomers)']",False,PHILLIPS 66 COMPANY/LOS ANGELES REFINERY,CARSON,CA,33.804002,-118.243606,carson
110000505640.0,GHGRP TRI,"['1,2,4-Trimethylbenzene', '1,3-Butadiene', 'Ammonia', 'Benzene', 'Benzo[g,h,i]perylene', 'Carbon Dioxide', 'Chlorine', 'Cumene', 'Cyclohexane', 'Diethanolamine', 'Dioxin and dioxin-like compounds', 'Ethylbenzene', 'Ethylene', 'Hydrochloric acid (acid aerosols including mists, vapors, gas, fog, and other airborne forms of any particle size)', 'Hydrogen cyanide', 'Hydrogen sulfide', 'Mercury', 'Methane', 'Naphthalene', 'Nickel compounds', 'Nitrous Oxide', 'Polycyclic aromatic compounds', 'Propylene', 'Sulfuric acid (acid aerosols including mists, vapors, gas, fog, and other airborne forms of any particle size)', 'Toluene', 'Xylene (mixed isomers)', 'n-Hexane']",False,CITGO CORPUS CHRISTI REFINERY EAST PLANT,CORPUS CHRISTI,TX,27.810556,-97.426944,corpus christi
110070525276.0,GHGRP,"['Carbon Dioxide', 'Methane', 'Nitrous Oxide']",False,FLINT HILLS RESOURCES CORPUS CHRISTI WEST PLANT,CORPUS CHRISTI,TX,27.838656,-97.520167,corpus christi
110058933800.0,GHGRP,"['Carbon Dioxide', 'Methane', 'Nitrous Oxide']",False,Buckeye Texas Processing LLC,Corpus Christi,TX,27.818373,-97.502778,corpus christi
110020147465.0,GHGRP NEI,"['Acetaldehyde', 'Ammonia', 'Anthracene', 'Benz[a]Anthracene', 'Benzene', 'Carbon Dioxide', 'Carbon Monoxide', 'Chrysene', 'Ethyl Benzene', 'Fluoranthene', 'Fluorene', 'Formaldehyde', 'Hexane', 'Methane', 'Methanol', 'Methyl Isobutyl Ketone', 'Naphthalene', 'Nitrogen Oxides', 'Nitrous Oxide', 'PM10-PM2.5', 'PM2.5 Primary (Filt + Cond)', 'Phenanthrene', 'Phenol', 'Pyrene', 'Sulfur Dioxide', 'Toluene', 'Volatile Organic Compounds', 'Xylenes (Mixed Isomers)']",False,Corpus Christi Terminal Condensate Splitter,Corpus Christi,TX,27.811441,-97.431765,corpus christi
110038173981.0,GHGRP NEI TRI,"['1,2,4-Trimethylbenzene', '1,2-Epoxybutane', '1,3-Butadiene', '2,2,4-Trimethylpentane', 'Acetaldehyde', 'Acrolein', 'Ammonia', 'Anthracene', 'Arsenic', 'Benzene', 'Benzo[g,h,i]perylene', 'Biphenyl', 'Cadmium', 'Carbon Dioxide', 'Carbon Disulfide', 'Carbon Monoxide', 'Carbonyl Sulfide', 'Chromium (VI)', 'Chromium III', 'Cobalt', 'Cresol/Cresylic Acid (Mixed Isomers)', 'Cumene', 'Cyclohexane', 'Diethanolamine', 'Ethyl Benzene', 'Ethylene', 'Formaldehyde', 'Glycol Ethers', 'Hexamethylene Diisocyanate', 'Hexane', 'Hydrogen Cyanide', 'Hydrogen Sulfide', 'Lead', 'Manganese', 'Mercury', 'Methane', 'Methyl Isobutyl Ketone', 'Methylene Chloride', 'Naphthalene', 'Nickel', 'Nitrogen Oxides', 'Nitrous Oxide', 'Ozone', 'PAH, total', 'PM10-PM2.5', 'PM2.5 Primary (Filt + Cond)', 'Phenol', 'Polycyclic aromatic compounds', 'Propylene', 'Styrene', 'Sulfur Dioxide', 'Sulfuric acid (acid aerosols including mists, vapors, gas, fog, and other airborne forms of any particle size)', 'Tetrachloroethylene', 'Toluene', 'Trichloroethylene', 'Volatile Organic Compounds', 'Xylenes (Mixed Isomers)', 'm-Xylene', 'o-Xylene', 'p-Xylene']",False,CORPUS CHRISTI EAST PLANT,CORPUS CHRISTI,TX,27.804831,-97.423994,corpus christi
110000465041.0,GHGRP NEI TRI,"['1,2,4-Trimethylbenzene', '1,3-Butadiene', 'Acetaldehyde', 'Ammonia', 'Anthracene', 'Benz[a]Anthracene', 'Benzene', 'Carbon Dioxide', 'Carbon Disulfide', 'Carbon Monoxide', 'Carbonyl Sulfide', 'Chlorine', 'Chrysene', 'Cumene', 'Cyclohexane', 'Dioxin and dioxin-like compounds', 'Ethyl Benzene', 'Ethylene', 'Fluoranthene', 'Fluorene', 'Formaldehyde', 'Hexane', 'Hydrochloric Acid', 'Hydrogen Sulfide', 'Mercury', 'Methane', 'Naphthalene', 'Nitrogen Oxides', 'Nitrous Oxide', 'PM10-PM2.5', 'PM2.5 Primary (Filt + Cond)', 'Phenanthrene', 'Propylene', 'Pyrene', 'Sulfur Dioxide', 'Toluene', 'Volatile Organic Compounds', 'Xylenes (Mixed Isomers)']",False,WEST PLANT FACILITY,CORPUS CHRISTI,TX,27.813547,-97.496375,corpus christi
110000465103.0,GHGRP NEI TRI,"['1,2,4-Trimethylbenzene', '1,3-Butadiene', '2,2,4-Trimethylpentane', '2-Methylnaphthalene', 'Acetaldehyde', 'Acrolein', 'Ammonia', 'Anthracene', 'Antimony', 'Antimony compounds', 'Arsenic', 'Benzene', 'Benzo[g,h,i,]Perylene', 'Beryllium', 'Biphenyl', 'Cadmium', 'Carbon Dioxide', 'Carbon Disulfide', 'Carbon Monoxide', 'Carbonyl Sulfide', 'Chlorine', 'Chromium (VI)', 'Chromium III', 'Cobalt', 'Cresol/Cresylic Acid (Mixed Isomers)', 'Cumene', 'Cyanide', 'Cyanide compounds', 'Cyclohexane', 'Dioxin and dioxin-like compounds', 'Ethyl Benzene', 'Ethylene', 'Ethylene Glycol', 'Fluorene', 'Formaldehyde', 'Hexane', 'Hydrochloric Acid', 'Hydrogen Cyanide', 'Hydrogen Fluoride', 'Hydrogen Sulfide', 'Lead', 'Lead compounds', 'Manganese', 'Mercury', 'Mercury compounds', 'Methane', 'Methanol', 'Methyl Bromide', 'Naphthalene', 'Nickel', 'Nickel compounds', 'Nitrogen Oxides', 'Nitrous Oxide', 'PM10-PM2.5', 'PM2.5 Primary (Filt + Cond)', 'Phenanthrene', 'Phenol', 'Polycyclic aromatic compounds (includes 25 specific compounds)', 'Propylene', 'Pyrene', 'Selenium', 'Styrene', 'Sulfur Dioxide', 'Sulfuric acid (acid aerosols including mists, vapors, gas, fog, and other airborne forms of any particle size)', 'Tetrachloroethylene', 'Toluene', 'Volatile Organic Compounds', 'Xylenes (Mixed Isomers)', 'Zinc compounds', 'n-Butyl alcohol', 'tert-Butyl alcohol']",False,CORPUS CHRISTI WEST PLANT,CORPUS CHRISTI,TX,27.817361,-97.489161,corpus christi
110000501993.0,GHGRP NEI TRI,"['1,1,2,2-Tetrachloroethane', '1,1,2-Trichloroethane', '1,2,4-Trimethylbenzene', '1,3-Butadiene', '1,3-Dichloropropene', '2,2,4-Trimethylpentane', 'Acetaldehyde', 'Acetonitrile', 'Acrolein', 'Ammonia', 'Antimony', 'Arsenic', 'Benzene', 'Benzo[g,h,i,]Perylene', 'Beryllium', 'Biphenyl', 'Cadmium', 'Carbon Dioxide', 'Carbon Disulfide', 'Carbon Monoxide', 'Carbonyl Sulfide', 'Chlorobenzene', 'Chloroform', 'Chromium (VI)', 'Chromium III', 'Cobalt', 'Cresol/Cresylic Acid (Mixed Isomers)', 'Cumene', 'Cyclohexane', 'Diethanolamine', 'Ethyl Benzene', 'Ethylene', 'Ethylene Dichloride', 'Ethylidene Dichloride', 'Formaldehyde', 'Hexane', 'Hydrochloric Acid', 'Hydrogen Sulfide', 'Lead', 'Lead compounds', 'Manganese', 'Mercury', 'Mercury compounds', 'Methane', 'Methanol', 'Methyl Isobutyl Ketone', 'Methylene Chloride', 'Naphthalene', 'Nickel', 'Nickel compounds', 'Nitrogen Oxides', 'Nitrous Oxide', 'PM10-PM2.5', 'PM2.5 Primary (Filt + Cond)', 'Phenanthrene', 'Phenol', 'Polycyclic aromatic compounds (includes 25 specific compounds)', 'Propylene', 'Propylene Dichloride', 'Selenium', 'Styrene', 'Sulfur Dioxide', 'Toluene', 'Vinyl Chloride', 'Volatile Organic Compounds', 'Xylenes (Mixed Isomers)', 'n-Butyl alcohol']",False,VALERO CORPUS CHRISTI REFINING EAST,CORPUS CHRISTI,TX,27.812092,-97.447489,corpus christi
110000446134.0,GHGRP NEI TRI,"['1,1,2,2-Tetrachloroethane', '1,1,2-Trichloroethane', '1,2,4-Trimethylbenzene', '1,3-Butadiene', '1,3-Dichloropropene', '2,2,4-Trimethylpentane', 'Acetaldehyde', 'Acrolein', 'Ammonia', 'Anthracene', 'Antimony', 'Arsenic', 'Benzene', 'Benzo[g,h,i,]Perylene', 'Beryllium', 'Biphenyl', 'Cadmium', 'Carbon Dioxide', 'Carbon Disulfide', 'Carbon Monoxide', 'Carbon Tetrachloride', 'Carbonyl Sulfide', 'Chlorobenzene', 'Chloroform', 'Chromium (VI)', 'Chromium III', 'Cobalt', 'Cobalt compounds', 'Cresol/Cresylic Acid (Mixed Isomers)', 'Cumene', 'Cyclohexane', 'Diethanolamine', 'Ethyl Benzene', 'Ethylene', 'Ethylene Dibromide', 'Ethylene Dichloride', 'Ethylene Glycol', 'Ethylidene Dichloride', 'Fluorene', 'Formaldehyde', 'Hexane', 'Hydrochloric Acid', 'Hydrogen Cyanide', 'Hydrogen Fluoride', 'Hydrogen Sulfide', 'Lead', 'Lead compounds', 'Manganese', 'Mercury', 'Mercury compounds', 'Methane', 'Methanol', 'Methyl Bromide', 'Methylene Chloride', 'Naphthalene', 'Nickel', 'Nickel compounds', 'Nitrogen Oxides', 'Nitrous Oxide', 'PM10-PM2.5', 'PM2.5 Primary (Filt + Cond)', 'Phenanthrene', 'Phenol', 'Polycyclic aromatic compounds (includes 25 specific compounds)', 'Propylene', 'Propylene Dichloride', 'Pyrene', 'Selenium', 'Styrene', 'Sulfur Dioxide', 'Sulfuric acid (acid aerosols including mists, vapors, gas, fog, and other airborne forms of any particle size)', 'Tetrachloroethylene', 'Toluene', 'Trichloroethylene', 'Vinyl Chloride', 'Volatile Organic Compounds', 'Xylenes (Mixed Isomers)', 'Zinc compounds']",False,HollyFrontier El Dorado Refinery,El Dorado,KS,37.794007,-96.87414,el dorado
110017419667.0,GHGRP NEI TRI,"['1,2,4-Trimethylbenzene', '1,3-Butadiene', '2,2,4-Trimethylpentane', 'Acetaldehyde', 'Ammonia', 'Anthracene', 'Benzene', 'Benzo[g,h,i,]Perylene', 'Biphenyl', 'Carbon Dioxide', 'Carbon Disulfide', 'Carbon Monoxide', 'Carbonyl Sulfide', 'Chlorine', 'Cresol/Cresylic Acid (Mixed Isomers)', 'Cumene', 'Cyanide', 'Cyclohexane', 'Diethanolamine', 'Dioxin and dioxin-like compounds', 'Ethyl Benzene', 'Ethylene', 'Fluorene', 'Formaldehyde', 'Hexane', 'Hydrochloric Acid', 'Hydrogen Sulfide', 'Hydrogen cyanide', 'Lead', 'Lead compounds', 'Manganese', 'Manganese compounds', 'Mercury', 'Mercury compounds', 'Methane', 'Naphthalene', 'Nitrogen Oxides', 'Nitrous Oxide', 'PM10-PM2.5', 'PM2.5 Primary (Filt + Cond)', 'Phenanthrene', 'Phenol', 'Polycyclic aromatic compounds (includes 25 specific compounds)', 'Propylene', 'Pyrene', 'Sulfur Dioxide', 'Sulfuric acid (acid aerosols including mists, vapors, gas, fog, and other airborne forms of any particle size)', 'Tetrachloroethylene', 'Toluene', 'Volatile Organic Compounds', 'Xylenes (Mixed Isomers)']",False,LION OIL COMPANY,EL DORADO,AR,33.195555,-92.681111,el dorado
110070240998.0,GHGRP,"['Carbon Dioxide', 'Methane', 'Nitrous Oxide']",False,HOUSTON REFINING,HOUSTON,TX,29.708566,-95.24124,houston
110070135386.0,GHGRP TRI,"['1,2,4-Trimethylbenzene', 'Benzene', 'Carbon Dioxide', 'Cresol (mixed isomers)', 'Cumene', 'Cyclohexane', 'Ethylbenzene', 'Methane', 'Naphthalene', 'Nitrous Oxide', 'Phenanthrene', 'Phenol', 'Propylene', 'Styrene', 'Toluene', 'Xylene (mixed isomers)', 'n-Hexane']",False,VALERO REFINING HOUSTON REFINERY,HOUSTON,TX,29.71839,-95.25343,houston
110070813729.0,GHGRP,"['Carbon Dioxide', 'Methane', 'Nitrous Oxide']",False,"IES DOWNSTREAM, LLC - KAPOLEI REFINERY",KAPOLEI,HI,21.31948,-158.116295,kapolei
110071162280.0,GHGRP,"['Carbon Dioxide', 'Methane', 'Nitrous Oxide']",False,REFINERY KAPOLEI,KAPOLEI,HI,21.304291,-158.091296,kapolei
110070560801.0,GHGRP,"['Carbon Dioxide', 'Methane', 'Nitrous Oxide']",False,Martinez Renewable Fuel Facility,MARTINEZ,CA,38.02549,-122.06812,martinez
110000483245.0,GHGRP NEI TRI,"['1,2,4-Trimethylbenzene', '1,3-Butadiene', '2,4-Dimethylphenol', 'Acenaphthene', 'Acetaldehyde', 'Acrolein', 'Acrylonitrile', 'Ammonia', 'Aniline', 'Anthracene', 'Arsenic', 'Benzene', 'Benzo[g,h,i,]Perylene', 'Beryllium', 'Cadmium', 'Carbon Dioxide', 'Carbon Disulfide', 'Carbon Monoxide', 'Carbonyl Sulfide', 'Chlorine', 'Chromium (VI)', 'Copper compounds', 'Cresol/Cresylic Acid (Mixed Isomers)', 'Cumene', 'Cyanide compounds', 'Cyclohexane', 'Diethanolamine', 'Dioxin and dioxin-like compounds', 'Ethyl Benzene', 'Ethylene', 'Ethylene Dibromide', 'Fluorene', 'Formaldehyde', 'Hexane', 'Hydrochloric Acid', 'Hydrogen Cyanide', 'Hydrogen Sulfide', 'Isoprene', 'Lead', 'Lead compounds', 'Manganese', 'Mercury', 'Mercury compounds', 'Methane', 'Methanol', 'Methyl Bromide', 'Methylene Chloride', 'Molybdenum trioxide', 'Naphthalene', 'Nickel', 'Nickel compounds', 'Nitrogen Oxides', 'Nitrous Oxide', 'PM10-PM2.5', 'PM2.5 Primary (Filt + Cond)', 'Phenanthrene', 'Phenol', 'Polycyclic aromatic compounds (includes 25 specific compounds)', 'Propylene', 'Pyrene', 'Selenium', 'Silver compounds', 'Sulfur Dioxide', 'Sulfuric acid (acid aerosols including mists, vapors, gas, fog, and other airborne forms of any particle size)', 'Tetrachloroethylene', 'Toluene', 'Volatile Organic Compounds', 'Xylenes (Mixed Isomers)', 'Zinc compounds']",False,SHELL MARTINEZ REFINERY,MARTINEZ,CA,38.016594,-122.115392,martinez
110000448659.0,GHGRP NEI TRI,"['1,2,4-Trimethylbenzene', '1,3-Butadiene', '2,2,4-Trimethylpentane', 'Acetaldehyde', 'Acrolein', 'Ammonia', 'Aniline', 'Anthracene', 'Antimony', 'Arsenic', 'Benzene', 'Benzo[g,h,i]perylene', 'Beryllium', 'Biphenyl', 'Cadmium', 'Carbon Dioxide', 'Carbon Disulfide', 'Carbon Monoxide', 'Carbonyl Sulfide', 'Chlorine', 'Chloroform', 'Chromium (VI)', 'Chromium III', 'Cobalt', 'Cobalt compounds', 'Cresol/Cresylic Acid (Mixed Isomers)', 'Cumene', 'Cyanide', 'Cyanide compounds', 'Cyclohexane', 'Diethanolamine', 'Dioxin and dioxin-like compounds', 'Ethyl Benzene', 'Ethylene', 'Formaldehyde', 'Hexane', 'Hydrochloric Acid', 'Hydrogen Cyanide', 'Hydrogen Sulfide', 'Lead', 'Lead compounds', 'Manganese', 'Mercury', 'Mercury compounds', 'Methane', 'Methanol', 'Naphthalene', 'Nickel', 'Nickel compounds', 'Nitrogen Oxides', 'Nitrous Oxide', 'PAH, total', 'PM10-PM2.5', 'PM2.5 Primary (Filt + Cond)', 'Phenanthrene', 'Phenol', 'Polycyclic aromatic compounds', 'Propylene', 'Selenium', 'Styrene', 'Sulfur Dioxide', 'Sulfuric acid (acid aerosols including mists, vapors, gas, fog, and other airborne forms of any particle size)', 'Tetrachloroethylene', 'Toluene', 'Vanadium compounds', 'Volatile Organic Compounds', 'Xylenes (Mixed Isomers)']",False,Valero Refining - New Orleans LLC - St Charles Refinery,Norco,LA,29.99514,-90.39997,norco
110013831201.0,GHGRP NEI TRI,"['1,2,4-Trimethylbenzene', '1,3-Butadiene', '2,2,4-Trimethylpentane', 'Acetonitrile', 'Ammonia', 'Antimony compounds', 'Arsenic', 'Benzene', 'Beryllium', 'Biphenyl', 'Cadmium', 'Carbon Dioxide', 'Carbon Monoxide', 'Chromium (VI)', 'Chromium III', 'Cobalt compounds', 'Copper compounds', 'Cresol/Cresylic Acid (Mixed Isomers)', 'Cumene', 'Cyclohexane', 'Diethanolamine', 'Dioxin and dioxin-like compounds', 'Ethyl Benzene', 'Ethylene', 'Ethylene Glycol Methyl Ether', 'Formaldehyde', 'Hexane', 'Hydrochloric Acid', 'Hydrogen Sulfide', 'Hydrogen cyanide', 'Isoprene', 'Lead', 'Lead compounds', 'Manganese', 'Mercury', 'Mercury compounds', 'Methane', 'Methanol', 'Methyl Tert-Butyl Ether', 'N,N-Dimethylformamide', 'Naphthalene', 'Nickel', 'Nitrogen Oxides', 'Nitrous Oxide', 'PAH, total', 'PM10-PM2.5', 'PM2.5 Primary (Filt + Cond)', 'Phenol', 'Polycyclic aromatic compounds', 'Propylene', 'Selenium', 'Styrene', 'Sulfur Dioxide', 'Sulfuric acid (acid aerosols including mists, vapors, gas, fog, and other airborne forms of any particle size)', 'Tetrachloroethylene', 'Toluene', 'Volatile Organic Compounds', 'Xylenes (Mixed Isomers)', 'Zinc compounds']",False,Shell Chemical LP - Norco Chemical Plant - East Site,Norco,LA,30.01594,-90.39639,norco
110071162431.0,GHGRP,"['Carbon Dioxide', 'Methane', 'Nitrous Oxide']",False,PETRO STAR INC NORTH POLE REFINERY,NORTH POLE,AK,64.749575,-147.377411,north pole
110071160396.0,GHGRP,"['Carbon Dioxide', 'Methane', 'Nitrous Oxide']",False,"FLINT HILLS RESOURCES ALASKA, LLC",NORTH POLE,AK,64.768873,-147.353439,north pole
110000468921.0,GHGRP NEI TRI,"['1,2,4-Trimethylbenzene', '2,2,4-Trimethylpentane', 'Ammonia', 'Benzene', 'Carbon Dioxide', 'Carbon Monoxide', 'Cyanide', 'Cyclohexane', 'Ethyl Benzene', 'Ethylene', 'Formaldehyde', 'Hexane', 'Hydrogen Fluoride', 'Hydrogen Sulfide', 'Hydrogen cyanide', 'Lead', 'Lead compounds', 'Mercury', 'Mercury compounds', 'Methane', 'Naphthalene', 'Nitrogen Oxides', 'Nitrous Oxide', 'PM10-PM2.5', 'PM2.5 Primary (Filt + Cond)', 'Propylene', 'Sulfur Dioxide', 'Tetrachloroethylene', 'Toluene', 'Volatile Organic Compounds', 'Xylenes (Mixed Isomers)']",False,"Big West Oil, LLC- Big West Oil Refinery",North Salt Lake,UT,40.836,-111.919,north salt lake
110000469485.0,GHGRP NEI TRI,"['1,1,2,2-Tetrachloroethane', '1,2,4-Trimethylbenzene', '1,3-Butadiene', '2,2,4-Trimethylpentane', 'Acetaldehyde', 'Acrolein', 'Ammonia', 'Arsenic', 'Benzene', 'Benzo[g,h,i]perylene', 'Beryllium', 'Biphenyl', 'Cadmium', 'Carbon Dioxide', 'Carbon Disulfide', 'Carbon Monoxide', 'Carbonyl Sulfide', 'Chromium (VI)', 'Cobalt', 'Cobalt compounds', 'Cumene', 'Cyclohexane', 'Dioxin and dioxin-like compounds', 'Ethyl Benzene', 'Ethyl Chloride', 'Ethylene', 'Formaldehyde', 'Hexane', 'Hydrochloric Acid', 'Hydrogen Cyanide', 'Hydrogen Sulfide', 'Hydrogen fluoride', 'Isoprene', 'Lead', 'Lead compounds', 'Mercury', 'Mercury compounds', 'Methane', 'Methanol', 'Methyl Tert-Butyl Ether', 'Methylene Chloride', 'Molybdenum trioxide', 'Naphthalene', 'Nickel', 'Nickel compounds', 'Nitrogen Oxides', 'Nitrous Oxide', 'PAH, total', 'PM10-PM2.5', 'PM2.5 Primary (Filt + Cond)', 'Phenol', 'Phosphorus', 'Polycyclic aromatic compounds', 'Propylene', 'Selenium', 'Styrene', 'Sulfur Dioxide', 'Tetrachloroethylene', 'Toluene', 'Vinyl Chloride', 'Volatile Organic Compounds', 'Xylenes (Mixed Isomers)', 'Zinc compounds']",False,Chevron Products Co - Salt Lake Refinery,North Salt Lake,UT,40.8249,-111.9238,north salt lake
110010534261.0,GHGRP NEI TRI,"['1,2,4-Trimethylbenzene', '1,3-Butadiene', '2,2,4-Trimethylpentane', '2-Methylnaphthalene', '3-Methylcholanthrene', '7,12-Dimethylbenz[a]Anthracene', 'Acenaphthene', 'Acenaphthylene', 'Acetaldehyde', 'Acrolein', 'Ammonia', 'Anthracene', 'Antimony', 'Arsenic', 'Benz[a]Anthracene', 'Benzene', 'Benzo[a]Pyrene', 'Benzo[b]Fluoranthene', 'Benzo[g,h,i,]Perylene', 'Benzo[k]Fluoranthene', 'Beryllium', 'Biogenic CO2', 'Cadmium', 'Carbon Dioxide', 'Carbon Monoxide', 'Chromium (VI)', 'Chromium III', 'Chrysene', 'Cobalt', 'Cresol/Cresylic Acid (Mixed Isomers)', 'Cumene', 'Cyclohexane', 'Dibenzo[a,h]Anthracene', 'Ethyl Benzene', 'Ethylene', 'Fluoranthene', 'Fluorene', 'Formaldehyde', 'Hexane', 'Hydrogen Sulfide', 'Indeno[1,2,3-c,d]Pyrene', 'Lead', 'Manganese', 'Mercury', 'Methane', 'Methanol', 'Naphthalene', 'Nickel', 'Nickel compounds', 'Nitrogen Oxides', 'Nitrous Oxide', 'PM10-PM2.5', 'PM2.5 Primary (Filt + Cond)', 'Phenanthrene', 'Phenol', 'Polycyclic aromatic compounds', 'Propylene', 'Pyrene', 'Selenium', 'Sulfur Dioxide', 'Sulfuric acid (acid aerosols including mists, vapors, gas, fog, and other airborne forms of any particle size)', 'Toluene', 'Volatile Organic Compounds', 'Xylenes (Mixed Isomers)']",False,"Toledo Refining Company, LLC. (0448010246)",Oregon,OH,41.6295,-83.4965,oregon
110000384361.0,GHGRP NEI TRI,"['1,2,4-Trimethylbenzene', '1,3-Butadiene', 'Acenaphthene', 'Acenaphthylene', 'Acetaldehyde', 'Acrolein', 'Ammonia', 'Anthracene', 'Arsenic', 'Benz[a]Anthracene', 'Benzene', 'Benzo[a]Pyrene', 'Benzo[b]Fluoranthene', 'Benzo[g,h,i,]Perylene', 'Benzo[k]Fluoranthene', 'Cadmium', 'Carbon Dioxide', 'Carbon Disulfide', 'Carbon Monoxide', 'Carbonyl Sulfide', 'Chlorobenzene', 'Chloroform', 'Chromium (VI)', 'Chromium III', 'Chrysene', 'Cresol/Cresylic Acid (Mixed Isomers)', 'Cumene', 'Cyclohexane', 'Dibenzo[a,h]Anthracene', 'Dioxin and dioxin-like compounds', 'Ethyl Benzene', 'Ethylene', 'Ethylene Dichloride', 'Fluoranthene', 'Fluorene', 'Formaldehyde', 'Hexane', 'Hydrogen Sulfide', 'Indeno[1,2,3-c,d]Pyrene', 'Isoprene', 'Lead', 'Lead compounds', 'Manganese', 'Mercury', 'Mercury compounds', 'Methane', 'Methanol', 'Methyl Chloroform', 'Naphthalene', 'Nickel', 'Nickel compounds', 'Nitrogen Oxides', 'Nitrous Oxide', 'PM10-PM2.5', 'PM2.5 Primary (Filt + Cond)', 'Phenanthrene', 'Phenol', 'Polycyclic aromatic compounds', 'Propylene', 'Pyrene', 'Styrene', 'Sulfur Dioxide', 'Tetrachloroethylene', 'Toluene', 'Trichloroethylene', 'Volatile Organic Compounds', 'Xylenes (Mixed Isomers)', 'Zinc compounds', 'o-Xylene']",False,BP-Husky Refining LLC (0448020007),Oregon,OH,41.68902,-83.44933,oregon
110022294569.0,GHGRP NEI TRI,"['1,2,4-Trimethylbenzene', '1,3-Butadiene', 'Acetaldehyde', 'Acrolein', 'Ammonia', 'Arsenic', 'Benzene', 'Benzo[g,h,i]perylene', 'Beryllium', 'Cadmium', 'Carbon Dioxide', 'Carbon Monoxide', 'Carbonyl Sulfide', 'Chromium (VI)', 'Chromium III', 'Cobalt', 'Cobalt compounds', 'Cumene', 'Cyclohexane', 'Ethyl Benzene', 'Ethylene', 'Formaldehyde', 'Hexane', 'Hydrochloric Acid', 'Hydrogen Cyanide', 'Hydrogen Fluoride', 'Hydrogen Sulfide', 'Lead compounds', 'Mercury', 'Mercury compounds', 'Methane', 'Methanol', 'Naphthalene', 'Nickel', 'Nickel compounds', 'Nitrogen Oxides', 'Nitrous Oxide', 'PAH, total', 'PM10-PM2.5', 'PM2.5 Primary (Filt + Cond)', 'Polycyclic aromatic compounds', 'Propylene', 'Sulfur Dioxide', 'Sulfuric acid (acid aerosols including mists, vapors, gas, fog, and other airborne forms of any particle size)', 'Tetrachloroethylene', 'Toluene', 'Vanadium compounds', 'Volatile Organic Compounds', 'Xylenes (Mixed Isomers)', 'Zinc compounds']",False,Paulsboro Refining Company LLC,PAULSBORO,NJ,39.8401,-75.2574,paulsboro
110000321189.0,GHGRP NEI TRI,"['1,2,4-Trimethylbenzene', 'Acetaldehyde', 'Ammonia', 'Arsenic', 'Benzene', 'Cadmium', 'Carbon Dioxide', 'Carbon Monoxide', 'Ethyl Benzene', 'Formaldehyde', 'Hexane', 'Hydrogen Sulfide', 'Lead', 'Methane', 'Naphthalene', 'Nitrogen Oxides', 'Nitrous Oxide', 'PAH, total', 'PM10-PM2.5', 'PM2.5 Primary (Filt + Cond)', 'Polycyclic aromatic compounds', 'Sulfur Dioxide', 'Toluene', 'Volatile Organic Compounds', 'Xylenes (Mixed Isomers)']",False,CPI Operations LLC,PAULSBORO,NJ,39.844213,-75.2243,paulsboro
110070834662.0,GHGRP,"['Carbon Dioxide', 'Methane', 'Nitrous Oxide']",False,"TotalEnergies Petrochemicals & Refining USA, Inc. - Port Arthur Refinery",PORT ARTHUR,TX,29.957935,-93.897484,port arthur
110000464006.0,GHGRP NEI TRI,"['1,2,4-Trimethylbenzene', '1,3-Butadiene', '2,2,4-Trimethylpentane', 'Acetaldehyde', 'Acrolein', 'Ammonia', 'Anthracene', 'Antimony', 'Arsenic', 'Benzene', 'Benzo[g,h,i]perylene', 'Beryllium', 'Biphenyl', 'Cadmium', 'Carbon Dioxide', 'Carbon Disulfide', 'Carbon Monoxide', 'Carbonyl Sulfide', 'Chlorine', 'Chloroform', 'Chromium (VI)', 'Chromium III', 'Cobalt', 'Cobalt compounds', 'Cresol/Cresylic Acid (Mixed Isomers)', 'Cumene', 'Cyanide', 'Cyanide compounds', 'Cyclohexane', 'Dioxin and dioxin-like compounds', 'Ethyl Benzene', 'Ethylene', 'Formaldehyde', 'Glycol Ethers', 'Hexane', 'Hydrochloric Acid', 'Hydrogen Cyanide', 'Hydrogen Fluoride', 'Hydrogen Sulfide', 'Lead', 'Lead compounds', 'Manganese', 'Mercury', 'Mercury compounds', 'Methane', 'Methanol', 'Methyl Bromide', 'Methyl Isobutyl Ketone', 'Naphthalene', 'Nickel', 'Nickel compounds', 'Nitrogen Oxides', 'Nitrous Oxide', 'PAH, total', 'PM10-PM2.5', 'PM2.5 Primary (Filt + Cond)', 'Phenanthrene', 'Phenol', 'Polycyclic aromatic compounds', 'Propylene', 'Quinoline', 'Selenium', 'Styrene', 'Sulfur Dioxide', 'Sulfuric acid (acid aerosols including mists, vapors, gas, fog, and other airborne forms of any particle size)', 'Tetrachloroethylene', 'Toluene', 'Vanadium compounds', 'Volatile Organic Compounds', 'Xylenes (Mixed Isomers)', 'Zinc compounds']",False,VALERO PORT ARTHUR REFINERY,PORT ARTHUR,TX,29.865108,-93.974381,port arthur
110000464024.0,GHGRP NEI TRI,"['1,1,2,2-Tetrachloroethane', '1,1,2-Trichloroethane', '1,2,4-Trimethylbenzene', '1,3-Butadiene', '1,3-Dichloropropene', '2,2,4-Trimethylpentane', 'Acetaldehyde', 'Acrolein', 'Ammonia', 'Antimony', 'Arsenic', 'Benzene', 'Benzo[g,h,i]perylene', 'Biphenyl', 'Cadmium', 'Carbon Dioxide', 'Carbon Monoxide', 'Chlorine', 'Chlorobenzene', 'Chloroform', 'Chromium (VI)', 'Chromium III', 'Cobalt', 'Copper compounds', 'Cresol/Cresylic Acid (Mixed Isomers)', 'Cumene', 'Dioxin and dioxin-like compounds', 'Ethyl Benzene', 'Ethylene', 'Ethylene Dichloride', 'Ethylidene Dichloride', 'Formaldehyde', 'Glycol Ethers', 'Hexane', 'Hydrochloric Acid', 'Hydrogen Cyanide', 'Hydrogen Sulfide', 'Manganese', 'Mercury', 'Mercury compounds', 'Methane', 'Methanol', 'Methyl Isobutyl Ketone', 'Methylene Chloride', 'Naphthalene', 'Nickel', 'Nickel compounds', 'Nitrogen Oxides', 'Nitrous Oxide', 'PAH, total', 'PM10-PM2.5', 'PM2.5 Primary (Filt + Cond)', 'Phenanthrene', 'Phenol', 'Polycyclic aromatic compounds', 'Propylene', 'Propylene Dichloride', 'Styrene', 'Sulfur Dioxide', 'Tetrachloroethylene', 'Toluene', 'Trichloroethylene', 'Vinyl Chloride', 'Volatile Organic Compounds', 'Xylenes (Mixed Isomers)']",False,PORT ARTHUR REFINERY,PORT ARTHUR,TX,29.883881,-93.973669,port arthur
110067216079.0,GHGRP NEI,"['Carbon Dioxide', 'Carbon Monoxide', 'Formaldehyde', 'Methane', 'Nitrogen Oxides', 'Nitrous Oxide', 'PM10-PM2.5', 'PM2.5 Primary (Filt + Cond)', 'Sulfur Dioxide', 'Volatile Organic Compounds']",False,"CRUDE OIL TOPPING UNIT, PRUDHOE BAY OPERATIONS CENTER, TARMAC CAMP",Prudhoe Bay,AK,70.254036,-148.346077,prudhoe bay
110063104670.0,GHGRP NEI,"['1,3-Butadiene', '2,2,4-Trimethylpentane', '2-Methylnaphthalene', 'Acenaphthene', 'Acenaphthylene', 'Acetaldehyde', 'Acrolein', 'Anthracene', 'Benz[a]Anthracene', 'Benzene', 'Benzo[a]Pyrene', 'Benzo[b]Fluoranthene', 'Benzo[g,h,i,]Perylene', 'Benzo[k]Fluoranthene', 'Biogenic CO2', 'Carbon Dioxide', 'Carbon Monoxide', 'Chrysene', 'Cumene', 'Ethyl Benzene', 'Fluoranthene', 'Fluorene', 'Formaldehyde', 'Hexane', 'Indeno[1,2,3-c,d]Pyrene', 'Lead', 'Mercury', 'Methane', 'Methanol', 'Naphthalene', 'Nitrogen Oxides', 'Nitrous Oxide', 'PM10-PM2.5', 'PM2.5 Primary (Filt + Cond)', 'Phenanthrene', 'Phenol', 'Propionaldehyde', 'Pyrene', 'Styrene', 'Sulfur Dioxide', 'Toluene', 'Volatile Organic Compounds', 'Xylenes (Mixed Isomers)', 'm-Xylene', 'o-Xylene']",False,"CPF 2, Kuparuk Central Production Facility #2",Prudhoe Bay,AK,70.2892,-149.8852,prudhoe bay
110000469243.0,GHGRP NEI TRI,"['1,1,2,2-Tetrachloroethane', '1,2,4-Trimethylbenzene', '1,3-Butadiene', '2,2,4-Trimethylpentane', 'Acetaldehyde', 'Acrolein', 'Ammonia', 'Anthracene', 'Arsenic', 'Benzene', 'Benzo[g,h,i]perylene', 'Beryllium', 'Biphenyl', 'Cadmium', 'Carbon Dioxide', 'Carbon Disulfide', 'Carbon Monoxide', 'Carbonyl Sulfide', 'Chromium (VI)', 'Chromium III', 'Cobalt', 'Cumene', 'Cyclohexane', 'Dioxin and dioxin-like compounds', 'Ethyl Benzene', 'Ethylene', 'Ethylene Glycol', 'Formaldehyde', 'Hexane', 'Hydrochloric Acid', 'Hydrogen Cyanide', 'Hydrogen Sulfide', 'Lead', 'Lead compounds', 'Manganese', 'Mercury', 'Mercury compounds', 'Methane', 'Methanol', 'Methylene Chloride', 'Naphthalene', 'Nickel', 'Nitrogen Oxides', 'Nitrous Oxide', 'PAH, total', 'PM10-PM2.5', 'PM2.5 Primary (Filt + Cond)', 'Phenanthrene', 'Polychlorinated Biphenyls', 'Polycyclic aromatic compounds', 'Propylene', 'Selenium', 'Sulfur Dioxide', 'Sulfuric acid (acid aerosols including mists, vapors, gas, fog, and other airborne forms of any particle size)', 'Toluene', 'Volatile Organic Compounds', 'Xylenes (Mixed Isomers)']",False,Tesoro Refining & Marketing Company LLC - Salt Lake City Refinery,Salt Lake City,UT,40.791,-111.908,salt lake city
110000469485.0,GHGRP NEI TRI,"['1,1,2,2-Tetrachloroethane', '1,2,4-Trimethylbenzene', '1,3-Butadiene', '2,2,4-Trimethylpentane', 'Acetaldehyde', 'Acrolein', 'Ammonia', 'Arsenic', 'Benzene', 'Benzo[g,h,i]perylene', 'Beryllium', 'Biphenyl', 'Cadmium', 'Carbon Dioxide', 'Carbon Disulfide', 'Carbon Monoxide', 'Carbonyl Sulfide', 'Chromium (VI)', 'Cobalt', 'Cobalt compounds', 'Cumene', 'Cyclohexane', 'Dioxin and dioxin-like compounds', 'Ethyl Benzene', 'Ethyl Chloride', 'Ethylene', 'Formaldehyde', 'Hexane', 'Hydrochloric Acid', 'Hydrogen Cyanide', 'Hydrogen Sulfide', 'Hydrogen fluoride', 'Isoprene', 'Lead', 'Lead compounds', 'Mercury', 'Mercury compounds', 'Methane', 'Methanol', 'Methyl Tert-Butyl Ether', 'Methylene Chloride', 'Molybdenum trioxide', 'Naphthalene', 'Nickel', 'Nickel compounds', 'Nitrogen Oxides', 'Nitrous Oxide', 'PAH, total', 'PM10-PM2.5', 'PM2.5 Primary (Filt + Cond)', 'Phenol', 'Phosphorus', 'Polycyclic aromatic compounds', 'Propylene', 'Selenium', 'Styrene', 'Sulfur Dioxide', 'Tetrachloroethylene', 'Toluene', 'Vinyl Chloride', 'Volatile Organic Compounds', 'Xylenes (Mixed Isomers)', 'Zinc compounds']",False,CHEVRON PRODUCTS CO - SALT LAKE REFINERY,SALT LAKE CITY,UT,40.8249,-111.9238,salt lake city
110041225288.0,GHGRP NEI,"['1,3-Butadiene', '2,2,4-Trimethylpentane', '2-Methylnaphthalene', 'Acetaldehyde', 'Ammonia', 'Anthracene', 'Arsenic', 'Benzene', 'Cadmium', 'Carbon Dioxide', 'Carbon Disulfide', 'Carbon Monoxide', 'Chloroform', 'Chromium (VI)', 'Chromium III', 'Cresol/Cresylic Acid (Mixed Isomers)', 'Cumene', 'Dibenzofuran', 'Ethyl Benzene', 'Fluorene', 'Formaldehyde', 'Hexane', 'Hydrochloric Acid', 'Hydrogen Cyanide', 'Hydrogen Fluoride', 'Hydrogen Sulfide', 'Lead', 'Manganese', 'Mercury', 'Methane', 'Methanol', 'Naphthalene', 'Nickel', 'Nitrogen Oxides', 'Nitrous Oxide', 'PM10-PM2.5', 'PM2.5 Primary (Filt + Cond)', 'Phenanthrene', 'Phenol', 'Polycyclic aromatic compounds (includes 25 specific compounds)', 'Pyrene', 'Styrene', 'Sulfur Dioxide', 'Tetrachloroethylene', 'Toluene', 'Trichloroethylene', 'Volatile Organic Compounds', 'Xylenes (Mixed Isomers)']",False,TEXAS CITY REFINERY,TEXAS CITY,TX,29.375544,-94.906242,texas city
110032911669.0,GHGRP NEI TRI,"['1,2,4-Trimethylbenzene', '1,3-Butadiene', '2,2,4-Trimethylpentane', '2-Methylnaphthalene', 'Acetaldehyde', 'Acrolein', 'Ammonia', 'Anthracene', 'Antimony', 'Arsenic', 'Benzene', 'Benzo[g,h,i,]Perylene', 'Beryllium', 'Biphenyl', 'Cadmium', 'Carbon Dioxide', 'Carbon Disulfide', 'Carbon Monoxide', 'Carbonyl Sulfide', 'Chlorine', 'Chromium (VI)', 'Chromium III', 'Cobalt', 'Cresol/Cresylic Acid (Mixed Isomers)', 'Cumene', 'Cyanide', 'Cyanide compounds', 'Cyclohexane', 'Dioxin and dioxin-like compounds', 'Ethyl Benzene', 'Ethylene', 'Fluorene', 'Formaldehyde', 'Glycol Ethers', 'Hexane', 'Hydrochloric Acid', 'Hydrogen Cyanide', 'Hydrogen Fluoride', 'Hydrogen Sulfide', 'Lead', 'Lead compounds', 'Manganese', 'Mercury', 'Mercury compounds', 'Methane', 'Methanol', 'Methyl Bromide', 'Methyl Isobutyl Ketone', 'Naphthalene', 'Nickel', 'Nickel compounds', 'Nitrogen Oxides', 'Nitrous Oxide', 'Ozone', 'PM10-PM2.5', 'PM2.5 Primary (Filt + Cond)', 'Phenanthrene', 'Phenol', 'Polycyclic aromatic compounds (includes 25 specific compounds)', 'Propionaldehyde', 'Propylene', 'Pyrene', 'Selenium', 'Styrene', 'Sulfur Dioxide', 'Sulfuric acid (acid aerosols including mists, vapors, gas, fog, and other airborne forms of any particle size)', 'Tetrachloroethylene', 'Toluene', 'Vanadium compounds', 'Volatile Organic Compounds', 'Xylenes (Mixed Isomers)', 'Zinc compounds', 'n-Butyl alcohol']",False,TEXAS CITY REFINERY,TEXAS CITY,TX,29.366606,-94.913181,texas city
110059763536.0,GHGRP NEI TRI,"['1,2,4-Trimethylbenzene', '1,3-Butadiene', '1,4-Dichlorobenzene', '2,2,4-Trimethylpentane', '2,4-Dinitrophenol', 'Acetaldehyde', 'Acrolein', 'Ammonia', 'Aniline', 'Anthracene', 'Antimony', 'Arsenic', 'Benzene', 'Benzo[g,h,i]perylene', 'Beryllium', 'Cadmium', 'Carbon Dioxide', 'Carbon Disulfide', 'Carbon Monoxide', 'Carbonyl Sulfide', 'Chloroform', 'Chromium (VI)', 'Chromium III', 'Chromium compounds (except for chromite ore mined in the Transvaal Region)', 'Cobalt', 'Cobalt compounds', 'Copper compounds', 'Cresol/Cresylic Acid (Mixed Isomers)', 'Cumene', 'Cyclohexane', 'Dioxin and dioxin-like compounds', 'Ethyl Benzene', 'Ethylene', 'Formaldehyde', 'Hexane', 'Hydrochloric Acid', 'Hydrogen Cyanide', 'Hydrogen Fluoride', 'Hydrogen Sulfide', 'Lead', 'Lead compounds', 'Manganese', 'Manganese compounds', 'Mercury', 'Mercury compounds', 'Methane', 'Methanol', 'Methyl Isobutyl Ketone', 'Methyl Tert-Butyl Ether', 'Methylene Chloride', 'Naphthalene', 'Nickel', 'Nickel compounds', 'Nitrogen Oxides', 'Nitrous Oxide', 'PAH, total', 'PM10-PM2.5', 'PM2.5 Primary (Filt + Cond)', 'Pentachlorophenol', 'Phenanthrene', 'Phenol', 'Polycyclic aromatic compounds', 'Propylene', 'Selenium', 'Styrene', 'Sulfur Dioxide', 'Sulfuric acid (acid aerosols including mists, vapors, gas, fog, and other airborne forms of any particle size)', 'Tetrachloroethylene', 'Toluene', 'Vanadium compounds', 'Volatile Organic Compounds', 'Xylenes (Mixed Isomers)', 'Zinc compounds']",False,GALVESTON BAY REFINERY,TEXAS CITY,TX,29.374119,-94.9213,texas city
110070834778.0,GHGRP,"['Carbon Dioxide', 'Methane', 'Nitrous Oxide']",False,HOLLYFRONTIER TULSA REFINING LLC - WEST,TULSA,OK,36.371881,-95.845803,tulsa
110000494983.0,GHGRP NEI TRI,"['1,1,2,2-Tetrachloroethane', '1,2,4-Trimethylbenzene', '1,3-Butadiene', 'Acetaldehyde', 'Acrolein', 'Ammonia', 'Anthracene', 'Benzene', 'Benzo[g,h,i,]Perylene', 'Biphenyl', 'Carbon Dioxide', 'Carbon Disulfide', 'Carbon Monoxide', 'Carbonyl Sulfide', 'Chromium (VI)', 'Chromium III', 'Cumene', 'Cyanide', 'Dioxin and dioxin-like compounds', 'Ethyl Benzene', 'Ethylene', 'Formaldehyde', 'Hexane', 'Hydrochloric Acid', 'Hydrogen Sulfide', 'Lead', 'Lead compounds', 'Manganese', 'Mercury', 'Mercury compounds', 'Methane', 'Methanol', 'Methylene Chloride', 'Naphthalene', 'Nickel', 'Nitrogen Oxides', 'Nitrous Oxide', 'PM10-PM2.5', 'PM2.5 Primary (Filt + Cond)', 'Phenanthrene', 'Phenol', 'Polycyclic aromatic compounds (includes 25 specific compounds)', 'Propylene', 'Selenium', 'Styrene', 'Sulfur Dioxide', 'Sulfuric acid (acid aerosols including mists, vapors, gas, fog, and other airborne forms of any particle size)', 'Tetrachloroethylene', 'Toluene', 'Volatile Organic Compounds', 'Xylenes (Mixed Isomers)']",False,TULSA REFINERY EAST,TULSA,OK,36.12599,-96.00157,tulsa
110070244347.0,GHGRP,"['Carbon Dioxide', 'Methane', 'Nitrous Oxide']",False,CITGO PETROLEUM CORP - LAKE CHARLES MANUFACTURING COMPLEX,Westlake,LA,30.18887,-93.32524,westlake
110000539757.0,GHGRP NEI TRI,"['1,2,4-Trimethylbenzene', '1,3-Butadiene', '2,2,4-Trimethylpentane', 'Acetaldehyde', 'Acetonitrile', 'Ammonia', 'Aniline', 'Anthracene', 'Arsenic', 'Benzene', 'Benzo[g,h,i]perylene', 'Biphenyl', 'Carbon Dioxide', 'Carbon Disulfide', 'Carbon Monoxide', 'Carbonyl Sulfide', 'Chlorine', 'Chromium (VI)', 'Chromium III', 'Cobalt', 'Cobalt compounds', 'Cresol/Cresylic Acid (Mixed Isomers)', 'Cumene', 'Cyanide', 'Cyclohexane', 'Diethanolamine', 'Dioxin and dioxin-like compounds', 'Ethyl Benzene', 'Ethylene', 'Ethylene Dichloride', 'Ethylene Glycol', 'Formaldehyde', 'Hexane', 'Hydrochloric Acid', 'Hydrogen Sulfide', 'Hydrogen cyanide', 'Lead', 'Lead compounds', 'Mercury', 'Mercury compounds', 'Methane', 'Methanol', 'Methyl Chloroform', 'Methyl Tert-Butyl Ether', 'Naphthalene', 'Nickel', 'Nickel compounds', 'Nitrogen Oxides', 'Nitrous Oxide', 'PAH, total', 'PM10-PM2.5', 'PM2.5 Primary (Filt + Cond)', 'Phenanthrene', 'Phenol', 'Polycyclic aromatic compounds', 'Propylene', 'Quinoline', 'Selenium', 'Styrene', 'Sulfur Dioxide', 'Sulfuric acid (acid aerosols including mists, vapors, gas, fog, and other airborne forms of any particle size)', 'Tetrachloroethylene', 'Toluene', 'Vanadium compounds', 'Vinyl Acetate', 'Volatile Organic Compounds', 'Xylenes (Mixed Isomers)', 'Zinc compounds', 'p-Phenylenediamine']",False,Phillips 66 Co - Lake Charles Refinery,Westlake,LA,30.23898,-93.26391,westlake
110000476048.0,GHGRP NEI TRI,"['1,3-Butadiene', '2-Methylnaphthalene', 'Acenaphthene', 'Acenaphthylene', 'Acetaldehyde', 'Ammonia', 'Anthracene', 'Arsenic', 'Benz[a]Anthracene', 'Benzene', 'Benzo[a]Pyrene', 'Benzo[b]Fluoranthene', 'Benzo[e]Pyrene', 'Benzo[g,h,i,]Perylene', 'Benzo[k]Fluoranthene', 'Beryllium', 'Cadmium', 'Carbon Dioxide', 'Carbon Monoxide', 'Carbon Tetrachloride', 'Chromium (VI)', 'Chromium III', 'Chrysene', 'Cobalt', 'Cyclohexane', 'Ethyl Benzene', 'Ethylene Dibromide', 'Ethylene Dichloride', 'Fluoranthene', 'Fluorene', 'Formaldehyde', 'Hexane', 'Indeno[1,2,3-c,d]Pyrene', 'Lead', 'Manganese', 'Mercury', 'Methane', 'Methylene Chloride', 'Naphthalene', 'Nickel', 'Nitrogen Oxides', 'Nitrous Oxide', 'PAH/POM - Unspecified', 'PM10-PM2.5', 'PM2.5 Primary (Filt + Cond)', 'Perylene', 'Phenanthrene', 'Polycyclic aromatic compounds', 'Pyrene', 'Sulfur Dioxide', 'Toluene', 'Vinyl Chloride', 'Volatile Organic Compounds', 'Xylenes (Mixed Isomers)']",False,VALERO WILMINGTON ASPHALT PLANT,WILMINGTON,CA,33.79699,-118.23971,wilmington
110000476235.0,GHGRP NEI TRI,"['1,2,4-Trimethylbenzene', '1,3-Butadiene', 'Acetaldehyde', 'Acrolein', 'Ammonia', 'Arsenic', 'Asbestos', 'Benzene', 'Benzo[g,h,i]perylene', 'Beryllium', 'Cadmium', 'Carbon Dioxide', 'Carbon Disulfide', 'Carbon Monoxide', 'Carbon Tetrachloride', 'Carbonyl Sulfide', 'Chromium (VI)', 'Cumene', 'Cyanide', 'Cyclohexane', 'Ethyl Benzene', 'Ethylene', 'Ethylene Dibromide', 'Formaldehyde', 'Hexane', 'Hydrochloric Acid', 'Hydrogen Sulfide', 'Hydrogen cyanide', 'Lead', 'Lead compounds', 'Mercury', 'Mercury compounds', 'Methane', 'Methanol', 'Methyl Chloroform', 'Methylene Chloride', 'Naphthalene', 'Nickel', 'Nitrogen Oxides', 'Nitrous Oxide', 'PAH/POM - Unspecified', 'PM10-PM2.5', 'PM2.5 Primary (Filt + Cond)', 'Phenanthrene', 'Phenol', 'Polycyclic aromatic compounds', 'Propylene', 'Styrene', 'Sulfur Dioxide', 'Tetrachloroethylene', 'Toluene', 'Vanadium compounds', 'Volatile Organic Compounds', 'Xylenes (Mixed Isomers)', 'Zinc compounds']",False,PHILLIPS 66 CO/LA REFINERY WILMINGTON PL,WILMINGTON,CA,33.776935,-118.288725,wilmington
110000746658.0,GHGRP NEI TRI,"['1,2,4-Trimethylbenzene', '1,3-Butadiene', '2-Methylnaphthalene', 'Acetaldehyde', 'Acrolein', 'Ammonia', 'Anthracene', 'Arsenic', 'Benzene', 'Benzo[g,h,i,]Perylene', 'Beryllium', 'Cadmium', 'Carbon Dioxide', 'Carbon Disulfide', 'Carbon Monoxide', 'Carbonyl Sulfide', 'Chromium (VI)', 'Chromium III', 'Cobalt', 'Cobalt compounds', 'Cresol/Cresylic Acid (Mixed Isomers)', 'Cumene', 'Cyanide', 'Cyanide compounds', 'Cyclohexane', 'Dioxin and dioxin-like compounds', 'Ethyl Benzene', 'Ethylene', 'Formaldehyde', 'Hexane', 'Hydrochloric Acid', 'Hydrogen Fluoride', 'Hydrogen Sulfide', 'Hydrogen cyanide', 'Lead', 'Lead compounds', 'Manganese', 'Mercury', 'Mercury compounds', 'Methane', 'Naphthalene', 'Nickel', 'Nickel compounds', 'Nitrogen Oxides', 'Nitrous Oxide', 'PAH/POM - Unspecified', 'PM10-PM2.5', 'PM2.5 Primary (Filt + Cond)', 'Phenanthrene', 'Phenol', 'Polycyclic aromatic compounds', 'Propylene', 'Styrene', 'Sulfur Dioxide', 'Tetrachloroethylene', 'Toluene', 'Vanadium compounds', 'Volatile Organic Compounds', 'Xylenes (Mixed Isomers)']",False,ULTRAMAR INC,WILMINGTON,CA,33.7783,-118.2351,wilmington
