Facility Id,FRS Id,Facility Name,City_x,State_x,Zip Code,Address_x,County_x,Latitude_x,Longitude_x,Primary NAICS Code,FRS_ID,FacilityName,Address_y,City_y,State_y,Zip,Latitude_y,Longitude_y,County_y,NAICS,SIC,FacilityID,Source
1012089,nan,"Aemetis Advanced Fuels Keyes, Inc.",Ceres,CA,95307,4209 Jessup Road,nan,37.55,-120.92,325193,issues,issues,issues,issues,issues,issues,issues,issues,issues,issues,issues,issues,issues
1010658,110000448329.0,Aurora Ethanol Complex,Aurora,NE,68818,1205 South O Road,HAMILTON COUNTY,40.87,-98.04,325193,issues,issues,issues,issues,issues,issues,issues,issues,issues,issues,issues,issues,issues
1011065,110071160116.0,"Cargill, Incorporated",Fort Dodge,IA,50501,1950 Harvest Avenue,WEBSTER COUNTY,42.51,-94.31,325193,issues,issues,issues,issues,issues,issues,issues,issues,issues,issues,issues,issues,issues
1007523,110069243278.0,"Chief Ethanol Fuels, Inc.",Lexington,NE,68850,1111 East Industry Drive,DAWSON COUNTY,40.75,-99.77,325193,issues,issues,issues,issues,issues,issues,issues,issues,issues,issues,issues,issues,issues
1013624,110070567657.0,"ELEMENT, LLC",COLWICH,KS,67030,1 Element Drive,SEDGWICK COUNTY,37.78,-97.53,325193,issues,issues,issues,issues,issues,issues,issues,issues,issues,issues,issues,issues,issues
1013287,110063892499.0,Elite Octane,Atlantic,IA,50022,60502 Glacier Road,CASS COUNTY,41.42,-95.03,325193,issues,issues,issues,issues,issues,issues,issues,issues,issues,issues,issues,issues,issues
1006912,110056959929.0,POET BIOREFINING,FOSTORIA,OH,44830,2111 SANDUSKY STREET,SENECA COUNTY,41.18,-83.38,325193,issues,issues,issues,issues,issues,issues,issues,issues,issues,issues,issues,issues,issues
1013984,110070226399.0,POET Biorefining - Shelbyville,Shelbyville,IN,46176,2373 W 300 N,SHELBY COUNTY,39.57,-85.82,325193,issues,issues,issues,issues,issues,issues,issues,issues,issues,issues,issues,issues,issues
1011694,110059809881.0,POET DSM Project Liberty LLC,Emmetsburg,IA,50536,3848 470th Ave,PALO ALTO COUNTY,43.09,-94.65,325193,issues,issues,issues,issues,issues,issues,issues,issues,issues,issues,issues,issues,issues
1003637,110064081112.0,"Pennsylvania Grain Processing, LLC",Clearfield,PA,16830,250 Technology Drive,CLEARFIELD COUNTY,41.03,-78.43,325193,issues,issues,issues,issues,issues,issues,issues,issues,issues,issues,issues,issues,issues
1011656,110070243042.0,Pratt Energy LLC,Pratt,KS,67124,10333 NE 30th Street,PRATT COUNTY,37.69,-98.71,325193,issues,issues,issues,issues,issues,issues,issues,issues,issues,issues,issues,issues,issues
1013622,110070543313.0,Ringneck Energy,Onida,SD,57564,901 Redwood Ave,SULLY COUNTY,44.69,-100.06,325193,issues,issues,issues,issues,issues,issues,issues,issues,issues,issues,issues,issues,issues
1011577,110027254986.0,"Seaboard Energy California, LLC",Madera,CA,93638,31470 Avenue 12,MADERA COUNTY,36.92,-119.98,325193,issues,issues,issues,issues,issues,issues,issues,issues,issues,issues,issues,issues,issues
1011627,110056339902.0,Three Rivers Energy LLC,Coshocton,OH,43812,18137 County Road 271,COSHOCTON COUNTY,40.22,-81.86,325193,issues,issues,issues,issues,issues,issues,issues,issues,issues,issues,issues,issues,issues
issues,issues,issues,issues,issues,issues,issues,issues,issues,issues,issues,110000376502.0,"Ergon Biofuels, LLC",1833 Haining Road,Vicksburg,MS,39183,32.388258,-90.888467,WARREN,325193,nan,1000634,GHGRP
issues,issues,issues,issues,issues,issues,issues,issues,issues,issues,issues,110000595035.0,ADM CORN PROCESSING,12868 COUNTY ROAD 9,WALHALLA,ND,58282,48.910797,-97.888743,PEMBINA COUNTY,325193,nan,1001867,GHGRP
issues,issues,issues,issues,issues,issues,issues,issues,issues,issues,issues,110071099184.0,CORN PLUS,711 6TH AVE. S.E.,WINNEBAGO,MN,56098,43.763198,-94.151226,FARIBAULT,325193,nan,1002950,GHGRP
issues,issues,issues,issues,issues,issues,issues,issues,issues,issues,issues,110000448329.0,"Pacific Ethanol Aurora East, LLC",1205 S. RD. O,AURORA,NE,68818,40.867306,-98.038722,HAMILTON COUNTY,325193,nan,1003282,GHGRP
issues,issues,issues,issues,issues,issues,issues,issues,issues,issues,issues,110071162498.0,Central MN Renewables,17936 HERON ROAD,LITTLE FALLS,MN,56345,46.022222,-94.338333,MORRISON COUNTY,325193,nan,1003924,GHGRP
issues,issues,issues,issues,issues,issues,issues,issues,issues,issues,issues,110031108584.0,Green Plains Holdings II LLC,11440 CEMETERY RD,RIGA,MI,49276,41.814436,-83.836092,LENAWEE COUNTY,325193,nan,1004228,GHGRP
issues,issues,issues,issues,issues,issues,issues,issues,issues,issues,issues,110033218159.0,ABENGOA BIOENERGY CORPORATION COLWICH ETHANOL PLANT,523 E UNION AVE,COLWICH,KS,67030,37.78682,-97.53099,SEDGWICK COUNTY,325193,nan,1005278,GHGRP
issues,issues,issues,issues,issues,issues,issues,issues,issues,issues,issues,110070241205.0,"POET Biorefining-Cloverdale, LLC",2265 East County Road 800 South,Cloverdale,IN,46120,39.546725,-86.814389,PUTNAM COUNTY,325193,nan,1005382,GHGRP
issues,issues,issues,issues,issues,issues,issues,issues,issues,issues,issues,110058145172.0,Equistar Tuscola Plant,625 EAST US HIGHWAY 36,TUSCOLA,IL,61953,39.7983,-88.3501,Douglas,325193,nan,1007110,GHGRP
issues,issues,issues,issues,issues,issues,issues,issues,issues,issues,issues,110033218426.0,CENTER ETHANOL CO LLC,231 MONSANTO AVE.,SAUGET,IL,62201,38.596226,-90.17614,SAINT CLAIR,325193,nan,1007764,GHGRP
issues,issues,issues,issues,issues,issues,issues,issues,issues,issues,issues,110017436130.0,CARGILL INC - EDDYVILLE,1 CARGILL DR.,EDDYVILLE,IA,52553,41.16226,-92.6361,MAHASKA COUNTY,311221,nan,1007881,GHGRP
issues,issues,issues,issues,issues,issues,issues,issues,issues,issues,issues,nan,"EPL Oil & Gas, Inc. - SP 77 A",None,Offshore,LA,0,28.8308,-89.4061,ORLEANS PARISH,211111,nan,1010333,GHGRP
